HIERARCHY
ROOT Hips
{
	OFFSET 0.0000 0.0000 0.0000
	CHANNELS 6 Xposition Yposition Zposition Zrotation Xrotation Yrotation
	JOINT Spine1
	{
		OFFSET -0.0137 5.0038 -0.0537
		CHANNELS 3 Zrotation Xrotation Yrotation
		JOINT Spine2
		{
			OFFSET -0.0000 7.1253 -0.0298
			CHANNELS 3 Zrotation Xrotation Yrotation
			JOINT Chest
			{
				OFFSET -0.0000 7.5501 -0.8160
				CHANNELS 3 Zrotation Xrotation Yrotation
				JOINT Neck1
				{
					OFFSET -0.1817 26.3113 -0.5533
					CHANNELS 3 Zrotation Xrotation Yrotation
					JOINT Neck2
					{
						OFFSET -0.0000 7.7094 2.3026
						CHANNELS 3 Zrotation Xrotation Yrotation
						JOINT Head
						{
							OFFSET -0.0000 6.1289 1.9537
							CHANNELS 3 Zrotation Xrotation Yrotation
							JOINT Jaw
							{
								OFFSET 0.0026 0.4756 3.0949
								CHANNELS 3 Zrotation Xrotation Yrotation
								End Site
								{
									OFFSET 0.0 1.0 0.0
								}
							}
							JOINT LeftEye
							{
								OFFSET 3.2064 5.3802 7.5869
								CHANNELS 3 Zrotation Xrotation Yrotation
								End Site
								{
									OFFSET 0.0 1.0 0.0
								}
							}
							JOINT RightEye
							{
								OFFSET -3.2224 5.3619 7.5582
								CHANNELS 3 Zrotation Xrotation Yrotation
								End Site
								{
									OFFSET 0.0 1.0 0.0
								}
							}
						}
					}
				}
				JOINT LeftShoulder
				{
					OFFSET 1.6217 23.2372 5.1134
					CHANNELS 3 Zrotation Xrotation Yrotation
					JOINT LeftArm
					{
						OFFSET 14.9198 0.0000 -5.5023
						CHANNELS 3 Zrotation Xrotation Yrotation
						JOINT LeftForeArm
						{
							OFFSET 28.7393 0.0000 -0.0026
							CHANNELS 3 Zrotation Xrotation Yrotation
							JOINT LeftHand
							{
								OFFSET 27.0940 -0.0000 0.0026
								CHANNELS 3 Zrotation Xrotation Yrotation
								JOINT LeftHandThumbEnd
								{
									OFFSET 12.2686 -3.2202 4.8331
									CHANNELS 3 Zrotation Xrotation Yrotation
									End Site
									{
										OFFSET 0.0 1.0 0.0
									}
								}
								JOINT LeftHandMiddleEnd
								{
									OFFSET 19.0120 -0.3129 -0.0340
									CHANNELS 3 Zrotation Xrotation Yrotation
									End Site
									{
										OFFSET 0.0 1.0 0.0
									}
								}
							}
						}
					}
				}
				JOINT RightShoulder
				{
					OFFSET -1.3801 23.1803 5.2142
					CHANNELS 3 Zrotation Xrotation Yrotation
					JOINT RightArm
					{
						OFFSET -15.0372 0.0000 -5.5456
						CHANNELS 3 Zrotation Xrotation Yrotation
						JOINT RightForeArm
						{
							OFFSET -28.7366 0.0000 -0.0026
							CHANNELS 3 Zrotation Xrotation Yrotation
							JOINT RightHand
							{
								OFFSET -27.1336 -0.0000 0.0026
								CHANNELS 3 Zrotation Xrotation Yrotation
								JOINT RightHandThumbEnd
								{
									OFFSET -12.2642 -3.2115 4.8040
									CHANNELS 3 Zrotation Xrotation Yrotation
									End Site
									{
										OFFSET 0.0 1.0 0.0
									}
								}
								JOINT RightHandMiddleEnd
								{
									OFFSET -19.0006 -0.3066 -0.0316
									CHANNELS 3 Zrotation Xrotation Yrotation
									End Site
									{
										OFFSET 0.0 1.0 0.0
									}
								}
							}
						}
					}
				}
			}
		}
	}
	JOINT LeftLeg
	{
		OFFSET 10.0432 -8.4345 2.5957
		CHANNELS 3 Zrotation Xrotation Yrotation
		JOINT LeftShin
		{
			OFFSET -0.0000 -43.2218 -0.8029
			CHANNELS 3 Zrotation Xrotation Yrotation
			JOINT LeftFoot
			{
				OFFSET 0.0000 -42.1551 -3.4815
				CHANNELS 3 Zrotation Xrotation Yrotation
				JOINT LeftToeBase
				{
					OFFSET 0.0000 -5.0595 13.2315
					CHANNELS 3 Zrotation Xrotation Yrotation
					End Site
					{
						OFFSET 0.0 1.0 0.0
					}
				}
			}
		}
	}
	JOINT RightLeg
	{
		OFFSET -10.0473 -8.2953 2.6203
		CHANNELS 3 Zrotation Xrotation Yrotation
		JOINT RightShin
		{
			OFFSET 0.0000 -43.3622 -0.8056
			CHANNELS 3 Zrotation Xrotation Yrotation
			JOINT RightFoot
			{
				OFFSET 0.0000 -42.1174 -3.4784
				CHANNELS 3 Zrotation Xrotation Yrotation
				JOINT RightToeBase
				{
					OFFSET -0.0000 -5.0796 13.2842
					CHANNELS 3 Zrotation Xrotation Yrotation
					End Site
					{
						OFFSET 0.0 1.0 0.0
					}
				}
			}
		}
	}
}
MOTION
Frames: 120
Frame Time: 0.033333
-0.8959 86.2197 5.1210 0.4516 -10.9204 -0.2465 0.1396 11.2301 -0.3058 -0.0834 -0.1984 -1.5665 2.1304 24.3202 -2.6181 14.5978 4.7795 -1.6512 -4.9247 -4.0939 -13.3452 2.9359 -18.1576 -18.0770 0.0111 0.0275 0.0737 0.6833 -10.6071 -3.7702 -0.6493 -10.6203 3.8822 3.7561 15.0793 -18.1801 -56.7973 -15.9858 -28.2304 0.4667 1.0835 -93.5717 9.9379 11.2375 -9.0203 -15.3472 10.3879 16.1488 -60.1381 1.9391 2.6621 8.5917 11.7110 19.1229 57.6302 -46.6258 -27.2146 -0.8843 0.5234 50.5851 -50.6241 -4.9438 7.4225 13.9984 7.3766 -15.6630 49.5628 -3.7300 -5.2561 22.0658 1.6637 -3.4440 0.3076 40.8771 -0.5744 -24.2262 -29.4869 -0.9988 1.6161 -2.9346 -1.8059 -30.7353 -23.4437 -5.6294 0.7515 33.5107 1.5437 25.5962 4.0927 -1.7776 -1.3870 -1.2630 1.1183
-1.1067 86.2729 5.2444 0.2761 -10.8015 -0.1439 0.1058 11.3089 -0.3712 -0.0353 -0.1738 -1.5738 2.0724 24.2071 -2.7433 14.8643 4.5774 -1.7443 -5.0060 -4.1015 -13.2088 2.9376 -17.7356 -18.0417 0.0039 -0.0009 0.0826 0.6818 -10.6383 -3.7697 -0.6611 -10.6551 3.8991 3.6794 15.2070 -18.2801 -56.3288 -16.2944 -28.3205 0.6678 0.9627 -93.6091 9.8766 10.9458 -9.0757 -15.2570 10.3088 16.0670 -59.9997 1.8505 2.6793 8.4596 11.6704 19.0531 57.7271 -46.5673 -27.4227 -0.8529 0.4644 51.2743 -51.0267 -4.1515 6.5265 13.9918 7.3427 -15.6388 49.5262 -3.7169 -5.1355 22.1882 1.6854 -3.7194 0.2812 40.8618 -0.6741 -24.2002 -29.6356 -0.5124 1.6221 -3.0598 -1.8151 -30.5052 -23.4358 -5.6206 0.7438 33.7826 1.5641 25.4843 3.8630 -1.8896 -1.4031 -1.2819 1.0989
-1.2901 86.2387 5.3900 0.1429 -10.6303 -0.0492 0.0439 11.3613 -0.3948 -0.0408 -0.1813 -1.6363 1.9597 24.1053 -2.8746 15.1471 4.3730 -1.8204 -5.0174 -4.0982 -13.1319 2.9841 -17.4364 -17.9439 0.0027 -0.0034 0.0789 0.6785 -10.6606 -3.7778 -0.6596 -10.6723 3.8994 3.5979 15.3007 -18.4954 -55.7660 -16.5729 -28.3049 0.8611 0.8708 -93.7446 9.7499 10.3316 -9.1278 -15.2340 10.2834 16.0192 -59.9684 1.8022 2.6580 8.3381 11.6493 18.9447 57.5411 -46.4289 -27.3883 -0.9479 0.3976 52.3524 -51.3407 -3.3894 5.5051 13.9799 7.3143 -15.6744 49.4745 -3.7199 -5.1368 22.2842 1.6485 -4.1364 0.2807 40.9887 -0.7303 -24.1165 -29.7907 -0.0636 1.6291 -3.0831 -1.8142 -30.3416 -23.6963 -5.5530 0.7546 34.3524 1.5900 25.3671 3.5121 -2.0581 -1.4140 -1.1001 1.0904
-1.5089 86.1667 5.6016 0.0094 -10.4754 0.0053 -0.0529 11.3904 -0.3947 -0.0907 -0.2086 -1.7217 1.8001 24.0585 -3.0144 15.4215 4.2370 -1.9356 -4.9678 -4.0791 -13.0082 3.0914 -17.2592 -17.8215 0.0032 0.0008 0.0719 0.6748 -10.6749 -3.7851 -0.6538 -10.6786 3.8898 3.5294 15.3605 -18.7188 -55.0625 -16.8520 -28.2207 0.9784 0.7519 -93.8031 9.6446 9.6789 -9.1959 -15.2383 10.2855 15.9651 -59.9817 1.8032 2.6199 8.2297 11.6897 18.7767 57.2797 -46.3439 -27.3626 -0.9878 0.3665 53.9056 -51.5776 -2.5044 4.2197 13.9924 7.2522 -15.6788 49.4457 -3.7168 -5.1637 22.3889 1.6724 -4.6094 0.2955 41.1651 -0.7564 -24.1144 -29.9115 0.3854 1.6322 -3.1165 -1.8333 -30.1759 -23.9877 -5.4261 0.7526 34.9595 1.6041 25.1932 3.1350 -2.2440 -1.4180 -0.9048 1.0852
-1.7997 86.0335 5.7857 -0.1641 -10.3134 0.0823 -0.1896 11.3902 -0.4145 -0.1710 -0.2254 -1.8127 1.5821 23.9785 -3.2331 15.7431 4.2153 -2.0821 -4.8410 -4.0534 -12.9350 3.2406 -17.1041 -17.6511 0.0028 0.0068 0.0573 0.6703 -10.6667 -3.7937 -0.6501 -10.6623 3.8702 3.5588 15.3694 -18.9686 -54.2034 -17.1231 -28.1567 1.0918 0.6877 -93.6767 9.6485 9.0896 -9.1429 -15.2522 10.3061 15.9011 -59.9553 1.8501 2.5829 8.0903 11.7315 18.4553 56.8778 -46.2831 -27.2408 -1.0611 0.3669 55.9411 -51.5671 -1.4159 2.4970 14.0325 7.2132 -15.6686 49.4641 -3.6464 -5.1778 22.5605 1.6652 -5.1287 0.3237 41.4554 -0.7853 -24.1656 -30.0931 0.7688 1.6360 -3.1975 -1.8490 -29.9869 -24.3064 -5.3590 0.7780 35.5724 1.6525 24.9624 2.7786 -2.4767 -1.4177 -0.6987 1.0749
-2.0588 85.8763 6.0142 -0.4338 -10.1437 0.2405 -0.3804 11.3538 -0.4413 -0.2755 -0.2774 -1.9818 1.3070 23.8320 -3.5245 16.1533 4.4084 -2.3034 -4.7034 -4.0198 -12.7789 3.4191 -16.9072 -17.4880 -0.0003 0.0074 0.0597 0.6607 -10.6611 -3.7882 -0.6464 -10.6534 3.8700 3.6200 15.4301 -19.2936 -53.0381 -17.3185 -28.2377 1.2820 0.6331 -93.3478 9.7079 8.5547 -8.9322 -15.2376 10.3224 15.8300 -59.9367 1.8986 2.5394 7.9597 11.7938 17.9925 56.3250 -46.4260 -27.1469 -0.9742 0.3722 58.4064 -51.3684 -0.0213 0.2364 14.0355 7.1294 -15.6313 49.3860 -3.6176 -5.1420 22.8685 1.5703 -5.5850 0.3135 41.9075 -0.8691 -24.0738 -30.3545 0.9145 1.6457 -3.3596 -1.8827 -29.7098 -24.5656 -5.3776 0.8269 36.1661 1.7288 24.6986 2.4732 -2.7573 -1.4188 -0.4596 1.0591
-2.2235 85.7035 6.2429 -0.8366 -9.9417 0.5450 -0.6329 11.2525 -0.5648 -0.4026 -0.3319 -2.1413 0.9075 23.5464 -4.0053 16.7723 4.8137 -2.5894 -4.6093 -3.9651 -12.6270 3.6236 -16.6770 -17.3308 0.0024 -0.0116 0.0533 0.6508 -10.6406 -3.7855 -0.6309 -10.6340 3.8520 3.7080 15.2936 -19.6207 -51.5362 -17.3332 -28.6036 1.4209 0.7151 -92.7656 9.9312 7.8871 -8.7636 -15.1266 10.3131 15.8712 -59.8169 1.8833 2.5737 7.6922 11.9265 17.2483 55.5668 -46.7461 -26.7887 -0.6396 0.2509 61.1371 -50.9954 1.9378 -2.6834 14.1213 7.0869 -15.6315 49.3849 -3.5300 -5.1956 23.3552 1.3545 -6.1875 0.3217 42.5927 -0.8231 -23.9423 -30.5406 0.9474 1.6909 -3.2669 -1.8583 -29.3442 -24.6673 -5.3406 0.7843 36.7158 1.7499 24.6475 2.3041 -3.2004 -1.4231 -0.2496 1.0981
-2.1634 85.5451 6.5334 -1.4275 -9.7229 0.8797 -0.9405 11.0653 -0.6679 -0.5622 -0.4218 -2.4937 0.4965 23.0889 -4.4672 17.5268 5.5396 -2.8436 -4.4404 -3.9442 -12.5307 3.7244 -16.3909 -17.0841 0.0034 -0.0142 0.0264 0.6439 -10.6303 -3.8118 -0.6213 -10.6195 3.8230 3.6239 15.4092 -20.2208 -49.4551 -17.4413 -29.2963 1.6494 0.7610 -91.9757 10.3427 7.2684 -8.7964 -15.1671 10.3958 15.9173 -59.9410 1.9209 2.5926 7.1301 12.0495 16.2006 53.9025 -46.9845 -25.4321 -0.2610 0.2253 64.0868 -50.5761 4.3081 -6.1276 14.1434 6.9725 -15.5950 49.2460 -3.5205 -5.1568 24.0249 1.1397 -6.6421 0.2575 43.3449 -0.9545 -23.6546 -30.8235 0.9604 1.7091 -3.4935 -1.8703 -28.8592 -24.5209 -5.3897 0.8101 36.9391 1.8243 24.6792 2.1766 -3.7648 -1.4241 0.0384 1.0835
-1.8469 85.4773 6.9138 -2.2090 -9.4954 1.2228 -1.2665 10.7901 -0.8002 -0.7913 -0.5367 -2.7720 0.0973 22.4330 -5.1782 18.4696 6.5237 -3.0593 -4.3272 -3.9785 -12.5804 3.6167 -16.0265 -16.7349 0.0107 -0.0258 -0.0574 0.6774 -10.6506 -3.9037 -0.6363 -10.6515 3.7447 3.3270 15.4978 -21.0523 -46.9254 -17.3120 -30.6704 2.2918 0.7834 -90.7706 10.9097 6.7437 -9.3126 -15.2893 10.4665 15.8902 -60.1593 1.9805 2.4926 6.3164 12.1173 14.6967 50.7806 -47.0651 -22.2487 0.0562 0.2462 67.1145 -50.0367 7.4720 -9.9263 14.0441 6.8753 -15.4949 49.0657 -3.5017 -5.1326 24.6587 1.1062 -7.0553 0.2957 43.9693 -0.9778 -22.8225 -31.3070 1.3591 1.7443 -3.6715 -1.8458 -28.2013 -23.9841 -5.3692 0.7629 36.7395 1.8492 24.9527 2.2205 -4.5950 -1.4260 0.2818 1.1023
-1.1582 85.4044 7.4209 -3.0095 -9.2683 1.1205 -1.6709 10.4409 -0.9683 -0.9676 -0.6728 -3.2012 -0.3195 21.5587 -5.7048 19.2593 7.8118 -3.2235 -4.1703 -3.9890 -12.3797 3.3375 -15.7127 -16.3523 0.0196 -0.0321 -0.1286 0.6980 -10.6682 -3.9794 -0.6386 -10.6696 3.6734 2.8417 15.6219 -21.8754 -44.3961 -17.7123 -31.9888 2.5428 0.7381 -89.1552 11.6526 6.7749 -9.9238 -15.4115 10.5138 15.7369 -60.4958 1.9829 2.3148 5.0718 11.9474 13.1833 46.4978 -46.8893 -17.3881 0.1024 0.4362 69.8315 -49.6012 10.7393 -13.8125 14.0419 6.9192 -15.5946 48.9956 -3.4901 -5.1940 24.8836 1.3618 -7.0930 0.3166 44.4994 -0.9368 -22.9275 -32.0405 3.6669 1.7483 -3.3490 -1.7669 -27.6215 -23.2862 -4.8732 0.7016 36.0418 1.8236 25.4329 2.7774 -5.1973 -1.4330 0.6321 1.1186
-0.0118 85.3888 7.9677 -3.8073 -9.0250 0.1272 -2.0978 10.0892 -1.0918 -1.0450 -0.9143 -3.7336 -0.6537 20.4493 -5.8222 19.7671 9.4033 -3.4639 -3.9163 -3.8958 -11.7982 2.8142 -15.6127 -15.8698 0.0067 0.0001 -0.0336 0.6792 -10.6565 -3.8976 -0.6475 -10.6580 3.7813 2.2312 15.8943 -22.7040 -41.8568 -18.5886 -33.3362 2.5571 0.8111 -86.9456 12.4204 7.2874 -10.4094 -15.3548 10.5352 15.5882 -60.4903 1.8997 2.3092 3.5350 11.5829 11.8386 41.5983 -46.8627 -11.4727 -0.0313 1.1191 72.3553 -48.8690 13.4046 -17.3194 14.2156 7.0554 -15.8570 48.9903 -3.4156 -5.2594 24.7097 1.6265 -6.5283 0.2130 45.4505 -1.0553 -23.5193 -33.2367 6.5618 1.6823 -2.8691 -1.7143 -27.1583 -22.7777 -3.7366 0.7981 35.0145 1.9028 25.8836 4.4819 -5.4210 -1.4645 0.9493 1.0781
1.6103 85.4480 8.5793 -4.4718 -8.9073 -1.9869 -2.4503 9.6019 -1.1264 -1.0977 -1.2187 -3.9870 -0.9607 19.4398 -6.0750 19.8929 11.3444 -3.4754 -3.7777 -3.9266 -11.2944 2.2729 -15.7520 -14.9878 0.0083 -0.0026 -0.0273 0.6868 -10.6422 -3.8851 -0.6517 -10.6464 3.7787 1.8500 15.5877 -23.1651 -39.6628 -18.9242 -34.7452 2.9584 0.8958 -84.5885 13.2437 8.0645 -10.6986 -15.2976 10.6835 15.5473 -60.5774 1.9953 2.2314 1.6699 11.2474 10.6456 36.0903 -47.7431 -3.9222 -0.1367 1.8148 74.5630 -48.3608 16.1527 -20.5587 14.3651 7.3898 -15.8809 49.2652 -3.1488 -5.1994 24.1302 2.1879 -5.4785 0.2418 46.5852 -1.0255 -23.1407 -34.2479 8.6175 1.6706 -2.5335 -1.6815 -27.1404 -22.9447 -1.7460 0.8882 34.2018 1.9844 26.7969 7.7174 -4.1323 -1.4759 0.6008 1.1985
3.5906 85.6293 9.2499 -5.0005 -9.0245 -5.3667 -2.7316 9.1087 -1.1188 -1.0299 -1.4921 -4.1100 -1.1691 18.3224 -6.3508 19.4799 13.4114 -2.9849 -3.6625 -4.0003 -10.6968 1.5276 -15.8410 -13.8456 0.0044 -0.0064 -0.0446 0.6934 -10.6266 -3.8985 -0.6657 -10.6165 3.7525 1.5298 15.1779 -23.2424 -37.4335 -19.2110 -35.5414 3.1247 1.5179 -82.1618 14.1125 8.8901 -10.9863 -15.2339 10.8570 15.6398 -60.5101 2.0077 2.1984 -0.4901 10.6417 9.9162 29.7576 -48.5699 5.7103 -0.3316 3.2715 76.4270 -48.0157 17.5797 -22.5049 14.3321 7.7737 -15.9039 49.3938 -2.8873 -5.1031 22.8661 3.3817 -3.6617 0.2440 47.2213 -1.0654 -22.4051 -34.9452 11.1191 1.6740 -2.4410 -1.6448 -27.6247 -24.2785 1.2301 1.2400 34.3391 2.5178 28.1842 13.6683 -0.6556 -1.4995 -0.8793 1.3070
5.5924 85.8662 10.1197 -5.7226 -9.3341 -9.2658 -2.7954 8.5131 -1.1037 -0.9349 -1.7074 -4.3708 -0.9981 17.2400 -6.4613 18.7607 15.6656 -2.5587 -3.5995 -4.0719 -10.2120 0.5096 -15.5777 -12.4574 0.0004 0.0035 -0.0323 0.6930 -10.5797 -3.8874 -0.6718 -10.5602 3.7621 0.9794 14.7564 -23.3784 -34.6647 -18.6964 -35.6954 3.2852 2.3380 -80.2330 15.1439 8.8233 -10.9386 -15.2844 11.0861 15.8860 -60.6761 2.0870 2.3541 -2.4449 9.8770 9.5090 22.6109 -48.5676 16.8884 -0.4043 4.1721 78.6885 -48.4794 18.3550 -23.9902 14.5356 8.0543 -15.8164 49.5394 -2.6843 -4.8688 21.5458 5.1669 -1.5903 0.2494 47.3361 -1.1107 -21.7825 -35.4736 13.8809 1.6864 -2.2980 -1.6786 -28.1543 -26.4361 5.1145 1.6073 35.6873 3.0293 30.4519 21.1963 5.6342 -1.5631 -3.2587 1.3855
7.2219 86.0877 11.1798 -6.5472 -9.8381 -12.5896 -2.7201 7.9893 -1.1288 -0.8468 -1.8678 -4.7335 -0.7696 16.2808 -6.7175 18.2150 17.5593 -2.1371 -3.4991 -4.1115 -9.9524 -0.6574 -14.9548 -11.2139 0.0034 0.0145 -0.0535 0.6999 -10.5719 -3.9207 -0.6696 -10.5553 3.7444 0.5740 14.3894 -23.5538 -31.5433 -17.9398 -35.1440 2.8775 3.1258 -79.1382 16.1256 7.9803 -10.8296 -15.4062 11.2322 16.0943 -60.8983 2.1633 2.4611 -3.4531 9.0377 9.1615 15.5590 -47.1761 27.6613 -0.1320 4.3472 82.3486 -49.4994 19.0621 -25.2372 14.6704 8.3298 -15.7793 49.8470 -2.5743 -4.6988 20.4241 7.3020 0.0328 0.2521 47.0624 -1.1593 -21.0779 -35.7111 16.1789 1.6890 -2.3712 -1.7449 -28.5899 -28.8979 9.0707 1.8960 38.2955 3.5052 33.5644 28.5235 13.1962 -1.6174 -4.3321 1.3459
8.3933 86.1514 12.4191 -7.2556 -10.4663 -15.0300 -2.6024 7.6043 -1.2126 -0.8122 -2.0077 -5.1283 -0.6085 15.4339 -7.0620 17.8190 19.0952 -1.8332 -3.3966 -4.1382 -9.8288 -1.8233 -14.1491 -10.2727 0.0148 0.0192 -0.1022 0.7126 -10.5895 -3.9882 -0.6570 -10.5852 3.7052 0.5286 14.0781 -23.7767 -27.9661 -16.9883 -34.5539 2.0640 3.8537 -78.7861 16.9863 6.5724 -10.5373 -15.5263 11.2352 16.2001 -61.0050 2.2141 2.5647 -3.7083 8.3138 8.6757 9.1787 -44.4841 36.8091 0.1875 3.9481 87.8074 -50.4382 19.6883 -25.8317 14.7600 8.5727 -15.6678 50.4393 -2.4227 -4.5743 19.5457 9.5413 1.1900 0.2672 46.6726 -1.1833 -20.4771 -35.8116 17.7794 1.6818 -2.6810 -1.7949 -29.0211 -31.2726 12.5408 2.1215 41.7760 3.8854 36.8766 32.9114 20.2386 -1.6357 -3.5368 1.2740
9.1679 86.0214 13.8529 -7.6251 -11.0478 -16.7576 -2.5149 7.3453 -1.3236 -0.7969 -2.1154 -5.3832 -0.5977 14.6667 -7.4509 17.4581 20.3233 -1.6158 -3.3332 -4.1701 -9.7900 -2.8086 -13.4196 -9.6074 0.0265 0.0143 -0.1442 0.7179 -10.6192 -4.0398 -0.6393 -10.6278 3.6731 0.8821 13.8356 -24.0216 -23.8328 -15.5197 -34.6443 1.1830 4.2832 -79.1264 17.4995 4.7627 -10.1276 -15.6722 11.2116 16.2797 -61.1467 2.3028 2.6278 -3.5177 7.8894 8.1143 3.2136 -41.0770 44.0517 0.3071 3.1705 94.5517 -50.2817 20.3020 -25.2733 14.8257 8.7491 -15.4409 51.1688 -2.2221 -4.4916 18.6939 11.6160 1.9385 0.2671 46.3998 -1.2137 -20.1524 -35.7729 18.6127 1.6776 -3.3073 -1.8368 -29.5908 -33.6881 15.1614 2.2906 45.6093 4.1038 38.2678 33.5235 23.8512 -1.6254 -1.9207 1.2076
9.6969 85.7310 15.3682 -7.6146 -11.5009 -18.0129 -2.4572 7.1052 -1.4206 -0.7517 -2.1279 -5.4664 -0.7678 14.0137 -7.8352 17.1752 21.2366 -1.3934 -3.4292 -4.1481 -9.8609 -3.4814 -12.8836 -9.2959 0.0394 0.0026 -0.1529 0.7175 -10.6196 -4.0461 -0.6141 -10.6358 3.6563 1.5172 13.6313 -24.3067 -19.0195 -12.9618 -35.8157 0.7622 4.4315 -80.2270 17.5510 2.7481 -10.1361 -15.9208 11.2343 16.3800 -61.2851 2.3787 2.6081 -2.9077 7.8346 7.6591 -3.2494 -37.3587 50.1453 0.2316 2.0133 101.6260 -48.3905 20.9327 -22.9757 14.9950 8.6287 -15.0645 51.7486 -1.9997 -4.3575 17.7330 13.5272 2.4600 0.3361 46.2132 -1.1042 -20.1040 -35.6626 18.8732 1.7004 -3.8469 -1.8252 -30.2516 -36.0626 16.9940 2.4049 48.9141 4.1617 38.1757 31.8043 24.5509 -1.6216 -1.0848 1.1986
9.8796 85.3943 16.9674 -7.4721 -11.7065 -18.8414 -2.3395 6.8673 -1.5454 -0.7394 -2.1646 -5.5613 -0.8776 13.4814 -7.9428 16.8067 22.1337 -1.2605 -3.4369 -4.1413 -9.7733 -4.1335 -12.2473 -9.0216 0.0530 -0.0021 -0.1496 0.7023 -10.6134 -4.0360 -0.5717 -10.6267 3.6514 2.2448 13.6727 -24.7830 -13.6649 -9.8737 -37.5880 0.3560 4.4638 -82.5025 17.2265 0.5464 -10.7236 -16.2878 11.1410 16.3461 -61.6113 2.3868 2.4374 -2.1214 8.0961 7.2316 -9.7601 -33.5043 55.3683 0.0172 0.9933 107.9066 -45.1074 21.7222 -19.3042 15.2587 8.0726 -14.7454 51.8754 -2.0237 -4.3553 17.0271 15.1513 2.8014 0.3409 46.0994 -1.0894 -19.9537 -35.1381 18.2655 1.7215 -5.4211 -1.9294 -30.5789 -38.4274 17.8999 2.4740 50.7711 4.1366 37.1735 29.8468 23.8313 -1.5624 -0.7622 1.1367
9.7587 85.0752 18.7333 -7.3756 -11.6591 -19.0922 -2.1987 6.6265 -1.6348 -0.7168 -2.2069 -5.6350 -0.9098 12.9786 -8.0665 16.5026 23.0727 -1.2631 -3.4257 -4.1174 -9.4474 -4.5910 -11.4211 -8.8181 0.0587 -0.0171 -0.1175 0.6856 -10.6261 -4.0001 -0.5425 -10.6229 3.6792 3.4831 13.9185 -25.2086 -8.2615 -6.5013 -40.0747 0.1995 4.3756 -85.5987 16.9935 -1.8449 -11.9195 -16.5952 11.1628 16.3180 -62.0457 2.3616 2.3090 -1.4432 8.4026 6.9091 -15.2675 -29.3180 59.3616 -0.4043 0.3051 112.2508 -42.1061 23.2451 -16.8962 15.2902 7.5086 -14.5434 51.5946 -2.1502 -4.3226 16.6242 16.7034 2.7957 0.3482 45.7675 -1.0617 -19.8739 -34.5173 17.4147 1.7496 -7.1385 -2.0338 -30.5505 -40.1688 18.3406 2.3547 50.7743 3.8907 36.2566 28.1896 22.5513 -1.5157 -0.7310 1.0935
9.2439 84.6833 20.6539 -7.3121 -11.3867 -18.7319 -2.0878 6.4332 -1.7098 -0.6998 -2.2731 -5.6883 -0.8559 12.5005 -8.2019 16.3159 23.9746 -1.3437 -3.4159 -4.1048 -9.0976 -4.8009 -10.5914 -8.6436 0.0584 -0.0240 -0.0868 0.6700 -10.6549 -3.9715 -0.5257 -10.6322 3.7118 5.3037 14.2154 -25.5494 -2.5171 -3.2073 -43.1804 0.1924 3.8741 -89.2633 16.8355 -4.3852 -13.1695 -16.7199 11.3213 16.2845 -62.2576 2.2911 2.1733 -0.8115 8.7775 6.6742 -19.5779 -25.2377 61.9319 -0.6681 -0.1188 114.3919 -40.3297 25.1141 -16.3678 15.2147 7.1361 -14.3728 51.3058 -2.2566 -4.2367 16.4402 18.1778 2.3772 0.3705 45.3412 -1.0399 -19.8738 -33.7991 16.3651 1.7904 -9.0089 -2.1373 -30.3242 -41.0809 18.5101 2.1104 48.8175 3.5344 35.5313 26.6837 20.8696 -1.4793 -0.9077 1.0529
8.3499 84.2147 22.7908 -7.2827 -10.8918 -17.7347 -2.0273 6.3312 -1.8243 -0.6764 -2.3607 -5.7039 -0.6631 12.0358 -8.2729 16.1285 24.6441 -1.5566 -3.3318 -4.0602 -8.7605 -4.8504 -9.8140 -8.4101 0.0566 -0.0262 -0.0745 0.6696 -10.6776 -3.9636 -0.5270 -10.6286 3.7291 7.7564 14.4524 -25.8297 3.7423 -0.4534 -46.4899 0.5618 2.8297 -93.2259 16.4970 -6.9315 -14.5300 -16.6570 11.4911 16.0614 -62.1892 2.2598 2.0198 -0.0248 9.2434 6.5201 -23.0582 -21.5474 62.9345 -0.7548 -0.1328 115.0335 -39.6376 26.7941 -16.7666 15.2236 6.9654 -14.2850 51.2030 -2.3603 -4.1082 16.5285 19.5944 1.5709 0.3971 44.7346 -1.0442 -19.9699 -33.1390 15.1366 1.8359 -10.8905 -2.2235 -30.1398 -41.1779 18.5365 1.8438 45.2249 3.2018 34.5171 25.3256 18.7533 -1.4654 -1.2757 1.0474
7.0997 83.6310 25.1544 -7.2399 -10.0662 -16.1216 -2.0026 6.2064 -2.0063 -0.6385 -2.4520 -5.6657 -0.3506 11.5431 -8.2577 15.9445 24.9336 -1.7884 -3.2415 -4.0037 -8.5215 -4.7686 -8.9992 -8.1715 0.0546 -0.0334 -0.0793 0.6794 -10.7034 -3.9754 -0.5397 -10.6315 3.7363 10.6722 14.5265 -25.9853 10.9946 1.5161 -49.6724 1.3474 1.3462 -97.2403 15.8516 -8.9820 -16.3304 -16.4225 11.7188 15.5915 -61.9099 2.2712 1.8032 1.0291 9.8317 6.4366 -25.9302 -18.5210 62.3771 -0.5952 0.2201 114.7669 -40.0707 28.2175 -17.7100 15.2958 7.0251 -14.3397 51.3193 -2.4293 -4.0327 16.9836 20.9682 0.4936 0.4214 43.6690 -1.0717 -20.1242 -32.6182 13.5461 1.8792 -12.5609 -2.2971 -30.3769 -40.5507 18.6601 1.6451 40.1918 2.9719 33.0248 23.8910 16.0104 -1.4682 -1.7364 1.1045
5.4269 82.9439 27.7834 -7.1648 -8.8109 -14.0060 -1.9390 5.9829 -2.1815 -0.5952 -2.5603 -5.6471 0.0471 10.9618 -8.1114 15.6740 24.8268 -1.9635 -3.1237 -3.9255 -8.4382 -4.6511 -8.1022 -7.8997 0.0522 -0.0357 -0.0902 0.6844 -10.6973 -3.9874 -0.5487 -10.6065 3.7315 13.8037 14.4217 -25.9772 19.4771 2.3933 -52.1875 2.6649 0.2334 -100.8807 15.1192 -9.9651 -19.0727 -15.7469 12.2052 14.7772 -61.7341 2.2163 1.5380 2.4351 10.5987 6.5783 -28.1312 -16.1194 59.8790 -0.3568 0.7371 114.0700 -41.8323 29.5189 -18.9012 15.4268 7.2822 -14.4872 51.5159 -2.3655 -3.9720 17.9327 22.4545 -0.6583 0.4147 41.5773 -1.1824 -20.2993 -32.0753 11.5470 1.9226 -14.0170 -2.3737 -31.0324 -39.5221 18.7585 1.4679 34.1568 2.7586 31.2356 22.3590 13.0842 -1.4671 -2.3951 1.1888
3.3399 82.2089 30.7281 -6.9100 -7.1252 -11.3442 -1.8932 5.5929 -2.4098 -0.6207 -2.6959 -5.6416 0.4582 10.2617 -7.9021 15.2717 24.4710 -1.9968 -2.9831 -3.8488 -8.4573 -4.5780 -7.3211 -7.5478 0.0484 -0.0378 -0.0914 0.6836 -10.6828 -3.9917 -0.5550 -10.5815 3.7363 17.1457 14.2129 -25.7925 28.6889 1.1805 -53.7045 4.1782 0.1824 -103.6925 14.7088 -7.7863 -22.4676 -14.5562 13.2951 13.6058 -62.4900 2.0683 1.2337 4.1011 11.3767 7.1363 -29.4630 -14.2027 55.1755 -0.2563 1.2755 112.6376 -44.9740 30.5708 -19.9143 15.5662 7.6176 -14.7041 51.8336 -2.2874 -3.9634 19.5017 24.2360 -1.6529 0.3900 37.8932 -1.4122 -20.4910 -31.4137 8.8326 1.9511 -15.0772 -2.4258 -32.1098 -38.0389 18.5499 1.2665 27.2463 2.5209 28.9624 19.3566 8.9901 -1.4482 -3.0110 1.2694
0.7522 81.4076 34.0343 -6.1050 -5.2282 -8.0414 -1.9526 5.0478 -2.5704 -0.7306 -2.9720 -5.7706 0.5452 9.6209 -7.6375 14.6837 24.0988 -1.8160 -2.8461 -3.7457 -8.3754 -4.5137 -6.7030 -7.3585 0.0422 -0.0417 -0.0650 0.6736 -10.6661 -3.9540 -0.5589 -10.5558 3.7569 20.2562 13.7593 -25.2728 36.4449 -3.7027 -54.8871 4.5652 1.3220 -104.3296 16.8217 2.7502 -23.4759 -13.0757 14.9044 12.4262 -63.9831 2.0284 1.0053 5.8144 12.0160 8.0393 -29.7871 -12.4612 48.1820 -0.3624 1.7952 109.3931 -49.4404 31.0187 -20.2837 15.5897 8.0657 -15.0454 52.2307 -2.3266 -4.0393 21.4755 26.5424 -2.4883 0.3232 32.4234 -1.8236 -20.5389 -30.0183 5.0408 1.9787 -16.3968 -2.4545 -33.5615 -35.9364 17.9660 1.0406 19.9680 2.2585 25.5087 14.5200 3.2926 -1.4100 -3.5311 1.2841
-2.3001 80.5375 37.6777 -4.4257 -3.5854 -4.0108 -2.1847 4.4502 -2.6556 -1.0183 -3.2540 -5.6921 -0.0369 9.0939 -7.5666 14.0934 23.7768 -1.3645 -2.9382 -3.7074 -8.3546 -4.3313 -6.1791 -7.5623 0.0327 -0.0420 -0.0596 0.6960 -10.6113 -3.9291 -0.5998 -10.5115 3.7509 22.6342 13.0312 -24.6271 40.0441 -12.0678 -55.1943 3.2676 2.1100 -101.7189 25.8689 28.9794 -14.4610 -13.3710 15.4828 12.5849 -65.7598 2.1091 1.3114 6.8137 12.0717 8.4559 -27.9715 -11.8632 40.5401 0.5643 2.5476 101.9893 -54.8896 30.1589 -20.4957 15.4897 8.6482 -16.0009 53.1347 -2.5280 -4.4047 23.4044 29.4598 -3.7153 0.2769 25.5099 -2.2261 -20.0613 -27.0759 -0.3701 2.0597 -19.2825 -2.4857 -35.1141 -33.1110 16.7301 0.6484 13.4799 1.7461 21.1126 8.5670 -2.7992 -1.3804 -4.2979 1.2255
-5.7007 79.5875 41.3237 -2.3000 -2.5171 0.9426 -2.4602 4.0983 -2.7030 -1.2332 -3.3454 -5.4052 -1.1713 8.8283 -7.8357 13.3508 23.1330 -1.1091 -3.2321 -3.7247 -8.0531 -3.8684 -5.4288 -8.2682 0.0108 -0.0305 -0.0059 0.6948 -10.5550 -3.8675 -0.6480 -10.4621 3.8175 23.1561 12.3243 -24.4108 37.4626 -20.6024 -52.7469 2.1080 2.1561 -93.8292 46.1092 43.5344 2.9343 -16.2150 12.1642 14.1744 -64.1657 1.8450 2.0796 6.8146 11.5398 8.5724 -23.2663 -12.4772 32.8094 1.3380 3.5557 88.7828 -60.5976 28.4215 -21.9985 15.8788 8.9078 -17.0019 54.3676 -2.6709 -4.7603 25.9651 31.1899 -4.9397 0.0571 20.1014 -2.6710 -19.7346 -22.6876 -6.3341 2.1618 -21.8554 -2.5257 -36.3115 -30.8429 14.3671 0.3771 11.5496 1.1770 17.5672 4.9998 -6.2744 -1.4482 -5.2724 1.1537
-9.1172 78.7416 44.5881 -0.7850 -2.0519 6.0013 -1.8821 4.1786 -2.6901 -1.4845 -3.3216 -4.7432 -2.1547 9.1620 -8.3955 12.7044 22.1444 -1.1396 -3.3572 -3.7460 -7.8679 -3.7181 -5.3471 -8.9401 -0.0071 -0.0303 0.1220 0.6874 -10.5777 -3.7540 -0.6802 -10.5360 3.9827 20.6515 11.3600 -24.7572 31.4657 -26.3815 -49.4638 2.0194 2.3922 -80.7326 55.7478 31.5477 3.4221 -19.0562 8.2143 14.4990 -61.7520 1.3990 2.0368 6.6335 10.1679 9.2869 -16.5254 -15.4346 26.1435 0.8515 4.5376 71.1176 -63.3953 24.1322 -23.4619 16.0384 7.9947 -17.5514 53.6586 -2.6683 -5.1485 29.1792 29.7144 -6.2677 -0.0109 19.9324 -3.0886 -19.5675 -17.3078 -12.1111 2.2369 -24.1684 -2.5230 -37.0111 -32.2231 11.5971 0.5022 17.5402 1.3130 19.8775 8.8829 -3.4844 -1.4846 -5.7460 1.1718
-12.3308 78.0009 47.3370 0.0778 -3.1599 9.7742 -1.2838 5.2245 -2.6266 -1.4172 -3.1226 -4.2645 -2.3958 10.4839 -8.7405 12.3495 21.1631 -1.0483 -3.4125 -3.9018 -8.0915 -4.0088 -6.6785 -9.4106 0.0017 -0.0456 0.2468 0.7296 -10.5758 -3.6397 -0.7078 -10.5835 4.1256 17.2912 10.5325 -24.9196 23.7333 -31.7513 -46.0325 2.6207 1.8945 -64.7922 56.4859 1.3999 -6.4102 -18.5478 7.9838 16.0805 -59.9162 1.0047 2.0045 5.2124 9.5662 11.3022 -7.6291 -23.6123 19.4734 -1.1281 3.1488 55.0075 -61.0125 19.5737 -21.5609 14.9313 6.6183 -17.0026 50.1982 -2.9793 -5.6195 31.3501 26.9767 -8.5677 0.1000 24.7701 -3.4500 -19.9990 -12.6651 -17.9114 2.3370 -25.4523 -2.6120 -37.8206 -36.9583 9.3225 1.0076 30.1625 1.8879 24.5443 9.8643 0.8200 -1.4984 -3.9754 1.1032
-15.2438 77.5969 49.7976 0.5550 -5.0956 12.4535 -0.8763 6.5767 -2.5665 -1.2197 -2.6828 -4.2985 -2.0346 12.3127 -9.0405 12.5277 20.4970 -1.3347 -3.4055 -4.0462 -8.3399 -4.5143 -8.6723 -9.3464 0.0116 -0.0223 0.2637 0.7524 -10.4861 -3.6151 -0.7151 -10.5329 4.1420 15.9025 9.9735 -24.7359 12.1939 -37.4293 -38.2370 3.3410 1.3352 -49.6833 55.7461 -21.0624 -12.0652 -15.2388 9.4917 14.3792 -60.4266 1.2745 1.3516 2.3442 9.4038 12.7016 4.9377 -33.9179 10.0299 -2.3291 2.0224 47.4544 -59.0545 15.8478 -17.5321 14.2436 5.9954 -15.9120 48.0259 -3.4475 -5.6046 31.8211 23.8778 -12.0341 0.2301 32.0987 -3.8462 -20.6647 -10.1844 -23.2004 2.4439 -21.7066 -2.7250 -37.9836 -40.0340 6.9073 1.5294 41.5065 2.4296 26.6874 7.3509 3.0807 -1.4671 -1.7861 1.0412
-17.7380 77.6191 52.1407 0.7345 -6.6192 14.1733 -0.4852 7.6609 -2.6000 -0.9741 -2.2414 -4.4457 -1.2787 14.0714 -9.2342 13.2383 20.0652 -1.9055 -3.3171 -4.0391 -8.5296 -5.1483 -10.2726 -9.3322 0.0191 -0.0282 0.2205 0.7480 -10.4404 -3.6567 -0.6987 -10.4777 4.0968 16.1198 10.9622 -23.7539 -4.4686 -43.6177 -24.3154 2.4253 0.9416 -39.5719 55.3481 -34.0671 -15.5817 -14.1977 9.1079 12.9763 -59.2586 1.2327 1.4148 -0.3747 9.7040 12.8812 19.7762 -38.9541 -1.8878 -2.2077 1.7196 45.5782 -58.3022 10.1115 -12.4894 14.5409 5.7168 -15.3571 48.0619 -3.7417 -5.5464 31.1810 20.5271 -15.1172 0.1258 38.3043 -3.8714 -19.3678 -10.5677 -24.2403 2.4687 -16.6832 -2.7100 -37.4201 -41.2894 4.8522 2.0436 49.1649 3.0415 26.3276 4.2235 2.6499 -1.4336 -0.8879 0.9660
-19.7363 78.0633 54.1850 1.0442 -7.4563 14.9654 -0.2176 8.6034 -2.5994 -0.8175 -1.7810 -4.4926 -0.3719 15.5481 -9.0155 14.4296 19.1175 -2.4717 -3.3205 -4.0157 -9.2535 -5.2989 -11.0956 -9.9573 0.0329 -0.0841 0.1222 0.7434 -10.4645 -3.7547 -0.6666 -10.4828 3.9898 16.0998 12.4942 -22.0109 -26.9675 -46.1304 -3.8207 -0.1515 0.5850 -36.0966 57.6125 -48.1801 -21.2623 -15.6922 8.7374 13.2109 -59.4227 1.1645 2.1492 -1.9775 9.7575 12.8114 34.1322 -39.4301 -13.3317 -1.1474 0.9466 45.3591 -56.8921 3.9881 -8.4709 14.5104 5.7291 -15.3661 48.5127 -3.7904 -5.4953 29.4682 16.7655 -17.6110 0.0054 43.0755 -3.3831 -16.5068 -12.4419 -20.6776 2.3360 -13.7117 -2.5338 -36.5413 -41.0507 4.1737 2.3897 53.6169 3.4513 25.6247 1.6586 0.9732 -1.4017 -0.4991 0.9339
-21.3663 78.5949 56.0312 1.5650 -7.5038 15.0040 -0.0414 9.4517 -2.4820 -0.7229 -1.2282 -4.3205 0.4881 16.5202 -8.2835 15.8120 17.2256 -2.7334 -3.5246 -3.9914 -10.4967 -5.0226 -11.9407 -11.1438 0.0671 -0.1175 -0.0210 0.7650 -10.4622 -3.8932 -0.6177 -10.4824 3.8243 14.0049 13.7433 -20.1602 -44.9698 -40.2462 13.9054 -3.3909 -0.3234 -37.1045 56.1235 -62.0235 -22.1235 -17.1701 8.9725 14.0656 -60.2946 1.1952 2.7366 -2.2778 9.3682 12.9843 45.4253 -37.6007 -22.0356 -0.3735 0.2968 45.3617 -54.7128 -2.0426 -5.2808 14.0514 5.8942 -15.4441 48.6185 -3.7044 -5.4111 27.7855 12.3362 -19.4220 0.0186 47.1530 -2.7361 -13.8863 -15.6705 -15.6197 2.1656 -11.1337 -2.3369 -35.7635 -40.5642 5.1313 2.3999 56.5023 3.5573 24.6917 -0.6901 -1.4848 -1.4043 -0.3158 0.9278
-22.6554 79.1432 57.6355 2.1392 -7.1364 14.7246 0.1456 10.3417 -2.2764 -0.6655 -0.6553 -3.9127 1.1445 17.3292 -7.3799 16.9309 14.4503 -2.8920 -3.8297 -4.0045 -11.8180 -4.3640 -13.2763 -12.6964 0.1051 -0.1095 -0.1457 0.7990 -10.4315 -4.0047 -0.5738 -10.4636 3.6687 10.5896 14.7604 -18.4202 -54.4696 -30.2178 23.8526 -5.4320 -1.3721 -38.2937 48.8722 -72.5911 -17.5747 -16.8146 9.6827 15.1214 -60.4734 1.1277 3.1534 -2.2129 9.0342 13.5452 54.8253 -36.0669 -28.9871 0.0102 -0.2092 45.9054 -53.4089 -6.9085 -1.6196 13.7768 6.1853 -15.4184 48.7343 -3.5363 -5.2627 26.8001 7.4908 -20.6924 0.0930 50.3635 -2.2415 -12.4919 -19.2609 -11.4502 2.0088 -9.1625 -2.1804 -35.1053 -40.1208 6.7676 2.2467 58.3951 3.4868 23.9921 -2.7335 -4.1759 -1.4269 -0.2327 0.9938
-23.6088 79.5883 58.9242 2.6185 -6.7409 14.4967 0.3448 11.2240 -2.0428 -0.5680 -0.1444 -3.3643 1.6361 18.1656 -6.2955 17.4778 11.4764 -3.0370 -4.2028 -4.1111 -12.9019 -3.4674 -14.8318 -14.2854 0.1251 -0.0995 -0.2161 0.8214 -10.4475 -4.0576 -0.5542 -10.4851 3.5688 7.0945 15.6335 -16.6933 -60.3650 -21.5438 29.8712 -5.9972 -1.7987 -36.8200 41.0663 -78.4462 -12.0709 -15.3611 10.4569 15.4771 -60.3083 1.0968 3.2885 -2.1932 8.8588 14.4299 63.0065 -35.5637 -34.9357 0.2013 -0.6078 46.3589 -53.3631 -10.3469 2.5354 13.8039 6.5443 -15.6433 48.9208 -3.4680 -5.3192 26.5922 2.7469 -21.5558 0.1063 51.7326 -1.9500 -12.1247 -22.9859 -7.4160 1.8833 -7.5971 -2.0377 -34.6479 -39.7890 8.0447 2.1807 59.6595 3.5023 23.7428 -4.2374 -6.5814 -1.4468 -0.1989 1.1159
-24.1616 79.9298 59.8955 3.0055 -6.5437 14.5053 0.5172 12.0185 -1.7568 -0.4182 0.2694 -2.6200 2.1006 18.9130 -5.0786 17.4252 8.8846 -2.9485 -4.5463 -4.2661 -13.9724 -2.6529 -16.1291 -15.6894 0.1207 -0.1022 -0.2149 0.8149 -10.4950 -4.0340 -0.5548 -10.5341 3.5438 4.4293 16.2908 -15.0721 -65.8588 -15.5911 35.2179 -5.2410 -1.6215 -33.5387 48.9983 -80.7638 -19.8199 -14.6440 10.7502 15.0575 -60.0191 1.0659 3.1179 -2.0800 8.8346 15.7031 69.9507 -36.3292 -40.5934 0.5341 -0.8134 45.8516 -54.3993 -12.4620 7.0034 13.8505 6.8155 -16.0221 49.0004 -3.6114 -5.4649 26.8011 -1.6530 -22.0066 0.0538 51.2804 -1.7568 -12.4754 -25.7598 -4.1619 1.8016 -6.4459 -1.8896 -34.4515 -39.4584 8.4134 2.1374 60.3899 3.5038 23.8613 -5.2606 -8.3066 -1.4511 -0.0771 1.1785
-24.2750 80.1232 60.6233 3.2444 -6.5933 14.5942 0.7123 12.6944 -1.4088 -0.2026 0.6318 -1.7808 2.6873 19.3271 -3.7861 16.8081 7.1067 -2.5818 -4.8367 -4.4453 -15.0639 -2.1503 -17.2199 -16.6980 0.1088 -0.0955 -0.1831 0.7890 -10.5313 -3.9758 -0.5504 -10.5671 3.5472 3.3446 16.6869 -13.4073 -71.7301 -10.4312 40.2163 -3.5084 -1.2184 -31.8355 70.1471 -79.2840 -39.0953 -14.7663 10.7744 14.7778 -60.0582 1.0448 2.8631 -2.1607 8.8723 17.4728 75.0863 -37.9714 -45.4622 0.6718 -0.7474 43.6616 -55.9935 -14.1276 11.3914 13.6924 7.0212 -16.1846 48.9555 -3.7494 -5.4440 27.1574 -5.2007 -22.0596 -0.1216 50.3969 -1.8535 -13.2696 -27.0055 -3.1878 1.7614 -5.7054 -1.7697 -34.4763 -39.1686 7.8640 2.1010 60.6965 3.4212 24.0628 -5.9248 -9.0912 -1.4454 0.1637 1.1736
-23.9488 80.2052 61.1996 3.2742 -6.8727 14.5464 1.0165 13.2442 -1.0523 0.0252 0.8992 -0.9266 3.5079 19.4392 -2.3193 15.8453 6.0546 -2.0236 -5.1873 -4.5698 -16.1336 -1.8813 -18.5518 -17.5533 0.0874 -0.0687 -0.1402 0.7695 -10.5223 -3.9194 -0.5734 -10.5527 3.5812 3.8016 16.8896 -11.4067 -76.8928 -3.8464 42.0534 -2.2899 -0.9604 -33.8161 60.2732 -75.6580 -29.3810 -14.7996 10.9144 15.0217 -60.2092 1.0397 2.8552 -2.8258 9.0245 19.2158 78.5137 -39.7390 -49.0889 0.4396 -0.4918 40.6218 -57.3400 -15.5806 14.3268 13.4070 7.1385 -16.0727 48.7040 -3.7230 -5.3578 27.4328 -7.2745 -21.6748 -0.1594 50.0406 -1.8985 -15.2101 -27.0636 -4.6110 1.7457 -5.6357 -1.7594 -34.5418 -39.0485 6.4770 1.9895 60.6897 3.2120 24.0089 -6.1820 -8.8406 -1.4406 0.4404 1.1279
-23.2141 80.1113 61.6773 2.9981 -7.2190 14.1185 1.4514 13.5667 -0.8360 0.2256 1.0177 -0.0405 4.4458 19.4174 -0.9009 14.7447 5.4046 -1.4778 -5.5671 -4.5875 -16.8822 -1.7244 -19.9768 -18.4410 0.0615 -0.0236 -0.0038 0.7242 -10.4851 -3.7774 -0.5848 -10.4939 3.7191 5.3418 17.1428 -8.9421 -81.5583 3.7276 39.5101 -1.9396 -0.9573 -38.6667 40.3753 -70.6434 -11.2118 -14.9271 10.9756 15.4245 -60.3149 1.1325 3.0448 -4.0673 9.3101 20.7260 80.7905 -41.1042 -51.4474 0.0168 -0.2490 38.2601 -58.3749 -16.3543 15.2223 13.3192 7.0540 -15.8762 48.4131 -3.7752 -5.3424 27.6728 -7.2587 -20.7176 -0.1780 49.3921 -1.9118 -20.7902 -27.6429 -6.1681 1.7534 -5.8668 -1.8868 -34.5265 -39.2339 4.7668 1.8559 60.5149 2.9272 23.6684 -5.7576 -7.6760 -1.4473 0.6424 1.0182
-22.3718 79.9718 62.0597 2.7169 -7.5904 13.9343 1.8592 13.8683 -0.5888 0.4139 0.9796 0.5474 5.2284 19.3386 0.0092 14.1406 4.8964 -1.2654 -5.8146 -4.6425 -17.5633 -1.9128 -21.6316 -18.9645 0.0505 -0.0251 0.0459 0.7200 -10.5181 -3.7400 -0.6051 -10.5176 3.7842 7.1697 17.3446 -6.8313 -86.0283 10.2648 34.1873 -1.9358 -1.1529 -44.6331 26.6203 -64.3610 -0.2277 -15.0706 10.8642 15.5442 -60.2977 1.2470 2.9834 -5.3057 9.6500 21.6616 82.1422 -41.6553 -52.6890 -0.3457 -0.0625 38.8498 -59.9691 -16.0862 14.5674 13.3234 7.0590 -15.7269 48.5015 -3.6595 -5.2913 27.8628 -6.5159 -19.0816 -0.0617 48.5018 -1.7480 -25.0291 -29.8023 -6.7310 1.7582 -4.5725 -2.0058 -34.7846 -39.3706 3.0627 1.8616 60.3013 2.8524 23.4464 -5.2184 -6.5690 -1.4443 0.5760 0.9048
-21.5745 79.9177 62.2922 2.7332 -7.8579 14.3065 2.0166 14.0700 -0.3833 0.5490 0.8842 0.6905 5.6271 19.3903 0.4914 14.1862 4.2072 -1.1742 -5.9943 -4.7524 -18.2161 -2.0199 -22.9723 -19.3872 0.0346 -0.0365 0.0853 0.7016 -10.5579 -3.7004 -0.6195 -10.5608 3.8290 8.5138 17.6269 -5.9296 -89.4590 13.5459 28.5460 -2.2249 -1.2931 -49.6794 19.6853 -58.9569 3.5113 -15.0525 10.6745 15.4700 -59.9083 1.2965 2.8948 -5.6846 9.9105 22.1424 82.7168 -41.9634 -53.6373 -0.0242 0.0333 41.8976 -61.6133 -14.7159 13.4356 13.4030 6.9497 -15.6326 48.6370 -3.6217 -5.1485 27.7818 -6.6818 -17.4583 -0.0820 48.1207 -1.7295 -26.5463 -31.0749 -7.6379 1.7193 -3.7513 -2.1093 -35.4956 -39.1514 1.8102 2.1376 59.6945 3.1319 23.4817 -4.6300 -6.2939 -1.4301 0.5767 0.8055
-20.9232 80.0190 62.4700 2.7763 -8.0099 14.9548 2.0435 14.1179 -0.2995 0.6347 0.8473 0.6455 5.7920 19.5331 0.6538 14.5409 3.4091 -1.3041 -6.1034 -4.7812 -18.6186 -1.9098 -23.8108 -19.8288 0.0290 -0.0579 0.0714 0.6824 -10.5938 -3.7190 -0.6125 -10.6053 3.8211 9.5007 17.7721 -5.8822 -91.7217 14.1909 22.4478 -2.4121 -1.3522 -53.7030 15.1661 -52.7187 4.0655 -15.0841 10.6180 15.3113 -59.5229 1.3643 2.7492 -5.2376 9.8746 22.2455 81.5512 -42.4817 -52.8650 0.3959 0.1464 45.1779 -62.0075 -13.5120 11.9178 13.5682 6.9612 -15.8581 48.8908 -3.6267 -5.3248 27.7602 -7.4203 -16.4245 -0.1266 48.3487 -1.6410 -26.6350 -31.3934 -8.9481 1.7061 -3.3279 -2.1030 -36.0892 -38.6753 0.6685 2.2847 58.7136 3.3251 23.7188 -4.0059 -6.2762 -1.4204 0.3732 0.8182
-20.3522 80.2251 62.5810 2.7309 -8.1524 15.4283 2.0281 14.1203 -0.2827 0.6535 0.8597 0.5343 5.9025 19.6944 0.7549 14.8684 2.7909 -1.4417 -6.1176 -4.7609 -18.8096 -1.6701 -24.2518 -20.2260 0.0293 -0.0639 0.0497 0.6705 -10.6134 -3.7456 -0.6010 -10.6317 3.8052 10.2788 17.9205 -6.3356 -92.8405 13.1528 15.8840 -2.2410 -1.2815 -57.6039 12.0387 -44.1714 3.0048 -15.3480 10.6027 15.0810 -59.7378 1.5263 2.4350 -4.5513 9.8496 22.2535 79.2152 -43.1473 -50.8777 0.5631 0.2077 47.4133 -61.1755 -13.0883 10.4332 13.6906 7.0656 -16.0271 49.0848 -3.5670 -5.4073 27.6491 -8.0134 -15.6000 -0.2088 48.5845 -1.6041 -26.2928 -31.4755 -9.9310 1.6981 -3.0419 -2.0703 -36.3411 -38.0361 -0.3766 2.3150 57.4253 3.3861 23.9529 -3.3193 -6.3231 -1.4171 0.2003 0.8377
-19.7708 80.4979 62.6467 2.5727 -8.2852 15.4836 1.9872 14.1298 -0.3011 0.6485 0.8457 0.4518 5.9553 19.8628 0.7880 15.0959 2.4317 -1.5593 -6.0990 -4.7380 -18.8434 -1.2912 -24.4467 -20.5250 0.0298 -0.0585 0.0273 0.6629 -10.6455 -3.7774 -0.5931 -10.6587 3.7922 10.8047 18.0424 -7.0117 -92.6398 11.2351 9.0976 -1.6215 -1.0650 -61.8156 10.4171 -34.0858 0.8954 -15.6694 10.3771 14.8289 -60.2458 1.6484 2.0271 -3.8005 9.8811 22.3525 76.5311 -43.8328 -48.6153 0.5185 0.2680 48.6977 -59.8070 -13.0994 9.4390 13.7125 7.1914 -16.1044 49.1774 -3.4821 -5.3431 27.4946 -8.2107 -14.9103 -0.2699 48.7569 -1.5893 -25.9662 -31.4669 -10.3155 1.6973 -2.8276 -2.0397 -36.2488 -37.4086 -1.3001 2.2142 55.9924 3.3052 24.1151 -2.5721 -6.2261 -1.4183 0.0914 0.8383
-19.2058 80.8056 62.6743 2.3867 -8.4306 15.1607 1.8848 14.1205 -0.3570 0.6051 0.8195 0.4161 5.9299 20.0940 0.7363 15.1749 2.3024 -1.6578 -6.0382 -4.6839 -18.7357 -0.8610 -24.4154 -20.7089 0.0348 -0.0471 -0.0034 0.6622 -10.6826 -3.8198 -0.5827 -10.6893 3.7706 11.0395 18.1148 -7.7712 -90.9969 8.9706 2.9539 -0.9060 -0.6563 -66.1681 9.9274 -24.4145 -1.5758 -15.7863 10.0758 14.7806 -60.2997 1.6479 1.7210 -3.0111 9.9652 22.5045 74.1805 -44.6187 -46.7326 0.4320 0.2698 49.2875 -58.3702 -12.9406 8.8603 13.7202 7.2814 -16.0840 49.2434 -3.4535 -5.2277 27.2563 -8.1044 -14.2888 -0.2884 48.8395 -1.5527 -25.7013 -31.3142 -10.3704 1.6946 -2.6721 -2.0252 -35.9358 -36.8399 -1.9513 2.0325 54.5488 3.1263 24.1368 -1.7317 -6.0380 -1.4211 -0.0180 0.8265
-18.7044 81.0800 62.6122 2.2378 -8.6133 14.5448 1.7352 14.1106 -0.3814 0.5390 0.7701 0.3632 5.7362 20.3714 0.5871 15.2074 2.3422 -1.7468 -5.9857 -4.6360 -18.5024 -0.4447 -24.2156 -20.7514 0.0417 -0.0371 -0.0429 0.6717 -10.7085 -3.8678 -0.5789 -10.7064 3.7379 11.0106 18.1470 -8.5390 -88.0159 6.8004 -1.9078 -0.4264 -0.2131 -70.5415 10.1129 -15.9452 -3.7423 -15.7966 9.8935 14.9134 -60.1841 1.5905 1.6216 -2.3457 10.0882 22.6263 72.4094 -45.2867 -45.2821 0.2983 0.2723 49.5834 -57.1312 -12.5616 8.5677 13.6967 7.3239 -15.9997 49.2736 -3.4579 -5.1367 26.9602 -7.7403 -13.6786 -0.2978 48.8351 -1.5237 -25.5662 -31.2174 -10.2301 1.6907 -2.5036 -2.0365 -35.5849 -36.2839 -2.2791 1.8524 53.1831 2.9443 24.0408 -0.9794 -5.9712 -1.4269 -0.1072 0.8089
-18.2357 81.3142 62.5346 2.1290 -8.8741 13.8355 1.5441 14.0749 -0.3947 0.4569 0.7303 0.2850 5.3835 20.7043 0.3354 15.1991 2.4552 -1.8048 -5.9503 -4.5994 -18.2221 -0.1066 -23.8531 -20.6329 0.0484 -0.0278 -0.0817 0.6864 -10.7233 -3.9118 -0.5806 -10.7133 3.7030 10.7869 18.1707 -9.2647 -84.0438 4.8362 -5.4607 -0.0697 0.1253 -74.7182 10.5818 -8.3539 -5.4763 -15.6402 9.9160 15.2002 -60.0462 1.5386 1.7141 -1.7928 10.2289 22.5970 71.0900 -45.8145 -44.1246 0.2113 0.2758 49.8242 -56.0162 -12.0348 8.2656 13.7116 7.3698 -15.9444 49.4127 -3.4591 -5.0854 26.6153 -7.2537 -13.0956 -0.2841 48.8142 -1.4886 -25.4583 -31.1588 -9.9824 1.6879 -2.3694 -2.0569 -35.2237 -35.6798 -2.3971 1.6651 51.9377 2.7481 23.8656 -0.3095 -6.0106 -1.4326 -0.1954 0.8071
-17.8436 81.5051 62.4146 2.0214 -9.2193 13.1921 1.3386 13.9942 -0.3970 0.3573 0.6867 0.1546 4.9557 21.1091 0.0247 15.1894 2.6687 -1.8254 -5.8738 -4.5621 -17.9511 0.1466 -23.4213 -20.4591 0.0535 -0.0177 -0.0998 0.7040 -10.7316 -3.9341 -0.5885 -10.7137 3.6885 10.4936 18.1360 -9.9080 -79.5900 3.0868 -7.8876 0.1765 0.3233 -78.4786 11.3072 -1.2397 -6.8207 -15.3715 10.1050 15.6398 -59.8369 1.5096 1.9113 -1.2801 10.3945 22.4608 69.8383 -46.2731 -43.1108 0.2933 0.2717 50.1146 -55.1533 -11.3134 7.7690 13.7671 7.4068 -15.9392 49.6260 -3.4598 -5.0852 26.3224 -6.6521 -12.5927 -0.2582 48.7596 -1.4441 -25.3681 -31.1413 -9.6350 1.6853 -2.2857 -2.0875 -34.8790 -35.0194 -2.4459 1.5383 50.8897 2.6142 23.6337 0.2548 -6.1989 -1.4371 -0.2916 0.8245
-17.5424 81.6571 62.2953 1.8706 -9.6495 12.7018 1.1425 13.8750 -0.4230 0.2505 0.6518 -0.0003 4.5025 21.5276 -0.2836 15.1791 3.0016 -1.8689 -5.7720 -4.5074 -17.6803 0.3490 -22.9701 -20.2705 0.0537 -0.0171 -0.0900 0.7126 -10.7385 -3.9216 -0.5972 -10.7114 3.6964 10.2787 18.0035 -10.4354 -75.3874 1.4605 -9.1665 0.2069 0.3919 -81.5086 12.2804 5.1937 -7.6267 -15.1134 10.3847 16.0916 -59.6144 1.4904 2.1121 -0.8848 10.5382 22.1546 68.4327 -46.5413 -41.9886 0.4245 0.2705 50.5295 -54.4017 -10.5562 6.9797 13.8495 7.4247 -15.9335 49.9035 -3.4570 -5.1051 26.1203 -5.9749 -12.1703 -0.2162 48.6927 -1.3840 -25.2229 -31.1697 -9.4062 1.6804 -2.2526 -2.1053 -34.4876 -34.2967 -2.5823 1.4515 50.0207 2.5144 23.3757 0.6909 -6.4662 -1.4338 -0.4054 0.8522
-17.3002 81.8006 62.2450 1.7037 -10.1259 12.3811 0.9738 13.7581 -0.4259 0.1633 0.6196 -0.1614 4.0482 21.8625 -0.6031 15.2460 3.4747 -1.9036 -5.7080 -4.4727 -17.4485 0.5318 -22.5970 -20.1416 0.0512 -0.0246 -0.0621 0.7094 -10.7335 -3.8884 -0.5996 -10.6993 3.7211 10.1857 17.8832 -10.8578 -72.0608 -0.0828 -9.5165 0.0054 0.3602 -83.7518 13.1670 10.3896 -7.7096 -14.9895 10.6075 16.3367 -59.4648 1.4881 2.1870 -0.6861 10.6972 21.7545 67.3504 -46.6294 -41.2908 0.6153 0.2781 51.0134 -53.6494 -9.9642 6.1775 13.9265 7.4197 -15.9440 50.0890 -3.4737 -5.1463 26.0054 -5.2458 -11.7922 -0.1738 48.5218 -1.3346 -25.0371 -31.1393 -9.3092 1.6792 -2.3287 -2.1188 -34.1220 -33.4705 -2.7692 1.3924 49.2810 2.4472 23.2348 1.0078 -6.6971 -1.4271 -0.4881 0.8772
-17.1392 81.9767 62.2051 1.5321 -10.5747 12.1796 0.8170 13.6235 -0.4448 0.0844 0.5898 -0.2692 3.6509 22.0802 -0.9185 15.3932 4.0177 -1.9562 -5.7234 -4.4689 -17.2682 0.7157 -22.2735 -20.0718 0.0517 -0.0363 -0.0448 0.7071 -10.7303 -3.8670 -0.5961 -10.6926 3.7334 10.1608 17.7890 -11.1942 -69.7033 -1.3949 -9.5964 -0.1694 0.3261 -85.3647 13.6915 14.2294 -7.3542 -15.0358 10.7409 16.4021 -59.4456 1.4711 2.1891 -0.6251 10.7991 21.2886 66.7451 -46.6337 -41.1382 0.8097 0.2525 51.4750 -52.7465 -9.6490 5.5612 13.9768 7.4124 -15.9532 50.1829 -3.5030 -5.1672 25.9158 -4.4996 -11.4956 -0.1443 48.2172 -1.3009 -24.7856 -30.9870 -9.1881 1.6820 -2.4717 -2.1182 -33.7573 -32.6270 -3.0212 1.3583 48.5844 2.3987 23.1390 1.2750 -6.9095 -1.4194 -0.5505 0.8893
-17.0135 82.1936 62.2422 1.3424 -10.9255 12.0211 0.7049 13.4753 -0.4089 0.0268 0.5405 -0.4054 3.3168 22.1871 -1.1742 15.5873 4.5288 -2.0025 -5.7749 -4.4651 -17.0957 0.8877 -21.9799 -20.0709 0.0545 -0.0409 -0.0411 0.7059 -10.7222 -3.8618 -0.5894 -10.6849 3.7351 10.1498 17.7434 -11.4731 -68.1541 -2.3592 -9.6971 -0.2724 0.3029 -86.6462 13.8646 17.0617 -6.7863 -15.1142 10.8179 16.3866 -59.5182 1.4811 2.1611 -0.6673 10.8628 20.8042 66.5076 -46.5767 -41.3558 0.9690 0.1470 51.8347 -51.6627 -9.3632 5.0346 13.9980 7.4170 -15.9954 50.1974 -3.5191 -5.2097 25.8755 -3.8196 -11.2121 -0.1300 47.8071 -1.2754 -24.4901 -30.7124 -9.0705 1.6847 -2.6668 -2.1112 -33.3351 -31.7953 -3.3256 1.3023 47.8128 2.3187 23.0778 1.5403 -7.0516 -1.4154 -0.6089 0.9003
-16.9500 82.4654 62.3383 1.1675 -11.1618 11.9059 0.5953 13.3110 -0.4491 -0.0255 0.4966 -0.4555 3.0473 22.1715 -1.4047 15.7777 4.9750 -2.0726 -5.8026 -4.4657 -16.9476 1.0557 -21.7338 -20.0856 0.0551 -0.0446 -0.0339 0.7007 -10.7128 -3.8571 -0.5826 -10.6757 3.7434 10.1335 17.7392 -11.6631 -67.2200 -3.0202 -9.8636 -0.3911 0.2705 -87.7608 13.8280 19.2395 -6.3249 -15.2164 10.8401 16.3556 -59.6002 1.4833 2.1883 -0.7696 10.8689 20.3177 66.7274 -46.4409 -41.9055 1.0502 0.0468 52.2327 -50.4348 -9.0029 4.5538 14.0445 7.4489 -16.0256 50.2309 -3.5131 -5.2462 25.8548 -3.1779 -10.9444 -0.1164 47.1876 -1.2416 -24.2398 -30.3416 -8.8687 1.6873 -2.8173 -2.0942 -32.8839 -31.0428 -3.7321 1.2608 46.9472 2.2617 23.0136 1.7780 -7.1852 -1.4113 -0.6667 0.9113
-16.9060 82.7682 62.4418 1.0102 -11.3198 11.7593 0.5085 13.1713 -0.4538 -0.0687 0.4315 -0.5449 2.8249 22.1101 -1.5746 15.9602 5.3308 -2.1368 -5.8077 -4.4538 -16.7919 1.1931 -21.5457 -20.0726 0.0535 -0.0413 -0.0254 0.6949 -10.7046 -3.8521 -0.5797 -10.6679 3.7545 10.1001 17.7675 -11.8103 -66.7543 -3.3264 -10.0750 -0.5073 0.2962 -88.9537 13.6620 20.8200 -6.0264 -15.2648 10.8497 16.3278 -59.6872 1.4994 2.2081 -0.8759 10.8659 19.8499 67.2241 -46.2453 -42.5569 1.1232 -0.0752 52.7717 -49.2025 -8.5086 4.1575 14.0658 7.4698 -16.0265 50.2096 -3.4713 -5.2436 25.8724 -2.5802 -10.5802 -0.1009 46.4587 -1.2200 -24.0219 -29.9558 -8.6434 1.6868 -2.9671 -2.0776 -32.4308 -30.3991 -4.1312 1.2210 46.1037 2.1986 22.9903 1.9910 -7.2500 -1.4089 -0.7219 0.9251
-16.9141 83.0911 62.5962 0.8609 -11.3757 11.6152 0.4451 13.0317 -0.4690 -0.1075 0.3744 -0.6135 2.6600 22.0082 -1.7580 16.1255 5.6163 -2.2325 -5.7909 -4.4495 -16.6149 1.2907 -21.4160 -20.0288 0.0504 -0.0371 -0.0162 0.6879 -10.6851 -3.8439 -0.5784 -10.6509 3.7642 10.0666 17.7810 -11.8831 -66.5456 -3.3325 -10.4457 -0.5925 0.3331 -90.2096 13.3469 21.9592 -5.9581 -15.2603 10.8264 16.3081 -59.6744 1.5033 2.2539 -0.9408 10.8382 19.4089 67.8110 -46.0304 -43.1412 1.1370 -0.1671 53.4437 -47.9227 -7.9461 3.6878 14.0914 7.4786 -16.0209 50.1424 -3.4286 -5.2377 25.9511 -2.0626 -10.1609 -0.0839 45.6212 -1.1872 -23.8096 -29.4846 -8.4726 1.6854 -3.1091 -2.0552 -31.9800 -29.8657 -4.5926 1.1744 45.2170 2.1364 23.0244 2.2522 -7.2381 -1.4086 -0.7665 0.9517
-16.8745 83.4189 62.7182 0.7170 -11.3453 11.4897 0.3986 12.8989 -0.4804 -0.1385 0.3108 -0.6874 2.5501 21.8822 -1.9447 16.2658 5.8552 -2.2997 -5.7375 -4.4378 -16.4864 1.3337 -21.3042 -19.9638 0.0491 -0.0303 -0.0180 0.6823 -10.6785 -3.8501 -0.5748 -10.6432 3.7642 10.0925 17.7978 -11.8920 -66.5027 -3.1013 -11.0464 -0.6322 0.3629 -91.5042 12.8851 22.8624 -5.9913 -15.2024 10.8104 16.2975 -59.6721 1.5129 2.2929 -0.9838 10.7745 19.0000 68.3898 -45.7593 -43.6243 1.1930 -0.2487 54.1115 -46.6418 -7.3879 3.2169 14.1392 7.4880 -16.0300 50.1037 -3.4050 -5.2308 26.0542 -1.6465 -9.7352 -0.0621 44.7538 -1.1615 -23.6530 -29.0044 -8.2894 1.6833 -3.2232 -2.0347 -31.5403 -29.4622 -5.0851 1.1213 44.3573 2.0646 23.0913 2.5750 -7.1577 -1.4123 -0.7967 0.9677
-16.8550 83.7341 62.8199 0.5877 -11.2511 11.4096 0.3698 12.7859 -0.4943 -0.1637 0.2493 -0.7830 2.4825 21.7320 -2.0940 16.4006 6.0539 -2.3608 -5.6988 -4.4251 -16.4091 1.3747 -21.2198 -19.9752 0.0486 -0.0224 -0.0289 0.6793 -10.6802 -3.8675 -0.5726 -10.6470 3.7597 10.1830 17.8330 -11.8708 -66.5165 -2.7961 -11.8251 -0.6664 0.3388 -92.7437 12.3575 23.6382 -6.0684 -15.1339 10.7934 16.2671 -59.6833 1.5294 2.3210 -0.9993 10.7183 18.6292 68.7684 -45.4632 -43.8425 1.1993 -0.2976 54.6235 -45.4523 -6.9529 2.7612 14.2154 7.4966 -16.0462 50.1039 -3.3844 -5.2323 26.1538 -1.3545 -9.3426 -0.0437 43.9460 -1.1303 -23.5383 -28.5362 -8.1611 1.6807 -3.3530 -2.0167 -31.1514 -29.1623 -5.5731 1.0764 43.5842 1.9925 23.1650 2.8456 -7.0682 -1.4163 -0.7879 0.9753
-16.8175 84.0151 62.9507 0.4773 -11.1047 11.3538 0.3500 12.6762 -0.5051 -0.1823 0.1969 -0.8696 2.4689 21.5942 -2.2063 16.4986 6.2085 -2.4185 -5.6472 -4.4074 -16.3746 1.4043 -21.1477 -20.0017 0.0489 -0.0175 -0.0354 0.6816 -10.6884 -3.8795 -0.5739 -10.6533 3.7564 10.3316 17.8425 -11.8356 -66.5619 -2.4695 -12.7191 -0.6593 0.3265 -93.9665 11.8112 24.1390 -6.2379 -15.0850 10.7794 16.2378 -59.7524 1.5504 2.3383 -1.0030 10.6590 18.3324 68.9456 -45.2062 -43.9060 1.2046 -0.3276 54.9063 -44.4362 -6.6486 2.3862 14.2848 7.5140 -16.0697 50.1032 -3.3896 -5.2213 26.2719 -1.1786 -8.9592 -0.0278 43.2207 -1.1094 -23.4950 -28.1321 -8.0963 1.6784 -3.4408 -1.9997 -30.8371 -28.9415 -6.0011 1.0322 42.8712 1.9159 23.2377 3.0991 -6.9945 -1.4204 -0.7597 0.9728
-16.7894 84.2460 63.0278 0.3852 -10.9315 11.2922 0.3443 12.5873 -0.5230 -0.1888 0.1561 -0.9176 2.4875 21.4571 -2.3176 16.5727 6.2954 -2.4358 -5.6206 -4.4074 -16.4049 1.4042 -21.0750 -19.9925 0.0492 -0.0146 -0.0461 0.6859 -10.6882 -3.8903 -0.5775 -10.6496 3.7457 10.4917 17.8087 -11.7649 -66.5827 -2.2103 -13.6606 -0.6597 0.2539 -95.0946 11.2518 24.3625 -6.5296 -15.0622 10.7652 16.2029 -59.8177 1.5700 2.3545 -0.9808 10.6343 18.0872 68.9071 -45.0341 -43.7822 1.2204 -0.3373 54.9536 -43.5816 -6.5438 2.1409 14.3257 7.5037 -16.0641 50.1037 -3.3794 -5.2342 26.3619 -1.1251 -8.5926 -0.0069 42.6527 -1.0690 -23.4633 -27.7947 -8.1142 1.6755 -3.4764 -1.9835 -30.5728 -28.7988 -6.3552 0.9856 42.2364 1.8468 23.2988 3.3706 -6.9335 -1.4227 -0.7180 0.9638
-16.6884 84.4235 63.0869 0.3072 -10.7632 11.2080 0.3484 12.5220 -0.4909 -0.1888 0.1222 -0.9850 2.5437 21.3752 -2.3831 16.6545 6.3389 -2.4431 -5.6072 -4.4130 -16.4165 1.3842 -21.0347 -19.9881 0.0494 -0.0138 -0.0455 0.6946 -10.6907 -3.8904 -0.5859 -10.6476 3.7450 10.6889 17.7125 -11.6797 -66.6575 -2.0801 -14.5598 -0.6759 0.2339 -96.1548 10.7620 24.2588 -6.8109 -15.0319 10.7657 16.1889 -59.8978 1.5864 2.3683 -0.9018 10.6215 17.9201 68.6831 -44.9172 -43.5289 1.2242 -0.3532 54.8119 -42.8905 -6.6102 2.0327 14.3583 7.4775 -16.0592 50.1132 -3.3957 -5.2362 26.4562 -1.1818 -8.2243 -0.0130 42.2960 -1.0595 -23.4283 -27.5352 -8.1931 1.6738 -3.4768 -1.9850 -30.3821 -28.6893 -6.5798 0.9354 41.6673 1.7700 23.3480 3.6931 -6.8836 -1.4249 -0.6830 0.9626
-16.5756 84.5673 63.1311 0.2336 -10.6089 11.1222 0.3423 12.4638 -0.4844 -0.1758 0.1114 -1.0219 2.6305 21.3460 -2.4351 16.7398 6.3536 -2.4505 -5.5777 -4.4185 -16.4166 1.3698 -21.0300 -19.9488 0.0474 -0.0159 -0.0416 0.6954 -10.6845 -3.8844 -0.5909 -10.6375 3.7478 10.9177 17.5546 -11.5719 -66.7958 -2.1175 -15.3926 -0.7367 0.1646 -97.1913 10.3538 24.0329 -7.0806 -14.9808 10.7528 16.2007 -59.9400 1.6017 2.4281 -0.7882 10.6278 17.7792 68.3544 -44.8638 -43.1007 1.1778 -0.3377 54.5067 -42.2527 -6.8115 1.9303 14.4003 7.4625 -16.0376 50.1733 -3.3922 -5.2306 26.5487 -1.2960 -7.8830 -0.0129 42.0845 -1.0462 -23.3709 -27.3271 -8.3249 1.6743 -3.4818 -1.9887 -30.2484 -28.5661 -6.7416 0.9218 41.0912 1.7457 23.3968 4.0475 -6.9068 -1.4248 -0.6584 0.9581
-16.4313 84.6719 63.1352 0.1521 -10.4893 10.9969 0.3328 12.4339 -0.4691 -0.1620 0.1038 -1.0640 2.7309 21.3817 -2.4369 16.8687 6.3692 -2.4860 -5.5672 -4.4000 -16.3144 1.3424 -21.0065 -19.9055 0.0439 -0.0165 -0.0274 0.6912 -10.6711 -3.8668 -0.5941 -10.6211 3.7611 11.1436 17.4013 -11.4937 -66.9803 -2.3346 -16.1629 -0.8495 0.1178 -98.2242 10.0503 23.6514 -7.3223 -14.9542 10.7045 16.1846 -59.9587 1.6076 2.4948 -0.5845 10.6409 17.7098 67.9706 -44.8519 -42.5629 1.1326 -0.3369 54.1089 -41.6065 -7.0256 1.7874 14.4205 7.4703 -16.0367 50.1763 -3.3936 -5.2408 26.6395 -1.4436 -7.5497 -0.0176 42.0264 -1.0327 -23.2760 -27.1518 -8.4692 1.6745 -3.5047 -1.9911 -30.1148 -28.4266 -6.8411 0.9037 40.5075 1.7188 23.4005 4.4370 -6.9538 -1.4243 -0.6313 0.9636
-16.2432 84.7479 63.0857 0.0643 -10.4139 10.8463 0.3269 12.4393 -0.4575 -0.1439 0.1116 -1.0990 2.8389 21.4526 -2.4197 16.9926 6.3871 -2.5069 -5.5404 -4.3844 -16.1833 1.3612 -20.9615 -19.8400 0.0386 -0.0167 -0.0107 0.6820 -10.6673 -3.8490 -0.5956 -10.6113 3.7794 11.3795 17.2339 -11.4539 -67.2045 -2.6523 -16.8962 -1.0042 0.0800 -99.2395 9.7921 22.9980 -7.6440 -14.9223 10.6700 16.1704 -59.9713 1.6212 2.5463 -0.3308 10.6771 17.7024 67.6558 -44.8724 -42.0012 1.0481 -0.3398 53.7131 -41.0302 -7.2349 1.7006 14.4520 7.4615 -16.0258 50.1476 -3.4274 -5.2350 26.7097 -1.5834 -7.2608 -0.0134 42.1029 -1.0247 -23.1671 -27.0698 -8.5826 1.6753 -3.5863 -2.0016 -30.0064 -28.2986 -6.9247 0.8880 39.9653 1.6955 23.3869 4.7982 -6.9610 -1.4225 -0.6231 0.9654
-16.0113 84.8028 63.0216 -0.0308 -10.3554 10.6320 0.3256 12.4626 -0.4582 -0.1277 0.1218 -1.1120 2.9548 21.5733 -2.3893 17.1068 6.3878 -2.5123 -5.5036 -4.3641 -16.0218 1.3948 -20.8918 -19.7299 0.0332 -0.0160 0.0035 0.6720 -10.6638 -3.8336 -0.5964 -10.6048 3.7938 11.5914 17.0812 -11.4276 -67.3845 -3.0681 -17.8109 -1.0760 0.1400 -100.2276 9.5655 21.9253 -7.9789 -14.8896 10.6285 16.1333 -59.9895 1.6423 2.5720 -0.0313 10.7298 17.7488 67.3936 -44.9644 -41.4108 0.9403 -0.3096 53.4037 -40.5419 -7.4463 1.6008 14.4455 7.4750 -16.0437 50.0962 -3.4450 -5.2322 26.7690 -1.7462 -6.9718 -0.0122 42.2744 -1.0096 -23.0445 -27.0322 -8.6542 1.6777 -3.6350 -2.0081 -29.8927 -28.2177 -6.9792 0.8958 39.4497 1.7119 23.3636 5.1573 -6.9489 -1.4208 -0.6167 0.9655
-15.7648 84.8180 62.9360 -0.1338 -10.3076 10.4025 0.3234 12.5084 -0.4681 -0.1123 0.1286 -1.1264 3.0677 21.7203 -2.3415 17.2416 6.3650 -2.5022 -5.4728 -4.3489 -15.8691 1.4454 -20.7758 -19.6212 0.0284 -0.0117 0.0119 0.6615 -10.6648 -3.8266 -0.5953 -10.6046 3.8053 11.8027 16.9517 -11.4237 -67.5221 -3.6094 -18.8842 -1.1218 0.1777 -101.0954 9.4139 20.6789 -8.2826 -14.8595 10.6233 16.0915 -60.0655 1.6755 2.5624 0.2969 10.7958 17.8559 67.3140 -45.0811 -40.9476 0.8331 -0.2841 53.1689 -40.1643 -7.5797 1.4794 14.4450 7.4836 -16.0379 50.0535 -3.4339 -5.2289 26.7872 -1.8855 -6.7815 0.0052 42.5223 -0.9818 -22.9467 -27.1064 -8.6275 1.6800 -3.6056 -2.0129 -29.7938 -28.1669 -7.0105 0.8752 38.9617 1.6854 23.3797 5.5395 -6.9056 -1.4219 -0.5831 0.9557
-15.5085 84.8294 62.8069 -0.2249 -10.2718 10.1582 0.3196 12.5694 -0.4435 -0.1043 0.1513 -1.1594 3.1705 21.8923 -2.3074 17.3519 6.3028 -2.4962 -5.4370 -4.3280 -15.6929 1.4809 -20.6230 -19.4425 0.0255 -0.0098 0.0134 0.6556 -10.6608 -3.8244 -0.5951 -10.6010 3.8070 11.9761 16.8094 -11.4833 -67.5777 -4.2560 -20.0973 -1.0967 0.2373 -101.8165 9.3220 19.3108 -8.6362 -14.8276 10.5839 16.0214 -60.1300 1.6881 2.5410 0.6560 10.8838 18.0081 67.4145 -45.2507 -40.6114 0.7599 -0.2606 53.0829 -39.9343 -7.6025 1.3891 14.4395 7.4864 -16.0475 50.0258 -3.4254 -5.2401 26.7687 -2.0355 -6.6391 0.0144 42.8350 -0.9659 -22.8810 -27.1763 -8.4960 1.6810 -3.5614 -2.0201 -29.6872 -28.1497 -7.0140 0.8673 38.5079 1.6784 23.3937 5.9284 -6.8834 -1.4224 -0.5475 0.9481
-15.2486 84.8147 62.6703 -0.3047 -10.2397 9.9220 0.3017 12.6590 -0.4425 -0.1032 0.1937 -1.1678 3.2571 22.0687 -2.2854 17.4459 6.1984 -2.5100 -5.3939 -4.3080 -15.4785 1.5186 -20.4175 -19.2392 0.0241 -0.0096 0.0085 0.6540 -10.6484 -3.8298 -0.5957 -10.5883 3.8013 12.1741 16.6623 -11.6227 -67.5511 -5.0600 -21.3695 -1.0166 0.2813 -102.2843 9.2983 17.9613 -8.9918 -14.7978 10.5776 16.0055 -60.1500 1.6914 2.5539 1.0146 10.9283 18.1794 67.7087 -45.3932 -40.3690 0.6615 -0.1822 53.0974 -39.8281 -7.6213 1.3927 14.4749 7.4819 -16.0343 50.0056 -3.3975 -5.2362 26.7678 -2.2253 -6.5148 0.0075 43.2024 -0.9738 -22.8429 -27.3081 -8.3077 1.6803 -3.4673 -2.0180 -29.6263 -28.1602 -7.0224 0.8680 38.0718 1.6939 23.4688 6.3356 -6.8784 -1.4240 -0.5031 0.9444
-15.0200 84.7838 62.5175 -0.3658 -10.2181 9.6910 0.2775 12.7855 -0.4260 -0.1057 0.2487 -1.2032 3.3367 22.2805 -2.2581 17.4898 6.0390 -2.5259 -5.3259 -4.2805 -15.2320 1.5613 -20.2342 -19.0019 0.0226 -0.0111 0.0076 0.6532 -10.6477 -3.8313 -0.5975 -10.5880 3.8009 12.3885 16.4952 -11.8077 -67.3909 -6.0027 -22.7681 -0.8557 0.3441 -102.4777 9.3643 16.6501 -9.3209 -14.7337 10.5668 15.9925 -60.1436 1.6858 2.5802 1.3871 10.9406 18.3663 68.0517 -45.5720 -40.1679 0.6052 -0.1540 53.2101 -39.8304 -7.6185 1.4956 14.5093 7.4868 -16.0272 49.9696 -3.4028 -5.2356 26.7183 -2.4668 -6.4417 -0.0050 43.6826 -1.0014 -22.7736 -27.4692 -8.0676 1.6763 -3.4090 -2.0091 -29.5856 -28.2380 -7.0326 0.8659 37.6933 1.7076 23.5596 6.7229 -6.8077 -1.4245 -0.4939 0.9441
-14.7984 84.7200 62.3362 -0.4081 -10.1919 9.4641 0.2468 12.9420 -0.4001 -0.1127 0.3119 -1.2342 3.3849 22.4706 -2.2248 17.5008 5.8365 -2.5326 -5.2398 -4.2325 -14.9842 1.6170 -20.0729 -18.8170 0.0216 -0.0088 0.0045 0.6521 -10.6414 -3.8351 -0.5979 -10.5842 3.7984 12.5993 16.2840 -12.0747 -67.0680 -7.0533 -24.1655 -0.7003 0.3868 -102.3684 9.5605 15.4040 -9.5411 -14.6835 10.5769 15.9849 -60.1519 1.7306 2.5892 1.7776 10.9257 18.5959 68.3460 -45.7000 -39.8485 0.5060 -0.0924 53.3586 -39.9747 -7.6989 1.7440 14.5661 7.4851 -16.0480 49.9640 -3.4388 -5.2501 26.6607 -2.7737 -6.4373 -0.0108 44.2804 -1.0167 -22.7085 -27.6492 -7.8095 1.6742 -3.4244 -2.0098 -29.5743 -28.3588 -7.0080 0.8694 37.3560 1.7265 23.6524 7.0613 -6.6955 -1.4286 -0.5016 0.9418
-14.6126 84.6158 62.0838 -0.4354 -10.1903 9.2623 0.2058 13.1108 -0.3984 -0.1243 0.3993 -1.2458 3.4140 22.6886 -2.1795 17.5170 5.6247 -2.5309 -5.1832 -4.1950 -14.7259 1.6898 -19.9406 -18.6454 0.0210 -0.0094 0.0020 0.6526 -10.6298 -3.8375 -0.5997 -10.5778 3.7973 12.7938 16.1105 -12.3853 -66.4817 -8.2323 -25.5592 -0.5175 0.4225 -102.0528 9.8705 14.2840 -9.6937 -14.6339 10.5517 15.9576 -60.0962 1.7516 2.5903 2.1478 10.9535 18.8138 68.7252 -45.8890 -39.5451 0.3983 -0.0130 53.5060 -40.2030 -7.7887 2.0541 14.6244 7.4503 -16.0691 49.9477 -3.4933 -5.2928 26.6008 -3.1200 -6.4724 -0.0046 44.9821 -1.0175 -22.6296 -27.9179 -7.5896 1.6724 -3.4404 -2.0018 -29.6099 -28.5343 -6.9540 0.8688 37.1194 1.7419 23.7088 7.3498 -6.5573 -1.4311 -0.5140 0.9335
-14.4278 84.4668 61.7974 -0.4506 -10.2217 9.0316 0.1687 13.2880 -0.3576 -0.1380 0.4911 -1.2849 3.4014 22.9544 -2.1465 17.5291 5.4350 -2.5310 -5.1443 -4.1646 -14.4443 1.7890 -19.8418 -18.5070 0.0203 -0.0074 0.0035 0.6543 -10.6161 -3.8340 -0.6024 -10.5690 3.7962 12.8984 15.9570 -12.7042 -65.5931 -9.4153 -26.9257 -0.3227 0.4369 -101.5971 10.3168 13.2944 -9.7831 -14.5978 10.5508 15.9161 -60.0276 1.7847 2.5624 2.4855 11.0036 19.0204 69.0633 -46.1561 -39.1244 0.3220 0.0409 53.5844 -40.4850 -7.8518 2.3784 14.6678 7.4125 -16.1107 49.9161 -3.5613 -5.3528 26.5480 -3.5158 -6.5230 0.0018 45.8144 -1.0163 -22.5604 -28.2384 -7.4490 1.6728 -3.4615 -2.0071 -29.6896 -28.7597 -6.8439 0.8702 37.0115 1.7554 23.7714 7.5855 -6.3829 -1.4347 -0.5360 0.9379
-14.2244 84.2473 61.4572 -0.4439 -10.3002 8.7948 0.1224 13.4845 -0.3545 -0.1482 0.5954 -1.3025 3.3307 23.2600 -2.1238 17.5481 5.2275 -2.5078 -5.1014 -4.1584 -14.2189 1.8772 -19.7871 -18.3193 0.0202 -0.0099 0.0034 0.6569 -10.6080 -3.8300 -0.6054 -10.5651 3.7930 12.8736 15.8496 -13.0371 -64.3917 -10.5237 -28.1255 -0.1778 0.4447 -101.0852 10.8275 12.4800 -9.8246 -14.5835 10.5479 15.8800 -59.9671 1.8129 2.5267 2.8187 11.0599 19.1816 69.2303 -46.4698 -38.4801 0.2000 0.1107 53.6472 -40.8099 -7.8794 2.6297 14.6692 7.3795 -16.1349 49.8907 -3.6146 -5.3753 26.4886 -3.9327 -6.5936 0.0254 46.7834 -1.0030 -22.5220 -28.6863 -7.3754 1.6716 -3.4693 -2.0158 -29.8348 -29.0570 -6.6882 0.8684 37.0730 1.7540 23.8305 7.7652 -6.1349 -1.4380 -0.5831 0.9440
-14.0028 83.9535 61.1643 -0.4199 -10.4235 8.5176 0.0785 13.6862 -0.3319 -0.1656 0.6926 -1.3224 3.2291 23.6365 -2.1408 17.5378 5.0007 -2.4735 -5.0550 -4.1487 -14.0003 1.9999 -19.7612 -18.1607 0.0198 -0.0144 0.0060 0.6624 -10.6051 -3.8240 -0.6119 -10.5683 3.7932 12.7389 15.7949 -13.3655 -62.9471 -11.4589 -29.2312 -0.0063 0.4305 -100.6255 11.3908 11.8659 -9.8059 -14.5625 10.5361 15.8313 -59.8934 1.8300 2.4886 3.1678 11.1715 19.2964 69.1730 -46.9033 -37.5932 0.0383 0.1614 53.7083 -41.2546 -7.8477 2.8348 14.6505 7.3924 -16.1740 49.9287 -3.6376 -5.4033 26.4417 -4.3865 -6.5823 0.0291 47.8876 -1.0015 -22.4937 -29.2509 -7.3951 1.6703 -3.4322 -2.0275 -30.0553 -29.4248 -6.4675 0.8794 37.2873 1.7578 23.9422 7.8829 -5.7993 -1.4388 -0.6186 0.9530
-13.7477 83.5957 60.8051 -0.3679 -10.6007 8.2124 0.0349 13.8959 -0.3175 -0.1862 0.7975 -1.3437 3.0863 24.0590 -2.1670 17.5441 4.7281 -2.4452 -5.0227 -4.1577 -13.8158 2.1285 -19.7534 -18.0016 0.0180 -0.0177 0.0108 0.6665 -10.6049 -3.8152 -0.6198 -10.5702 3.7965 12.5196 15.7680 -13.6833 -61.3464 -12.2343 -30.2026 0.1240 0.4418 -100.1801 12.0424 11.3963 -9.7435 -14.5183 10.5424 15.7997 -59.7846 1.8539 2.4673 3.5352 11.3010 19.3840 68.8755 -47.4405 -36.5264 -0.1164 0.2081 53.6964 -41.7872 -7.8660 3.0556 14.6554 7.3869 -16.1996 49.9495 -3.6639 -5.4234 26.4252 -4.8683 -6.5088 0.0107 49.1236 -1.0263 -22.5291 -29.9338 -7.4950 1.6693 -3.2792 -2.0360 -30.3848 -29.8755 -6.1980 0.9060 37.6737 1.7695 24.0798 7.9935 -5.3937 -1.4377 -0.6507 0.9664
-13.4609 83.1820 60.4758 -0.3200 -10.8408 7.8552 0.0091 14.1117 -0.2914 -0.2095 0.8958 -1.3682 2.9370 24.5347 -2.2073 17.5325 4.4567 -2.4081 -4.9987 -4.1709 -13.6349 2.2611 -19.8254 -17.8581 0.0151 -0.0179 0.0216 0.6676 -10.5933 -3.7969 -0.6268 -10.5583 3.8004 12.2163 15.7753 -13.9812 -59.6535 -12.8121 -31.0260 0.2431 0.5019 -99.8079 12.7725 11.1375 -9.5705 -14.5086 10.5932 15.7928 -59.7268 1.8837 2.4402 3.9027 11.4668 19.4667 68.3385 -48.0829 -35.3287 -0.2273 0.2403 53.5703 -42.4660 -7.9277 3.2840 14.6516 7.3943 -16.2256 50.0151 -3.6729 -5.4375 26.4384 -5.3460 -6.3344 -0.0074 50.4784 -1.0401 -22.5582 -30.6655 -7.6522 1.6670 -3.1136 -2.0470 -30.7575 -30.3383 -5.8843 0.9343 38.1623 1.7871 24.2330 8.0698 -4.8912 -1.4345 -0.6804 0.9822
-13.1517 82.7529 60.1433 -0.2656 -11.0906 7.4790 0.0050 14.2820 -0.2660 -0.2341 0.9984 -1.3787 2.7896 25.0256 -2.2685 17.5127 4.2040 -2.3806 -4.9745 -4.1808 -13.4958 2.3734 -19.9558 -17.7105 0.0138 -0.0201 0.0248 0.6703 -10.5795 -3.7865 -0.6325 -10.5442 3.7986 11.8612 15.7616 -14.2653 -57.9966 -13.2376 -31.6656 0.3075 0.5728 -99.4599 13.5632 11.0472 -9.3568 -14.5063 10.6256 15.7660 -59.7154 1.9080 2.4049 4.2569 11.6233 19.5536 67.4996 -48.7523 -34.0020 -0.2833 0.2418 53.2720 -43.2066 -7.9911 3.4695 14.6295 7.3965 -16.2679 50.0514 -3.6866 -5.4377 26.4570 -5.8448 -6.1212 -0.0285 51.9060 -1.0544 -22.4697 -31.3858 -7.8640 1.6679 -2.9924 -2.0534 -31.1539 -30.8247 -5.6066 0.9790 38.6262 1.8365 24.3940 8.2030 -4.3337 -1.4299 -0.7046 0.9828
-12.7952 82.3291 59.8295 -0.2191 -11.3572 7.0614 0.0298 14.4175 -0.2441 -0.2608 1.1007 -1.3749 2.6552 25.5115 -2.3130 17.4843 4.0168 -2.3597 -4.9587 -4.1834 -13.3526 2.4767 -20.0666 -17.5733 0.0110 -0.0214 0.0342 0.6675 -10.5722 -3.7750 -0.6355 -10.5379 3.8074 11.5076 15.7688 -14.5127 -56.5228 -13.5673 -32.1320 0.3879 0.6587 -99.1184 14.3356 11.0825 -9.1194 -14.5485 10.6580 15.7631 -59.7195 1.9365 2.3807 4.5897 11.7629 19.6684 66.3757 -49.3868 -32.5284 -0.3371 0.2376 52.7490 -43.8967 -8.0070 3.5551 14.6233 7.3968 -16.3061 50.0818 -3.6994 -5.4372 26.4542 -6.3004 -5.8984 -0.0486 53.3451 -1.0692 -22.2906 -32.0841 -8.0357 1.6701 -2.9426 -2.0627 -31.5313 -31.2721 -5.3777 1.0180 38.9758 1.8771 24.5520 8.4239 -3.7349 -1.4253 -0.7167 0.9808
-12.4600 81.9109 59.5935 -0.1804 -11.6294 6.6394 0.0596 14.5361 -0.2023 -0.2785 1.1823 -1.3736 2.5662 25.9759 -2.3412 17.4275 3.9348 -2.3552 -4.9165 -4.1705 -13.2324 2.5793 -20.1702 -17.4398 0.0087 -0.0251 0.0463 0.6673 -10.5816 -3.7612 -0.6400 -10.5486 3.8193 11.1756 15.8072 -14.7063 -55.3170 -13.8498 -32.3880 0.4885 0.7524 -98.8737 15.0574 11.1533 -8.8520 -14.5612 10.6796 15.7547 -59.7806 1.9625 2.3417 4.8472 11.8745 19.8057 65.1799 -49.8688 -31.1421 -0.3281 0.2045 52.1654 -44.5252 -7.9953 3.5812 14.6174 7.3852 -16.2904 50.1221 -3.6583 -5.4214 26.3937 -6.6993 -5.7143 -0.0716 54.7561 -1.0860 -22.1168 -32.7532 -8.0604 1.6714 -2.9225 -2.0626 -31.8917 -31.6855 -5.1762 1.0623 39.2611 1.9139 24.7752 8.6596 -3.1535 -1.4195 -0.7161 0.9812
-12.0816 81.5659 59.3877 -0.1497 -11.9028 6.2579 0.1038 14.6247 -0.1693 -0.2858 1.2651 -1.3687 2.5099 26.3850 -2.3425 17.3954 3.9019 -2.3531 -4.8975 -4.1623 -13.1184 2.6531 -20.2564 -17.3212 0.0065 -0.0264 0.0569 0.6660 -10.5793 -3.7492 -0.6432 -10.5452 3.8292 10.8499 15.8154 -14.8504 -54.4015 -14.0187 -32.4228 0.5838 0.8283 -98.7028 15.6612 11.3096 -8.5806 -14.6068 10.6701 15.7436 -59.8102 1.9857 2.3186 5.0725 11.9811 19.9399 63.9696 -50.2206 -29.8387 -0.3256 0.1772 51.5198 -45.0263 -8.0602 3.6190 14.6070 7.3696 -16.2740 50.1031 -3.6443 -5.4126 26.3164 -7.0230 -5.5406 -0.0962 56.0175 -1.1018 -21.9042 -33.2919 -8.0601 1.6734 -2.9529 -2.0629 -32.2038 -31.9972 -5.0778 1.0851 39.3666 1.9428 25.0444 8.9859 -2.6117 -1.4148 -0.7408 0.9808
-11.7326 81.2900 59.2241 -0.1231 -12.1435 5.9332 0.1452 14.6650 -0.1634 -0.2730 1.3236 -1.3212 2.4905 26.7413 -2.3334 17.3146 3.8970 -2.3613 -4.8439 -4.1406 -13.0431 2.7002 -20.3193 -17.2047 0.0066 -0.0271 0.0550 0.6657 -10.5773 -3.7479 -0.6435 -10.5431 3.8265 10.5279 15.8264 -14.9356 -53.7338 -14.1125 -32.2544 0.6244 0.9119 -98.6768 16.1812 11.5121 -8.3345 -14.6126 10.6791 15.7804 -59.8471 2.0072 2.3211 5.2901 12.0477 20.0574 62.8482 -50.4304 -28.7493 -0.2736 0.1637 50.9099 -45.4809 -8.1021 3.6719 14.6210 7.3586 -16.2335 50.1293 -3.6152 -5.3885 26.2103 -7.2962 -5.3759 -0.1175 57.0736 -1.1056 -21.6615 -33.7120 -8.0667 1.6749 -2.9672 -2.0507 -32.4465 -32.2158 -5.1040 1.0920 39.2969 1.9502 25.3354 9.3235 -2.0953 -1.4086 -0.7784 0.9702
-11.3897 81.1008 59.0317 -0.0933 -12.3718 5.6392 0.1987 14.6886 -0.1271 -0.2538 1.3557 -1.3083 2.5066 27.0398 -2.2898 17.2420 3.9054 -2.3476 -4.8420 -4.1244 -12.9591 2.7306 -20.3147 -17.1851 0.0053 -0.0275 0.0602 0.6612 -10.5820 -3.7417 -0.6415 -10.5473 3.8311 10.2339 15.8349 -14.9374 -53.3384 -14.1303 -31.8996 0.5953 0.9753 -98.7890 16.6117 11.7704 -8.0384 -14.6279 10.6989 15.8081 -59.9001 2.0456 2.3173 5.5152 12.1407 20.2141 61.7382 -50.4924 -27.7675 -0.2565 0.1543 50.3108 -45.8714 -8.1920 3.8203 14.6141 7.3490 -16.1951 50.1408 -3.6007 -5.3778 26.0778 -7.4828 -5.2018 -0.1512 57.9330 -1.1338 -21.4588 -34.0503 -8.0368 1.6758 -2.9695 -2.0434 -32.6482 -32.3223 -5.1770 1.0899 39.0764 1.9480 25.5992 9.7058 -1.6198 -1.4054 -0.8415 0.9738
-11.1065 80.9805 58.9045 -0.0578 -12.5777 5.4012 0.2434 14.6953 -0.1093 -0.2267 1.3649 -1.2934 2.5518 27.2734 -2.1748 17.1558 3.9518 -2.3580 -4.8320 -4.1083 -12.8962 2.7702 -20.2552 -17.2502 0.0039 -0.0288 0.0655 0.6600 -10.6041 -3.7380 -0.6432 -10.5668 3.8386 10.0075 15.8478 -14.8833 -53.1838 -14.0472 -31.3745 0.5189 1.0168 -99.1131 16.9689 11.9733 -7.7295 -14.6415 10.7029 15.8153 -59.9590 2.0543 2.3130 5.7398 12.2399 20.3718 60.7890 -50.3874 -27.0295 -0.2789 0.1316 49.7689 -46.2153 -8.3402 4.1499 14.6016 7.3186 -16.1489 50.0979 -3.6106 -5.3708 25.9197 -7.5977 -5.0136 -0.1781 58.5683 -1.1575 -21.2961 -34.3083 -8.0399 1.6731 -2.9798 -2.0242 -32.8062 -32.3294 -5.2797 1.0749 38.7356 1.9284 25.8178 10.0910 -1.2003 -1.4030 -0.8866 0.9800
-10.8723 80.9267 58.7814 0.0039 -12.7494 5.2097 0.2835 14.6620 -0.0934 -0.2052 1.3601 -1.2644 2.6238 27.4395 -2.0338 17.0829 3.9980 -2.3514 -4.8570 -4.1045 -12.9246 2.8190 -20.1389 -17.4144 0.0042 -0.0304 0.0654 0.6612 -10.6123 -3.7351 -0.6441 -10.5743 3.8363 9.8368 15.8504 -14.7843 -53.2947 -13.9117 -30.6225 0.3488 1.0310 -99.5870 17.2652 12.1189 -7.4446 -14.6811 10.7059 15.8379 -60.0244 2.0722 2.3085 5.9589 12.3417 20.5082 59.9941 -50.1326 -26.4717 -0.3076 0.1395 49.2324 -46.5252 -8.5145 4.5705 14.5988 7.3047 -16.1241 50.0553 -3.6222 -5.3836 25.7391 -7.6388 -4.7929 -0.2038 58.9240 -1.1764 -21.1800 -34.4563 -8.0521 1.6719 -2.9638 -2.0075 -32.9430 -32.2171 -5.3866 1.0417 38.2763 1.8955 25.9870 10.4469 -0.8918 -1.4023 -0.9657 0.9857
-10.6816 80.9701 58.7028 0.0868 -12.8915 5.0826 0.3104 14.5776 -0.1045 -0.1796 1.3579 -1.1971 2.7170 27.5527 -1.8975 16.9944 4.0877 -2.3671 -4.8991 -4.1132 -13.0228 2.8592 -20.0274 -17.6098 0.0055 -0.0363 0.0636 0.6641 -10.6164 -3.7377 -0.6444 -10.5809 3.8350 9.6987 15.8621 -14.6599 -53.6047 -13.6407 -29.7637 0.1796 1.0225 -100.2325 17.5846 12.2600 -7.2033 -14.7414 10.6512 15.8278 -60.0509 2.0610 2.3440 6.1599 12.4170 20.6148 59.5743 -49.7933 -26.3149 -0.3038 0.2024 48.7258 -46.8199 -8.6302 5.0635 14.5539 7.2745 -16.0654 50.0137 -3.6414 -5.3492 25.5362 -7.5973 -4.5464 -0.2214 59.0059 -1.1890 -21.0685 -34.4901 -8.0675 1.6726 -2.9439 -1.9895 -33.0485 -31.9865 -5.5436 1.0150 37.6785 1.8768 26.1294 10.7958 -0.7144 -1.4007 -1.0729 0.9826
-10.5715 81.0623 58.6883 0.1925 -12.9939 4.9850 0.3263 14.4801 -0.1027 -0.1535 1.3323 -1.1286 2.7946 27.6070 -1.7794 16.9329 4.1853 -2.3796 -4.9555 -4.1397 -13.1967 2.9116 -19.8726 -17.8544 0.0087 -0.0413 0.0564 0.6670 -10.6186 -3.7437 -0.6408 -10.5864 3.8254 9.5990 15.8690 -14.5061 -54.0800 -13.2468 -28.8268 -0.0187 1.0281 -100.9836 17.9426 12.3080 -7.0342 -14.7794 10.6095 15.8301 -60.0945 2.0632 2.3898 6.3553 12.4799 20.7128 59.3496 -49.3761 -26.3708 -0.2761 0.2734 48.2765 -47.1245 -8.6897 5.6245 14.4946 7.2756 -16.0362 49.9857 -3.6252 -5.3306 25.3397 -7.5137 -4.2690 -0.2298 58.8745 -1.1904 -20.9675 -34.4075 -8.1446 1.6761 -2.9634 -1.9819 -33.1247 -31.7129 -5.7238 0.9707 37.0394 1.8335 26.2352 11.0992 -0.6053 -1.3994 -1.1781 0.9814
-10.4849 81.2191 58.6832 0.2962 -13.0821 4.9526 0.3354 14.3806 -0.1026 -0.1277 1.3118 -1.0624 2.8685 27.6151 -1.6869 16.8758 4.2806 -2.4029 -5.0288 -4.1615 -13.3570 3.0038 -19.7109 -18.1860 0.0111 -0.0448 0.0539 0.6691 -10.6206 -3.7485 -0.6381 -10.5927 3.8237 9.5195 15.8710 -14.3486 -54.6578 -12.7360 -27.8728 -0.1927 0.9567 -101.7908 18.2775 12.4085 -6.8830 -14.8520 10.5240 15.8176 -60.1371 2.0346 2.4326 6.5386 12.5170 20.7687 59.3397 -48.9064 -26.6151 -0.2381 0.3444 47.8839 -47.3986 -8.7518 6.2243 14.4545 7.2750 -15.9743 49.9956 -3.5990 -5.2887 25.1585 -7.3584 -4.0133 -0.2380 58.5601 -1.1885 -20.8979 -34.2426 -8.2365 1.6778 -2.9987 -1.9745 -33.1613 -31.3577 -5.9193 0.9455 36.3801 1.8168 26.3089 11.3302 -0.6197 -1.3975 -1.2838 0.9861
-10.4726 81.4137 58.6734 0.3945 -13.1386 4.9377 0.3437 14.3079 -0.0803 -0.1047 1.2663 -1.0253 2.9186 27.5886 -1.6110 16.8092 4.3703 -2.4074 -5.0777 -4.1812 -13.5428 3.1217 -19.5211 -18.5395 0.0130 -0.0446 0.0573 0.6682 -10.6273 -3.7458 -0.6335 -10.6018 3.8273 9.4394 15.8931 -14.1962 -55.2522 -12.1712 -26.9738 -0.3442 0.8960 -102.5729 18.5538 12.4415 -6.7839 -14.8378 10.4681 15.7997 -60.1892 1.9961 2.4482 6.6925 12.5504 20.8147 59.4650 -48.3508 -26.9457 -0.2374 0.3769 47.6026 -47.6217 -8.7759 6.8249 14.4131 7.2978 -15.9271 49.9840 -3.5622 -5.2446 25.0056 -7.1898 -3.7849 -0.2513 58.1492 -1.2011 -20.8687 -34.0234 -8.3438 1.6797 -3.0688 -1.9773 -33.1650 -31.0095 -6.0470 0.9204 35.8183 1.7884 26.3421 11.4759 -0.6834 -1.3964 -1.3966 0.9929
-10.5233 81.6229 58.6589 0.4633 -13.1445 4.9849 0.3418 14.2146 -0.0961 -0.0853 1.2280 -0.9604 2.9638 27.5189 -1.5677 16.7358 4.4314 -2.4180 -5.1131 -4.2026 -13.7636 3.2634 -19.3144 -18.8849 0.0162 -0.0480 0.0536 0.6693 -10.6284 -3.7513 -0.6286 -10.6099 3.8254 9.3432 15.9395 -14.0819 -55.7707 -11.6039 -26.2408 -0.4658 0.8647 -103.2355 18.7465 12.4258 -6.7680 -14.8760 10.4282 15.8027 -60.2514 1.9609 2.4895 6.8276 12.5702 20.7711 59.7100 -47.8139 -27.2650 -0.3023 0.4297 47.3726 -47.7573 -8.8572 7.4360 14.4110 7.3170 -15.8934 49.9652 -3.5190 -5.2005 24.9053 -6.9830 -3.6263 -0.2372 57.5782 -1.1684 -20.8560 -33.7200 -8.4704 1.6805 -3.1258 -1.9738 -33.0987 -30.6449 -6.2256 0.9122 35.2467 1.7818 26.3386 11.5745 -0.8131 -1.3932 -1.4827 0.9961
-10.6366 81.8605 58.7031 0.4921 -13.1194 5.0740 0.3605 14.1337 -0.0896 -0.0779 1.1733 -0.9529 2.9774 27.4345 -1.5454 16.6792 4.4549 -2.4075 -5.1589 -4.2228 -13.9673 3.4115 -19.1317 -19.2408 0.0203 -0.0484 0.0468 0.6686 -10.6384 -3.7618 -0.6191 -10.6261 3.8191 9.2532 15.9857 -14.0334 -56.2092 -11.0326 -25.6476 -0.5601 0.8380 -103.7614 18.8356 12.3578 -6.7080 -14.9146 10.4236 15.8016 -60.3153 1.9578 2.4991 6.9684 12.5927 20.6975 59.9160 -47.3391 -27.5226 -0.3055 0.4285 47.1013 -47.8226 -8.8826 8.0064 14.4106 7.3335 -15.8788 49.9287 -3.4818 -5.1904 24.8683 -6.7863 -3.5384 -0.2201 56.9770 -1.1388 -20.8802 -33.4056 -8.5545 1.6824 -3.1513 -1.9757 -32.9718 -30.3016 -6.3919 0.8976 34.7955 1.7698 26.2976 11.6170 -0.9764 -1.3926 -1.5467 1.0043
-10.7859 82.0836 58.7096 0.4933 -13.0927 5.2142 0.3664 14.0459 -0.1225 -0.0751 1.1308 -0.9440 2.9765 27.3611 -1.5527 16.5896 4.4896 -2.3858 -5.1435 -4.2280 -14.1934 3.5708 -18.9718 -19.5580 0.0242 -0.0506 0.0369 0.6697 -10.6426 -3.7730 -0.6127 -10.6352 3.8101 9.1668 16.0426 -14.0262 -56.5174 -10.5057 -25.3346 -0.5715 0.8170 -104.0927 18.8631 12.3094 -6.7431 -14.8837 10.4283 15.8467 -60.3174 1.9395 2.5382 7.0789 12.6315 20.6159 60.1720 -46.9378 -27.7983 -0.3181 0.4052 46.8018 -47.8498 -8.8166 8.5082 14.4236 7.3454 -15.8536 49.8998 -3.4641 -5.1763 24.8645 -6.5738 -3.5111 -0.1938 56.3335 -1.0985 -20.8961 -33.0623 -8.5889 1.6834 -3.1771 -1.9711 -32.8470 -29.9864 -6.5452 0.9180 34.4974 1.7922 26.1861 11.5934 -1.1781 -1.3938 -1.5815 1.0087
-10.9855 82.2863 58.7599 0.4664 -13.0845 5.3392 0.3790 13.9930 -0.1086 -0.0744 1.0837 -1.0070 2.9350 27.3082 -1.5692 16.5318 4.5248 -2.3361 -5.1599 -4.2364 -14.3747 3.7230 -18.7852 -19.8508 0.0267 -0.0509 0.0319 0.6715 -10.6618 -3.7821 -0.6086 -10.6589 3.8055 9.0770 16.0889 -14.0246 -56.7227 -10.0721 -25.2271 -0.5336 0.7852 -104.2755 18.8555 12.3104 -6.8651 -14.8670 10.4314 15.8472 -60.3519 1.9329 2.5316 7.1321 12.6909 20.5461 60.3330 -46.5614 -27.9407 -0.3672 0.3849 46.4613 -47.8586 -8.8662 9.0326 14.4028 7.3457 -15.8329 49.8394 -3.4560 -5.1745 24.9189 -6.3463 -3.4943 -0.1802 55.7445 -1.0884 -20.9523 -32.7195 -8.5474 1.6824 -3.2288 -1.9708 -32.6701 -29.6986 -6.6263 0.9024 34.3582 1.7671 26.0182 11.4921 -1.3787 -1.3970 -1.5622 1.0149
-11.2187 82.4621 58.8722 0.4218 -13.0803 5.5005 0.3709 13.9183 -0.1549 -0.0844 1.0655 -1.0104 2.8805 27.2551 -1.6218 16.4936 4.5949 -2.3377 -5.1510 -4.2490 -14.4979 3.8628 -18.6285 -20.0482 0.0288 -0.0528 0.0272 0.6770 -10.6641 -3.7890 -0.6097 -10.6600 3.8022 9.0145 16.1311 -14.0753 -56.8306 -9.7007 -25.2925 -0.4181 0.7586 -104.3419 18.7910 12.3857 -7.0567 -14.8318 10.4235 15.8850 -60.2791 1.9153 2.5785 7.1564 12.7326 20.4342 60.4250 -46.1866 -27.9350 -0.5413 0.3971 46.0979 -47.8350 -9.0798 9.5021 14.3650 7.3507 -15.7777 49.7909 -3.4601 -5.1544 25.0313 -6.0867 -3.5020 -0.1747 55.1042 -1.0906 -21.0647 -32.3670 -8.4447 1.6814 -3.2498 -1.9566 -32.5004 -29.4071 -6.7197 0.9023 34.2703 1.7613 25.8697 11.3801 -1.6075 -1.4003 -1.5056 1.0122
-11.4541 82.6268 58.9990 0.3683 -13.0766 5.6423 0.3715 13.8531 -0.1649 -0.0973 1.0360 -1.0595 2.8100 27.2071 -1.6898 16.4661 4.6651 -2.3187 -5.1451 -4.2453 -14.5799 3.9957 -18.4994 -20.2392 0.0295 -0.0471 0.0298 0.6804 -10.6640 -3.7887 -0.6113 -10.6588 3.8053 8.9501 16.1644 -14.1428 -56.8765 -9.4359 -25.4586 -0.2985 0.7344 -104.2825 18.6697 12.4845 -7.2118 -14.8106 10.4185 15.8814 -60.2551 1.9173 2.5778 7.1645 12.7864 20.3382 60.4117 -45.9056 -27.8854 -0.6543 0.3950 45.6897 -47.7832 -9.4210 10.0353 14.3114 7.3344 -15.7390 49.7106 -3.4814 -5.1336 25.1496 -5.8354 -3.5366 -0.1686 54.5192 -1.0985 -21.2260 -32.0470 -8.2973 1.6809 -3.2647 -1.9490 -32.3159 -29.1724 -6.7590 0.8831 34.3269 1.7328 25.7670 11.2124 -1.7992 -1.4060 -1.4442 1.0113
-11.6967 82.7756 59.1258 0.3147 -13.0677 5.8031 0.3693 13.7916 -0.1839 -0.1194 1.0080 -1.0969 2.7284 27.1768 -1.7862 16.4534 4.7299 -2.2940 -5.1178 -4.2437 -14.6539 4.1079 -18.3555 -20.3791 0.0306 -0.0454 0.0264 0.6866 -10.6698 -3.7953 -0.6158 -10.6630 3.8063 8.9102 16.1643 -14.2188 -56.8626 -9.2459 -25.6705 -0.1710 0.6985 -104.2134 18.5319 12.5975 -7.3229 -14.8303 10.4046 15.8884 -60.2347 1.9014 2.5777 7.1261 12.8424 20.2382 60.4409 -45.6801 -27.8822 -0.7537 0.3918 45.3271 -47.7874 -9.7646 10.4930 14.2757 7.3306 -15.6929 49.6800 -3.4835 -5.1235 25.2828 -5.5832 -3.5995 -0.1624 53.9342 -1.0962 -21.4132 -31.7288 -8.1724 1.6799 -3.2910 -1.9418 -32.1385 -28.9718 -6.7880 0.8722 34.4351 1.7205 25.6877 11.0000 -2.0113 -1.4084 -1.3631 1.0027
-11.9522 82.9067 59.2212 0.2707 -13.0581 5.9246 0.3646 13.7369 -0.1832 -0.1467 0.9814 -1.1206 2.6374 27.1521 -1.9006 16.4237 4.7737 -2.2909 -5.0919 -4.2276 -14.6989 4.2314 -18.2234 -20.5188 0.0293 -0.0410 0.0292 0.6882 -10.6697 -3.7941 -0.6199 -10.6619 3.8107 8.8834 16.1303 -14.3253 -56.8564 -9.1080 -25.8958 -0.0640 0.6694 -104.1140 18.3994 12.6282 -7.4045 -14.8376 10.3912 15.8554 -60.1889 1.8924 2.5582 7.0688 12.9135 20.1235 60.4051 -45.5045 -27.8210 -0.7956 0.3844 44.9539 -47.8103 -10.1508 10.9293 14.2256 7.3425 -15.6651 49.6826 -3.4741 -5.1067 25.4085 -5.3343 -3.6709 -0.1388 53.4038 -1.0649 -21.6222 -31.4154 -8.0735 1.6821 -3.3161 -1.9456 -31.9665 -28.8227 -6.7828 0.8505 34.6117 1.6895 25.5733 10.7722 -2.2333 -1.4122 -1.2856 0.9959
-12.1919 83.0220 59.3004 0.2414 -13.0487 6.0085 0.3608 13.6909 -0.1599 -0.1715 0.9516 -1.1783 2.5272 27.1465 -1.9926 16.3919 4.8218 -2.3016 -5.0702 -4.2096 -14.7306 4.3684 -18.1150 -20.6373 0.0275 -0.0370 0.0317 0.6894 -10.6673 -3.7926 -0.6244 -10.6614 3.8138 8.8876 16.0690 -14.4461 -56.8629 -9.0252 -26.0959 0.0267 0.6517 -104.0244 18.2832 12.6056 -7.4982 -14.8274 10.3819 15.8251 -60.1588 1.8856 2.5297 6.9950 12.9910 19.9976 60.3277 -45.3595 -27.7202 -0.7562 0.3812 44.6449 -47.8936 -10.4829 11.3000 14.1919 7.3478 -15.6786 49.6974 -3.4876 -5.1175 25.5267 -5.1063 -3.7374 -0.1112 52.9269 -1.0355 -21.8192 -31.1047 -7.9660 1.6839 -3.3452 -1.9628 -31.8062 -28.7141 -6.7399 0.8364 34.8071 1.6544 25.3992 10.5818 -2.4256 -1.4168 -1.2063 0.9911
-12.4117 83.1368 59.3214 0.2303 -13.0339 6.0652 0.3344 13.6428 -0.1883 -0.1936 0.9317 -1.1834 2.4196 27.1503 -2.0915 16.3202 4.8859 -2.3232 -5.0406 -4.1984 -14.7213 4.5195 -18.0292 -20.6996 0.0235 -0.0371 0.0394 0.6864 -10.6682 -3.7845 -0.6299 -10.6618 3.8248 8.8961 15.9843 -14.5609 -56.8726 -9.0041 -26.2431 0.0552 0.6173 -103.9470 18.2041 12.5018 -7.6122 -14.8296 10.3647 15.8170 -60.1293 1.8712 2.5434 6.9027 13.0709 19.8457 60.2056 -45.2469 -27.5434 -0.7305 0.3908 44.4338 -47.9176 -10.7421 11.4745 14.1777 7.3383 -15.6580 49.7123 -3.5023 -5.1260 25.6290 -4.9001 -3.7864 -0.0800 52.4707 -0.9858 -21.9850 -30.7882 -7.8884 1.6828 -3.3427 -1.9670 -31.6470 -28.6249 -6.7163 0.8426 34.9438 1.6610 25.2112 10.4263 -2.6445 -1.4166 -1.1853 0.9817
-12.6125 83.2326 59.4032 0.2286 -13.0089 6.0715 0.3072 13.6028 -0.1923 -0.2141 0.9021 -1.1960 2.3048 27.1627 -2.1903 16.2911 4.9578 -2.3455 -5.0082 -4.1790 -14.7049 4.6457 -17.9783 -20.7173 0.0185 -0.0382 0.0565 0.6835 -10.6510 -3.7638 -0.6369 -10.6483 3.8394 8.9054 15.9202 -14.6729 -56.9173 -9.0173 -26.3384 0.0938 0.6187 -103.8686 18.1383 12.4788 -7.7402 -14.8371 10.3394 15.8024 -60.1017 1.8698 2.5544 6.8392 13.1658 19.7224 60.1452 -45.1725 -27.4817 -0.6503 0.4125 44.3359 -47.9071 -10.8562 11.5965 14.1837 7.3478 -15.6766 49.7477 -3.5012 -5.1455 25.7302 -4.7165 -3.7748 -0.0550 52.0275 -0.9566 -22.1262 -30.4783 -7.8484 1.6833 -3.3566 -1.9829 -31.4950 -28.5625 -6.6753 0.8418 35.0349 1.6562 25.0592 10.3172 -2.8131 -1.4144 -1.1882 0.9792
-12.8005 83.3161 59.4934 0.2341 -12.9775 6.0735 0.2751 13.5807 -0.1930 -0.2231 0.8772 -1.2214 2.1833 27.1605 -2.3018 16.2899 5.0610 -2.3662 -4.9787 -4.1658 -14.6634 4.7531 -17.9339 -20.7305 0.0126 -0.0391 0.0764 0.6777 -10.6293 -3.7413 -0.6429 -10.6259 3.8591 8.8973 15.8845 -14.7709 -56.9527 -9.1051 -26.3758 0.1081 0.6395 -103.7973 18.1430 12.4884 -7.9320 -14.8258 10.3433 15.8036 -60.0452 1.8689 2.5545 6.7923 13.2304 19.5991 60.0396 -45.0467 -27.3569 -0.6338 0.4592 44.3387 -47.8313 -11.0034 11.6662 14.2198 7.3493 -15.6966 49.7632 -3.5182 -5.1802 25.8239 -4.5291 -3.7881 -0.0385 51.5926 -0.9290 -22.2848 -30.1911 -7.8316 1.6803 -3.3970 -1.9870 -31.3901 -28.5100 -6.6177 0.8495 35.1062 1.6609 24.9254 10.2308 -2.9885 -1.4120 -1.1831 0.9830
-12.9578 83.4272 59.5649 0.2194 -12.9190 6.0552 0.2551 13.5484 -0.1911 -0.2302 0.8497 -1.2633 2.0778 27.1535 -2.3958 16.2974 5.1451 -2.3606 -4.9670 -4.1643 -14.6151 4.8258 -17.8351 -20.7094 0.0081 -0.0433 0.0953 0.6748 -10.6188 -3.7209 -0.6487 -10.6184 3.8765 8.8366 15.9077 -14.8474 -56.9250 -9.2060 -26.4083 0.1638 0.6458 -103.7406 18.1660 12.4384 -8.1479 -14.8303 10.3554 15.7922 -60.0337 1.8647 2.5341 6.7829 13.2817 19.4933 59.9447 -44.9302 -27.3084 -0.5539 0.4598 44.4541 -47.7555 -11.0934 11.7624 14.2351 7.3636 -15.7384 49.7961 -3.5033 -5.2093 25.8728 -4.3734 -3.8206 -0.0228 51.1644 -0.9132 -22.4114 -29.9150 -7.7631 1.6814 -3.4690 -1.9980 -31.2273 -28.4766 -6.5681 0.8530 35.1567 1.6590 24.7611 10.1550 -3.1617 -1.4101 -1.2023 0.9912
-13.0919 83.5342 59.6153 0.1983 -12.8319 6.0635 0.2345 13.5008 -0.2273 -0.2412 0.8261 -1.2846 1.9946 27.1408 -2.5010 16.3002 5.2267 -2.3448 -4.9405 -4.1701 -14.5876 4.8894 -17.6968 -20.6725 0.0060 -0.0526 0.1030 0.6752 -10.6135 -3.7124 -0.6530 -10.6162 3.8846 8.7631 15.9353 -14.9082 -56.8613 -9.3300 -26.4417 0.2557 0.6569 -103.6637 18.2211 12.3691 -8.3636 -14.8361 10.3781 15.8090 -60.0189 1.8526 2.5272 6.8024 13.3363 19.4210 59.8319 -44.8076 -27.2343 -0.5363 0.4510 44.5782 -47.6500 -11.1655 11.8322 14.2312 7.3696 -15.7646 49.8020 -3.4817 -5.2260 25.9081 -4.2351 -3.8716 -0.0001 50.7131 -0.8838 -22.5200 -29.6616 -7.6747 1.6809 -3.5105 -1.9962 -31.0657 -28.4419 -6.5446 0.8712 35.1232 1.6788 24.6023 10.1361 -3.3336 -1.4079 -1.1947 0.9920
-13.2025 83.6500 59.6171 0.1658 -12.7346 6.0711 0.2258 13.4734 -0.2403 -0.2462 0.7968 -1.3412 1.9259 27.1240 -2.5756 16.3199 5.3133 -2.3029 -4.9368 -4.1854 -14.5437 4.9353 -17.5339 -20.6276 0.0047 -0.0603 0.1062 0.6767 -10.6279 -3.7113 -0.6565 -10.6335 3.8894 8.6823 15.9813 -14.9451 -56.7278 -9.4959 -26.4507 0.3493 0.6391 -103.5741 18.3016 12.2518 -8.5453 -14.8406 10.4074 15.8108 -60.0788 1.8350 2.4950 6.8357 13.4127 19.3837 59.7194 -44.6776 -27.1871 -0.5435 0.4161 44.7101 -47.5135 -11.2743 11.9463 14.1983 7.3718 -15.7990 49.7615 -3.4818 -5.2509 25.9130 -4.1315 -3.9160 0.0160 50.3064 -0.8649 -22.6216 -29.4703 -7.5319 1.6799 -3.5054 -1.9922 -30.8833 -28.4072 -6.5163 0.8808 35.0856 1.6852 24.4555 10.1234 -3.5113 -1.4072 -1.1285 0.9911
-13.2782 83.7489 59.6203 0.1312 -12.6216 6.0777 0.2158 13.4365 -0.2422 -0.2463 0.7723 -1.3857 1.8959 27.1061 -2.6325 16.3498 5.3892 -2.2812 -4.9240 -4.1906 -14.5149 4.9844 -17.3727 -20.5927 0.0035 -0.0667 0.1043 0.6749 -10.6380 -3.7175 -0.6568 -10.6445 3.8917 8.6059 16.0178 -14.9817 -56.5804 -9.6922 -26.4211 0.4315 0.6615 -103.5112 18.3675 12.1555 -8.7246 -14.8136 10.4343 15.8222 -60.1008 1.8250 2.4956 6.9194 13.4841 19.3570 59.6077 -44.5464 -27.2085 -0.5829 0.4137 44.8388 -47.3597 -11.4103 12.0597 14.2077 7.3706 -15.8425 49.7348 -3.4772 -5.3021 25.9483 -4.0510 -3.9331 0.0378 49.9017 -0.8528 -22.7296 -29.2955 -7.3916 1.6806 -3.4853 -1.9871 -30.7325 -28.3526 -6.4702 0.8879 34.9957 1.6902 24.3804 10.1418 -3.6689 -1.4078 -1.0545 0.9931
-13.3477 83.8621 59.6198 0.0942 -12.5115 6.0976 0.2166 13.4034 -0.2449 -0.2448 0.7595 -1.4175 1.8843 27.0646 -2.6692 16.3904 5.4720 -2.2645 -4.8973 -4.1958 -14.4633 5.0167 -17.2243 -20.5509 0.0045 -0.0668 0.0941 0.6753 -10.6489 -3.7323 -0.6545 -10.6545 3.8841 8.5399 16.0228 -15.0233 -56.4468 -9.9124 -26.3390 0.4360 0.7068 -103.4510 18.4563 12.0854 -8.8427 -14.8198 10.4205 15.8018 -60.1177 1.8270 2.5005 7.0536 13.5460 19.3287 59.3661 -44.3862 -27.1296 -0.6391 0.4177 44.8939 -47.2102 -11.6702 12.2506 14.2035 7.3775 -15.8636 49.7398 -3.4787 -5.3412 25.9485 -3.9630 -3.9776 0.0565 49.5029 -0.8328 -22.8600 -29.1817 -7.1728 1.6794 -3.4077 -1.9763 -30.5803 -28.2807 -6.4393 0.9001 34.8601 1.7106 24.3301 10.1859 -3.8551 -1.4093 -0.9634 0.9996
-13.4277 83.9537 59.6253 0.0564 -12.3994 6.1335 0.2232 13.3710 -0.2572 -0.2403 0.7364 -1.4324 1.9129 27.0536 -2.6785 16.4165 5.5480 -2.2512 -4.8504 -4.1903 -14.4067 5.0109 -17.1415 -20.4788 0.0046 -0.0617 0.0870 0.6734 -10.6739 -3.7435 -0.6526 -10.6798 3.8829 8.4852 16.0224 -15.0279 -56.2533 -10.1621 -26.3012 0.4287 0.7015 -103.4424 18.5879 12.0685 -8.9453 -14.7965 10.4115 15.8167 -60.1475 1.8338 2.5159 7.1891 13.5906 19.3043 59.0162 -44.1963 -26.9802 -0.7442 0.4187 44.8951 -47.0825 -11.9487 12.4248 14.2128 7.3950 -15.8566 49.7518 -3.4983 -5.3513 25.9195 -3.9035 -4.0464 0.0767 49.1746 -0.8214 -22.9690 -29.0689 -6.9369 1.6798 -3.3581 -1.9605 -30.4351 -28.2207 -6.4184 0.9116 34.7211 1.7189 24.2698 10.2276 -3.9883 -1.4104 -0.9086 0.9942
-13.4723 84.0520 59.6279 0.0303 -12.2830 6.1733 0.2299 13.3382 -0.2634 -0.2277 0.7223 -1.4445 1.9677 27.0222 -2.6775 16.4567 5.5894 -2.2551 -4.7989 -4.1898 -14.3647 4.9886 -17.0539 -20.3955 0.0047 -0.0522 0.0788 0.6714 -10.6756 -3.7560 -0.6506 -10.6794 3.8795 8.4314 15.9977 -15.0375 -56.0769 -10.4208 -26.2360 0.3739 0.6897 -103.4887 18.7158 12.0925 -9.0105 -14.8161 10.4008 15.8292 -60.1506 1.8560 2.5433 7.3655 13.6014 19.3036 58.5675 -44.0115 -26.8069 -0.8633 0.4507 44.8226 -46.9946 -12.3199 12.6375 14.2096 7.4053 -15.8474 49.7686 -3.5227 -5.3629 25.8848 -3.8587 -4.1169 0.0919 48.8577 -0.8177 -23.1089 -28.9656 -6.6975 1.6797 -3.2829 -1.9436 -30.3160 -28.1471 -6.4074 0.9009 34.5249 1.7175 24.2054 10.3090 -4.1045 -1.4146 -0.8359 0.9974
-13.4993 84.1280 59.6394 0.0294 -12.1584 6.2299 0.2402 13.3170 -0.2648 -0.2193 0.6980 -1.4684 2.0393 27.0194 -2.6646 16.5190 5.5841 -2.2789 -4.7824 -4.1890 -14.3189 4.9755 -16.9697 -20.3496 0.0031 -0.0446 0.0775 0.6684 -10.6685 -3.7588 -0.6503 -10.6730 3.8790 8.3957 15.9474 -15.0246 -55.8718 -10.6654 -26.2096 0.2868 0.6818 -103.6379 18.8601 12.0825 -9.0358 -14.8270 10.3947 15.8173 -60.1507 1.8690 2.5454 7.5363 13.6407 19.3331 58.2811 -43.9609 -26.8500 -0.9086 0.4724 44.6782 -46.9510 -12.6313 12.8782 14.1757 7.4205 -15.8240 49.7442 -3.5399 -5.3522 25.8259 -3.8667 -4.1777 0.1033 48.5971 -0.8156 -23.2644 -28.8788 -6.4627 1.6799 -3.1754 -1.9326 -30.2629 -28.0821 -6.3789 0.8821 34.3031 1.6949 24.1576 10.4020 -4.1906 -1.4195 -0.7847 1.0060
-13.4894 84.2152 59.5987 0.0411 -12.0211 6.2741 0.2632 13.2821 -0.2608 -0.2061 0.6730 -1.4915 2.1234 27.0375 -2.6614 16.5384 5.5577 -2.2693 -4.7603 -4.1929 -14.2899 4.9577 -16.8725 -20.2895 0.0027 -0.0393 0.0725 0.6685 -10.6720 -3.7647 -0.6511 -10.6753 3.8756 8.3635 15.8602 -14.9808 -55.6140 -10.8720 -26.2567 0.2350 0.6346 -103.8526 18.9669 12.0507 -9.0701 -14.8715 10.3787 15.8009 -60.1913 1.8652 2.5230 7.7085 13.6921 19.3762 58.0125 -43.9990 -26.9400 -0.9140 0.4497 44.5476 -46.9238 -12.8899 13.1172 14.1086 7.4283 -15.8205 49.7302 -3.5745 -5.3414 25.7101 -3.9151 -4.2524 0.1185 48.3818 -0.7924 -23.3585 -28.7909 -6.2679 1.6799 -3.0742 -1.9184 -30.2146 -28.0552 -6.3374 0.8528 34.1176 1.6577 24.0930 10.5068 -4.2731 -1.4242 -0.7599 1.0180
-13.4562 84.2911 59.5526 0.0784 -11.8598 6.2947 0.2844 13.2218 -0.2771 -0.1960 0.6612 -1.4624 2.2193 27.0491 -2.6803 16.5565 5.4967 -2.2818 -4.7663 -4.2035 -14.2736 4.9399 -16.7627 -20.2507 0.0023 -0.0365 0.0703 0.6702 -10.6590 -3.7655 -0.6537 -10.6624 3.8734 8.3733 15.7369 -14.9290 -55.3196 -11.0472 -26.4142 0.1929 0.6417 -104.0719 19.0935 12.0562 -9.0857 -14.9254 10.3662 15.7938 -60.2056 1.8656 2.5054 7.9060 13.7267 19.4301 57.7039 -44.0786 -26.9809 -0.9354 0.4982 44.3874 -46.9201 -13.1791 13.3029 14.0847 7.4399 -15.8185 49.7257 -3.5972 -5.3154 25.5987 -4.0052 -4.2759 0.1333 48.1626 -0.7707 -23.4300 -28.7101 -6.1311 1.6799 -2.9591 -1.9102 -30.2070 -28.0463 -6.3066 0.8524 33.8713 1.6521 24.0415 10.6648 -4.3444 -1.4276 -0.7525 1.0346
-13.4514 84.3742 59.5164 0.1429 -11.7031 6.2783 0.3053 13.1860 -0.2608 -0.1820 0.6371 -1.4857 2.3205 27.1029 -2.6603 16.5483 5.4131 -2.2786 -4.7834 -4.2054 -14.2564 4.9629 -16.6634 -20.2574 0.0008 -0.0299 0.0744 0.6704 -10.6441 -3.7584 -0.6567 -10.6468 3.8746 8.4125 15.5899 -14.8804 -54.9844 -11.1973 -26.5843 0.1823 0.6910 -104.3696 19.1949 12.1169 -9.0288 -14.9926 10.3548 15.7583 -60.2718 1.8645 2.4788 8.1067 13.7490 19.5067 57.3537 -44.2063 -27.0027 -0.9406 0.5161 44.2432 -46.9453 -13.4798 13.5231 14.0566 7.4365 -15.8068 49.6960 -3.6060 -5.2786 25.4517 -4.1207 -4.2583 0.1406 47.9991 -0.7530 -23.4893 -28.6671 -6.0058 1.6794 -2.8566 -1.9122 -30.2267 -28.0934 -6.2457 0.8410 33.6607 1.6427 23.9755 10.8410 -4.3905 -1.4285 -0.7841 1.0493
-13.4041 84.4523 59.5186 0.2207 -11.5236 6.2608 0.3149 13.1508 -0.2645 -0.1679 0.6281 -1.4617 2.4175 27.1095 -2.6538 16.5601 5.3294 -2.2912 -4.8043 -4.2059 -14.2589 4.9889 -16.5892 -20.2672 -0.0023 -0.0258 0.0780 0.6667 -10.6230 -3.7517 -0.6591 -10.6246 3.8767 8.4905 15.4549 -14.8310 -54.6258 -11.3567 -26.7897 0.1895 0.7569 -104.5803 19.3154 12.2287 -9.0022 -15.0385 10.3743 15.7884 -60.3031 1.8644 2.4801 8.3188 13.7485 19.5937 57.0329 -44.2967 -26.9678 -0.9986 0.5737 44.1130 -46.9927 -13.8353 13.7535 14.0213 7.4326 -15.7985 49.6430 -3.6150 -5.2574 25.3081 -4.2519 -4.2584 0.1444 47.8305 -0.7273 -23.5266 -28.6303 -5.9343 1.6782 -2.8070 -1.9161 -30.2669 -28.1544 -6.1998 0.8568 33.3970 1.6620 23.8900 11.0039 -4.4404 -1.4262 -0.8115 1.0482
-13.3241 84.5189 59.4913 0.2929 -11.3398 6.2378 0.3273 13.1150 -0.2462 -0.1576 0.6124 -1.4432 2.5206 27.1071 -2.6464 16.5583 5.2522 -2.3071 -4.8251 -4.1850 -14.2291 5.0172 -16.5486 -20.2959 -0.0054 -0.0271 0.0857 0.6652 -10.6045 -3.7425 -0.6637 -10.6086 3.8838 8.5676 15.3349 -14.8252 -54.2701 -11.4701 -27.0094 0.2548 0.8043 -104.7128 19.4449 12.3646 -8.9822 -15.0731 10.3697 15.7917 -60.3063 1.8721 2.4748 8.5369 13.7314 19.6862 56.7079 -44.3879 -26.8946 -1.0307 0.6386 43.9984 -47.0186 -14.0646 13.9267 14.0047 7.4405 -15.8039 49.6506 -3.5852 -5.2680 25.1652 -4.4083 -4.2299 0.1508 47.6876 -0.7110 -23.5405 -28.5885 -5.8854 1.6753 -2.7965 -1.9230 -30.2962 -28.2147 -6.1500 0.8681 33.1192 1.6804 23.8359 11.1676 -4.4352 -1.4220 -0.8783 1.0471
-13.2706 84.5887 59.4748 0.3465 -11.1291 6.1969 0.3432 13.0869 -0.2332 -0.1411 0.6156 -1.4195 2.6140 27.0670 -2.6267 16.6079 5.1145 -2.3013 -4.8494 -4.1750 -14.2355 5.0375 -16.5026 -20.3259 -0.0073 -0.0319 0.0848 0.6633 -10.6004 -3.7445 -0.6655 -10.6051 3.8850 8.6695 15.2383 -14.8113 -53.8878 -11.6429 -27.2064 0.2672 0.8374 -104.7369 19.5956 12.4517 -8.9555 -15.0618 10.3756 15.7923 -60.2477 1.8868 2.4746 8.7349 13.6621 19.7941 56.4197 -44.4309 -26.7599 -1.1169 0.6963 43.8758 -47.0188 -14.2680 14.1622 14.0062 7.4483 -15.8200 49.6424 -3.5683 -5.3172 25.0558 -4.5819 -4.1738 0.1379 47.5621 -0.7289 -23.5557 -28.5460 -5.8512 1.6729 -2.8437 -1.9289 -30.3017 -28.3161 -6.1316 0.8632 32.8394 1.6829 23.7830 11.3091 -4.3857 -1.4196 -0.9207 1.0397
-13.1975 84.6564 59.4511 0.3859 -10.9138 6.1640 0.3531 13.0605 -0.2512 -0.1215 0.6173 -1.3924 2.6943 27.0172 -2.5929 16.6634 4.9681 -2.2926 -4.8928 -4.1625 -14.2413 5.0914 -16.4526 -20.3830 -0.0075 -0.0391 0.0789 0.6622 -10.6054 -3.7534 -0.6651 -10.6114 3.8836 8.7541 15.1763 -14.8054 -53.4348 -11.8347 -27.4726 0.3268 0.8166 -104.6424 19.7313 12.4886 -8.9458 -15.0488 10.3921 15.8260 -60.2622 1.8928 2.4656 8.9388 13.5693 19.9037 56.2172 -44.4578 -26.6197 -1.2603 0.7312 43.7783 -46.9474 -14.3459 14.3340 14.0055 7.4464 -15.8310 49.5749 -3.5644 -5.3592 24.9526 -4.7482 -4.1568 0.1294 47.4176 -0.7390 -23.5913 -28.5144 -5.7708 1.6719 -2.8213 -1.9250 -30.2667 -28.4354 -6.1500 0.8724 32.5610 1.6984 23.7415 11.4413 -4.3488 -1.4195 -0.8965 1.0245
-13.1484 84.7269 59.4053 0.4211 -10.6943 6.1287 0.3604 13.0248 -0.2708 -0.1047 0.6328 -1.3839 2.7513 26.9641 -2.5496 16.7122 4.7804 -2.2720 -4.9486 -4.1546 -14.2742 5.1271 -16.3776 -20.4517 -0.0051 -0.0450 0.0674 0.6642 -10.6063 -3.7681 -0.6618 -10.6177 3.8735 8.7921 15.1273 -14.8220 -52.9414 -12.0303 -27.7540 0.3988 0.8129 -104.4507 19.8452 12.5020 -8.9264 -15.0428 10.4030 15.8704 -60.2762 1.9079 2.4724 9.1467 13.4769 20.0294 56.1694 -44.5660 -26.6238 -1.3090 0.7216 43.7400 -46.8845 -14.2521 14.4727 14.0332 7.4620 -15.8644 49.5616 -3.5456 -5.4118 24.8656 -4.8959 -4.1398 0.1252 47.2319 -0.7662 -23.6352 -28.4156 -5.6255 1.6717 -2.7929 -1.9324 -30.2324 -28.5569 -6.1443 0.8698 32.3015 1.7076 23.7260 11.5775 -4.3088 -1.4224 -0.8556 1.0158
-13.1305 84.7666 59.3502 0.4478 -10.4768 6.0682 0.3792 12.9901 -0.2639 -0.0962 0.6286 -1.4005 2.7680 26.9690 -2.5074 16.7523 4.5844 -2.2291 -4.9812 -4.1402 -14.2797 5.1501 -16.2901 -20.4911 0.0003 -0.0475 0.0500 0.6709 -10.6197 -3.7880 -0.6575 -10.6345 3.8575 8.8398 15.0942 -14.8049 -52.4060 -12.1951 -28.1158 0.5780 0.7536 -104.2766 19.9151 12.4685 -8.9709 -14.9617 10.4279 15.8892 -60.2998 1.9103 2.4641 9.3070 13.3809 20.1179 56.2345 -44.7460 -26.7389 -1.2224 0.6200 43.7605 -46.8776 -14.0879 14.7299 14.0458 7.4721 -15.9236 49.5998 -3.5575 -5.4372 24.7708 -5.0249 -4.1574 0.1127 47.1149 -0.7977 -23.6438 -28.3621 -5.3972 1.6700 -2.7842 -1.9405 -30.1694 -28.7332 -6.1220 0.8608 32.1275 1.7002 23.7070 11.6894 -4.2590 -1.4250 -0.8228 1.0063
-13.1633 84.8063 59.2749 0.4679 -10.2697 6.0484 0.3970 12.9537 -0.2898 -0.0979 0.6447 -1.4110 2.7680 26.9424 -2.4614 16.7855 4.4090 -2.1935 -4.9778 -4.1299 -14.3111 5.1049 -16.2036 -20.4683 0.0031 -0.0475 0.0428 0.6721 -10.6166 -3.7962 -0.6529 -10.6358 3.8501 8.8489 15.0285 -14.7844 -51.9131 -12.3042 -28.5275 0.7876 0.7031 -103.9649 19.9929 12.4312 -9.0739 -14.9064 10.4633 15.9109 -60.3246 1.9262 2.4768 9.4650 13.2652 20.1993 56.2289 -44.8933 -26.7744 -1.1132 0.6008 43.7627 -46.9769 -14.1357 15.0619 14.0867 7.4604 -15.9426 49.7084 -3.5997 -5.4312 24.7046 -5.1269 -4.2335 0.1133 46.9675 -0.8059 -23.7102 -28.3142 -5.1228 1.6692 -2.7889 -1.9360 -30.1307 -28.8904 -6.0867 0.8413 32.0079 1.6747 23.6872 11.7577 -4.2584 -1.4294 -0.7917 0.9992
-13.1852 84.8347 59.2441 0.4967 -10.0593 6.0525 0.4015 12.9183 -0.3378 -0.0967 0.6607 -1.4388 2.7513 26.8676 -2.4142 16.7636 4.3116 -2.1554 -4.9446 -4.1055 -14.3490 5.0521 -16.0891 -20.4297 -0.0002 -0.0415 0.0491 0.6682 -10.6030 -3.7868 -0.6555 -10.6228 3.8545 8.8150 14.9129 -14.7583 -51.5673 -12.4420 -28.8821 0.9410 0.5773 -103.5020 19.9829 12.5002 -9.0743 -14.8155 10.5176 15.9466 -60.2771 1.9409 2.5134 9.5862 13.1992 20.2636 56.0603 -44.9195 -26.5308 -1.1108 0.6674 43.7596 -47.1644 -14.3557 15.3176 14.2202 7.4233 -15.9482 49.8992 -3.6399 -5.4218 24.6253 -5.2181 -4.3581 0.1269 46.8455 -0.7956 -23.7681 -28.2559 -4.8819 1.6743 -2.8369 -1.9307 -30.1212 -29.0756 -6.0384 0.8182 32.0280 1.6454 23.5958 11.6959 -4.3139 -1.4344 -0.8565 0.9847
-13.1627 84.7900 59.2982 0.5579 -9.8831 6.1255 0.3849 12.9050 -0.3900 -0.0990 0.6783 -1.4972 2.7395 26.8186 -2.3819 16.6732 4.2089 -2.2218 -4.9171 -4.0642 -14.2882 5.0119 -15.8854 -20.3762 -0.0143 -0.0353 0.0803 0.6559 -10.5861 -3.7493 -0.6721 -10.6052 3.8853 8.7609 14.7724 -14.7612 -51.3749 -12.6159 -29.1508 1.0390 0.4255 -103.0162 19.9006 12.6597 -8.9782 -14.7787 10.5132 16.0151 -60.1336 1.9369 2.6024 9.6229 13.1452 20.2747 55.9652 -44.9588 -26.3079 -1.1071 0.7572 43.7535 -47.3119 -14.4762 15.4663 14.3512 7.4266 -15.9630 50.1293 -3.6009 -5.4305 24.5426 -5.2629 -4.5818 0.1310 46.7862 -0.7794 -23.8293 -28.2069 -4.6606 1.6823 -2.8921 -1.9335 -30.1871 -29.3120 -5.9592 0.8155 32.2257 1.6257 23.4985 11.5784 -4.4235 -1.4365 -1.0332 0.9736
