HIERARCHY
ROOT Hips
{
	OFFSET 0.0000 0.0000 0.0000
	CHANNELS 6 Xposition Yposition Zposition Zrotation Xrotation Yrotation
	JOINT Spine1
	{
		OFFSET -0.0137 5.0038 -0.0537
		CHANNELS 3 Zrotation Xrotation Yrotation
		JOINT Spine2
		{
			OFFSET -0.0000 7.1253 -0.0298
			CHANNELS 3 Zrotation Xrotation Yrotation
			JOINT Chest
			{
				OFFSET -0.0000 7.5501 -0.8160
				CHANNELS 3 Zrotation Xrotation Yrotation
				JOINT Neck1
				{
					OFFSET -0.1817 26.3113 -0.5533
					CHANNELS 3 Zrotation Xrotation Yrotation
					JOINT Neck2
					{
						OFFSET -0.0000 7.7094 2.3026
						CHANNELS 3 Zrotation Xrotation Yrotation
						JOINT Head
						{
							OFFSET -0.0000 6.1289 1.9537
							CHANNELS 3 Zrotation Xrotation Yrotation
							JOINT Jaw
							{
								OFFSET 0.0026 0.4756 3.0949
								CHANNELS 3 Zrotation Xrotation Yrotation
								End Site
								{
									OFFSET 0.0 1.0 0.0
								}
							}
							JOINT LeftEye
							{
								OFFSET 3.2064 5.3802 7.5869
								CHANNELS 3 Zrotation Xrotation Yrotation
								End Site
								{
									OFFSET 0.0 1.0 0.0
								}
							}
							JOINT RightEye
							{
								OFFSET -3.2224 5.3619 7.5582
								CHANNELS 3 Zrotation Xrotation Yrotation
								End Site
								{
									OFFSET 0.0 1.0 0.0
								}
							}
						}
					}
				}
				JOINT LeftShoulder
				{
					OFFSET 1.6217 23.2372 5.1134
					CHANNELS 3 Zrotation Xrotation Yrotation
					JOINT LeftArm
					{
						OFFSET 14.9198 0.0000 -5.5023
						CHANNELS 3 Zrotation Xrotation Yrotation
						JOINT LeftForeArm
						{
							OFFSET 28.7393 0.0000 -0.0026
							CHANNELS 3 Zrotation Xrotation Yrotation
							JOINT LeftHand
							{
								OFFSET 27.0940 -0.0000 0.0026
								CHANNELS 3 Zrotation Xrotation Yrotation
								JOINT LeftHandThumbEnd
								{
									OFFSET 12.2686 -3.2202 4.8331
									CHANNELS 3 Zrotation Xrotation Yrotation
									End Site
									{
										OFFSET 0.0 1.0 0.0
									}
								}
								JOINT LeftHandMiddleEnd
								{
									OFFSET 19.0120 -0.3129 -0.0340
									CHANNELS 3 Zrotation Xrotation Yrotation
									End Site
									{
										OFFSET 0.0 1.0 0.0
									}
								}
							}
						}
					}
				}
				JOINT RightShoulder
				{
					OFFSET -1.3801 23.1803 5.2142
					CHANNELS 3 Zrotation Xrotation Yrotation
					JOINT RightArm
					{
						OFFSET -15.0372 0.0000 -5.5456
						CHANNELS 3 Zrotation Xrotation Yrotation
						JOINT RightForeArm
						{
							OFFSET -28.7366 0.0000 -0.0026
							CHANNELS 3 Zrotation Xrotation Yrotation
							JOINT RightHand
							{
								OFFSET -27.1336 -0.0000 0.0026
								CHANNELS 3 Zrotation Xrotation Yrotation
								JOINT RightHandThumbEnd
								{
									OFFSET -12.2642 -3.2115 4.8040
									CHANNELS 3 Zrotation Xrotation Yrotation
									End Site
									{
										OFFSET 0.0 1.0 0.0
									}
								}
								JOINT RightHandMiddleEnd
								{
									OFFSET -19.0006 -0.3066 -0.0316
									CHANNELS 3 Zrotation Xrotation Yrotation
									End Site
									{
										OFFSET 0.0 1.0 0.0
									}
								}
							}
						}
					}
				}
			}
		}
	}
	JOINT LeftLeg
	{
		OFFSET 10.0432 -8.4345 2.5957
		CHANNELS 3 Zrotation Xrotation Yrotation
		JOINT LeftShin
		{
			OFFSET -0.0000 -43.2218 -0.8029
			CHANNELS 3 Zrotation Xrotation Yrotation
			JOINT LeftFoot
			{
				OFFSET 0.0000 -42.1551 -3.4815
				CHANNELS 3 Zrotation Xrotation Yrotation
				JOINT LeftToeBase
				{
					OFFSET 0.0000 -5.0595 13.2315
					CHANNELS 3 Zrotation Xrotation Yrotation
					End Site
					{
						OFFSET 0.0 1.0 0.0
					}
				}
			}
		}
	}
	JOINT RightLeg
	{
		OFFSET -10.0473 -8.2953 2.6203
		CHANNELS 3 Zrotation Xrotation Yrotation
		JOINT RightShin
		{
			OFFSET 0.0000 -43.3622 -0.8056
			CHANNELS 3 Zrotation Xrotation Yrotation
			JOINT RightFoot
			{
				OFFSET 0.0000 -42.1174 -3.4784
				CHANNELS 3 Zrotation Xrotation Yrotation
				JOINT RightToeBase
				{
					OFFSET -0.0000 -5.0796 13.2842
					CHANNELS 3 Zrotation Xrotation Yrotation
					End Site
					{
						OFFSET 0.0 1.0 0.0
					}
				}
			}
		}
	}
}
MOTION
Frames: 120
Frame Time: 0.033333
-4.1089 87.6379 4.3133 1.2139 -2.1414 0.1555 0.8730 3.8739 -0.3835 -0.3230 -3.4391 -1.0788 -0.4802 14.1540 -3.3643 10.9995 10.5427 -0.4252 -4.7236 -4.3635 -15.6698 5.4935 -17.6934 -21.6012 0.0068 0.0187 -0.0291 0.6506 -10.5630 -3.8700 -0.6288 -10.6083 3.7666 -6.3016 12.7873 -10.3162 -62.3746 -17.6798 2.1780 -0.8215 -0.7204 -99.8864 1.9974 -17.7582 4.1575 -15.0614 11.1620 16.1625 -59.7754 1.8767 2.3469 15.4146 11.1902 12.9952 44.3609 -28.9535 -0.5893 1.0498 0.8133 67.0024 -23.6701 -18.3975 24.1331 15.2038 7.5350 -16.0277 50.0913 -3.3264 -5.0839 18.0280 -17.6772 27.3774 -0.1539 49.5288 -0.7689 -20.3389 -25.9506 7.9538 1.6140 0.1778 -1.8322 -9.8402 -46.1771 -43.2743 0.2994 42.9987 0.2719 5.5256 5.1598 -2.4126 -1.4187 0.9364 0.7519
-4.0785 87.7203 4.3128 1.1796 -2.0910 0.1644 0.8906 3.9135 -0.4200 -0.2813 -3.4353 -1.0315 -0.5250 14.1903 -3.4842 11.1017 10.5623 -0.3862 -4.8160 -4.4003 -15.6197 5.5418 -17.5656 -21.6340 0.0020 -0.0064 -0.0269 0.6459 -10.5782 -3.8711 -0.6336 -10.6279 3.7735 -6.2255 12.9020 -10.3229 -62.4324 -17.9243 2.1994 -0.8601 -0.7261 -100.0117 1.9608 -17.6440 4.0542 -15.1517 11.1047 16.0947 -59.8284 1.8796 2.3139 15.2011 11.1618 12.9758 44.3518 -28.9363 -0.5822 1.1303 0.7101 67.2326 -23.3522 -17.9518 23.9643 15.1922 7.5837 -16.1234 50.1252 -3.3836 -5.0504 17.9565 -17.7523 27.4553 -0.1905 49.4284 -0.8414 -20.2799 -25.9715 7.8151 1.6195 0.2037 -1.8325 -9.6872 -46.1075 -43.4231 0.2701 42.7528 0.2544 5.5851 5.3784 -2.4514 -1.4260 0.9383 0.7722
-4.0150 87.7643 4.2834 1.1780 -2.0096 0.1654 0.8801 3.9377 -0.4460 -0.2608 -3.4220 -1.0289 -0.5436 14.2023 -3.5537 11.2081 10.5780 -0.3532 -4.8581 -4.4316 -15.6087 5.5968 -17.4781 -21.6586 -0.0002 -0.0155 -0.0102 0.6396 -10.5940 -3.8569 -0.6312 -10.6398 3.7914 -6.1567 12.9982 -10.3447 -62.5220 -18.0649 2.2497 -0.8961 -0.6948 -100.1886 1.9383 -17.5783 3.9957 -15.1422 11.0943 16.1044 -59.8457 1.8814 2.3286 15.0520 11.1366 13.0178 44.2229 -28.7599 -0.5215 1.0325 0.6321 67.5081 -23.1488 -17.6485 23.7310 15.1741 7.6358 -16.2016 50.0934 -3.3995 -5.0691 17.8505 -17.8721 27.5826 -0.2095 49.3925 -0.8775 -20.1564 -26.0177 7.7041 1.6279 0.2670 -1.8390 -9.5192 -46.1653 -43.6289 0.2466 42.5959 0.2239 5.5926 5.6270 -2.4221 -1.4291 0.9417 0.7988
-3.9242 87.8227 4.1830 1.1589 -1.9301 0.1667 0.8698 3.9640 -0.4589 -0.2559 -3.4248 -1.0290 -0.5257 14.2269 -3.5795 11.2770 10.6068 -0.3579 -4.8420 -4.4353 -15.5693 5.6594 -17.5017 -21.6868 0.0004 -0.0170 0.0042 0.6340 -10.6044 -3.8441 -0.6243 -10.6449 3.8059 -6.1200 13.0895 -10.3563 -62.5807 -18.1767 2.3085 -0.9926 -0.6899 -100.2999 1.9339 -17.4254 3.9300 -15.1480 11.0763 16.0863 -59.8660 1.8836 2.3221 14.9519 11.1283 13.0723 44.0739 -28.5714 -0.4883 0.9185 0.5824 67.7240 -23.0173 -17.4165 23.5204 15.1724 7.6472 -16.2048 50.0702 -3.4087 -5.0632 17.7361 -18.0115 27.7009 -0.2030 49.3545 -0.8795 -20.0383 -26.0550 7.6079 1.6280 0.2962 -1.8439 -9.3387 -46.1908 -43.8442 0.2269 42.3892 0.1996 5.6012 5.8439 -2.3324 -1.4299 0.9162 0.8026
-3.8672 87.8804 4.1159 1.1240 -1.8534 0.1646 0.8657 3.9846 -0.4580 -0.2518 -3.4303 -1.0363 -0.4930 14.2633 -3.6096 11.3366 10.6130 -0.3867 -4.8016 -4.4289 -15.5346 5.7092 -17.5647 -21.6863 0.0019 -0.0161 0.0091 0.6309 -10.6002 -3.8395 -0.6177 -10.6379 3.8092 -6.0633 13.1505 -10.3302 -62.6902 -18.2772 2.3797 -1.1040 -0.6530 -100.3448 1.9848 -17.1230 3.8126 -15.1818 11.0519 16.0616 -59.8336 1.9072 2.3053 14.8983 11.1499 13.1421 43.9937 -28.5034 -0.5597 0.8627 0.5674 67.9163 -22.8732 -17.2762 23.4064 15.1729 7.6552 -16.1966 50.0390 -3.4149 -5.0605 17.6446 -18.1467 27.8473 -0.1927 49.3024 -0.8704 -19.9205 -26.0524 7.5485 1.6260 0.3193 -1.8447 -9.1194 -46.1554 -44.0977 0.2185 42.1037 0.1872 5.6038 6.0847 -2.2566 -1.4304 0.8844 0.8044
-3.7956 87.9145 4.0455 1.0769 -1.7988 0.1555 0.8701 4.0153 -0.4660 -0.2444 -3.4161 -1.0288 -0.4573 14.2816 -3.6480 11.3739 10.5675 -0.4086 -4.7588 -4.4203 -15.5186 5.7383 -17.6100 -21.6468 0.0019 -0.0168 0.0031 0.6291 -10.5988 -3.8467 -0.6159 -10.6376 3.8055 -5.9731 13.2163 -10.2872 -62.7903 -18.3541 2.3952 -1.1593 -0.5993 -100.3090 2.0636 -16.8544 3.6326 -15.1676 11.0341 16.0156 -59.7835 1.9304 2.2722 14.8636 11.1635 13.2159 43.9895 -28.4992 -0.6770 0.7872 0.5524 68.0663 -22.6526 -17.1918 23.3117 15.1620 7.6435 -16.1647 50.0187 -3.4212 -5.0477 17.5740 -18.2782 27.9366 -0.1787 49.3150 -0.8555 -19.7559 -26.0659 7.5396 1.6238 0.3321 -1.8509 -8.9056 -46.0935 -44.3385 0.2335 41.8237 0.2002 5.6218 6.2888 -2.2160 -1.4288 0.8751 0.8007
-3.7661 87.9610 3.9825 1.0244 -1.7445 0.1274 0.8752 4.0464 -0.4554 -0.2349 -3.4082 -1.0499 -0.4217 14.2848 -3.6491 11.4079 10.5162 -0.4500 -4.7311 -4.4055 -15.4624 5.7716 -17.6778 -21.6131 0.0012 -0.0155 0.0070 0.6294 -10.5919 -3.8430 -0.6174 -10.6341 3.8094 -5.8943 13.2598 -10.2346 -62.8807 -18.3625 2.3503 -1.1390 -0.5374 -100.2267 2.1234 -16.6766 3.4916 -15.1683 11.0378 15.9740 -59.7971 1.9509 2.2486 14.8810 11.1541 13.3258 44.0555 -28.5344 -0.9043 0.7746 0.5369 68.1743 -22.4669 -17.0917 23.3060 15.1648 7.6398 -16.1521 49.9840 -3.4084 -5.0327 17.5122 -18.3917 27.9571 -0.1622 49.3341 -0.8308 -19.6132 -26.0922 7.6051 1.6236 0.3287 -1.8532 -8.7089 -46.0209 -44.5261 0.2369 41.5775 0.1951 5.6368 6.4609 -2.2097 -1.4267 0.8592 0.7939
-3.7437 87.9970 3.9053 0.9731 -1.6975 0.1130 0.8710 4.0734 -0.4398 -0.2306 -3.3967 -1.0748 -0.3880 14.2708 -3.6477 11.4737 10.4523 -0.4816 -4.7172 -4.3968 -15.4138 5.7926 -17.7673 -21.5519 -0.0011 -0.0127 0.0143 0.6284 -10.5870 -3.8361 -0.6206 -10.6300 3.8165 -5.8206 13.3136 -10.1774 -62.9523 -18.3523 2.2809 -1.1096 -0.5089 -100.1199 2.2089 -16.5532 3.3928 -15.1652 11.0464 15.9527 -59.8217 1.9560 2.2428 14.9328 11.1564 13.4329 44.1606 -28.5933 -1.1526 0.7616 0.5417 68.2112 -22.3224 -17.0263 23.3423 15.1875 7.6342 -16.1397 49.9603 -3.3937 -5.0077 17.4696 -18.4626 27.9378 -0.1574 49.3198 -0.8203 -19.4989 -26.1020 7.7172 1.6243 0.2974 -1.8573 -8.5579 -45.9340 -44.6586 0.2369 41.3492 0.1914 5.6426 6.5931 -2.1824 -1.4243 0.8156 0.7867
-3.7438 88.0419 3.8816 0.9095 -1.6540 0.1259 0.8638 4.0920 -0.4530 -0.2358 -3.3803 -1.0525 -0.3487 14.2552 -3.6792 11.5509 10.3816 -0.4932 -4.6858 -4.3839 -15.3887 5.7908 -17.8390 -21.4805 -0.0032 -0.0123 0.0091 0.6270 -10.5880 -3.8406 -0.6237 -10.6301 3.8142 -5.7373 13.3495 -10.0937 -63.0105 -18.3634 2.1674 -1.0706 -0.5153 -99.9763 2.2845 -16.4482 3.2898 -15.1704 11.0516 15.9541 -59.8258 1.9475 2.2484 15.0081 11.1762 13.5315 44.2726 -28.7385 -1.3865 0.7578 0.5315 68.2088 -22.1745 -16.8927 23.3788 15.1981 7.6232 -16.1311 49.9429 -3.3847 -4.9748 17.4477 -18.5174 27.8481 -0.1473 49.2871 -0.7981 -19.3416 -26.1228 7.8388 1.6258 0.2564 -1.8600 -8.4143 -45.8584 -44.7952 0.2437 41.1635 0.1943 5.6417 6.7051 -2.1176 -1.4204 0.8045 0.7699
-3.7540 88.0831 3.8559 0.8470 -1.6117 0.1505 0.8406 4.1159 -0.4546 -0.2418 -3.3558 -1.0497 -0.3165 14.2106 -3.7004 11.6591 10.3082 -0.5244 -4.6762 -4.3735 -15.3521 5.7805 -17.8736 -21.4407 -0.0040 -0.0121 0.0037 0.6260 -10.5789 -3.8445 -0.6240 -10.6210 3.8068 -5.6669 13.3652 -10.0166 -63.1079 -18.3987 2.1017 -1.0631 -0.5000 -99.8172 2.3039 -16.3372 3.2089 -15.1546 11.0550 15.9702 -59.8050 1.9471 2.2713 15.0829 11.1725 13.5999 44.3994 -28.8511 -1.5931 0.7478 0.5768 68.1640 -22.0561 -16.7691 23.4111 15.2088 7.6091 -16.1277 49.9152 -3.3876 -4.9624 17.4370 -18.5437 27.7510 -0.1397 49.2171 -0.7939 -19.1749 -26.1509 7.9569 1.6286 0.2035 -1.8569 -8.3324 -45.7420 -44.8446 0.2550 40.9792 0.2012 5.6304 6.8166 -2.1194 -1.4191 0.8413 0.7655
-3.7680 88.1304 3.8728 0.7784 -1.5772 0.1897 0.8098 4.1464 -0.4400 -0.2550 -3.3506 -1.0729 -0.2976 14.1875 -3.7000 11.7799 10.2574 -0.5942 -4.6722 -4.3536 -15.2836 5.7904 -17.8731 -21.4725 -0.0039 -0.0125 0.0034 0.6280 -10.5834 -3.8463 -0.6252 -10.6285 3.8069 -5.5951 13.4146 -9.9263 -63.1813 -18.4716 1.9384 -0.9899 -0.5080 -99.6952 2.2661 -16.2461 3.2244 -15.1810 11.0498 15.9660 -59.8664 1.9384 2.2683 15.1484 11.1935 13.6634 44.5212 -28.9887 -1.7972 0.7935 0.5417 68.1022 -21.9973 -16.5748 23.4676 15.2275 7.5736 -16.1052 49.8879 -3.4095 -4.9351 17.4439 -18.5791 27.6527 -0.1411 49.1761 -0.7985 -18.9914 -26.1874 8.0255 1.6286 0.1376 -1.8546 -8.2755 -45.6360 -44.8628 0.2530 40.8614 0.1948 5.6627 6.8847 -2.1134 -1.4195 0.8829 0.7641
-3.7565 88.1725 3.8754 0.7192 -1.5286 0.2642 0.7726 4.1646 -0.4714 -0.2744 -3.3252 -1.0197 -0.2910 14.1384 -3.7003 11.9106 10.1927 -0.6675 -4.6649 -4.3462 -15.2819 5.8107 -17.8603 -21.5024 -0.0044 -0.0159 -0.0034 0.6297 -10.5775 -3.8525 -0.6281 -10.6271 3.8019 -5.5041 13.4497 -9.8367 -63.2767 -18.5883 1.7515 -0.9484 -0.5174 -99.5928 2.1789 -16.1721 3.2409 -15.2162 11.0409 16.0138 -59.8664 1.9249 2.2892 15.1938 11.2109 13.6663 44.6484 -29.0567 -1.9561 0.7918 0.5447 68.0957 -21.9400 -16.4009 23.4637 15.2282 7.5462 -16.1055 49.8882 -3.4352 -4.9427 17.4618 -18.6041 27.5367 -0.1371 49.0958 -0.7998 -18.8315 -26.1993 8.0571 1.6280 0.0594 -1.8562 -8.2515 -45.5174 -44.8412 0.2655 40.7357 0.2084 5.6673 6.9177 -2.1848 -1.4197 0.9143 0.7551
-3.7807 88.2149 3.9125 0.6897 -1.4801 0.3602 0.7117 4.1897 -0.4669 -0.2917 -3.3215 -1.0012 -0.3021 14.0999 -3.6874 12.0355 10.1338 -0.7283 -4.6680 -4.3516 -15.3110 5.8561 -17.8180 -21.5695 -0.0050 -0.0182 -0.0013 0.6321 -10.5800 -3.8504 -0.6318 -10.6339 3.8051 -5.4021 13.4569 -9.7465 -63.3563 -18.6642 1.5182 -0.8681 -0.5439 -99.5159 2.0765 -16.0910 3.3345 -15.2477 11.0270 16.0266 -59.9031 1.9166 2.2887 15.2352 11.2241 13.6807 44.7363 -29.0269 -2.1103 0.7737 0.5352 68.1406 -21.9168 -16.1961 23.4557 15.2422 7.4936 -16.0500 49.8978 -3.4422 -4.9264 17.4458 -18.5985 27.4132 -0.1318 49.0141 -0.7974 -18.6713 -26.2590 8.0657 1.6260 -0.0076 -1.8591 -8.3024 -45.4274 -44.7266 0.2365 40.6402 0.1644 5.6893 6.9078 -2.2916 -1.4204 0.9146 0.7430
-3.7975 88.2429 3.9690 0.6718 -1.4223 0.4839 0.6351 4.2080 -0.4546 -0.3113 -3.3112 -0.9673 -0.3156 14.0649 -3.6562 12.1603 10.0786 -0.8032 -4.6617 -4.3573 -15.3560 5.9319 -17.7486 -21.6982 -0.0052 -0.0200 0.0019 0.6358 -10.5904 -3.8492 -0.6357 -10.6444 3.8101 -5.2510 13.4114 -9.6843 -63.4588 -18.7211 1.3307 -0.8615 -0.6045 -99.5047 1.9559 -15.9907 3.4948 -15.2856 11.0395 16.0481 -59.9219 1.9126 2.2886 15.2537 11.2430 13.6742 44.7847 -28.8963 -2.2243 0.7463 0.4914 68.2192 -21.9301 -16.0527 23.4439 15.2595 7.4632 -16.0154 49.9552 -3.4460 -4.9080 17.4254 -18.5736 27.2842 -0.1298 48.9083 -0.7941 -18.5652 -26.3353 8.0315 1.6242 -0.0384 -1.8639 -8.4191 -45.3642 -44.5419 0.2150 40.5674 0.1313 5.7116 6.8636 -2.4539 -1.4215 0.8649 0.7433
-3.8301 88.2867 4.0669 0.6829 -1.3558 0.6808 0.5245 4.2287 -0.4681 -0.3383 -3.3028 -0.9038 -0.3409 14.0197 -3.6084 12.2929 10.0298 -0.8782 -4.6494 -4.3593 -15.4619 6.0397 -17.6427 -21.8749 -0.0058 -0.0234 0.0044 0.6364 -10.5958 -3.8454 -0.6376 -10.6498 3.8143 -5.0595 13.3257 -9.5998 -63.5044 -18.7183 1.0819 -0.9108 -0.6704 -99.5353 1.8600 -15.8199 3.6631 -15.3090 11.0463 16.0682 -59.9416 1.9049 2.2977 15.3205 11.2945 13.6712 44.7580 -28.6274 -2.3066 0.6756 0.4774 68.3637 -21.9398 -16.0173 23.3796 15.2754 7.4485 -15.9989 50.0376 -3.4590 -4.9068 17.3664 -18.5245 27.1176 -0.1342 48.7655 -0.8019 -18.4458 -26.3948 7.9072 1.6223 -0.0667 -1.8704 -8.6330 -45.3154 -44.3040 0.2130 40.5199 0.1269 5.7708 6.7395 -2.6862 -1.4200 0.8311 0.7427
-3.8597 88.3366 4.1827 0.7074 -1.2888 0.9702 0.3825 4.2628 -0.4723 -0.3711 -3.2941 -0.8421 -0.3821 13.9675 -3.5658 12.4849 10.0115 -0.9374 -4.6700 -4.3674 -15.6454 6.1533 -17.5237 -22.0894 -0.0053 -0.0298 0.0018 0.6361 -10.5966 -3.8479 -0.6363 -10.6510 3.8136 -4.8206 13.2003 -9.4981 -63.4817 -18.5903 0.6656 -0.9162 -0.6674 -99.6186 1.7557 -15.6233 3.8711 -15.3238 11.0524 16.0612 -59.9655 1.9032 2.2784 15.4197 11.3384 13.6532 44.6897 -28.2237 -2.3842 0.6418 0.4631 68.5524 -21.9567 -16.0621 23.3006 15.2505 7.4421 -15.9736 50.1193 -3.4832 -4.8711 17.3081 -18.4599 26.8661 -0.1560 48.6162 -0.8378 -18.3670 -26.4517 7.7535 1.6225 -0.1059 -1.8699 -8.9884 -45.2711 -43.9250 0.2195 40.5372 0.1446 5.8538 6.5494 -3.0769 -1.4188 0.8154 0.7430
-3.8832 88.3749 4.3370 0.7145 -1.2162 1.3637 0.1979 4.2896 -0.4635 -0.4132 -3.2903 -0.7773 -0.4601 13.9150 -3.5124 12.7810 10.0338 -0.9960 -4.7436 -4.3894 -15.8698 6.2418 -17.3241 -22.3553 -0.0041 -0.0369 -0.0056 0.6323 -10.5939 -3.8551 -0.6296 -10.6510 3.8052 -4.5631 13.0754 -9.3721 -63.3688 -18.4092 0.0646 -0.9251 -0.6425 -99.7554 1.7034 -15.4316 4.0830 -15.3101 11.0692 16.0336 -59.9586 1.9119 2.2441 15.5680 11.3742 13.6163 44.6783 -27.6769 -2.4953 0.6176 0.4457 68.7850 -21.9176 -15.9760 23.1611 15.2077 7.4618 -15.9730 50.1776 -3.4771 -4.8503 17.2724 -18.4180 26.4780 -0.1826 48.5139 -0.8752 -18.3262 -26.5262 7.5471 1.6250 -0.1412 -1.8662 -9.4619 -45.1738 -43.3433 0.2295 40.6102 0.1845 5.9113 6.2554 -3.6912 -1.4181 0.8206 0.7390
-3.9496 88.3631 4.5589 0.6359 -1.1446 1.8915 -0.0287 4.2881 -0.4655 -0.4643 -3.2606 -0.6843 -0.5517 13.8126 -3.4325 13.1945 10.0990 -1.0401 -4.8756 -4.4279 -16.1477 6.2862 -16.9481 -22.6465 -0.0016 -0.0462 -0.0199 0.6277 -10.5734 -3.8668 -0.6197 -10.6322 3.7866 -4.3219 12.9120 -9.2614 -63.2233 -18.1232 -0.6574 -0.9803 -0.5457 -99.9945 1.7082 -15.1891 4.3742 -15.3036 11.0661 16.0070 -59.9202 1.9088 2.2321 15.7636 11.3468 13.5266 44.8717 -26.9314 -2.6998 0.5869 0.5214 69.0776 -21.7664 -15.7218 22.9034 15.1714 7.4752 -16.0059 50.2123 -3.4770 -4.8687 17.4124 -18.3998 25.8802 -0.2183 48.4589 -0.9278 -18.4326 -26.6262 7.3063 1.6275 -0.1885 -1.8705 -10.0676 -44.9415 -42.4984 0.2418 40.8072 0.2356 5.9776 5.7901 -4.5910 -1.4197 0.8493 0.7371
-4.0515 88.2672 4.8542 0.3806 -1.1213 2.5123 -0.2863 4.2972 -0.4404 -0.5221 -3.2129 -0.6152 -0.6546 13.6491 -3.3155 13.7066 10.2429 -1.0706 -5.0454 -4.4894 -16.4491 6.3027 -16.3901 -22.9342 0.0031 -0.0557 -0.0498 0.6270 -10.5687 -3.8952 -0.6091 -10.6216 3.7539 -4.1022 12.7668 -9.1676 -63.0583 -17.7806 -1.4462 -1.1254 -0.4541 -100.4113 1.7708 -14.9220 4.7567 -15.2662 11.0241 15.9838 -59.8891 1.8794 2.2462 15.9805 11.2729 13.3578 45.3683 -25.9881 -2.9158 0.4229 0.6086 69.4061 -21.4992 -15.3071 22.6166 15.1417 7.4747 -16.0544 50.1725 -3.4979 -4.9495 17.9218 -18.4283 25.0169 -0.2558 48.5600 -0.9683 -18.7684 -26.7732 7.0433 1.6331 -0.2625 -1.8787 -10.7670 -44.5852 -41.2593 0.2428 41.4046 0.2909 6.1077 5.0616 -5.7918 -1.4236 0.8280 0.7508
-4.3080 87.9899 5.3045 -0.1604 -1.1957 3.2267 -0.5215 4.2857 -0.4076 -0.5983 -3.2098 -0.6055 -0.7324 13.5728 -3.0686 14.3070 10.3861 -1.2434 -5.2938 -4.4627 -16.4931 6.2892 -15.7471 -23.3700 0.0055 -0.0484 0.0060 0.6278 -10.5636 -3.8450 -0.6051 -10.6219 3.8132 -3.9792 12.7678 -9.1317 -62.7811 -17.3810 -2.5095 -1.2506 -0.3328 -100.8750 1.7286 -14.4392 5.1129 -15.3869 10.9497 15.9586 -59.9926 1.7537 2.3187 16.2538 11.1679 13.0111 46.2694 -25.1109 -3.2456 0.4505 0.6887 69.7302 -21.3718 -15.0936 22.4957 15.1896 7.4970 -16.2480 50.1387 -3.5480 -5.0919 19.0106 -18.6141 23.8272 -0.3213 49.0251 -1.0065 -19.3948 -27.0936 6.8681 1.6340 -0.1508 -1.8882 -11.4406 -44.1403 -39.5751 0.2398 42.7846 0.3484 6.1557 3.9873 -7.4298 -1.4487 0.7497 0.7294
-4.7460 87.4761 5.9182 -1.0941 -1.4909 4.0041 -0.7275 4.3607 -0.3700 -0.6891 -3.1387 -0.5155 -0.7481 13.5261 -2.8897 14.9579 10.4237 -1.3789 -5.5098 -4.4906 -16.5710 6.3523 -14.9132 -23.7048 0.0070 -0.0328 0.0005 0.6368 -10.5859 -3.8512 -0.6110 -10.6262 3.8074 -3.9079 12.9004 -9.1102 -62.2423 -16.9450 -3.7542 -1.4969 -0.3025 -101.3601 1.6067 -13.7876 5.4389 -15.4728 11.0321 16.0250 -60.1103 1.7027 2.3778 16.5790 11.0420 12.6596 47.6033 -24.2309 -3.5043 0.1714 0.7850 70.0592 -21.1479 -15.6991 22.5025 15.2515 7.5286 -16.3389 50.2630 -3.4423 -5.1952 20.8695 -18.8442 22.0851 -0.4109 49.9129 -1.1393 -20.3373 -27.4418 6.6907 1.6402 -0.1751 -1.8394 -12.3699 -43.6631 -36.8800 0.3367 45.6592 0.5849 5.9546 2.8351 -8.9634 -1.4701 0.6892 0.7469
-5.4733 86.6587 6.7459 -2.2990 -2.0209 4.7627 -0.8728 4.5187 -0.2606 -0.7800 -3.0794 -0.5073 -0.6881 13.6238 -2.6034 15.5880 10.3633 -1.6304 -5.6517 -4.4946 -16.7529 6.4035 -14.2531 -23.9252 0.0068 -0.0153 -0.0143 0.6478 -10.5787 -3.8628 -0.6224 -10.6179 3.7898 -4.1424 13.1515 -9.0782 -61.1865 -16.3573 -5.6302 -1.2866 -0.3887 -101.5970 1.0590 -12.7556 6.1504 -15.4721 11.0447 16.0523 -60.1643 1.6144 2.4014 16.9937 11.0942 12.3334 49.1105 -23.7559 -3.7888 -0.0707 0.8656 70.3365 -21.1819 -16.7647 22.8771 15.2745 7.6508 -16.5289 50.4229 -3.4251 -5.2846 23.4825 -19.0577 19.9773 -0.5203 51.3822 -1.2801 -21.7731 -27.9972 6.5703 1.6472 0.0103 -1.8469 -13.0972 -43.6512 -34.1075 0.4696 50.5922 0.7869 4.6765 1.3528 -10.0446 -1.4909 0.3706 0.7928
-6.4537 85.5346 7.7317 -3.5416 -2.7603 5.4484 -1.0048 4.8038 -0.1358 -0.8794 -2.9837 -0.4970 -0.6026 13.8466 -2.2669 16.1616 10.0146 -1.9421 -5.7809 -4.4849 -16.9566 6.4509 -14.0179 -24.1770 0.0033 0.0027 -0.0431 0.6604 -10.5742 -3.8897 -0.6426 -10.6105 3.7619 -4.7192 13.4177 -9.2466 -59.6332 -16.1635 -7.3320 -0.9565 -0.5629 -101.5012 0.4924 -11.6270 7.0790 -15.4048 11.0880 16.1138 -60.1270 1.5511 2.3906 17.5327 11.1464 12.0462 50.4855 -23.7544 -4.1233 -0.2773 0.9502 70.7201 -21.8027 -18.8420 23.8401 15.3249 7.7738 -16.7180 50.5153 -3.4316 -5.3503 26.4755 -18.9656 17.6180 -0.6314 53.2093 -1.4712 -23.4941 -28.6910 6.6438 1.6476 0.3668 -1.8670 -13.4926 -44.4659 -32.1303 0.7058 56.7936 1.0854 3.0032 -0.0030 -10.4085 -1.4979 -0.0432 0.8545
-7.6554 84.1904 8.8312 -4.5860 -3.5022 5.9560 -1.0978 5.0560 -0.0581 -0.9473 -2.8627 -0.4263 -0.5279 14.1614 -1.9247 16.5463 9.3719 -2.2591 -5.9611 -4.5050 -17.1013 6.4449 -14.2598 -24.5105 0.0013 0.0053 -0.0854 0.6641 -10.6041 -3.9339 -0.6508 -10.6401 3.7245 -5.5004 13.6245 -9.6108 -57.9568 -16.8732 -8.1136 -0.8447 -0.7386 -101.2391 0.2876 -10.7213 7.8786 -15.3502 11.0849 16.0854 -60.0431 1.5576 2.3501 18.1204 11.0082 11.9401 51.3894 -24.2167 -4.7978 -0.4404 0.9415 71.3483 -23.2476 -21.6514 25.3353 15.3847 7.8014 -16.8191 50.4552 -3.4445 -5.3925 29.4832 -18.6632 15.5248 -0.7023 55.1854 -1.6181 -25.4570 -29.4528 6.7838 1.6458 0.7021 -1.8921 -13.3545 -46.0066 -32.0132 0.9747 61.2153 1.3553 2.4989 -1.4022 -9.2128 -1.4835 -0.3505 0.9154
-9.0643 82.7228 10.1117 -5.2979 -4.0232 6.1954 -1.1228 5.1294 0.0290 -0.9466 -2.7456 -0.2809 -0.4194 14.5078 -1.7124 16.4979 8.4502 -2.4833 -6.1620 -4.5115 -17.1848 6.3985 -14.5439 -24.9344 -0.0002 -0.0092 -0.1073 0.6518 -10.6485 -3.9574 -0.6416 -10.6832 3.7043 -6.2876 13.6002 -10.0367 -56.7277 -18.4171 -8.0161 -0.9862 -0.7747 -101.2043 0.5951 -10.1600 8.4389 -15.4570 11.0257 16.0047 -60.0908 1.6338 2.2903 18.7552 10.7862 12.2176 51.2480 -25.3656 -5.8276 -0.5174 0.8940 72.1193 -25.3775 -24.7757 27.1669 15.4722 7.7838 -16.7877 50.3573 -3.4751 -5.3705 32.3034 -18.3080 14.1603 -0.7360 56.8782 -1.7050 -27.6734 -29.9736 6.9506 1.6492 0.8452 -1.9191 -12.6017 -47.7869 -33.6710 1.1161 60.6142 1.4587 3.0687 -1.6817 -7.2227 -1.4611 -0.6646 0.9455
-10.6503 81.3501 11.6947 -5.5156 -4.2520 6.1850 -1.0640 5.0431 0.0939 -0.9194 -2.6813 -0.1182 -0.2989 14.6883 -1.7352 15.9312 7.4619 -2.5049 -6.3220 -4.4862 -17.3476 6.2875 -14.6125 -25.4471 -0.0037 -0.0237 -0.0862 0.6297 -10.6999 -3.9406 -0.6268 -10.7389 3.7306 -6.8712 13.2338 -10.4252 -56.3790 -20.2263 -7.5221 -1.1705 -0.5926 -101.6151 1.4228 -10.0719 8.6778 -15.5632 10.9337 15.9292 -60.2116 1.6669 2.2401 19.2360 10.6322 12.8125 49.6360 -27.0257 -6.8105 -0.5798 0.9659 72.6638 -27.8556 -27.6740 28.9647 15.5299 7.6895 -16.5712 50.2399 -3.4898 -5.3116 34.7077 -17.7568 13.7487 -0.7550 57.6024 -1.7430 -30.0387 -29.8597 7.0478 1.6598 0.8454 -1.9621 -11.9744 -49.3307 -35.5532 0.9704 54.7254 1.2514 3.1703 -0.0114 -5.7840 -1.4443 -0.8674 0.9144
-12.5312 80.3102 13.6536 -5.1513 -4.2831 6.1652 -0.9933 4.8573 0.1527 -0.8893 -2.6765 -0.0545 -0.2962 14.6169 -1.9617 15.0270 6.5916 -2.4092 -6.4349 -4.3910 -17.5638 6.0924 -14.6138 -26.0167 -0.0101 -0.0186 -0.0206 0.6116 -10.7438 -3.8815 -0.6232 -10.7823 3.8023 -7.2215 12.6918 -10.8638 -56.6882 -21.8418 -7.1531 -1.2526 -0.2719 -102.4348 2.7284 -10.1756 8.8160 -15.6890 10.8171 15.8873 -60.3178 1.6260 2.2231 19.3545 10.4975 13.3342 46.5501 -28.6203 -7.2613 -0.8171 1.2200 72.7328 -30.4630 -30.2427 30.5036 15.4398 7.5047 -16.2602 50.0032 -3.5751 -5.2223 36.4703 -16.5773 14.1678 -0.7483 56.5382 -1.7465 -32.4071 -28.8279 6.9821 1.6704 0.8002 -1.9940 -12.3607 -49.9846 -36.3437 0.6315 45.0162 0.8481 3.0059 2.7245 -5.0583 -1.4600 -1.1101 0.8538
-14.8977 79.7036 16.1605 -4.2917 -4.1285 6.3642 -1.0124 4.5337 0.1244 -0.8552 -2.7323 -0.1055 -0.4953 14.3396 -2.3346 13.9766 5.8698 -2.3095 -6.4901 -4.2311 -17.7687 5.7901 -14.6501 -26.5467 -0.0143 -0.0055 0.0734 0.6115 -10.7951 -3.8022 -0.6339 -10.8365 3.9139 -7.3752 12.0086 -11.4258 -57.3169 -23.0799 -7.0862 -1.1299 0.0587 -103.5614 4.4470 -10.2295 8.9891 -15.7257 10.7278 15.9266 -60.2806 1.5884 2.2365 19.1634 10.3817 13.6251 42.0100 -29.9246 -7.0935 -1.0813 1.5540 72.2556 -32.6639 -32.0726 31.2448 15.2150 7.2517 -15.9611 49.6192 -3.6571 -5.0813 37.4992 -14.3801 15.0391 -0.7482 53.0668 -1.7834 -34.7419 -26.8465 7.0656 1.6641 0.7727 -1.9587 -14.0744 -49.1662 -35.5159 0.3356 32.8680 0.4883 3.1137 4.3475 -5.1143 -1.5097 -1.3005 0.8050
-17.9043 79.6064 19.2791 -3.1420 -3.7367 6.9285 -1.1676 3.9713 -0.1129 -0.8603 -2.8539 -0.2689 -0.8984 13.8521 -2.8298 13.0170 5.2948 -2.2320 -6.4877 -4.1480 -17.9603 5.3292 -14.3484 -26.8809 -0.0122 -0.0208 0.1627 0.6204 -10.8349 -3.7273 -0.6411 -10.8765 4.0245 -7.1406 11.0369 -12.1783 -58.1824 -23.9226 -7.0897 -0.9542 0.3552 -104.8957 6.6973 -10.4933 9.0495 -15.6267 10.7342 16.0630 -60.1495 1.5883 2.3648 18.9467 10.2169 13.6581 35.5414 -30.6308 -5.8328 -1.2305 1.8581 70.7237 -33.7672 -32.2610 30.4692 14.7981 7.0435 -15.7723 49.1488 -3.5611 -5.0444 37.9810 -10.5888 15.9092 -0.7158 46.5304 -1.8203 -36.9619 -23.6611 7.8233 1.6450 0.8504 -1.8230 -16.8613 -46.7041 -32.9901 0.0740 20.4432 0.3293 2.7433 3.9785 -7.0665 -1.5223 -1.4704 0.8687
-21.5755 80.1788 23.0446 -1.8367 -2.8519 7.7705 -1.3108 2.9841 -0.4314 -0.8992 -3.1607 -0.5530 -1.5281 13.2513 -3.7644 12.1962 4.9410 -1.9270 -6.7426 -4.2660 -18.3220 4.8506 -13.1513 -27.4691 -0.0119 -0.0586 0.1438 0.5987 -10.8049 -3.7479 -0.6179 -10.8586 4.0101 -6.7575 9.6822 -13.2617 -59.0213 -24.6769 -6.6597 -0.9759 0.5324 -106.7504 9.9930 -10.9173 8.7400 -15.7175 10.6715 16.3661 -60.0986 1.5522 2.6540 18.7274 9.5877 13.5526 26.4559 -30.5680 -3.0496 -0.6035 1.3671 67.6206 -33.4124 -29.2235 28.0693 14.5566 6.8146 -15.7730 48.8035 -3.4871 -5.2974 37.9883 -5.1092 16.2578 -0.5066 36.5814 -1.5209 -38.1626 -17.8402 9.6244 1.7230 0.5698 -1.7524 -18.5640 -44.2822 -31.1426 -0.2074 13.3885 0.3713 1.6316 4.5984 -10.2946 -1.4679 -1.6657 1.0065
-25.6153 81.1375 26.8650 -0.8635 -1.2800 7.8534 -0.7108 1.7948 -0.7970 -0.9502 -3.6777 -0.9012 -2.3523 12.4706 -4.8784 10.7458 4.8678 -1.2832 -6.6347 -4.1477 -18.2174 4.4852 -11.6796 -27.6200 0.0062 -0.0821 0.1171 0.5807 -10.7681 -3.7697 -0.5598 -10.8156 3.9605 -7.4269 8.0995 -14.2288 -58.0700 -25.8936 -6.1407 -0.7843 0.3141 -108.6232 14.4883 -9.4025 7.0679 -15.9054 10.3735 16.2110 -60.1504 1.4093 2.7363 17.9180 8.5627 13.9806 15.8375 -28.5351 2.2217 -0.0482 1.1175 62.2479 -33.4739 -23.2022 25.8963 14.4352 6.6278 -15.6996 48.4929 -3.4649 -5.1647 37.8123 -0.0534 16.1095 -0.3784 26.6270 -1.4916 -35.3754 -9.2994 12.0143 1.8272 -0.9990 -1.8053 -17.8898 -46.2421 -31.0968 0.0766 17.8507 0.6091 3.5734 13.1665 -8.9817 -1.5495 -1.1198 0.8328
-30.0195 82.0692 30.4620 -0.0266 -0.4540 7.7454 -0.2121 1.4025 -1.1499 -0.9548 -4.0197 -1.2488 -3.1426 11.8218 -5.7716 9.9917 5.3365 -0.7232 -6.5320 -4.1390 -18.1978 4.2330 -10.7801 -27.3052 0.0169 -0.1029 0.0204 0.6034 -10.7809 -3.8700 -0.5567 -10.8266 3.8556 -6.9890 6.6968 -14.9377 -56.5003 -28.3706 -6.1018 -0.3305 0.1503 -109.2488 19.7510 -4.5552 5.7599 -16.0143 9.9382 15.7836 -60.3846 1.1549 2.4915 14.8940 7.9461 14.3974 7.6125 -23.8062 8.3749 -0.0772 1.3200 55.5477 -33.8793 -14.4863 19.9271 14.1829 6.5648 -15.6576 47.7790 -3.8193 -4.9924 37.6511 3.1094 14.7184 -0.2148 21.4530 -1.4250 -25.9537 -0.5351 14.8131 1.8761 -2.1058 -1.8830 -17.5356 -49.6210 -31.0374 0.4977 26.9491 0.9515 6.3091 19.4712 -6.2921 -1.5105 0.6781 0.6146
-34.3240 82.9716 33.6394 0.0972 -0.9320 7.2478 0.3333 1.9461 -1.2402 -0.8061 -3.9806 -1.6990 -3.4558 11.2838 -6.1033 9.9107 6.7351 -0.8301 -6.3165 -4.1593 -17.9783 3.8801 -10.2477 -26.0821 0.0154 -0.1378 -0.0544 0.6321 -10.8097 -3.9496 -0.5865 -10.8984 3.7876 -5.2547 6.4397 -15.4535 -54.3625 -33.2676 -7.1636 0.0503 0.4693 -107.7901 23.8825 4.6631 6.7808 -16.2233 9.2070 15.0295 -60.2546 1.2336 2.0932 8.1908 7.7472 14.4496 2.3423 -15.0468 15.4475 0.3520 0.9702 50.5065 -32.0534 -4.5421 8.8175 13.9895 6.9222 -16.2408 47.4019 -3.7178 -4.9853 37.5723 2.7151 13.2146 -0.0691 24.1475 -1.4021 -18.0043 1.6012 16.0508 1.8514 -1.2076 -1.9093 -16.4289 -50.9518 -31.8603 0.7298 35.8001 0.9794 7.2728 16.5812 -4.5452 -1.4331 1.7084 0.7084
-38.4751 83.8608 36.4088 -0.1861 -2.0181 6.4013 0.9351 2.6687 -0.9832 -0.5609 -3.7608 -1.9719 -3.4178 11.0996 -6.1977 10.4464 8.6427 -0.7369 -6.0819 -4.1128 -18.1344 3.6452 -9.8613 -25.1918 0.0033 -0.1292 -0.0593 0.6485 -10.8250 -3.9506 -0.6268 -10.9167 3.7820 -4.4067 6.5005 -15.8784 -48.8120 -38.1209 -11.6459 -0.0002 1.1837 -104.1626 24.8198 14.6768 7.1302 -16.1268 9.1534 15.0294 -59.9410 1.4907 1.8912 2.4079 7.5403 14.8068 -3.2935 -7.9112 23.1500 1.3043 0.3692 54.8257 -28.6892 3.0772 6.8656 15.3191 7.0097 -16.9143 49.8125 -3.4231 -5.3297 37.0639 -0.7895 12.1392 -0.4782 32.7597 -1.7785 -19.5342 -1.9831 12.0509 1.8621 -1.4461 -1.9558 -14.6465 -50.4845 -33.2158 0.8783 42.1454 1.0316 6.9453 11.9131 -3.2012 -1.4318 2.0407 0.6963
-42.3500 84.4525 38.9346 -0.3930 -3.4734 5.9451 1.4651 3.4402 -0.6278 -0.4087 -3.4982 -1.8718 -3.0665 11.0871 -5.9829 11.0982 10.3255 -0.4966 -5.8613 -4.2127 -18.7452 3.4067 -9.2632 -24.9899 -0.0004 -0.0956 0.0023 0.6692 -10.8324 -3.8850 -0.6543 -10.9109 3.8374 -4.3075 6.5355 -15.9468 -39.9487 -41.7075 -20.1975 -0.7805 1.6736 -98.2225 22.5839 23.7248 4.3357 -16.1922 9.6981 15.5839 -60.1701 1.5391 1.7589 -1.4880 7.2352 16.0252 -8.9389 -6.8681 33.0232 0.5221 -0.0561 61.9141 -25.4546 5.2466 12.5945 15.8953 7.7579 -17.3018 51.7452 -3.5418 -5.7870 35.8509 -6.2487 11.8597 -1.2254 43.3444 -2.4492 -23.1745 -7.6219 6.4067 1.8299 -2.0203 -2.0062 -13.5019 -49.0385 -34.4362 0.9118 47.0177 1.0237 6.6845 7.1976 -1.7647 -1.4331 1.8485 0.6566
-45.7493 84.8098 41.1887 -0.5528 -4.9019 5.9253 2.0259 4.0872 -0.3816 -0.2290 -3.2393 -1.2910 -2.3725 11.0800 -5.2901 11.5181 11.3476 -0.6289 -5.8916 -4.3700 -19.0325 3.0143 -8.9051 -25.7767 -0.0104 -0.0882 0.1471 0.6934 -10.8225 -3.7457 -0.7003 -10.8908 3.9869 -4.0606 6.3067 -15.1796 -32.1955 -43.6983 -29.5582 -1.7218 1.9033 -91.6555 19.0178 30.7799 0.1491 -16.2381 10.1765 15.8493 -60.2037 1.6133 1.4700 -4.1962 7.4160 18.5886 -14.2057 -8.9765 45.4609 -1.3390 -1.0185 65.6662 -22.9432 3.1773 16.8929 15.5601 8.0529 -16.3572 51.1943 -3.4103 -5.7591 33.7665 -12.5195 12.5067 -1.9412 52.6646 -3.0314 -25.7098 -13.5608 2.7640 1.7989 -2.6025 -2.0036 -12.8677 -47.4537 -35.3328 0.9181 51.3046 1.0546 6.4987 2.8946 -0.6410 -1.4259 1.5863 0.6546
-48.7628 85.1322 43.2906 -0.7440 -5.9601 6.3093 2.4840 4.5938 -0.3149 0.1017 -3.1011 -0.4342 -1.5225 11.0979 -4.0495 12.1146 11.4858 -1.0171 -6.1801 -4.6021 -19.4229 2.4850 -8.8253 -26.9697 -0.0060 -0.1294 0.2150 0.6973 -10.7778 -3.6690 -0.6992 -10.8602 4.0479 -2.6904 6.2422 -13.8300 -32.8701 -46.1489 -32.4601 -2.5920 2.0856 -89.1351 16.9076 37.7321 -2.4900 -16.0116 10.5530 15.7448 -59.9365 1.7144 1.4905 -5.5278 7.8357 22.1507 -17.8385 -13.0676 56.0458 -1.7895 -2.5700 68.8101 -20.9563 3.9572 17.8672 14.9002 7.7591 -15.6810 49.6432 -3.1955 -5.5970 30.6626 -17.6858 13.6650 -1.8936 56.9237 -2.6650 -25.5055 -17.6092 2.6991 1.7858 -2.8256 -1.9196 -12.3374 -45.7463 -36.3727 0.9460 54.8351 1.0131 6.1707 -1.0801 -0.0183 -1.4207 1.5139 0.7099
-51.5098 85.3484 45.3669 -1.1776 -6.4920 7.0036 2.8739 4.8289 -0.2835 0.4892 -3.0599 0.2763 -0.7390 11.2620 -2.5379 13.0281 10.6714 -1.4524 -6.6422 -4.7168 -19.9379 2.2372 -8.6819 -27.8525 0.0104 -0.1479 0.1494 0.6818 -10.7056 -3.7213 -0.6520 -10.8042 3.9622 -1.2287 6.8429 -12.0005 -41.6199 -47.9823 -26.6106 -3.7057 1.9297 -93.7423 15.1580 42.8578 -5.9238 -16.7671 11.0223 15.6637 -60.7289 1.6565 1.7313 -5.7894 8.2005 24.8991 -20.0293 -16.7759 60.9798 -0.5717 -3.2473 75.5280 -18.8142 7.4095 17.8920 15.6322 7.4372 -15.6822 49.6554 -2.9768 -5.6082 27.8565 -20.1088 12.9272 -1.3391 55.8032 -1.7898 -22.6022 -18.9010 6.0618 1.8256 -2.4033 -1.8463 -11.3319 -43.7214 -37.8973 0.9493 57.3745 0.9121 5.6464 -5.0227 -0.2979 -1.4212 1.7465 0.8233
-53.9383 85.4402 47.4911 -1.5309 -6.6082 7.1634 3.0249 4.7620 -0.2532 0.5979 -2.9574 0.8095 -0.2922 11.1808 -1.1825 14.1643 9.9113 -2.0563 -6.7462 -4.7707 -19.6178 1.9435 -8.7180 -27.6941 0.0118 -0.0728 0.1122 0.6353 -10.6402 -3.7536 -0.6047 -10.7137 3.9209 -1.1958 7.7696 -9.5467 -51.7064 -45.0183 -16.6179 -4.5086 1.4522 -102.8436 12.5465 44.4446 -12.1382 -17.8854 11.1435 15.6092 -61.7997 1.6252 1.8601 -5.4652 8.3315 25.7025 -20.7639 -17.7905 58.5390 0.2987 -3.7942 84.7064 -15.2972 11.6448 19.6665 16.6020 7.2770 -15.5215 50.3661 -2.8435 -5.3764 27.4229 -18.5552 9.2670 -0.9649 53.7036 -1.5132 -21.6627 -18.7585 11.4534 1.7996 -2.1067 -1.9145 -10.2760 -41.9955 -38.6598 0.7716 59.4515 0.6472 4.9939 -8.4478 -1.0405 -1.4399 1.8829 0.7920
-56.1142 85.3596 49.5735 -1.4935 -6.1507 6.9524 2.9065 4.5973 -0.0687 0.5008 -2.9345 1.2850 -0.6602 10.8821 -0.6459 15.1502 9.0732 -2.6843 -6.5616 -4.8233 -19.1824 2.0491 -9.1427 -27.0256 0.0016 -0.0337 0.0553 0.6125 -10.6285 -3.8148 -0.6036 -10.6682 3.8789 -2.8299 8.9740 -7.5121 -58.7415 -38.1364 -5.8579 -4.2675 1.2999 -112.5742 12.7384 44.9998 -19.5459 -18.4996 11.0296 15.5325 -61.9078 1.6711 1.8210 -4.0090 8.6718 24.0716 -20.4599 -18.3180 49.1114 0.7657 -3.9768 93.3224 -14.5586 17.6734 21.3451 16.6466 7.5105 -14.9153 50.7772 -2.6065 -5.0672 28.5219 -16.1839 7.6354 -0.8966 51.3476 -1.7030 -23.3888 -18.0994 13.3064 1.7536 -1.9407 -2.0931 -9.2350 -41.3410 -39.0855 0.5096 61.6877 0.3697 4.5373 -11.2756 -1.8224 -1.4348 1.4464 0.8026
-58.0011 85.2190 51.4259 -1.0441 -5.2043 6.7068 2.5326 4.5586 0.1148 0.2828 -2.9234 1.5547 -1.7996 10.5480 -0.8856 15.7204 7.8639 -3.0026 -6.1923 -4.7328 -18.5581 2.4167 -9.5273 -26.3583 -0.0073 -0.0133 0.0649 0.5840 -10.5820 -3.7868 -0.5926 -10.6149 3.8788 -6.2818 9.9954 -7.0524 -63.9357 -31.3179 7.8843 -3.4230 0.8036 -119.8408 23.5751 44.7519 -23.3079 -18.8449 10.4268 15.8164 -60.7082 1.5978 1.8209 -1.6278 9.4219 21.4653 -17.8126 -18.9860 32.6677 1.1331 -3.3337 98.3566 -20.0984 26.5192 20.2357 15.6363 8.5007 -14.5186 51.0359 -1.9974 -4.9016 29.3648 -15.1300 8.3533 -0.8923 48.8272 -1.7814 -24.4126 -17.7286 12.7964 1.7203 -1.6563 -2.1658 -8.4643 -41.7211 -39.2421 0.4327 63.9876 0.2762 4.1621 -13.4994 -2.3219 -1.4244 1.0317 0.7738
-59.6477 84.9644 52.9179 -0.4433 -3.9462 6.5996 1.9916 4.5883 0.2045 0.0557 -2.8452 1.5089 -3.0897 10.2849 -1.7690 15.5749 6.1262 -2.9551 -6.0464 -4.5687 -17.7769 2.8363 -9.3892 -25.9595 0.0055 -0.0014 0.0374 0.5839 -10.5048 -3.7994 -0.5659 -10.5507 3.8382 -10.6122 9.9592 -7.9907 -68.7535 -27.5719 23.0490 -2.1707 0.1551 -122.9567 49.4133 37.5813 -19.9643 -18.8499 9.6479 16.3319 -61.4779 1.4418 1.7908 1.1288 10.2530 18.9872 -13.1193 -17.0533 15.8729 0.9994 -0.6220 93.7930 -30.4952 32.4628 12.2915 15.8922 9.2248 -15.2464 52.9255 -2.0563 -5.1733 29.8671 -14.9307 9.7280 -0.8151 46.3722 -1.6274 -25.2349 -17.6480 11.5739 1.7445 -1.1828 -2.1389 -7.5906 -42.5929 -39.3962 0.3958 65.9742 0.2441 3.7325 -15.5749 -2.7590 -1.4110 0.9191 0.8179
-61.0911 84.5040 53.9729 0.0467 -2.6558 5.8379 1.5425 4.8747 -0.1395 -0.1970 -2.7315 1.2222 -4.2787 10.0310 -3.0048 14.6343 4.2975 -2.3629 -5.5229 -4.3879 -17.0863 2.9527 -9.0047 -24.9807 0.0178 0.0607 0.0028 0.6343 -10.5366 -3.8611 -0.5881 -10.5902 3.8267 -13.7855 8.7538 -9.5825 -73.2202 -26.5187 33.6467 1.0213 -0.6413 -123.9439 67.8245 24.4112 -21.7085 -18.5292 9.5642 15.9091 -62.1296 0.9277 1.3786 2.7059 10.6362 17.3865 -9.4253 -13.4796 8.9299 0.6495 3.0011 74.5327 -34.6615 25.8266 3.1069 16.6922 7.8282 -16.9013 50.6721 -3.6789 -5.5458 30.2282 -15.3671 11.4996 -0.9245 44.7198 -1.8139 -25.5473 -17.8647 10.1189 1.7198 -0.8414 -2.1201 -6.2316 -43.6177 -39.1718 0.3524 67.6231 0.2161 3.1417 -18.2443 -2.8838 -1.4000 1.4386 0.8119
-62.3797 83.8247 54.4120 0.4935 -1.4426 3.6327 1.1944 5.2305 -0.6228 -0.3066 -2.7254 0.6224 -5.1207 10.0203 -4.0081 13.5339 2.5570 -1.8163 -5.5146 -4.4095 -16.2615 2.8418 -8.7765 -23.6666 0.0099 0.0406 -0.1413 0.6853 -10.4797 -4.0090 -0.6534 -10.5479 3.6795 -15.1475 6.7166 -11.5811 -76.4895 -26.2027 36.6513 2.8116 -1.0770 -125.4553 68.2949 20.2694 -26.5627 -19.6312 8.5010 15.5912 -61.2417 0.9254 1.4481 1.8995 10.4395 17.4389 -8.0471 -8.5228 13.0443 -1.8599 2.3799 47.6033 -29.8779 13.5441 1.5639 15.0730 7.5585 -16.1951 48.8587 -3.2958 -5.0762 30.7007 -15.6593 13.8439 -0.9060 43.4646 -1.9418 -26.2741 -17.6182 9.5298 1.6858 -0.5706 -2.0616 -4.5932 -45.1531 -37.9485 0.3959 69.3006 0.1383 2.4982 -20.2216 -2.4928 -1.4133 1.9102 1.0011
-63.4063 83.2895 54.6865 0.9482 -0.7730 0.1905 0.9283 5.6433 -0.8232 -0.5044 -2.5733 -0.5469 -5.5040 10.0093 -5.0946 12.7067 1.4314 -1.1530 -5.1544 -4.2843 -15.5844 2.2961 -9.6040 -21.8860 -0.0221 0.0289 -0.3497 0.6901 -10.5184 -4.2135 -0.7238 -10.5975 3.4787 -14.0713 6.3030 -15.0776 -80.9786 -25.7052 32.8517 2.7582 -2.5041 -126.2114 60.4451 10.3627 -28.9311 -20.8478 4.6788 15.3413 -57.3146 0.4154 1.9235 -0.5100 9.0231 16.8965 -9.7401 -9.7306 22.7972 -1.0015 1.7332 39.2814 -30.7525 6.2124 4.5500 15.6724 7.8874 -16.1020 50.0356 -3.1557 -5.1762 31.0631 -14.9033 16.5648 -0.7986 42.5145 -1.9502 -26.7928 -17.2091 9.7765 1.6839 -0.4793 -2.1127 -3.3283 -46.7596 -36.6769 0.3129 71.0615 0.0219 0.9859 -21.1230 -0.2344 -1.4213 2.3515 0.9447
-63.9157 82.9431 54.9595 1.6287 -0.3900 -3.9885 0.5435 5.9972 -1.0388 -0.6646 -2.5480 -1.8549 -6.0641 9.7858 -6.6375 12.8699 1.3076 -0.7542 -4.7276 -4.2157 -14.5774 1.2872 -10.0853 -19.5356 -0.0298 -0.0139 -0.3168 0.7006 -10.6421 -4.1659 -0.7518 -10.7095 3.5024 -11.8624 6.1770 -19.2510 -85.1561 -27.1100 26.8001 1.8418 -3.1997 -124.5213 58.4889 -16.9255 -35.8248 -19.4101 4.1872 16.4363 -55.5187 -0.1203 2.9584 -1.3946 7.8916 15.4076 -16.3290 -9.8631 36.0076 0.6488 1.8362 46.5212 -32.2772 2.2221 7.0057 16.1813 7.6674 -16.3212 50.7276 -3.4595 -5.5136 30.3991 -12.9174 19.2405 -0.7328 41.7155 -1.8137 -27.4721 -17.4682 11.1169 1.7099 -0.5686 -2.1463 -2.9725 -48.1419 -34.4162 0.0432 72.0713 -0.2309 -0.3172 -21.3750 2.5335 -1.4207 2.4616 0.8491
-63.9618 82.6574 55.4960 2.2984 -0.2937 -8.7587 0.0922 6.2945 -1.3610 -0.7804 -2.4788 -2.7379 -6.4982 9.6586 -8.3526 13.5763 1.1143 -0.8141 -4.7533 -4.1087 -13.2277 0.1812 -10.2867 -17.3767 -0.0184 -0.0806 -0.2995 0.7202 -10.6600 -4.1248 -0.7496 -10.6988 3.4863 -9.0543 5.5650 -23.1237 -87.6242 -30.9422 20.0524 0.3917 -2.3544 -120.2810 57.9721 -31.1192 -44.2850 -17.7762 5.8146 17.4634 -58.6059 -0.0188 3.4835 -1.8837 6.9836 14.2342 -23.6399 -7.6459 49.1393 -0.2522 1.6005 57.8347 -30.6384 2.8962 4.7847 15.6235 7.6928 -16.4976 49.9330 -3.6345 -5.7498 29.5355 -9.9232 21.6964 -0.6781 40.9146 -1.6089 -28.3896 -17.8108 12.6410 1.7689 -0.6560 -2.1784 -3.0953 -49.2845 -31.8729 -0.2584 72.7301 -0.5014 -1.4230 -21.0754 5.8926 -1.4140 2.1690 0.8094
-63.7466 82.6108 56.1981 2.4833 -0.3126 -13.2646 -0.2924 6.5861 -1.7125 -0.8600 -2.4339 -3.4535 -6.4287 9.4985 -9.6086 14.3331 1.2714 -1.2081 -4.6955 -4.0642 -11.8077 -0.8809 -10.6298 -15.3633 -0.0088 -0.0906 -0.2583 0.7361 -10.6294 -4.0744 -0.7460 -10.6583 3.5107 -6.2032 5.0352 -26.5273 -84.4951 -37.1187 8.6674 0.1799 -0.3878 -113.1217 44.6122 -43.2648 -38.1858 -16.7911 7.5630 17.4539 -62.9188 0.5888 3.8338 -2.1370 6.1241 13.4100 -28.3947 -5.8058 59.6387 -2.6367 1.4269 67.4037 -27.0298 7.0205 1.7975 14.9471 7.9333 -16.4154 49.1298 -3.6874 -5.7433 28.9417 -6.8732 23.4475 -0.7923 40.2140 -1.6903 -28.0066 -18.5207 13.7378 1.7872 -0.9696 -2.2055 -2.9760 -49.7428 -29.9884 -0.2957 72.8048 -0.5457 -2.5719 -20.5422 9.3210 -1.4185 2.0605 0.7844
-63.3721 82.7416 56.9584 2.0842 -0.2117 -16.8332 -0.5542 6.6601 -2.0500 -0.9631 -2.4277 -3.9458 -5.8288 9.2288 -10.6611 15.1867 1.5435 -1.6217 -4.6411 -4.2275 -10.4834 -1.9802 -10.5794 -13.2598 -0.0139 -0.0956 -0.2399 0.7482 -10.5840 -4.0449 -0.7653 -10.5950 3.5186 -3.2404 4.9112 -29.9151 -74.4907 -43.4165 -6.2228 0.3455 1.0522 -101.9430 16.8684 -43.4139 -11.1127 -15.8507 9.3234 16.2630 -63.1659 1.4850 3.1225 -1.5405 5.0674 12.6134 -29.7444 -6.0669 66.4689 -3.0767 0.9475 74.5886 -22.3931 11.3158 0.1213 14.8762 7.9709 -16.1632 49.3410 -3.5546 -5.5446 28.7807 -3.9575 24.4006 -0.8368 38.7057 -1.6994 -26.3976 -18.9382 14.3458 1.8311 -1.3270 -2.1563 -2.0482 -49.6022 -29.4763 -0.1460 72.3440 -0.3159 -3.4304 -20.0635 12.3516 -1.4252 1.8644 0.7756
-62.7927 82.9292 57.7340 1.3454 0.1032 -19.8173 -0.8450 6.2238 -2.4109 -0.8998 -2.5537 -4.6772 -5.0640 8.9278 -11.3084 15.4909 2.1343 -1.8469 -4.2635 -4.2866 -9.1796 -2.8412 -10.3691 -11.3259 -0.0149 -0.0988 -0.2346 0.7504 -10.5319 -4.0362 -0.7678 -10.5147 3.5178 -0.5360 5.8563 -32.6138 -58.2916 -47.2603 -24.7446 0.8295 1.1832 -88.4692 -1.6659 -24.9757 6.5326 -15.1405 11.1284 15.3643 -62.0388 1.9849 2.4100 -0.0048 4.7016 11.3335 -28.5401 -7.5060 68.8805 -2.0048 0.5865 79.6797 -17.0800 14.2094 -1.3152 15.1379 7.8295 -16.0827 49.6940 -3.2949 -5.4894 28.6353 -0.6965 24.6865 -0.7410 35.9069 -1.7741 -25.2071 -19.2549 15.8255 1.8235 -1.8758 -2.1210 -0.6604 -49.3004 -29.4924 0.1397 71.6592 0.0233 -3.9156 -19.5978 14.4291 -1.4285 1.3950 0.7696
-62.1333 83.1495 58.5620 0.5424 0.4854 -22.5034 -1.0776 5.4463 -2.6700 -0.7975 -2.7908 -5.4377 -4.2187 8.8135 -11.6890 14.9221 2.2880 -1.9520 -3.6031 -4.1269 -8.3164 -3.4696 -9.8369 -8.9118 -0.0040 -0.0982 -0.2856 0.7958 -10.5511 -4.1082 -0.7878 -10.5336 3.4777 1.5785 7.0027 -33.7649 -40.3381 -44.2956 -44.3333 2.3678 1.3689 -77.7793 -13.2653 -1.5181 9.0394 -14.4868 10.9509 14.6761 -60.7203 1.8323 2.1979 2.2102 4.5946 9.9402 -25.3020 -9.3773 67.2461 -0.3781 0.9777 82.3917 -13.0849 18.8690 -4.0586 14.8244 7.6272 -16.1383 48.6065 -3.4336 -5.6272 28.2871 2.2939 25.5097 -0.4379 32.3390 -1.6823 -24.9264 -18.6422 18.0994 1.8057 -2.5891 -2.1506 0.5433 -48.9885 -29.2028 0.4076 70.8474 0.2852 -4.1789 -19.1543 15.8014 -1.4304 0.7836 0.7687
-61.3784 83.3533 59.2491 -0.2308 0.7070 -24.9777 -1.0892 4.8605 -2.7814 -0.7754 -2.9935 -6.0640 -3.2647 8.7887 -11.9599 14.0444 2.2339 -1.9186 -3.0512 -4.1329 -7.4362 -3.9856 -9.7497 -7.1720 0.0034 -0.0973 -0.3124 0.8113 -10.6274 -4.1447 -0.7875 -10.6072 3.4559 2.9818 7.6922 -33.4345 -31.1985 -39.4289 -53.8644 2.3225 1.6377 -74.2691 -18.8926 7.5920 7.0377 -14.7695 10.7654 14.8307 -61.0094 1.5886 2.3462 4.6907 4.2501 8.9627 -21.1490 -11.3062 62.2784 0.0618 1.6828 83.6774 -12.6636 25.1670 -5.8160 14.9310 7.7558 -16.0969 48.0726 -3.5636 -5.4543 27.9247 4.6834 26.4575 -0.1943 29.6542 -1.4986 -24.9556 -18.3287 20.7198 1.7718 -2.7080 -2.1439 1.4805 -48.6481 -28.8350 0.5948 69.9087 0.5020 -4.0331 -18.6502 17.0675 -1.4280 0.7062 0.8260
-60.4172 83.4145 59.5621 -0.6807 0.6828 -26.7599 -1.0239 4.5801 -2.8774 -0.6447 -3.1016 -6.5338 -2.3179 8.9215 -11.7444 12.8639 2.2161 -1.7811 -2.6395 -4.1926 -6.8227 -4.0464 -10.2612 -6.2822 0.0103 -0.0614 -0.2111 0.8043 -10.6677 -4.0582 -0.7698 -10.6411 3.5680 3.6795 7.9507 -32.3696 -27.2497 -36.4979 -57.3717 1.8393 1.9696 -74.7204 -20.8686 10.3216 6.5698 -14.9863 10.6556 15.1382 -61.5688 1.5610 2.7834 6.9678 4.1747 8.7702 -17.7646 -12.6093 55.0467 -0.4221 2.5717 83.6358 -13.9236 30.0423 -5.6420 15.5005 7.9602 -15.7259 48.2988 -3.2229 -5.2137 27.4730 5.8554 27.1614 -0.1611 29.1506 -1.4342 -26.0118 -18.7907 23.1988 1.6604 -2.4506 -2.0752 1.6437 -48.5730 -28.3852 0.8857 69.1377 0.8013 -3.5425 -18.0102 18.1919 -1.4278 0.9411 0.8056
-59.3516 83.5017 59.5814 -0.6465 0.5140 -27.1071 -0.8694 4.6053 -2.8552 -0.5642 -3.1327 -6.4920 -1.5774 9.1796 -11.7382 11.9759 2.1308 -1.3757 -2.7355 -4.1940 -6.9833 -3.9182 -11.0893 -6.0496 0.0127 -0.0495 -0.1736 0.8014 -10.6832 -4.0287 -0.7633 -10.6595 3.6131 4.3821 7.8202 -31.0812 -25.2626 -34.6302 -58.5493 1.6803 1.9426 -76.6210 -21.4684 12.3685 6.9192 -15.3031 10.6915 15.4135 -61.7813 1.5399 2.8906 8.9915 4.1968 9.2529 -14.9300 -14.6330 47.2715 -0.2880 2.8247 82.4444 -15.0207 31.5295 -3.6379 15.9756 7.7876 -15.3244 48.5020 -3.0683 -5.0702 26.9115 5.7277 27.4725 -0.1242 29.9651 -1.2671 -27.1981 -19.3416 23.8097 1.6519 -1.8841 -2.0155 1.0109 -48.8464 -28.4278 1.0463 68.5236 1.0140 -2.8455 -17.1325 18.7024 -1.4182 0.9990 0.7879
-58.2181 83.5753 59.2770 -0.2783 0.2298 -26.1689 -0.6509 4.7656 -2.8144 -0.4644 -3.1141 -6.3832 -1.0152 9.5850 -11.4378 11.0916 2.3206 -0.9928 -2.9313 -4.1467 -7.3826 -3.7105 -11.9496 -6.4662 0.0138 -0.0407 -0.1562 0.7905 -10.6438 -4.0092 -0.7509 -10.6272 3.6280 5.0727 7.7126 -29.6375 -23.9412 -33.8710 -58.9366 1.5732 1.8537 -78.4541 -21.1137 15.1533 7.1046 -15.5444 10.7184 15.4925 -61.6290 1.4373 2.8368 10.3706 4.3479 10.1406 -12.0821 -16.7836 40.1407 -0.2883 2.9565 80.3922 -15.9026 30.1394 -0.8756 16.3877 7.4866 -15.1338 48.8255 -3.1602 -5.0462 26.3774 4.6804 27.4017 -0.1428 31.4787 -1.1469 -28.0724 -20.0415 23.4800 1.6549 -1.3566 -1.9876 -0.1938 -49.2647 -28.8190 1.0966 68.0013 1.0943 -2.0949 -16.2989 18.6330 -1.4109 1.0306 0.7659
-57.0754 83.7033 58.6971 0.2422 -0.1194 -24.3704 -0.3491 4.9351 -2.7510 -0.3667 -3.0984 -6.0794 -0.5376 10.0859 -10.9093 10.2477 2.8641 -0.6532 -3.1532 -4.0921 -7.9628 -3.4368 -12.8308 -7.3109 0.0141 -0.0450 -0.1507 0.7813 -10.6173 -3.9998 -0.7411 -10.6098 3.6327 5.5237 7.6897 -27.9380 -23.0538 -33.6776 -58.9844 1.5458 1.7996 -80.2430 -19.7527 17.9491 7.0902 -15.7238 10.7970 15.4661 -61.4093 1.3941 2.6386 11.2683 4.6658 11.2175 -9.0249 -19.6695 34.3313 -0.1671 2.5435 77.9536 -17.0490 27.5181 1.6949 16.5134 7.2445 -15.2434 48.9751 -3.3418 -5.1085 25.8764 3.0266 27.0610 -0.1924 33.3324 -1.0426 -28.5167 -20.8225 22.5483 1.6551 -0.9117 -1.9748 -1.6694 -49.7048 -29.5338 1.1229 67.4244 1.1551 -1.2058 -15.4034 18.1692 -1.4043 1.0021 0.7483
-56.0057 83.8895 57.9818 0.7973 -0.5772 -21.9901 0.0148 5.0828 -2.6192 -0.2636 -3.0894 -5.6782 -0.1132 10.5951 -10.2626 9.5721 3.7613 -0.3298 -3.4034 -4.0618 -8.6573 -3.1459 -13.6748 -8.4647 0.0161 -0.0490 -0.1469 0.7725 -10.6225 -4.0006 -0.7279 -10.6193 3.6406 5.5713 7.7542 -25.9399 -23.0251 -33.6636 -58.5055 1.6315 1.8374 -82.2413 -17.9576 20.4841 6.9810 -15.9155 10.8459 15.4181 -61.1341 1.3907 2.4526 11.6739 5.0196 12.4783 -5.4248 -23.1466 29.4993 0.0435 1.9046 75.2503 -18.5209 23.9381 3.7349 16.3435 7.0839 -15.5457 49.0148 -3.5344 -5.2080 25.4529 1.0764 26.4860 -0.2656 35.3388 -1.0468 -28.7999 -21.5025 21.2221 1.6599 -0.6124 -1.9996 -3.3233 -49.9580 -30.3940 1.0840 66.6934 1.1263 -0.1316 -14.4835 17.4435 -1.4029 0.9620 0.7391
-55.0157 84.0693 57.1919 1.3319 -1.0877 -19.3555 0.3759 5.1579 -2.4560 -0.1663 -3.1068 -5.2283 0.2469 11.0172 -9.5339 9.1142 4.7572 -0.0447 -3.6797 -4.0094 -9.4714 -2.8314 -14.3534 -9.7869 0.0187 -0.0459 -0.1484 0.7615 -10.6149 -4.0044 -0.7111 -10.6160 3.6417 5.1158 7.9195 -23.8589 -23.9574 -33.3148 -57.2157 1.7375 2.0414 -84.4279 -15.9826 21.9705 6.8351 -16.1002 10.8798 15.3865 -60.9540 1.4117 2.2521 11.7154 5.2788 13.7345 -1.3469 -26.8242 25.3629 0.3544 1.1296 72.3519 -20.2257 19.3615 5.5641 15.9513 7.0075 -15.9256 49.1082 -3.6506 -5.3205 25.1018 -0.9289 25.7668 -0.3616 37.3650 -1.1121 -28.9285 -22.0557 19.6323 1.6617 -0.5468 -2.0575 -5.0032 -50.0956 -31.3221 1.0305 65.9222 1.0753 0.9486 -13.6120 16.5187 -1.4058 0.9289 0.7206
-54.1721 84.2497 56.3890 1.8201 -1.6356 -16.7253 0.7144 5.1784 -2.2722 -0.0678 -3.1330 -4.7351 0.5346 11.3310 -8.7323 8.8275 5.6548 0.1414 -3.9804 -3.9723 -10.3349 -2.4805 -14.8099 -11.1832 0.0197 -0.0418 -0.1365 0.7516 -10.6179 -3.9980 -0.6990 -10.6248 3.6608 4.3057 8.1863 -21.7656 -25.8652 -32.4854 -54.9361 1.7598 2.3599 -86.6870 -13.9103 22.6341 6.6005 -16.2242 10.8889 15.3615 -60.7151 1.4368 2.1096 11.4532 5.5739 14.8670 3.1532 -30.7710 21.6729 0.7019 0.4298 69.4675 -22.0275 13.6486 7.4943 15.5179 6.9966 -16.2194 49.2604 -3.6556 -5.4196 24.8172 -2.8666 25.1184 -0.4676 39.2471 -1.2257 -28.9642 -22.4514 17.9551 1.6638 -0.5918 -2.1201 -6.6317 -50.1470 -32.2838 0.9474 65.1397 0.9793 1.9888 -12.7953 15.5472 -1.4093 0.9386 0.6907
-53.4431 84.4243 55.6285 2.2585 -2.1339 -14.1959 1.0115 5.1304 -2.0655 0.0210 -3.1482 -4.2006 0.7658 11.5081 -7.9488 8.6560 6.3431 0.2417 -4.3017 -3.9536 -11.2051 -2.0743 -15.0671 -12.5800 0.0185 -0.0414 -0.1083 0.7398 -10.6172 -3.9724 -0.6896 -10.6326 3.6932 3.2153 8.5465 -19.7595 -28.6155 -30.8813 -51.6836 1.6489 2.5116 -88.9595 -11.7042 22.2880 6.3361 -16.2205 10.8640 15.4021 -60.3854 1.4814 2.0275 11.1124 5.9178 15.6766 7.8065 -34.3253 18.1987 0.8686 -0.1588 67.1488 -23.4019 7.5015 9.7566 15.2893 6.9993 -16.3850 49.4474 -3.5784 -5.4992 24.5079 -4.6457 24.5164 -0.5542 40.8339 -1.3186 -28.8833 -22.7748 16.3225 1.6633 -0.6465 -2.1532 -8.1015 -50.1702 -33.2659 0.8516 64.3266 0.8633 2.8845 -11.9911 14.5735 -1.4112 0.9527 0.6664
-52.8548 84.5791 54.9640 2.6370 -2.5440 -11.9218 1.2373 5.0662 -1.8477 0.0809 -3.1620 -3.6724 0.9163 11.6067 -7.2015 8.6455 6.8571 0.2514 -4.6153 -3.9627 -11.9526 -1.5733 -15.2478 -13.9311 0.0165 -0.0381 -0.0755 0.7340 -10.6194 -3.9421 -0.6883 -10.6389 3.7310 1.9659 8.9443 -17.8773 -31.7899 -28.3791 -47.6235 1.5303 2.2882 -91.0765 -9.4106 21.0677 6.1748 -16.1055 10.8476 15.5209 -60.1738 1.5126 1.9721 10.9182 6.3177 16.1219 12.3085 -37.0320 14.8995 0.8643 -0.5331 65.7621 -24.2961 1.8896 11.9809 15.2808 7.0381 -16.4568 49.5921 -3.5158 -5.4619 24.1554 -6.2943 24.0298 -0.6252 42.2160 -1.3905 -28.7104 -23.0479 14.8569 1.6573 -0.6588 -2.1563 -9.3431 -50.2499 -34.1534 0.7515 63.5722 0.7467 3.6006 -11.1759 13.6331 -1.4124 0.8925 0.6617
-52.3312 84.7164 54.3052 2.9567 -2.8144 -9.9420 1.3917 5.0122 -1.6374 0.1115 -3.1550 -3.1724 0.9756 11.6640 -6.5271 8.7675 7.1986 0.1595 -4.8669 -4.0013 -12.5819 -0.9996 -15.4386 -15.1595 0.0136 -0.0331 -0.0583 0.7244 -10.6167 -3.9243 -0.6853 -10.6348 3.7497 0.6554 9.3570 -16.2233 -35.1275 -25.3468 -42.7944 1.4257 1.9717 -92.6004 -7.0846 19.5766 6.0668 -16.0318 10.8435 15.7262 -60.2308 1.5760 1.9603 10.8771 6.6864 16.2297 16.7010 -38.6560 11.7184 0.6909 -0.7177 65.2201 -24.8121 -2.7564 13.9534 15.3874 7.1377 -16.5044 49.6874 -3.4674 -5.4092 23.7384 -7.8575 23.6134 -0.6746 43.4210 -1.4233 -28.3662 -23.2417 13.5050 1.6498 -0.6587 -2.1472 -10.2791 -50.3947 -34.9706 0.6631 62.8266 0.6403 4.1734 -10.4252 12.6933 -1.4104 0.7762 0.6638
-51.8852 84.8379 53.6767 3.2133 -2.9827 -8.2213 1.4802 5.0084 -1.4392 0.1126 -3.1177 -2.7302 0.9335 11.7182 -5.9229 9.0181 7.4319 -0.0487 -4.9897 -4.0592 -13.1355 -0.3551 -15.6924 -16.1890 0.0085 -0.0298 -0.0527 0.7133 -10.6302 -3.9203 -0.6853 -10.6452 3.7609 -0.6882 9.8746 -14.8366 -38.2966 -22.3575 -37.6046 1.4782 1.7388 -92.8066 -4.5136 18.5149 6.1385 -16.0277 10.8429 15.9477 -60.5496 1.6711 2.0323 10.9629 7.0705 16.0872 21.0730 -39.4511 8.6153 0.4577 -0.7433 65.1997 -24.9644 -6.6084 15.4458 15.5201 7.2459 -16.5199 49.7370 -3.4263 -5.3309 23.3217 -9.3705 23.2893 -0.7125 44.5189 -1.4373 -27.8505 -23.3385 12.1892 1.6419 -0.6432 -2.1290 -10.9466 -50.5787 -35.7129 0.6062 62.0969 0.5770 4.5576 -9.7631 11.7419 -1.4091 0.5770 0.6756
-51.4907 84.9454 53.0001 3.3999 -3.0599 -6.7528 1.5235 5.0876 -1.2630 0.1024 -3.0406 -2.3363 0.7791 11.7461 -5.4136 9.3832 7.5066 -0.3007 -5.0178 -4.1495 -13.6924 0.3172 -15.9717 -17.0154 0.0021 -0.0400 -0.0592 0.7021 -10.6508 -3.9256 -0.6879 -10.6649 3.7570 -2.0217 10.4252 -13.7373 -41.2159 -20.2028 -32.2719 1.4362 1.6837 -91.2924 -1.4291 18.2843 6.5716 -16.0673 10.7914 16.0335 -60.8068 1.7208 2.1285 11.1397 7.4170 15.8027 25.3807 -39.5972 5.5768 0.2560 -0.6115 65.4575 -25.0466 -9.8649 16.5914 15.5654 7.3121 -16.5159 49.6822 -3.4317 -5.2843 22.9604 -10.8422 23.0649 -0.7441 45.5136 -1.4545 -27.1848 -23.3838 10.8766 1.6380 -0.6355 -2.1206 -11.3400 -50.7914 -36.4433 0.5958 61.4176 0.5764 4.7073 -9.1973 10.8062 -1.4066 0.3652 0.6956
-51.1522 85.0109 52.2890 3.5035 -3.0507 -5.4729 1.5345 5.2296 -1.0857 0.0691 -2.9610 -2.0415 0.5676 11.8184 -4.9579 9.8302 7.4024 -0.5709 -5.0084 -4.2362 -14.1512 1.0106 -16.2783 -17.7311 -0.0043 -0.0519 -0.0567 0.6902 -10.6732 -3.9233 -0.6903 -10.6883 3.7637 -3.3937 10.9256 -12.8890 -43.8169 -19.2641 -27.0505 1.1465 1.4191 -88.4589 2.3911 19.0400 7.5949 -16.0302 10.7543 15.9608 -60.9135 1.6947 2.1122 11.3635 7.7551 15.4470 29.4228 -39.2475 2.7367 0.0694 -0.4712 65.8179 -25.2097 -12.5589 17.6492 15.5451 7.3748 -16.4793 49.6087 -3.4405 -5.2348 22.6392 -12.3208 22.8445 -0.7598 46.4993 -1.4431 -26.4223 -23.4087 9.5844 1.6345 -0.6200 -2.1122 -11.4377 -51.0613 -37.2060 0.6107 60.8792 0.6025 4.6108 -8.7704 9.8713 -1.4035 0.2338 0.7147
-50.8914 85.0583 51.5841 3.5352 -2.9235 -4.2530 1.5106 5.3477 -0.9685 0.0154 -2.8591 -1.7925 0.3387 11.9041 -4.6235 10.2984 7.0942 -0.7123 -5.0138 -4.2977 -14.5292 1.7024 -16.5953 -18.4771 -0.0111 -0.0609 -0.0238 0.6762 -10.6583 -3.8886 -0.6909 -10.6763 3.7970 -4.7799 11.2442 -12.2780 -46.0618 -19.1473 -22.4231 0.7900 1.1203 -85.3309 6.3774 19.6804 8.5742 -15.9181 10.9050 15.9593 -60.9347 1.7498 2.0193 11.6315 8.0569 15.0545 33.0620 -38.5748 0.1257 -0.0094 -0.2928 66.2818 -25.3161 -14.5865 18.5734 15.4946 7.4342 -16.4578 49.5426 -3.4905 -5.2160 22.3530 -13.7960 22.5034 -0.7422 47.3762 -1.3931 -25.6004 -23.3710 8.3655 1.6334 -0.5739 -2.1125 -11.2700 -51.3189 -38.0932 0.6797 60.3567 0.6759 4.4004 -8.3835 8.9539 -1.4020 0.1878 0.7229
-50.6965 85.0889 50.8778 3.5184 -2.7104 -3.0922 1.4665 5.4611 -0.8718 -0.0437 -2.7880 -1.5878 0.0970 12.0459 -4.4128 10.6651 6.6593 -0.7877 -5.0389 -4.2936 -14.7509 2.3660 -16.9511 -19.2660 -0.0158 -0.0632 0.0302 0.6584 -10.6462 -3.8336 -0.6835 -10.6728 3.8524 -5.9743 11.4498 -11.9023 -47.9547 -19.3043 -18.6767 0.6318 0.8621 -83.3038 9.2671 18.9429 8.4578 -15.6602 11.1799 16.0732 -60.8649 1.8808 1.9477 11.8811 8.3329 14.6605 36.1221 -37.8139 -2.1532 0.0869 -0.2638 66.8499 -25.2941 -16.0964 19.4755 15.4443 7.4928 -16.4445 49.5317 -3.5389 -5.1971 22.0933 -15.3136 22.1342 -0.7307 48.2076 -1.3630 -24.7851 -23.3617 7.3118 1.6319 -0.4938 -2.0951 -10.8773 -51.6094 -39.1102 0.7296 59.9279 0.7275 4.1945 -7.9825 8.1062 -1.4008 0.1356 0.7297
-50.6099 85.0917 50.2481 3.4781 -2.4641 -1.9670 1.4206 5.6085 -0.7893 -0.0787 -2.7298 -1.4006 -0.1454 12.1665 -4.3230 10.9222 6.1573 -0.7679 -5.1282 -4.2741 -14.9607 2.9692 -17.2454 -20.0056 -0.0191 -0.0633 0.0597 0.6462 -10.6298 -3.8041 -0.6785 -10.6667 3.8844 -6.7119 11.5080 -11.6662 -49.6046 -19.3274 -15.9256 0.4583 0.6733 -83.2160 10.4528 16.7835 7.1282 -15.3281 11.3013 16.1348 -60.6513 1.9683 1.9718 12.0441 8.5556 14.3413 38.6256 -37.2283 -4.1658 0.2232 -0.1795 67.4848 -25.2407 -17.4918 20.5064 15.4089 7.5586 -16.4787 49.5576 -3.5359 -5.1896 21.8884 -16.7804 21.7884 -0.7503 48.9170 -1.3866 -24.1746 -23.3454 6.4038 1.6331 -0.4022 -2.0698 -10.4123 -51.8787 -40.1574 0.7216 59.5733 0.7236 4.0357 -7.6867 7.3579 -1.4009 0.1500 0.7517
-50.5266 85.1084 49.7151 3.4413 -2.2144 -0.9066 1.3805 5.7846 -0.7235 -0.1048 -2.6960 -1.2411 -0.3328 12.2670 -4.2509 11.0533 5.6658 -0.7066 -5.2343 -4.2784 -15.2175 3.4661 -17.4906 -20.6129 -0.0193 -0.0652 0.0593 0.6424 -10.6265 -3.8067 -0.6752 -10.6703 3.8849 -7.1209 11.4224 -11.4506 -51.0117 -18.9097 -14.0522 0.3371 0.4872 -84.6652 10.3483 13.4762 5.1174 -14.9766 11.2931 16.0686 -60.4099 1.9738 2.0443 12.2524 8.7391 14.1607 40.3908 -37.0307 -5.8610 0.2835 -0.0888 67.9047 -25.3384 -18.8671 21.6558 15.3892 7.6236 -16.5024 49.5761 -3.5464 -5.1663 21.7360 -18.1413 21.5851 -0.8028 49.4509 -1.4506 -23.7645 -23.2807 5.5470 1.6359 -0.3662 -2.0425 -9.9232 -52.1258 -41.1910 0.6318 59.3075 0.6308 3.9385 -7.4817 6.7321 -1.4012 0.1792 0.7674
-50.5525 85.1360 49.2945 3.4277 -1.9464 0.0650 1.3399 5.9228 -0.6933 -0.1372 -2.6375 -1.0756 -0.4288 12.2891 -4.1878 11.0544 5.3068 -0.6459 -5.3207 -4.2858 -15.5179 3.9067 -17.7647 -21.1145 -0.0171 -0.0621 0.0312 0.6433 -10.6220 -3.8330 -0.6723 -10.6676 3.8545 -7.3180 11.2975 -11.2547 -52.1526 -18.1470 -12.8504 0.4042 0.3797 -86.9824 9.3003 9.1171 3.0479 -14.6797 11.2725 15.9688 -60.2752 1.9435 2.1093 12.4858 8.8383 14.1097 41.6013 -37.2521 -7.3509 0.2355 -0.0097 67.9027 -25.6638 -20.2086 22.8429 15.4100 7.6411 -16.4845 49.6057 -3.5931 -5.1418 21.5915 -19.3435 21.5317 -0.8630 49.7441 -1.5336 -23.4944 -23.1236 4.7333 1.6413 -0.3845 -2.0214 -9.4136 -52.3572 -42.2118 0.5431 59.0834 0.5435 3.8459 -7.3176 6.2168 -1.4004 0.2257 0.7516
-50.6479 85.2080 48.9821 3.4119 -1.6584 0.9349 1.3163 6.0012 -0.6574 -0.1802 -2.6071 -0.9575 -0.4479 12.2843 -4.0822 11.0053 5.0732 -0.5915 -5.3803 -4.2978 -15.7922 4.2731 -17.9781 -21.6042 -0.0152 -0.0533 -0.0055 0.6438 -10.6221 -3.8655 -0.6692 -10.6599 3.8115 -7.4088 11.1704 -11.0811 -52.9478 -17.3473 -11.9664 0.3673 0.2423 -89.3344 8.2683 5.4777 1.6978 -14.5388 11.2215 15.8658 -60.2213 1.9138 2.1501 12.7311 8.8920 14.1364 42.3988 -37.8108 -8.6792 0.2178 0.0062 67.3949 -26.1898 -21.3770 24.0441 15.4460 7.6306 -16.4497 49.6825 -3.6281 -5.1561 21.4603 -20.3669 21.5178 -0.9032 49.8186 -1.5758 -23.2370 -22.8731 3.9982 1.6453 -0.4243 -2.0173 -8.8621 -52.5324 -43.1727 0.4476 58.8726 0.4364 3.7839 -7.1784 5.7783 -1.3998 0.2861 0.7382
-50.7497 85.3120 48.7289 3.3987 -1.3821 1.7158 1.2972 6.0274 -0.6225 -0.2208 -2.5868 -0.8726 -0.4227 12.2588 -3.9821 10.9294 4.9176 -0.5358 -5.4009 -4.3051 -16.0726 4.5238 -18.1045 -22.0277 -0.0143 -0.0405 -0.0430 0.6432 -10.6134 -3.8986 -0.6669 -10.6455 3.7706 -7.4166 11.0668 -10.9304 -53.3962 -16.6398 -11.3034 0.3145 0.1270 -91.3116 7.5641 2.9665 0.9920 -14.5375 11.1628 15.7813 -60.2848 1.8790 2.1479 12.8934 8.9495 14.1821 43.0629 -38.4963 -9.8498 0.2068 0.0248 66.5532 -26.6560 -22.2591 25.0099 15.4725 7.5881 -16.3935 49.7266 -3.6972 -5.1340 21.3356 -21.1808 21.4816 -0.9067 49.7081 -1.5680 -22.9460 -22.5630 3.3484 1.6481 -0.4671 -2.0176 -8.3350 -52.6244 -44.0267 0.3431 58.6797 0.3146 3.6958 -7.0758 5.3850 -1.4001 0.3372 0.7369
-50.8972 85.4322 48.5413 3.3916 -1.1301 2.3766 1.2738 6.0186 -0.6177 -0.2458 -2.5661 -0.8013 -0.4046 12.1955 -3.9109 10.8801 4.8411 -0.5187 -5.3913 -4.3195 -16.3478 4.6565 -18.1807 -22.3164 -0.0147 -0.0330 -0.0682 0.6410 -10.6040 -3.9212 -0.6660 -10.6329 3.7450 -7.3645 10.9488 -10.8350 -53.6116 -16.1270 -10.6273 0.1725 0.0432 -92.7627 7.0935 1.1219 0.5512 -14.5997 11.1185 15.7609 -60.3163 1.8567 2.1812 12.9857 8.9729 14.1763 43.6401 -39.0975 -10.7319 0.1932 0.0999 65.6515 -26.9571 -22.8517 25.6715 15.4888 7.5785 -16.3914 49.7907 -3.7282 -5.1337 21.2536 -21.7651 21.4267 -0.8888 49.4004 -1.5355 -22.7075 -22.2147 2.7968 1.6500 -0.5254 -2.0187 -7.8253 -52.6493 -44.8357 0.2919 58.4756 0.2440 3.5839 -6.9660 5.0707 -1.4019 0.3716 0.7462
-51.0361 85.5599 48.3983 3.3720 -0.8938 2.8865 1.2468 5.9921 -0.6049 -0.2566 -2.5569 -0.7672 -0.3904 12.1438 -3.8899 10.8217 4.8221 -0.5344 -5.3678 -4.3236 -16.5395 4.7323 -18.1943 -22.4951 -0.0154 -0.0298 -0.0742 0.6412 -10.5967 -3.9250 -0.6678 -10.6239 3.7388 -7.2733 10.8752 -10.7972 -53.5912 -15.8161 -10.0007 0.0882 -0.0226 -93.7590 6.7597 -0.3557 0.2809 -14.6744 11.0703 15.7806 -60.3396 1.8456 2.2315 13.0372 8.9787 14.1540 44.0589 -39.5954 -11.2823 0.2323 0.1505 64.8949 -27.1087 -23.3017 26.1160 15.4825 7.5855 -16.3905 49.8566 -3.6848 -5.1602 21.2026 -22.2064 21.4008 -0.8698 49.0030 -1.5087 -22.5041 -21.8615 2.3351 1.6515 -0.5841 -2.0176 -7.3183 -52.6324 -45.5235 0.2868 58.2914 0.2247 3.4627 -6.9061 4.7714 -1.4027 0.3870 0.7604
-51.2151 85.6810 48.3123 3.3532 -0.7001 3.2728 1.2127 5.9634 -0.5762 -0.2630 -2.5680 -0.7852 -0.3916 12.1118 -3.8857 10.7759 4.8429 -0.5676 -5.3637 -4.3233 -16.6444 4.7634 -18.1258 -22.6101 -0.0158 -0.0289 -0.0635 0.6414 -10.5944 -3.9141 -0.6690 -10.6235 3.7508 -7.1905 10.8502 -10.8315 -53.3857 -15.6907 -9.4222 0.0548 -0.1104 -94.3276 6.5052 -1.6455 0.1119 -14.7479 11.0346 15.7653 -60.3940 1.8279 2.2511 13.0831 9.0185 14.1160 44.3327 -39.9180 -11.5013 0.2429 0.1974 64.3715 -27.1486 -23.6725 26.4228 15.5009 7.5585 -16.3836 49.9236 -3.6808 -5.1841 21.1507 -22.4939 21.3757 -0.8664 48.5797 -1.5076 -22.3595 -21.5651 2.0377 1.6502 -0.5722 -2.0147 -6.8906 -52.5781 -46.0578 0.2937 58.1292 0.2134 3.3547 -6.8750 4.5198 -1.4015 0.4198 0.7758
-51.3814 85.8005 48.2220 3.3353 -0.5336 3.5265 1.1709 5.9375 -0.5518 -0.2696 -2.5824 -0.8046 -0.3963 12.0990 -3.9081 10.7290 4.8893 -0.5970 -5.3531 -4.3367 -16.7307 4.7821 -18.0538 -22.6769 -0.0159 -0.0321 -0.0461 0.6448 -10.5954 -3.8966 -0.6729 -10.6251 3.7698 -7.1157 10.8335 -10.9282 -53.0823 -15.7555 -8.8977 0.0199 -0.1145 -94.5853 6.3338 -2.8034 -0.0055 -14.7878 11.0085 15.7635 -60.3913 1.8095 2.2564 13.1513 9.0706 14.0965 44.4818 -40.1929 -11.5350 0.2797 0.2374 64.0886 -27.1226 -23.9768 26.5994 15.5333 7.5257 -16.3749 49.9812 -3.6770 -5.2060 21.1084 -22.6713 21.3830 -0.8518 48.1378 -1.4968 -22.2827 -21.2800 1.8749 1.6496 -0.5412 -2.0109 -6.5040 -52.5149 -46.4698 0.3190 57.9603 0.2298 3.2214 -6.8267 4.2971 -1.4000 0.4473 0.7897
-51.5317 85.9355 48.1192 3.3131 -0.3861 3.6834 1.1264 5.9156 -0.5411 -0.2731 -2.5966 -0.8456 -0.4023 12.0848 -3.9362 10.6733 4.9302 -0.6006 -5.3543 -4.3379 -16.7717 4.7684 -17.9851 -22.7192 -0.0155 -0.0326 -0.0247 0.6459 -10.5902 -3.8753 -0.6734 -10.6208 3.7909 -7.0718 10.8034 -11.0490 -52.7437 -15.9352 -8.4514 -0.0164 -0.0931 -94.6316 6.2126 -3.7896 -0.0838 -14.7828 11.0209 15.7602 -60.4337 1.8143 2.2369 13.2213 9.1195 14.1048 44.5668 -40.4243 -11.4553 0.3493 0.2536 63.9089 -27.0383 -24.1566 26.6722 15.5868 7.4921 -16.3835 50.0260 -3.6837 -5.2455 21.0550 -22.7615 21.4301 -0.8221 47.6603 -1.4748 -22.2156 -20.9809 1.8189 1.6487 -0.5297 -2.0021 -6.1349 -52.3929 -46.8183 0.3308 57.7156 0.2348 3.1001 -6.7621 4.1367 -1.3991 0.4747 0.7877
-51.6672 86.0714 48.0330 3.2987 -0.2583 3.7715 1.0888 5.8860 -0.5599 -0.2922 -2.6061 -0.8677 -0.4204 12.0709 -3.9716 10.6308 4.9874 -0.5900 -5.3715 -4.3310 -16.8002 4.7702 -17.9162 -22.7587 -0.0147 -0.0353 -0.0050 0.6452 -10.5851 -3.8547 -0.6712 -10.6169 3.8094 -7.0400 10.7777 -11.1881 -52.4163 -16.1846 -8.0926 -0.0350 -0.0781 -94.5830 6.0927 -4.7237 -0.2102 -14.8030 11.0148 15.7521 -60.4617 1.8203 2.2164 13.3198 9.1629 14.1036 44.6133 -40.6534 -11.2909 0.4225 0.2442 63.7245 -26.8939 -24.2586 26.6831 15.5992 7.4841 -16.3852 50.0207 -3.6602 -5.2617 20.9829 -22.7875 21.4567 -0.7967 47.1898 -1.4555 -22.1271 -20.7121 1.8268 1.6487 -0.5264 -1.9968 -5.7898 -52.2656 -47.1183 0.3372 57.4133 0.2387 2.9679 -6.6355 4.0155 -1.3976 0.5171 0.7744
-51.7515 86.2198 47.9497 3.3114 -0.1762 3.7950 1.0350 5.8800 -0.5691 -0.3166 -2.6179 -0.9020 -0.4589 12.0709 -4.0059 10.6035 5.0548 -0.5514 -5.4048 -4.3152 -16.8010 4.7832 -17.8322 -22.7772 -0.0133 -0.0366 -0.0002 0.6487 -10.5878 -3.8504 -0.6720 -10.6228 3.8159 -7.0223 10.7664 -11.3446 -52.1382 -16.4351 -7.8410 0.0456 -0.0714 -94.5186 6.0113 -5.6460 -0.3382 -14.7970 11.0377 15.7502 -60.5643 1.8199 2.1860 13.4123 9.1945 14.1239 44.6741 -40.8303 -11.1345 0.4925 0.2129 63.6064 -26.7742 -24.2567 26.6415 15.6185 7.4859 -16.3724 50.0271 -3.6237 -5.2304 20.8656 -22.7163 21.5038 -0.7913 46.7217 -1.4525 -22.0227 -20.4687 1.8743 1.6529 -0.5377 -1.9948 -5.5390 -52.1346 -47.3126 0.3299 57.1018 0.2319 2.8564 -6.5301 3.9569 -1.3969 0.5571 0.7597
-51.7945 86.3613 47.8900 3.3249 -0.1434 3.7552 0.9894 5.8909 -0.5743 -0.3293 -2.6237 -0.9320 -0.5143 12.0784 -4.0480 10.5997 5.1390 -0.5294 -5.4394 -4.3137 -16.7719 4.7939 -17.7400 -22.7183 -0.0116 -0.0395 -0.0038 0.6496 -10.5926 -3.8565 -0.6691 -10.6263 3.8123 -7.0316 10.7534 -11.5228 -51.9554 -16.6976 -7.5506 0.1477 -0.0295 -94.4841 5.9342 -6.5505 -0.5243 -14.8247 11.0179 15.7262 -60.5757 1.8098 2.1725 13.4728 9.2035 14.1429 44.7292 -40.9100 -10.9319 0.4624 0.2403 63.5132 -26.7242 -24.3311 26.6005 15.5875 7.5196 -16.3879 50.0315 -3.5834 -5.2115 20.7598 -22.5401 21.5349 -0.7865 46.2513 -1.4534 -21.9911 -20.2485 2.0309 1.6541 -0.5546 -1.9960 -5.3824 -51.9665 -47.3882 0.3144 56.7344 0.2114 2.8112 -6.3919 3.9111 -1.3975 0.5955 0.7598
-51.7972 86.4996 47.8335 3.3488 -0.1248 3.6811 0.9502 5.8973 -0.5800 -0.3411 -2.6330 -0.9535 -0.5676 12.0946 -4.0933 10.5759 5.2357 -0.5147 -5.4381 -4.3037 -16.7110 4.7850 -17.6654 -22.6468 -0.0102 -0.0404 -0.0146 0.6510 -10.5979 -3.8695 -0.6675 -10.6324 3.8043 -7.0617 10.7858 -11.6886 -51.8839 -16.9933 -7.2898 0.2392 -0.0331 -94.4546 5.8924 -7.3227 -0.6890 -14.8400 10.9939 15.7155 -60.5985 1.8026 2.1746 13.5146 9.2200 14.1259 44.8359 -40.9759 -10.7599 0.4425 0.2461 63.4571 -26.6665 -24.3855 26.5413 15.5926 7.5284 -16.3877 50.0435 -3.5622 -5.1897 20.6234 -22.3205 21.5489 -0.7768 45.8170 -1.4406 -21.9342 -20.0850 2.2000 1.6524 -0.5664 -1.9994 -5.2817 -51.8048 -47.4336 0.3046 56.3350 0.1923 2.8197 -6.2296 3.9216 -1.3974 0.5858 0.7582
-51.7812 86.6540 47.7920 3.3720 -0.1096 3.5753 0.9195 5.8803 -0.5820 -0.3469 -2.6420 -0.9759 -0.6132 12.1123 -4.1211 10.5624 5.3111 -0.5012 -5.4284 -4.2935 -16.6572 4.7521 -17.5862 -22.5809 -0.0089 -0.0369 -0.0231 0.6515 -10.5935 -3.8792 -0.6651 -10.6285 3.7951 -7.1024 10.8143 -11.8205 -51.9849 -17.2231 -7.0401 0.2775 -0.0480 -94.4128 5.9115 -7.9005 -0.8640 -14.8717 10.9970 15.7355 -60.6329 1.8147 2.1937 13.5668 9.2409 14.0816 44.9380 -41.0008 -10.6193 0.4570 0.2427 63.4255 -26.6901 -24.4407 26.5438 15.6051 7.5469 -16.4021 50.0556 -3.5767 -5.1933 20.4768 -22.0623 21.5533 -0.7647 45.3985 -1.4204 -21.9110 -19.9474 2.4045 1.6513 -0.5595 -2.0071 -5.1897 -51.6317 -47.4592 0.2978 55.8985 0.1794 2.8689 -6.0355 3.9773 -1.3987 0.5837 0.7574
-51.7285 86.7782 47.7464 3.3913 -0.0960 3.4522 0.8902 5.8602 -0.5871 -0.3470 -2.6672 -1.0023 -0.6501 12.1394 -4.1242 10.5438 5.3749 -0.4899 -5.4133 -4.2763 -16.6068 4.7390 -17.5023 -22.5529 -0.0079 -0.0331 -0.0219 0.6548 -10.5997 -3.8783 -0.6664 -10.6356 3.7971 -7.1350 10.8342 -11.9070 -52.2355 -17.3924 -6.7783 0.2513 -0.1052 -94.4052 5.9348 -8.2707 -0.9855 -14.9002 10.9852 15.7396 -60.6169 1.8160 2.1968 13.6357 9.2670 14.0668 44.9692 -40.9324 -10.4914 0.4464 0.2199 63.4119 -26.7735 -24.5222 26.6263 15.6253 7.5441 -16.3916 50.0770 -3.5974 -5.1827 20.3199 -21.8329 21.5719 -0.7454 45.0637 -1.3881 -21.9126 -19.8744 2.6156 1.6497 -0.5400 -2.0147 -5.1101 -51.5007 -47.4865 0.2968 55.4922 0.1726 2.9130 -5.7884 4.0807 -1.4011 0.5581 0.7502
-51.6411 86.8876 47.6816 3.4015 -0.0826 3.3021 0.8690 5.8310 -0.5910 -0.3441 -2.6821 -1.0121 -0.6619 12.1613 -4.1245 10.5346 5.4235 -0.4952 -5.3908 -4.2658 -16.5868 4.7013 -17.4349 -22.5512 -0.0069 -0.0324 -0.0208 0.6594 -10.6018 -3.8793 -0.6690 -10.6371 3.7991 -7.1703 10.8726 -11.9643 -52.6105 -17.5034 -6.5589 0.2064 -0.1684 -94.3914 5.9685 -8.3664 -1.0931 -14.9427 10.9732 15.7482 -60.5783 1.8200 2.1899 13.7131 9.3142 14.0353 44.9466 -40.8233 -10.3534 0.4259 0.2073 63.4160 -26.8521 -24.6252 26.7274 15.6329 7.5317 -16.3881 50.0819 -3.6176 -5.1978 20.1748 -21.6158 21.5740 -0.7149 44.8075 -1.3404 -21.9317 -19.8495 2.8463 1.6471 -0.5203 -2.0105 -5.0742 -51.3642 -47.4553 0.2806 55.0829 0.1479 2.9633 -5.5571 4.1846 -1.4051 0.5297 0.7497
-51.4981 86.9806 47.6015 3.4108 -0.0836 3.1559 0.8593 5.8007 -0.5792 -0.3427 -2.7087 -1.0413 -0.6756 12.2056 -4.1212 10.5606 5.4572 -0.4943 -5.3759 -4.2637 -16.6121 4.6512 -17.4023 -22.5445 -0.0058 -0.0266 -0.0258 0.6651 -10.6006 -3.8833 -0.6723 -10.6349 3.7931 -7.1892 10.9224 -11.9758 -53.0529 -17.5630 -6.3273 0.1025 -0.2466 -94.4332 6.0456 -8.3299 -1.1449 -14.9867 10.9667 15.7426 -60.5766 1.8301 2.1820 13.7827 9.3645 14.0223 44.8838 -40.7431 -10.2744 0.4894 0.1849 63.4066 -26.9622 -24.7403 26.8634 15.6506 7.4929 -16.3531 50.0872 -3.6414 -5.1881 20.0320 -21.4136 21.5529 -0.6921 44.6407 -1.3033 -21.9379 -19.8775 3.0524 1.6442 -0.5043 -2.0051 -5.0589 -51.2681 -47.4395 0.2441 54.7299 0.1021 3.0173 -5.3146 4.2950 -1.4098 0.4746 0.7490
-51.3533 87.0410 47.5603 3.4147 -0.1059 3.0143 0.8458 5.7729 -0.5825 -0.3405 -2.7234 -1.0365 -0.6742 12.2469 -4.1193 10.5988 5.4742 -0.5048 -5.3592 -4.2642 -16.6506 4.6127 -17.3773 -22.5638 -0.0051 -0.0205 -0.0212 0.6717 -10.5954 -3.8795 -0.6775 -10.6291 3.7979 -7.1801 10.9651 -11.9710 -53.5489 -17.5548 -6.1092 0.0123 -0.3214 -94.5114 6.1486 -8.2007 -1.1873 -15.0161 10.9598 15.7450 -60.5779 1.8355 2.1882 13.8535 9.4178 14.0046 44.7646 -40.6711 -10.2163 0.5730 0.1573 63.4266 -27.1083 -24.9284 26.9760 15.6792 7.4590 -16.3156 50.1214 -3.6605 -5.1840 19.9093 -21.2445 21.5246 -0.6704 44.5808 -1.2743 -21.9339 -19.9578 3.2473 1.6412 -0.4862 -2.0069 -5.0718 -51.2001 -47.4429 0.2231 54.4299 0.0738 3.1103 -5.0700 4.4072 -1.4127 0.4320 0.7483
-51.1761 87.0852 47.5045 3.4158 -0.1529 2.8853 0.8289 5.7402 -0.5891 -0.3398 -2.7327 -1.0193 -0.6646 12.2850 -4.1252 10.6446 5.5108 -0.5313 -5.3386 -4.2658 -16.6919 4.5956 -17.3412 -22.5980 -0.0053 -0.0159 -0.0104 0.6746 -10.5860 -3.8681 -0.6807 -10.6189 3.8081 -7.1721 10.9867 -11.9358 -54.0254 -17.4681 -5.9204 -0.0496 -0.3547 -94.6026 6.2570 -8.0168 -1.1939 -15.0708 10.9279 15.7344 -60.5751 1.8254 2.2004 13.9564 9.4715 14.0005 44.5452 -40.5508 -10.1042 0.6184 0.1973 63.4230 -27.3235 -25.1825 27.0967 15.6908 7.4400 -16.2724 50.1717 -3.6511 -5.2051 19.8110 -21.0631 21.5018 -0.6527 44.5676 -1.2607 -21.9532 -20.0708 3.4276 1.6394 -0.4572 -2.0194 -5.1315 -51.1305 -47.4437 0.2226 54.1844 0.0737 3.1979 -4.8725 4.5184 -1.4130 0.3823 0.7507
-50.9968 87.1028 47.4580 3.4110 -0.2123 2.7490 0.8106 5.7100 -0.5828 -0.3351 -2.7459 -1.0090 -0.6484 12.3256 -4.1156 10.7025 5.5678 -0.5669 -5.3158 -4.2697 -16.7212 4.5964 -17.3078 -22.6206 -0.0056 -0.0144 0.0001 0.6726 -10.5870 -3.8572 -0.6795 -10.6193 3.8216 -7.1662 10.9903 -11.8900 -54.4509 -17.3353 -5.7441 -0.0779 -0.3597 -94.7078 6.3471 -7.8608 -1.2037 -15.1169 10.8919 15.7115 -60.5919 1.8068 2.1968 14.0459 9.4990 13.9853 44.2799 -40.3760 -9.9597 0.6220 0.2108 63.4608 -27.5539 -25.3974 27.1726 15.7073 7.4365 -16.2462 50.2396 -3.6054 -5.2327 19.7294 -20.8985 21.4803 -0.6371 44.6269 -1.2461 -21.9585 -20.2088 3.5772 1.6394 -0.4357 -2.0314 -5.2204 -51.1032 -47.4083 0.2426 54.0335 0.1057 3.2804 -4.7283 4.6328 -1.4101 0.3587 0.7467
-50.8485 87.1074 47.4413 3.3919 -0.2906 2.6049 0.7939 5.6884 -0.5640 -0.3295 -2.7638 -1.0063 -0.6394 12.3603 -4.1041 10.7986 5.6148 -0.5938 -5.3458 -4.2869 -16.7168 4.6048 -17.2629 -22.6682 -0.0055 -0.0139 0.0071 0.6708 -10.5864 -3.8510 -0.6773 -10.6202 3.8279 -7.1597 11.0206 -11.8651 -54.8057 -17.2095 -5.4812 -0.1573 -0.3135 -94.8213 6.4138 -7.8216 -1.1901 -15.1394 10.8889 15.6960 -60.5494 1.7957 2.1839 14.1452 9.4993 13.9658 43.9803 -40.1574 -9.7740 0.6376 0.2174 63.4580 -27.7602 -25.6386 27.2426 15.6872 7.4397 -16.2255 50.2509 -3.5552 -5.2337 19.6906 -20.7206 21.4843 -0.6303 44.6797 -1.2496 -21.9800 -20.3431 3.7352 1.6397 -0.4080 -2.0406 -5.3639 -51.0577 -47.2867 0.2467 53.9008 0.1159 3.3561 -4.5781 4.7356 -1.4088 0.3644 0.7488
-50.6790 87.1270 47.4104 3.3654 -0.3632 2.4641 0.7901 5.6690 -0.5550 -0.3288 -2.7813 -0.9911 -0.6402 12.3987 -4.1024 10.8877 5.6444 -0.6001 -5.3810 -4.2988 -16.7507 4.6343 -17.2099 -22.7095 -0.0057 -0.0180 0.0046 0.6679 -10.5881 -3.8534 -0.6743 -10.6262 3.8249 -7.1594 11.0676 -11.8449 -55.0497 -17.0867 -5.2550 -0.2109 -0.2746 -94.8980 6.4416 -7.8461 -1.1708 -15.1530 10.8906 15.6829 -60.5217 1.7809 2.1761 14.2474 9.5150 13.9486 43.7040 -40.0072 -9.5798 0.6976 0.1934 63.4487 -27.9297 -25.8193 27.2853 15.6647 7.4521 -16.2160 50.2455 -3.5212 -5.2134 19.6578 -20.5406 21.4695 -0.6180 44.7290 -1.2503 -21.9764 -20.4778 3.8741 1.6414 -0.3695 -2.0463 -5.4955 -50.9999 -47.1601 0.2485 53.7643 0.1201 3.4067 -4.3949 4.8514 -1.4054 0.3806 0.7401
-50.5127 87.1424 47.4176 3.3365 -0.4432 2.3349 0.7772 5.6657 -0.5503 -0.3275 -2.7963 -0.9939 -0.6516 12.4205 -4.0873 10.9784 5.6898 -0.6074 -5.4014 -4.3032 -16.7720 4.6417 -17.1524 -22.7406 -0.0058 -0.0235 -0.0099 0.6659 -10.6041 -3.8689 -0.6723 -10.6455 3.8104 -7.1594 11.1549 -11.8220 -55.1870 -16.9107 -5.1402 -0.1625 -0.2512 -94.9054 6.4636 -7.8531 -1.1874 -15.1461 10.9179 15.6909 -60.5628 1.7718 2.1693 14.3585 9.5221 13.9586 43.5137 -39.8694 -9.4672 0.7746 0.1168 63.4782 -28.0469 -25.8345 27.2758 15.6554 7.4718 -16.2064 50.2377 -3.4830 -5.1823 19.6218 -20.3619 21.4735 -0.6112 44.7943 -1.2445 -21.9604 -20.6222 4.0269 1.6429 -0.3468 -2.0466 -5.6704 -50.9367 -46.9947 0.2648 53.6535 0.1375 3.4834 -4.2504 4.9457 -1.4028 0.4003 0.7356
-50.3411 87.1621 47.4144 3.3002 -0.5268 2.1984 0.7571 5.6559 -0.5759 -0.3216 -2.7864 -0.9753 -0.6672 12.4193 -4.0692 11.0614 5.7405 -0.6094 -5.4285 -4.3090 -16.7774 4.6277 -17.0736 -22.7330 -0.0061 -0.0327 -0.0253 0.6650 -10.6110 -3.8842 -0.6720 -10.6546 3.7964 -7.1438 11.2405 -11.7773 -55.2893 -16.7262 -5.0427 -0.1128 -0.2001 -94.8672 6.4638 -7.8554 -1.2406 -15.1026 10.9364 15.7242 -60.5882 1.7568 2.1933 14.4473 9.5576 13.9642 43.4146 -39.7192 -9.3399 0.8028 0.1127 63.5978 -28.1401 -25.8414 27.2218 15.6644 7.4858 -16.2141 50.2069 -3.4779 -5.1588 19.6200 -20.1530 21.4732 -0.6168 44.8029 -1.2525 -21.9794 -20.7236 4.2168 1.6431 -0.3370 -2.0364 -5.8390 -50.8282 -46.8463 0.2983 53.4995 0.1815 3.5710 -4.0967 5.0463 -1.3998 0.4330 0.7301
-50.1682 87.1784 47.4606 3.2647 -0.6096 2.0611 0.7291 5.6447 -0.5734 -0.3202 -2.7904 -0.9847 -0.6789 12.4460 -4.0331 11.1799 5.7976 -0.6388 -5.4555 -4.3240 -16.7445 4.5896 -17.0192 -22.7104 -0.0044 -0.0397 -0.0329 0.6688 -10.6206 -3.8933 -0.6721 -10.6643 3.7889 -7.1274 11.3647 -11.7637 -55.3437 -16.5647 -4.9493 -0.0313 -0.1988 -94.8551 6.4503 -7.7653 -1.3128 -15.0740 10.9445 15.7473 -60.5860 1.7563 2.2280 14.5525 9.5559 13.9510 43.2527 -39.4845 -9.1722 0.7969 0.0781 63.7500 -28.2278 -25.7685 27.1731 15.6569 7.5165 -16.2558 50.1702 -3.4480 -5.1717 19.6187 -19.9633 21.4841 -0.6174 44.8575 -1.2594 -22.0077 -20.8404 4.4295 1.6436 -0.3157 -2.0222 -6.0002 -50.7385 -46.7238 0.2993 53.3657 0.1788 3.6807 -3.9369 5.1643 -1.4003 0.4537 0.7340
-50.0109 87.1867 47.5375 3.2235 -0.6822 1.9642 0.7029 5.6194 -0.5695 -0.3209 -2.7820 -0.9765 -0.6805 12.4607 -4.0204 11.2896 5.8440 -0.6525 -5.4693 -4.3388 -16.7412 4.5117 -16.9677 -22.6538 -0.0024 -0.0440 -0.0385 0.6712 -10.6210 -3.8997 -0.6704 -10.6661 3.7837 -7.0972 11.4732 -11.7405 -55.3957 -16.3977 -4.8763 0.0556 -0.2177 -94.8215 6.4521 -7.6781 -1.3728 -15.0524 10.9452 15.7659 -60.5619 1.7562 2.2534 14.6426 9.5307 13.9161 43.1037 -39.1940 -8.9876 0.7490 0.0986 63.9262 -28.2828 -25.7094 27.1250 15.6387 7.5259 -16.2860 50.1285 -3.4726 -5.1753 19.6226 -19.7748 21.4599 -0.6171 44.8903 -1.2594 -22.0398 -20.9401 4.6110 1.6431 -0.3036 -2.0125 -6.1566 -50.6347 -46.6155 0.2997 53.2268 0.1783 3.7968 -3.7791 5.2804 -1.4031 0.4658 0.7380
-49.8601 87.1777 47.6135 3.1771 -0.7418 1.8618 0.6824 5.6048 -0.5534 -0.3265 -2.7851 -0.9812 -0.6731 12.4885 -3.9973 11.3693 5.8965 -0.6612 -5.4525 -4.3468 -16.7272 4.4338 -16.9150 -22.5884 -0.0008 -0.0424 -0.0481 0.6748 -10.6404 -3.9124 -0.6707 -10.6841 3.7759 -7.0502 11.5421 -11.7117 -55.4629 -16.2177 -4.8109 0.1642 -0.2395 -94.8344 6.4423 -7.5841 -1.3995 -15.0472 10.9503 15.7719 -60.5713 1.7606 2.2651 14.7089 9.5111 13.8772 42.9284 -38.9041 -8.7716 0.6976 0.0723 64.0883 -28.3518 -25.6354 27.1545 15.6320 7.5294 -16.3064 50.1282 -3.4905 -5.1898 19.6355 -19.6202 21.4069 -0.6154 44.9732 -1.2510 -22.1197 -21.0835 4.7733 1.6411 -0.2545 -2.0109 -6.2869 -50.5729 -46.5002 0.3033 53.1498 0.1820 3.9137 -3.6643 5.3690 -1.4051 0.4787 0.7454
-49.7595 87.1671 47.6729 3.1356 -0.7826 1.7742 0.6648 5.5826 -0.5359 -0.3396 -2.7864 -0.9783 -0.6443 12.5028 -3.9803 11.3989 5.9429 -0.6767 -5.4197 -4.3486 -16.7268 4.3469 -16.8665 -22.5249 0.0003 -0.0381 -0.0525 0.6779 -10.6521 -3.9195 -0.6714 -10.6929 3.7721 -7.0194 11.5592 -11.6804 -55.5698 -16.0391 -4.6765 0.2126 -0.2783 -94.8860 6.4157 -7.5954 -1.4085 -15.0541 10.9570 15.7637 -60.5731 1.7584 2.2556 14.7511 9.5130 13.8062 42.7943 -38.6392 -8.5666 0.6625 0.0842 64.2112 -28.4628 -25.6113 27.2768 15.6442 7.5425 -16.3224 50.1857 -3.4985 -5.1922 19.6512 -19.5081 21.3498 -0.6087 45.0832 -1.2283 -22.2243 -21.2061 4.9061 1.6412 -0.1804 -2.0082 -6.3909 -50.5290 -46.4133 0.3090 53.0935 0.1868 3.9997 -3.5602 5.4232 -1.4085 0.4779 0.7507
-49.6413 87.1585 47.7264 3.1063 -0.8159 1.7301 0.6466 5.5407 -0.5273 -0.3513 -2.7968 -0.9698 -0.6141 12.5325 -3.9634 11.4038 6.0062 -0.6959 -5.3764 -4.3480 -16.7398 4.2761 -16.8651 -22.4584 0.0005 -0.0300 -0.0561 0.6803 -10.6561 -3.9239 -0.6736 -10.6935 3.7701 -6.9806 11.5456 -11.6622 -55.7090 -15.8870 -4.4957 0.1790 -0.3124 -94.9358 6.4351 -7.6875 -1.4156 -15.0938 10.9465 15.7583 -60.5441 1.7538 2.2592 14.8010 9.5205 13.7403 42.6371 -38.3841 -8.3806 0.6213 0.0924 64.3154 -28.5740 -25.6992 27.3843 15.6344 7.5485 -16.3062 50.2127 -3.5116 -5.1915 19.6482 -19.4240 21.2687 -0.5911 45.2059 -1.1953 -22.2995 -21.3080 5.0085 1.6417 -0.1261 -2.0131 -6.4913 -50.5016 -46.3445 0.3176 53.0443 0.1975 4.0493 -3.4677 5.4418 -1.4113 0.4758 0.7491
-49.5346 87.1420 47.7826 3.0814 -0.8491 1.6875 0.6312 5.4943 -0.5004 -0.3556 -2.8096 -0.9799 -0.5917 12.5744 -3.9496 11.4026 6.0757 -0.7143 -5.3390 -4.3430 -16.7421 4.2277 -16.8804 -22.4177 0.0007 -0.0210 -0.0555 0.6818 -10.6561 -3.9235 -0.6746 -10.6913 3.7696 -6.9400 11.4765 -11.6188 -55.8708 -15.7737 -4.2458 0.0298 -0.3478 -94.9924 6.4631 -7.8249 -1.4162 -15.1277 10.9410 15.7428 -60.5169 1.7578 2.2524 14.8575 9.5575 13.6793 42.5101 -38.2455 -8.2566 0.6685 0.1018 64.3795 -28.7071 -25.7318 27.4651 15.6335 7.5441 -16.2703 50.2494 -3.5106 -5.1998 19.6441 -19.3680 21.2329 -0.5794 45.3518 -1.1740 -22.3204 -21.4106 5.0902 1.6420 -0.0781 -2.0210 -6.5843 -50.4754 -46.2935 0.3150 53.0080 0.1937 4.1023 -3.3758 5.4422 -1.4126 0.4478 0.7492
-49.4578 87.1276 47.8458 3.0580 -0.8893 1.6532 0.6146 5.4617 -0.5086 -0.3548 -2.8375 -0.9565 -0.5750 12.6173 -3.9467 11.4052 6.1838 -0.7374 -5.2978 -4.3256 -16.7242 4.2017 -16.9308 -22.3630 -0.0002 -0.0162 -0.0421 0.6788 -10.6449 -3.9083 -0.6737 -10.6803 3.7826 -6.8850 11.4364 -11.5521 -56.0699 -15.7425 -4.0240 -0.1378 -0.3464 -95.0514 6.5057 -7.8642 -1.4550 -15.1772 10.9048 15.7366 -60.5114 1.7604 2.2617 14.9102 9.6200 13.6268 42.4365 -38.1825 -8.1718 0.7012 0.1147 64.4565 -28.8160 -25.8114 27.5164 15.6426 7.5420 -16.2235 50.2722 -3.4966 -5.2125 19.6458 -19.3188 21.2381 -0.5658 45.4780 -1.1635 -22.3094 -21.4657 5.1325 1.6411 -0.0597 -2.0321 -6.6725 -50.4434 -46.2776 0.3296 52.9586 0.2161 4.1533 -3.2755 5.4812 -1.4085 0.3998 0.7394
-49.3722 87.1259 47.8971 3.0352 -0.9290 1.6422 0.6008 5.4391 -0.5108 -0.3530 -2.8495 -0.9352 -0.5709 12.6435 -3.9495 11.4588 6.2765 -0.7593 -5.2862 -4.3189 -16.7056 4.1733 -16.9687 -22.3085 -0.0020 -0.0127 -0.0302 0.6751 -10.6269 -3.8941 -0.6735 -10.6609 3.7935 -6.8252 11.4276 -11.5068 -56.2158 -15.7390 -3.8586 -0.2726 -0.3028 -95.1400 6.5821 -7.9341 -1.5318 -15.1668 10.9117 15.7449 -60.5141 1.7674 2.2616 14.9686 9.6523 13.5475 42.4476 -38.1038 -8.1380 0.7204 0.1657 64.5508 -28.8816 -25.9909 27.5347 15.6390 7.5454 -16.2098 50.2731 -3.4956 -5.2079 19.6582 -19.2668 21.2560 -0.5576 45.5602 -1.1678 -22.2968 -21.5087 5.1112 1.6412 -0.0467 -2.0392 -6.7564 -50.3925 -46.2970 0.3461 52.9076 0.2401 4.1731 -3.2370 5.5112 -1.4041 0.3607 0.7315
-49.3027 87.1323 47.9601 2.9892 -0.9628 1.6382 0.6019 5.4228 -0.5108 -0.3418 -2.8573 -0.9431 -0.5655 12.6604 -3.9395 11.5273 6.3367 -0.7391 -5.3133 -4.3294 -16.6839 4.1295 -16.9567 -22.2641 -0.0031 -0.0142 -0.0219 0.6716 -10.6127 -3.8849 -0.6717 -10.6470 3.7992 -6.7670 11.4218 -11.4730 -56.3301 -15.7138 -3.7459 -0.3475 -0.2323 -95.2484 6.6965 -8.0805 -1.6803 -15.1547 10.9383 15.7730 -60.4971 1.7854 2.2672 15.0259 9.6738 13.5043 42.4215 -37.9887 -8.0691 0.6835 0.1656 64.6647 -28.8942 -26.1497 27.5419 15.5918 7.5591 -16.2283 50.1831 -3.4758 -5.2043 19.6949 -19.2262 21.2958 -0.5513 45.5940 -1.1704 -22.2494 -21.5215 5.0476 1.6428 -0.0766 -2.0318 -6.8263 -50.2884 -46.2904 0.3405 52.8203 0.2412 4.2142 -3.1972 5.5156 -1.4015 0.3400 0.7297
-49.2404 87.1438 47.9881 2.9318 -0.9794 1.6386 0.6108 5.3999 -0.5350 -0.3402 -2.8598 -0.9357 -0.5524 12.6725 -3.9290 11.5901 6.3830 -0.7188 -5.3405 -4.3365 -16.6457 4.0819 -16.9322 -22.2062 -0.0036 -0.0193 -0.0265 0.6683 -10.6048 -3.8888 -0.6692 -10.6421 3.7944 -6.7246 11.4553 -11.4479 -56.3543 -15.7065 -3.7326 -0.3422 -0.1831 -95.3522 6.7943 -8.3031 -1.8268 -15.1664 10.9686 15.7958 -60.5276 1.7874 2.2606 15.0725 9.6872 13.4739 42.4512 -37.8689 -8.0198 0.6249 0.1435 64.7833 -28.8728 -26.2357 27.5352 15.5579 7.5852 -16.2477 50.0848 -3.4597 -5.1690 19.7201 -19.1936 21.3077 -0.5467 45.6140 -1.1699 -22.2269 -21.5703 5.0179 1.6416 -0.0891 -2.0264 -6.8475 -50.1788 -46.3208 0.3392 52.7374 0.2452 4.2049 -3.1897 5.5005 -1.3977 0.3544 0.7206
-49.1738 87.1701 47.9811 2.8765 -0.9919 1.6628 0.6177 5.3778 -0.5325 -0.3413 -2.8554 -0.9488 -0.5333 12.6862 -3.9211 11.6667 6.4278 -0.6966 -5.3899 -4.3496 -16.5816 4.0458 -16.9088 -22.1852 -0.0030 -0.0258 -0.0339 0.6678 -10.6037 -3.8956 -0.6673 -10.6409 3.7861 -6.6938 11.5025 -11.4408 -56.2925 -15.7055 -3.7764 -0.2883 -0.1720 -95.4294 6.8741 -8.5713 -1.9521 -15.1732 11.0113 15.8275 -60.5755 1.7817 2.2530 15.1206 9.7087 13.4718 42.4831 -37.7485 -7.9891 0.5445 0.1095 64.8815 -28.8734 -26.3313 27.5696 15.5291 7.6201 -16.2902 50.0266 -3.4425 -5.1552 19.7467 -19.1833 21.3386 -0.5492 45.6375 -1.1768 -22.2187 -21.6115 5.0124 1.6425 -0.1024 -2.0218 -6.8643 -50.0693 -46.3249 0.3363 52.6522 0.2493 4.1989 -3.1610 5.4576 -1.3977 0.4106 0.7174
-49.1202 87.1913 47.9945 2.8249 -1.0123 1.6700 0.6212 5.3619 -0.5186 -0.3374 -2.8517 -0.9668 -0.5194 12.7039 -3.9134 11.7157 6.4796 -0.7024 -5.4262 -4.3561 -16.5008 4.0288 -16.8983 -22.1548 -0.0022 -0.0308 -0.0422 0.6693 -10.6024 -3.9052 -0.6668 -10.6378 3.7770 -6.6836 11.5510 -11.4487 -56.2071 -15.7136 -3.7643 -0.2294 -0.1241 -95.4982 6.8912 -8.9473 -2.0745 -15.1684 11.0181 15.8510 -60.5311 1.7735 2.2687 15.1736 9.7452 13.4851 42.5141 -37.6688 -7.9773 0.4701 0.1068 64.9967 -28.8856 -26.5179 27.6800 15.5156 7.6442 -16.3439 49.9856 -3.4321 -5.1587 19.7968 -19.1495 21.3554 -0.5509 45.6614 -1.1730 -22.2578 -21.6438 5.0517 1.6424 -0.0903 -2.0153 -6.9041 -49.9590 -46.2972 0.3440 52.5726 0.2694 4.2048 -3.1274 5.4107 -1.3976 0.4632 0.7208
-49.0673 87.1958 48.0185 2.7815 -1.0306 1.6625 0.6275 5.3410 -0.5027 -0.3358 -2.8549 -0.9580 -0.5044 12.7436 -3.9168 11.7119 6.5205 -0.6953 -5.4193 -4.3503 -16.4650 4.0071 -16.9155 -22.0932 -0.0018 -0.0306 -0.0572 0.6685 -10.6100 -3.9219 -0.6653 -10.6458 3.7636 -6.6794 11.5795 -11.4394 -56.1124 -15.7293 -3.8058 -0.1790 -0.1098 -95.4738 6.9039 -9.2454 -2.1456 -15.1541 11.0207 15.8627 -60.5197 1.7717 2.2712 15.2211 9.7759 13.4690 42.5497 -37.6307 -7.9415 0.4400 0.1024 65.0759 -28.8589 -26.6484 27.7933 15.5571 7.6560 -16.3728 50.0106 -3.4256 -5.1529 19.8241 -19.1109 21.3447 -0.5431 45.6981 -1.1631 -22.2723 -21.6838 5.1108 1.6427 -0.0811 -2.0186 -6.9334 -49.8896 -46.2688 0.3477 52.5407 0.2743 4.2034 -3.1208 5.3626 -1.3973 0.5129 0.7138
-49.0169 87.1943 48.0537 2.7528 -1.0527 1.6561 0.6288 5.3165 -0.4666 -0.3380 -2.8609 -0.9653 -0.4888 12.7807 -3.9176 11.6948 6.5711 -0.6828 -5.3876 -4.3393 -16.4263 3.9650 -16.9897 -22.0227 -0.0010 -0.0245 -0.0634 0.6698 -10.6120 -3.9285 -0.6651 -10.6458 3.7568 -6.6761 11.6103 -11.4202 -56.0329 -15.7146 -3.8629 -0.1234 -0.1253 -95.3967 6.9355 -9.4498 -2.1981 -15.1511 11.0126 15.8592 -60.4838 1.7866 2.2853 15.2828 9.8175 13.4559 42.5070 -37.5663 -7.8234 0.3956 0.1204 65.1046 -28.8737 -26.7547 27.9335 15.5793 7.6630 -16.3883 50.0364 -3.4310 -5.1653 19.8395 -19.0690 21.3346 -0.5308 45.7679 -1.1429 -22.2915 -21.7458 5.1750 1.6439 -0.0692 -2.0238 -7.0023 -49.8367 -46.1842 0.3615 52.5406 0.2939 4.2215 -3.1492 5.3394 -1.3998 0.5356 0.7146
-48.9807 87.1757 48.1007 2.7349 -1.0834 1.6709 0.6255 5.2916 -0.4361 -0.3355 -2.8688 -0.9961 -0.4603 12.8340 -3.9117 11.6610 6.6188 -0.6599 -5.3401 -4.3347 -16.4278 3.9128 -17.0931 -21.9365 -0.0012 -0.0147 -0.0649 0.6687 -10.6219 -3.9325 -0.6646 -10.6521 3.7578 -6.6825 11.6322 -11.3890 -55.9922 -15.7203 -3.9051 -0.0961 -0.1680 -95.2901 6.9508 -9.5777 -2.1916 -15.1325 10.9976 15.8470 -60.4242 1.8109 2.2947 15.3405 9.8587 13.4324 42.4195 -37.5643 -7.6927 0.3790 0.1071 65.1028 -28.8557 -26.7882 28.0344 15.5835 7.6441 -16.3704 50.0662 -3.4665 -5.1769 19.8564 -19.0391 21.3121 -0.5211 45.8629 -1.1291 -22.3005 -21.8100 5.2353 1.6440 -0.0481 -2.0207 -7.1041 -49.8211 -46.1086 0.3842 52.5819 0.3217 4.2408 -3.1508 5.3177 -1.4024 0.5372 0.7233
-48.9163 87.1705 48.1498 2.7197 -1.1176 1.6839 0.6253 5.2459 -0.4351 -0.3365 -2.8616 -0.9995 -0.4242 12.8764 -3.9073 11.6104 6.6550 -0.6644 -5.2864 -4.3257 -16.4445 3.8520 -17.1672 -21.8527 -0.0024 -0.0076 -0.0600 0.6674 -10.6159 -3.9285 -0.6656 -10.6445 3.7632 -6.7091 11.6241 -11.3572 -55.9891 -15.6951 -3.9490 -0.0765 -0.2013 -95.1425 6.9593 -9.6377 -2.1645 -15.1389 11.0085 15.8672 -60.3733 1.8321 2.3123 15.3912 9.9064 13.4007 42.3769 -37.5927 -7.5837 0.3799 0.1314 65.0679 -28.7836 -26.7559 28.0748 15.5669 7.6348 -16.3813 50.0740 -3.5014 -5.2167 19.8756 -18.9867 21.3137 -0.5096 45.8865 -1.1198 -22.3196 -21.8167 5.2934 1.6472 -0.0378 -2.0180 -7.2184 -49.7593 -46.0235 0.3917 52.5724 0.3300 4.2642 -3.1263 5.2929 -1.4061 0.5225 0.7364
-48.8534 87.1586 48.1899 2.7097 -1.1433 1.7353 0.6264 5.2090 -0.4188 -0.3339 -2.8789 -1.0392 -0.3908 12.9450 -3.9108 11.5692 6.7010 -0.6596 -5.2410 -4.3227 -16.4467 3.8000 -17.2413 -21.7911 -0.0031 -0.0046 -0.0562 0.6688 -10.6256 -3.9243 -0.6685 -10.6524 3.7685 -6.7159 11.6041 -11.3258 -56.0144 -15.6837 -3.9774 -0.0707 -0.2964 -95.0911 6.9130 -9.6575 -2.0482 -15.1397 10.9885 15.8267 -60.3483 1.8445 2.2899 15.4374 9.9806 13.4044 42.3377 -37.7304 -7.5386 0.4144 0.0931 65.0728 -28.7035 -26.6427 28.0904 15.5427 7.6160 -16.3592 50.0698 -3.5195 -5.2287 19.8571 -18.9812 21.3052 -0.5020 45.9791 -1.1161 -22.2806 -21.8579 5.2726 1.6490 -0.0448 -2.0132 -7.3230 -49.7515 -45.9456 0.3835 52.6265 0.3189 4.2791 -3.1180 5.2661 -1.4098 0.5137 0.7478
-48.7946 87.1695 48.1901 2.7059 -1.1657 1.7705 0.6330 5.1738 -0.4217 -0.3299 -2.8935 -1.0506 -0.3744 12.9976 -3.9365 11.5444 6.7421 -0.6616 -5.2229 -4.3257 -16.4564 3.7582 -17.2996 -21.7416 -0.0037 -0.0048 -0.0530 0.6677 -10.6250 -3.9222 -0.6686 -10.6527 3.7727 -6.7056 11.5586 -11.2846 -56.0915 -15.6884 -3.9596 -0.1112 -0.2938 -95.0663 6.8487 -9.6774 -1.9510 -15.1582 10.9949 15.7996 -60.3442 1.8604 2.2640 15.5084 10.0272 13.4076 42.2711 -37.8230 -7.4579 0.3921 0.1249 65.1147 -28.6315 -26.5862 28.1066 15.5159 7.5907 -16.3462 50.0344 -3.5330 -5.2313 19.8333 -18.9652 21.3176 -0.4898 46.0181 -1.1033 -22.2319 -21.8640 5.2387 1.6499 -0.0355 -2.0118 -7.4445 -49.7109 -45.8649 0.3794 52.6304 0.3087 4.2893 -3.0670 5.2158 -1.4120 0.4982 0.7663
-48.7511 87.1931 48.2133 2.7128 -1.1789 1.8053 0.6345 5.1348 -0.4476 -0.3176 -2.9017 -1.0538 -0.3606 13.0399 -3.9587 11.5190 6.7861 -0.6771 -5.2059 -4.3309 -16.4750 3.7380 -17.3188 -21.7019 -0.0042 -0.0052 -0.0510 0.6672 -10.6182 -3.9166 -0.6692 -10.6450 3.7729 -6.6923 11.5178 -11.2508 -56.1867 -15.7297 -3.9655 -0.1536 -0.2775 -95.0434 6.7864 -9.7091 -1.9155 -15.1973 10.9984 15.8031 -60.3680 1.8631 2.2500 15.5550 10.0843 13.4008 42.1941 -37.8928 -7.3304 0.2763 0.1888 65.1782 -28.5844 -26.6500 28.1360 15.5085 7.5725 -16.3316 49.9826 -3.5148 -5.2343 19.8008 -18.9279 21.3420 -0.4786 45.9888 -1.0956 -22.1784 -21.8579 5.1756 1.6518 -0.0247 -2.0181 -7.5226 -49.6639 -45.8462 0.4093 52.5807 0.3503 4.2626 -3.0292 5.1579 -1.4107 0.4738 0.7716
-48.7199 87.2228 48.2367 2.7209 -1.1763 1.8186 0.6305 5.1002 -0.4456 -0.3144 -2.9099 -1.0544 -0.3444 13.0711 -3.9836 11.5400 6.8354 -0.7047 -5.2026 -4.3311 -16.4651 3.7336 -17.3265 -21.6940 -0.0044 -0.0054 -0.0367 0.6681 -10.6066 -3.9013 -0.6704 -10.6316 3.7861 -6.6904 11.4906 -11.2290 -56.2684 -15.7630 -3.9737 -0.1887 -0.2307 -95.0799 6.7580 -9.7236 -1.9032 -15.2523 10.9805 15.7842 -60.3649 1.8648 2.2342 15.6253 10.1209 13.3988 42.1272 -38.0003 -7.2666 0.2059 0.2381 65.2614 -28.5263 -26.7227 28.1351 15.5029 7.5527 -16.2983 49.9257 -3.5143 -5.2049 19.7546 -18.8874 21.4031 -0.4713 45.9314 -1.0786 -22.1374 -21.8582 5.0982 1.6505 -0.0223 -2.0169 -7.5910 -49.6171 -45.7938 0.4369 52.4859 0.3924 4.2652 -2.9527 5.0914 -1.4089 0.4545 0.7753
-48.6748 87.2749 48.2715 2.7250 -1.1584 1.8135 0.6305 5.0776 -0.4387 -0.3148 -2.9318 -1.0429 -0.3377 13.0826 -4.0064 11.5848 6.9008 -0.7226 -5.1993 -4.3169 -16.4724 3.7341 -17.3311 -21.6617 -0.0046 -0.0041 -0.0357 0.6666 -10.5934 -3.8979 -0.6691 -10.6166 3.7854 -6.7102 11.4784 -11.2283 -56.3292 -15.7998 -4.0186 -0.2462 -0.1872 -95.0732 6.7988 -9.7814 -1.9744 -15.2692 10.9591 15.7769 -60.3344 1.8728 2.2188 15.7173 10.1589 13.4111 42.0726 -38.1206 -7.2254 0.1605 0.2761 65.3322 -28.4537 -26.7985 28.1493 15.5322 7.5383 -16.2599 49.9141 -3.4892 -5.1805 19.6953 -18.8318 21.4744 -0.4693 45.8206 -1.0724 -22.0689 -21.8415 5.0268 1.6497 -0.0424 -2.0175 -7.6427 -49.5498 -45.7321 0.4507 52.3630 0.4145 4.2691 -2.9124 5.0396 -1.4052 0.4456 0.7633
-48.6144 87.3369 48.2646 2.7152 -1.1350 1.8238 0.6322 5.0397 -0.4490 -0.3132 -2.9403 -1.0218 -0.3310 13.0844 -4.0285 11.6647 6.9644 -0.7404 -5.2262 -4.3032 -16.4527 3.7535 -17.3316 -21.6537 -0.0047 -0.0062 -0.0355 0.6645 -10.5752 -3.8972 -0.6669 -10.5972 3.7842 -6.7511 11.4837 -11.2231 -56.3395 -15.8014 -4.1528 -0.2406 -0.1020 -95.0884 6.8815 -9.8927 -2.0951 -15.2932 10.9405 15.7764 -60.2737 1.8851 2.2205 15.8035 10.1733 13.4049 42.0707 -38.2235 -7.1967 0.0542 0.3245 65.3880 -28.3191 -26.9036 28.1533 15.5261 7.5449 -16.2297 49.8245 -3.4613 -5.1543 19.6443 -18.7759 21.5546 -0.4726 45.6788 -1.0772 -22.0177 -21.7888 4.9654 1.6484 -0.0521 -2.0138 -7.6713 -49.4399 -45.6878 0.4498 52.1685 0.4221 4.2629 -2.8337 5.0154 -1.4035 0.4694 0.7508
-48.5401 87.4058 48.2520 2.6981 -1.1157 1.7952 0.6405 5.0102 -0.4454 -0.3051 -2.9570 -1.0180 -0.3555 13.1030 -4.0215 11.7533 7.0319 -0.7409 -5.2521 -4.2890 -16.4309 3.8030 -17.3099 -21.6454 -0.0054 -0.0082 -0.0412 0.6603 -10.5823 -3.9030 -0.6637 -10.6044 3.7777 -6.7798 11.5302 -11.2418 -56.3162 -15.8486 -4.3215 -0.1851 -0.0909 -95.0936 6.9623 -10.0592 -2.2095 -15.2994 10.9417 15.7668 -60.3230 1.8840 2.2014 15.8615 10.1842 13.4173 42.1516 -38.3853 -7.2522 0.0029 0.3099 65.4670 -28.1161 -26.9181 28.1026 15.5005 7.5506 -16.2165 49.7101 -3.4318 -5.1221 19.5911 -18.7230 21.6485 -0.4815 45.5599 -1.0956 -21.9661 -21.7400 4.9129 1.6467 -0.0549 -2.0184 -7.6829 -49.3401 -45.6161 0.4428 52.0113 0.4178 4.2616 -2.7715 5.0030 -1.4010 0.5221 0.7362
-48.4659 87.4945 48.2116 2.6802 -1.1019 1.7715 0.6436 4.9639 -0.4473 -0.2998 -2.9646 -1.0346 -0.3774 13.1090 -3.9794 11.8512 7.1001 -0.7625 -5.3017 -4.2800 -16.4222 3.8511 -17.2455 -21.6564 -0.0054 -0.0114 -0.0478 0.6576 -10.5692 -3.9069 -0.6607 -10.5948 3.7685 -6.8422 11.5947 -11.2597 -56.2580 -15.8693 -4.5140 -0.0731 -0.0779 -95.1079 7.0041 -10.2949 -2.3490 -15.3217 10.9434 15.7709 -60.3995 1.8699 2.2052 15.9457 10.1944 13.4178 42.2582 -38.5621 -7.3667 0.0264 0.3270 65.5865 -27.9937 -26.9210 28.0975 15.5171 7.5782 -16.2344 49.7046 -3.4033 -5.1052 19.5439 -18.6329 21.7646 -0.4848 45.3635 -1.1114 -21.8999 -21.6544 4.8818 1.6475 -0.0633 -2.0236 -7.6899 -49.1967 -45.5723 0.4454 51.7818 0.4274 4.2616 -2.6692 4.9736 -1.4035 0.5928 0.7263
-48.3849 87.5776 48.1743 2.6543 -1.0904 1.7331 0.6625 4.9285 -0.4459 -0.3002 -2.9724 -1.0514 -0.4171 13.1233 -3.9259 11.9468 7.1345 -0.7419 -5.3356 -4.2837 -16.4389 3.8874 -17.1623 -21.6278 -0.0050 -0.0119 -0.0679 0.6533 -10.5677 -3.9258 -0.6551 -10.5965 3.7457 -6.8832 11.6306 -11.2756 -56.1791 -15.9139 -4.6614 0.0376 -0.1042 -95.1548 7.0440 -10.6068 -2.5265 -15.3485 10.9447 15.7577 -60.4783 1.8586 2.2112 16.0036 10.2282 13.4177 42.3912 -38.8574 -7.5689 0.1630 0.3048 65.7410 -27.9264 -26.9767 28.1825 15.5398 7.5654 -16.2634 49.6841 -3.4285 -5.1006 19.5203 -18.5253 21.8276 -0.4833 45.1810 -1.1172 -21.8597 -21.5875 4.9156 1.6451 -0.0560 -2.0248 -7.6951 -49.0604 -45.5037 0.4276 51.5688 0.4100 4.2782 -2.5751 4.9136 -1.4061 0.6716 0.7184
-48.3006 87.6459 48.1106 2.6345 -1.0632 1.7065 0.6743 4.8768 -0.4686 -0.3090 -2.9638 -1.0281 -0.4514 13.1071 -3.8855 12.0238 7.1709 -0.7422 -5.3388 -4.2769 -16.4509 3.8953 -17.0697 -21.5786 -0.0040 -0.0091 -0.0802 0.6521 -10.5588 -3.9355 -0.6516 -10.5925 3.7305 -6.9344 11.6457 -11.2648 -56.0956 -15.9441 -4.8434 0.1685 -0.1560 -95.1257 7.0677 -10.9620 -2.7801 -15.3644 10.9415 15.7620 -60.5723 1.8468 2.2574 16.0546 10.2341 13.4072 42.4587 -39.0453 -7.6998 0.2746 0.3693 65.8887 -28.0333 -27.2065 28.3933 15.5783 7.5544 -16.3204 49.7606 -3.4541 -5.1525 19.5116 -18.4058 21.8483 -0.4806 44.9602 -1.0994 -21.8359 -21.5102 4.9953 1.6465 -0.0759 -2.0299 -7.6917 -48.9363 -45.4690 0.4331 51.3465 0.4134 4.3372 -2.5044 4.8487 -1.4101 0.7200 0.7136
-48.1735 87.6979 48.0822 2.6225 -1.0162 1.7185 0.6749 4.8255 -0.4984 -0.3123 -2.9643 -1.0370 -0.4938 13.0673 -3.8206 12.0524 7.2289 -0.7571 -5.3033 -4.2628 -16.4675 3.8891 -16.9303 -21.5376 -0.0034 -0.0040 -0.0810 0.6507 -10.5611 -3.9319 -0.6490 -10.5951 3.7261 -6.9966 11.6421 -11.2646 -56.0179 -15.9331 -5.0106 0.3249 -0.3186 -95.0462 7.0902 -11.2319 -2.9574 -15.3684 10.9186 15.7559 -60.6404 1.8351 2.3005 16.0633 10.2120 13.3923 42.4913 -39.0708 -7.7851 0.3600 0.4618 66.0388 -28.2709 -27.4543 28.6309 15.6392 7.5218 -16.3207 49.8744 -3.4705 -5.2085 19.4912 -18.3034 21.7724 -0.4815 44.7688 -1.0805 -21.8331 -21.4634 5.1048 1.6484 -0.0980 -2.0308 -7.6976 -48.8689 -45.4383 0.4297 51.1806 0.3853 4.3980 -2.4913 4.7688 -1.4161 0.7014 0.7033
-48.1014 87.7081 48.1431 2.6219 -0.9411 1.7908 0.6592 4.7507 -0.5459 -0.3164 -2.9516 -1.0521 -0.5174 13.0280 -3.7920 12.0028 7.2604 -0.8502 -5.2296 -4.2365 -16.4288 3.9059 -16.6942 -21.5259 -0.0056 0.0049 -0.0537 0.6483 -10.5636 -3.9007 -0.6508 -10.5874 3.7488 -7.0792 11.6170 -11.2669 -56.0063 -15.9272 -5.0575 0.4272 -0.4425 -94.9669 7.0897 -11.4336 -3.0750 -15.3583 10.8598 15.7619 -60.5792 1.8129 2.3735 16.0091 10.1656 13.3752 42.5819 -39.0144 -7.9498 0.4277 0.5785 66.2611 -28.4384 -27.6211 28.7648 15.7077 7.4982 -16.2836 50.0426 -3.4181 -5.2869 19.4958 -18.2207 21.6429 -0.4836 44.5812 -1.0553 -21.8445 -21.4129 5.1872 1.6520 -0.1309 -2.0336 -7.6857 -48.8593 -45.4783 0.4093 51.0898 0.3221 4.4296 -2.5341 4.6167 -1.4213 0.5668 0.6919
