HIERARCHY
ROOT Hips
{
	OFFSET 0.0000 0.0000 0.0000
	CHANNELS 6 Xposition Yposition Zposition Zrotation Xrotation Yrotation
	JOINT Spine1
	{
		OFFSET -0.0137 5.0038 -0.0537
		CHANNELS 3 Zrotation Xrotation Yrotation
		JOINT Spine2
		{
			OFFSET -0.0000 7.1253 -0.0298
			CHANNELS 3 Zrotation Xrotation Yrotation
			JOINT Chest
			{
				OFFSET -0.0000 7.5501 -0.8160
				CHANNELS 3 Zrotation Xrotation Yrotation
				JOINT Neck1
				{
					OFFSET -0.1817 26.3113 -0.5533
					CHANNELS 3 Zrotation Xrotation Yrotation
					JOINT Neck2
					{
						OFFSET -0.0000 7.7094 2.3026
						CHANNELS 3 Zrotation Xrotation Yrotation
						JOINT Head
						{
							OFFSET -0.0000 6.1289 1.9537
							CHANNELS 3 Zrotation Xrotation Yrotation
							JOINT Jaw
							{
								OFFSET 0.0026 0.4756 3.0949
								CHANNELS 3 Zrotation Xrotation Yrotation
								End Site
								{
									OFFSET 0.0 1.0 0.0
								}
							}
							JOINT LeftEye
							{
								OFFSET 3.2064 5.3802 7.5869
								CHANNELS 3 Zrotation Xrotation Yrotation
								End Site
								{
									OFFSET 0.0 1.0 0.0
								}
							}
							JOINT RightEye
							{
								OFFSET -3.2224 5.3619 7.5582
								CHANNELS 3 Zrotation Xrotation Yrotation
								End Site
								{
									OFFSET 0.0 1.0 0.0
								}
							}
						}
					}
				}
				JOINT LeftShoulder
				{
					OFFSET 1.6217 23.2372 5.1134
					CHANNELS 3 Zrotation Xrotation Yrotation
					JOINT LeftArm
					{
						OFFSET 14.9198 0.0000 -5.5023
						CHANNELS 3 Zrotation Xrotation Yrotation
						JOINT LeftForeArm
						{
							OFFSET 28.7393 0.0000 -0.0026
							CHANNELS 3 Zrotation Xrotation Yrotation
							JOINT LeftHand
							{
								OFFSET 27.0940 -0.0000 0.0026
								CHANNELS 3 Zrotation Xrotation Yrotation
								JOINT LeftHandThumbEnd
								{
									OFFSET 12.2686 -3.2202 4.8331
									CHANNELS 3 Zrotation Xrotation Yrotation
									End Site
									{
										OFFSET 0.0 1.0 0.0
									}
								}
								JOINT LeftHandMiddleEnd
								{
									OFFSET 19.0120 -0.3129 -0.0340
									CHANNELS 3 Zrotation Xrotation Yrotation
									End Site
									{
										OFFSET 0.0 1.0 0.0
									}
								}
							}
						}
					}
				}
				JOINT RightShoulder
				{
					OFFSET -1.3801 23.1803 5.2142
					CHANNELS 3 Zrotation Xrotation Yrotation
					JOINT RightArm
					{
						OFFSET -15.0372 0.0000 -5.5456
						CHANNELS 3 Zrotation Xrotation Yrotation
						JOINT RightForeArm
						{
							OFFSET -28.7366 0.0000 -0.0026
							CHANNELS 3 Zrotation Xrotation Yrotation
							JOINT RightHand
							{
								OFFSET -27.1336 -0.0000 0.0026
								CHANNELS 3 Zrotation Xrotation Yrotation
								JOINT RightHandThumbEnd
								{
									OFFSET -12.2642 -3.2115 4.8040
									CHANNELS 3 Zrotation Xrotation Yrotation
									End Site
									{
										OFFSET 0.0 1.0 0.0
									}
								}
								JOINT RightHandMiddleEnd
								{
									OFFSET -19.0006 -0.3066 -0.0316
									CHANNELS 3 Zrotation Xrotation Yrotation
									End Site
									{
										OFFSET 0.0 1.0 0.0
									}
								}
							}
						}
					}
				}
			}
		}
	}
	JOINT LeftLeg
	{
		OFFSET 10.0432 -8.4345 2.5957
		CHANNELS 3 Zrotation Xrotation Yrotation
		JOINT LeftShin
		{
			OFFSET -0.0000 -43.2218 -0.8029
			CHANNELS 3 Zrotation Xrotation Yrotation
			JOINT LeftFoot
			{
				OFFSET 0.0000 -42.1551 -3.4815
				CHANNELS 3 Zrotation Xrotation Yrotation
				JOINT LeftToeBase
				{
					OFFSET 0.0000 -5.0595 13.2315
					CHANNELS 3 Zrotation Xrotation Yrotation
					End Site
					{
						OFFSET 0.0 1.0 0.0
					}
				}
			}
		}
	}
	JOINT RightLeg
	{
		OFFSET -10.0473 -8.2953 2.6203
		CHANNELS 3 Zrotation Xrotation Yrotation
		JOINT RightShin
		{
			OFFSET 0.0000 -43.3622 -0.8056
			CHANNELS 3 Zrotation Xrotation Yrotation
			JOINT RightFoot
			{
				OFFSET 0.0000 -42.1174 -3.4784
				CHANNELS 3 Zrotation Xrotation Yrotation
				JOINT RightToeBase
				{
					OFFSET -0.0000 -5.0796 13.2842
					CHANNELS 3 Zrotation Xrotation Yrotation
					End Site
					{
						OFFSET 0.0 1.0 0.0
					}
				}
			}
		}
	}
}
MOTION
Frames: 120
Frame Time: 0.033333
-5.3403 85.2530 2.3925 4.3037 5.5194 -0.1142 0.3318 8.2518 -0.4546 -0.7184 -1.3554 -1.3271 0.9768 12.3076 -3.0082 20.9310 9.9892 -3.9118 -3.2045 -4.0081 -10.0760 6.2017 -7.7249 -15.3005 -0.0074 -0.0466 0.0764 0.7897 -10.7011 -3.8082 -0.7769 -10.7019 3.9295 3.6904 7.2302 -10.6571 -40.0733 -17.2402 -44.9067 -0.6031 0.2224 -129.5730 4.1072 4.8167 -8.5948 -15.9808 10.6853 15.8420 -60.1173 1.8388 2.2050 18.5815 8.0785 16.7410 59.0533 -30.0227 -32.6218 -0.3096 -0.0088 99.9897 -41.8003 -13.7652 1.1850 14.8274 7.6002 -16.0792 49.9962 -3.4415 -5.3329 20.4954 -29.7195 23.5442 -0.8736 46.8513 -1.4695 -29.3047 -17.1416 1.6987 1.6475 -2.0679 -1.8866 -13.1490 -57.0338 -24.4499 0.6548 56.3908 0.9589 8.6470 -3.9887 -15.5245 -1.4212 0.7078 1.0961
-5.2359 84.9678 2.4301 4.2832 5.2448 -0.0298 0.3779 8.2539 -0.4045 -0.6951 -1.3880 -1.2553 1.0403 12.4157 -2.9138 20.9684 10.0794 -3.8243 -3.2582 -4.0166 -10.1390 6.2168 -7.8064 -15.2760 -0.0009 -0.0585 0.0552 0.8052 -10.7045 -3.8364 -0.7790 -10.7076 3.9139 3.5762 7.2384 -10.4863 -40.0943 -17.1611 -45.0619 -0.3971 0.1363 -129.5594 4.2291 4.3840 -8.6578 -15.8420 10.7345 15.8928 -60.2620 1.8354 2.3007 18.7339 8.3270 16.7131 59.4074 -30.3840 -32.7919 -0.3473 -0.0262 100.0271 -42.0782 -13.9715 2.1148 14.9332 7.5007 -16.0302 50.0730 -3.4832 -5.2397 20.7148 -29.9809 23.3660 -0.9276 47.7951 -1.5112 -29.3910 -17.9042 1.5272 1.6434 -1.9096 -1.8697 -13.7509 -57.1311 -23.9671 0.5698 56.9404 0.8538 8.9017 -3.9897 -15.6484 -1.4299 0.7290 1.1371
-5.0266 84.7001 2.4364 4.2424 4.8998 -0.0471 0.4236 8.2352 -0.3432 -0.6724 -1.4169 -1.2070 1.0986 12.6075 -2.7843 20.9592 10.2444 -3.7435 -3.3373 -4.0469 -10.1611 6.2352 -7.8319 -15.2703 -0.0135 -0.0602 0.0747 0.7938 -10.7209 -3.8180 -0.7924 -10.7197 3.9376 3.3397 7.2607 -10.2745 -40.3248 -16.9587 -45.1279 -0.1627 0.0773 -129.6382 4.2726 4.1527 -8.7805 -15.7705 10.7092 15.8681 -60.3060 1.7846 2.3082 18.9150 8.5367 16.8648 59.8140 -30.7937 -33.1063 -0.3572 -0.0436 99.9960 -42.5757 -14.5353 3.1535 15.0330 7.3737 -15.9174 50.0151 -3.4965 -5.1393 20.8751 -30.1190 23.2298 -0.9469 48.7913 -1.5319 -29.3048 -18.6694 1.5550 1.6462 -1.8153 -1.8741 -14.4086 -57.1452 -23.4494 0.5272 57.3817 0.7962 9.1076 -3.8581 -15.6627 -1.4320 0.7535 1.1603
-4.7552 84.5221 2.4058 4.1600 4.5470 -0.1831 0.4765 8.2130 -0.2929 -0.6529 -1.4074 -1.1249 1.1807 12.7861 -2.6779 20.8372 10.4316 -3.6801 -3.3775 -4.0749 -10.1483 6.2682 -7.8882 -15.2561 -0.0240 -0.0626 0.0919 0.7725 -10.7213 -3.7976 -0.7929 -10.7097 3.9551 3.0489 7.3124 -10.0091 -40.6679 -16.7057 -45.1402 -0.0117 0.0800 -129.7455 4.2914 4.1260 -8.9460 -15.7817 10.6975 15.8679 -60.3894 1.7644 2.2931 19.0859 8.7112 17.0786 60.2052 -31.1824 -33.4083 -0.2772 -0.0159 99.8690 -43.1027 -15.1645 4.0263 15.1053 7.2872 -15.8493 49.9490 -3.5107 -5.0810 20.9844 -30.0956 23.1256 -0.9234 49.6171 -1.5140 -29.1163 -19.3320 1.7304 1.6445 -1.7664 -1.8752 -14.9911 -56.9915 -22.9370 0.5226 57.4785 0.7890 9.2710 -3.5685 -15.6066 -1.4308 0.7925 1.1673
-4.4337 84.4181 2.3648 4.0432 4.2334 -0.3983 0.5454 8.2207 -0.2346 -0.6216 -1.4001 -1.0641 1.2697 12.9577 -2.5932 20.6478 10.5989 -3.5971 -3.3774 -4.0924 -10.1301 6.3163 -7.9492 -15.2485 -0.0323 -0.0632 0.1083 0.7556 -10.7223 -3.7786 -0.7917 -10.7075 3.9691 2.8151 7.3771 -9.7287 -41.0324 -16.4992 -45.1122 0.0728 0.0780 -129.8947 4.3209 4.2917 -9.0737 -15.7966 10.6892 15.8622 -60.4198 1.7663 2.2606 19.1753 8.8482 17.3086 60.5817 -31.4863 -33.6876 -0.1850 0.0109 99.7565 -43.5267 -15.8168 4.7321 15.0989 7.2426 -15.8059 49.8472 -3.4907 -5.0388 21.0204 -30.0294 23.0442 -0.8972 50.3743 -1.5006 -28.8557 -19.9190 2.0321 1.6405 -1.7270 -1.8717 -15.4492 -56.7909 -22.4784 0.5103 57.3395 0.7807 9.3833 -3.1771 -15.5294 -1.4298 0.8343 1.1692
-4.0425 84.3576 2.3015 3.9028 3.9756 -0.6848 0.6103 8.2455 -0.1861 -0.5885 -1.3940 -1.0143 1.3511 13.0975 -2.5379 20.4191 10.7735 -3.5428 -3.3437 -4.1001 -10.0670 6.3794 -7.9992 -15.2072 -0.0361 -0.0686 0.1142 0.7484 -10.7272 -3.7738 -0.7915 -10.7128 3.9764 2.6770 7.4622 -9.4839 -41.3710 -16.2937 -45.0385 0.1131 0.0854 -130.0351 4.3556 4.5469 -9.1621 -15.7793 10.6845 15.8448 -60.4658 1.7848 2.2302 19.2271 8.9415 17.4986 60.8930 -31.6696 -33.8385 -0.1163 -0.0224 99.6398 -43.8135 -16.3203 5.3260 15.0935 7.2176 -15.7682 49.7844 -3.4657 -5.0045 20.9898 -29.9364 22.9756 -0.8709 51.0521 -1.4827 -28.5917 -20.4908 2.3816 1.6384 -1.6560 -1.8697 -15.7666 -56.5617 -22.0877 0.5222 57.0095 0.8059 9.4851 -2.6897 -15.4934 -1.4311 0.8649 1.1726
-3.6188 84.3383 2.2209 3.7543 3.7634 -1.0106 0.6626 8.2781 -0.1524 -0.5554 -1.3694 -0.9930 1.4057 13.1816 -2.4842 20.2212 10.9766 -3.5159 -3.2810 -4.1052 -9.9829 6.4150 -8.0482 -15.1005 -0.0335 -0.0754 0.1095 0.7453 -10.7250 -3.7776 -0.7824 -10.7155 3.9690 2.5965 7.5375 -9.2590 -41.6457 -16.0183 -45.0029 0.1414 0.1220 -130.1659 4.4379 4.7791 -9.1841 -15.7851 10.6985 15.8676 -60.5183 1.7898 2.2126 19.2942 9.0336 17.6686 61.1873 -31.7422 -33.9548 -0.0846 -0.0291 99.5936 -44.0594 -16.7721 5.8506 15.1007 7.2025 -15.7698 49.6992 -3.4529 -4.9958 20.9246 -29.8394 22.8809 -0.8517 51.7011 -1.4610 -28.3406 -21.0565 2.7808 1.6394 -1.6048 -1.8653 -16.0414 -56.3268 -21.6964 0.5401 56.5764 0.8375 9.5914 -2.1768 -15.4495 -1.4315 0.8796 1.1677
-3.1651 84.3362 2.1600 3.6082 3.5799 -1.3350 0.6917 8.3030 -0.1397 -0.5306 -1.3459 -0.9710 1.4415 13.2517 -2.4444 20.0510 11.1826 -3.5099 -3.1980 -4.1016 -9.8926 6.4244 -8.0814 -14.9434 -0.0298 -0.0820 0.1000 0.7477 -10.7204 -3.7878 -0.7786 -10.7186 3.9610 2.5415 7.6466 -9.1030 -41.8054 -15.6905 -44.9905 0.1812 0.1486 -130.2706 4.5540 5.0163 -9.1838 -15.8115 10.7086 15.8888 -60.5958 1.7814 2.2016 19.3872 9.1376 17.7791 61.5268 -31.7610 -34.1018 -0.0617 -0.0536 99.6309 -44.3120 -17.0774 6.2958 15.1432 7.1725 -15.7586 49.6260 -3.4452 -4.9813 20.8497 -29.7296 22.7332 -0.8455 52.3106 -1.4385 -28.1408 -21.5384 3.2252 1.6429 -1.5647 -1.8531 -16.2689 -56.0894 -21.3767 0.5604 56.0566 0.8781 9.6999 -1.6519 -15.3301 -1.4311 0.8793 1.1537
-2.7159 84.3147 2.0971 3.4666 3.4162 -1.6729 0.7055 8.3328 -0.1137 -0.5224 -1.3249 -0.9661 1.4612 13.3241 -2.4331 19.9481 11.3622 -3.4708 -3.1386 -4.0982 -9.8237 6.3900 -8.1134 -14.7868 -0.0237 -0.0808 0.0868 0.7555 -10.7193 -3.8042 -0.7747 -10.7224 3.9503 2.5163 7.7473 -8.9818 -41.9190 -15.4105 -44.9252 0.1839 0.1494 -130.3351 4.6759 5.2302 -9.2148 -15.7933 10.7202 15.9127 -60.6372 1.7680 2.2139 19.5118 9.2584 17.8498 61.8121 -31.7387 -34.1994 -0.0847 -0.1090 99.6856 -44.6211 -17.2699 6.6701 15.2042 7.1481 -15.7510 49.5872 -3.4570 -4.9613 20.7818 -29.6454 22.5817 -0.8462 52.9440 -1.4242 -27.9900 -22.0508 3.6151 1.6456 -1.5180 -1.8482 -16.4784 -55.9003 -21.0874 0.5917 55.5996 0.9285 9.8284 -1.1938 -15.1644 -1.4310 0.8867 1.1421
-2.2531 84.2611 2.0788 3.3316 3.2551 -2.0076 0.6991 8.3522 -0.0928 -0.5221 -1.3240 -0.9788 1.4563 13.3979 -2.4304 19.8694 11.5552 -3.4459 -3.0973 -4.0897 -9.7556 6.3608 -8.1282 -14.6921 -0.0186 -0.0750 0.0766 0.7584 -10.7157 -3.8167 -0.7658 -10.7180 3.9394 2.5065 7.8276 -8.8832 -42.0477 -15.1812 -44.7913 0.1431 0.1549 -130.4012 4.7681 5.3837 -9.2162 -15.7857 10.7217 15.9029 -60.6640 1.7664 2.2369 19.6490 9.3965 17.8735 62.0110 -31.5998 -34.2001 -0.1500 -0.1440 99.7245 -44.9767 -17.3935 6.9357 15.1900 7.1477 -15.7272 49.5598 -3.4806 -4.9352 20.7277 -29.5552 22.4249 -0.8443 53.5818 -1.4065 -27.8301 -22.5885 3.9541 1.6466 -1.4490 -1.8480 -16.6915 -55.7398 -20.8204 0.6048 55.2138 0.9587 9.9553 -0.8004 -14.9286 -1.4326 0.9159 1.1436
-1.7869 84.2187 2.0718 3.1963 3.0871 -2.3376 0.6862 8.3590 -0.0826 -0.5304 -1.3216 -0.9753 1.4410 13.4769 -2.4342 19.7652 11.7432 -3.4155 -3.0720 -4.0781 -9.7295 6.3308 -8.1175 -14.6390 -0.0140 -0.0731 0.0676 0.7616 -10.7119 -3.8264 -0.7608 -10.7166 3.9306 2.4776 7.8869 -8.7681 -42.1683 -14.9819 -44.6507 0.1162 0.1636 -130.4280 4.8014 5.4812 -9.2572 -15.7966 10.7013 15.8922 -60.6543 1.7655 2.2655 19.7952 9.5790 17.8357 62.1563 -31.4121 -34.1446 -0.1900 -0.1565 99.7753 -45.4154 -17.4499 7.1036 15.1878 7.1460 -15.7080 49.5533 -3.5138 -4.9196 20.6889 -29.4376 22.2550 -0.8325 54.2162 -1.3813 -27.6674 -23.1172 4.2449 1.6467 -1.4194 -1.8499 -16.8720 -55.5898 -20.6138 0.6425 54.8620 1.0166 10.0679 -0.4203 -14.6797 -1.4324 0.9176 1.1394
-1.3409 84.1556 2.1133 3.0578 2.9256 -2.6794 0.6716 8.3585 -0.0625 -0.5346 -1.3160 -0.9813 1.4026 13.5506 -2.4232 19.6847 11.8911 -3.3969 -3.0779 -4.0714 -9.7580 6.3207 -8.0807 -14.6607 -0.0138 -0.0698 0.0695 0.7572 -10.7023 -3.8221 -0.7555 -10.7060 3.9296 2.4752 7.9029 -8.6756 -42.3315 -14.8166 -44.4186 0.0740 0.1678 -130.4168 4.7918 5.4844 -9.3342 -15.7795 10.6834 15.8723 -60.6006 1.7799 2.2713 19.9486 9.7719 17.7818 62.2601 -31.1749 -34.1272 -0.1774 -0.2074 99.8009 -45.8730 -17.5297 7.2456 15.1547 7.1176 -15.6746 49.5277 -3.5409 -4.9020 20.6782 -29.2884 22.0876 -0.8116 54.8214 -1.3521 -27.5651 -23.6574 4.5410 1.6442 -1.4093 -1.8608 -17.0731 -55.4420 -20.3969 0.6502 54.5735 1.0281 10.2143 -0.0740 -14.4385 -1.4330 0.8828 1.1367
-0.9233 84.0958 2.1659 2.9241 2.7857 -3.0063 0.6511 8.3431 -0.0695 -0.5399 -1.3133 -0.9421 1.3753 13.6151 -2.4250 19.5909 12.0395 -3.3844 -3.0915 -4.0812 -9.8282 6.3155 -8.0198 -14.6934 -0.0178 -0.0746 0.0765 0.7483 -10.6994 -3.8134 -0.7562 -10.7051 3.9379 2.4758 7.9370 -8.5754 -42.4199 -14.6726 -44.1925 0.0775 0.1597 -130.4012 4.7490 5.4653 -9.4069 -15.7466 10.6625 15.8469 -60.5512 1.7787 2.2787 20.1003 9.9393 17.6967 62.3171 -30.8321 -34.0948 -0.2092 -0.2320 99.8676 -46.3523 -17.6154 7.3693 15.1353 7.0750 -15.6053 49.4982 -3.5543 -4.8748 20.6641 -29.1167 21.9228 -0.7792 55.3508 -1.3151 -27.4916 -24.1957 4.8663 1.6417 -1.4147 -1.8596 -17.2386 -55.3140 -20.2502 0.6745 54.2685 1.0590 10.3397 0.3157 -14.1871 -1.4311 0.8216 1.1186
-0.5510 84.0671 2.2875 2.7911 2.6663 -3.3195 0.6300 8.3366 -0.0478 -0.5339 -1.3297 -0.9323 1.3327 13.6633 -2.4061 19.5422 12.1854 -3.3950 -3.1209 -4.0894 -9.8946 6.3441 -7.9188 -14.8129 -0.0224 -0.0799 0.0835 0.7388 -10.6958 -3.8008 -0.7557 -10.6994 3.9415 2.5140 7.9240 -8.4984 -42.4954 -14.5531 -43.8661 0.0374 0.1496 -130.4144 4.6795 5.3621 -9.4325 -15.7616 10.6579 15.8060 -60.5214 1.7818 2.2537 20.2487 10.0927 17.6208 62.3930 -30.4237 -34.1946 -0.2003 -0.3046 99.9319 -46.9492 -17.8219 7.6064 15.1254 7.0271 -15.5231 49.4321 -3.5420 -4.8406 20.6553 -28.9079 21.7756 -0.7620 55.8025 -1.2962 -27.4642 -24.7324 5.1824 1.6416 -1.4276 -1.8591 -17.4068 -55.1700 -20.0557 0.6802 54.0183 1.0700 10.5012 0.6270 -13.9909 -1.4282 0.7248 1.1090
-0.2114 84.0356 2.4551 2.6668 2.5803 -3.5855 0.5977 8.3137 -0.0437 -0.5318 -1.3511 -0.8985 1.2997 13.6836 -2.3931 19.5299 12.3083 -3.4221 -3.1557 -4.0911 -10.0202 6.3775 -7.7546 -14.9425 -0.0269 -0.0866 0.0888 0.7306 -10.6957 -3.7923 -0.7581 -10.6995 3.9469 2.5646 7.9058 -8.4473 -42.5229 -14.4435 -43.5140 0.0138 0.1261 -130.4695 4.5897 5.1455 -9.4375 -15.7815 10.6626 15.7823 -60.4833 1.7792 2.2568 20.3782 10.2234 17.5446 62.5145 -29.9013 -34.4013 -0.2238 -0.3768 100.0258 -47.6053 -18.1450 7.8714 15.1403 6.9847 -15.4697 49.3462 -3.5635 -4.8297 20.6416 -28.7010 21.6355 -0.7385 56.1832 -1.2574 -27.4368 -25.1928 5.4318 1.6431 -1.4295 -1.8505 -17.5502 -55.0295 -19.9338 0.6978 53.7870 1.1029 10.6679 0.8905 -13.8032 -1.4234 0.6585 1.1004
0.0890 84.0276 2.6868 2.5330 2.5125 -3.8140 0.5634 8.3059 -0.0280 -0.5274 -1.3655 -0.8860 1.2862 13.6678 -2.3508 19.5743 12.3837 -3.4501 -3.1849 -4.0935 -10.1714 6.3915 -7.5942 -15.0877 -0.0233 -0.0915 0.0795 0.7318 -10.6965 -3.8001 -0.7521 -10.6996 3.9355 2.6778 7.8264 -8.4292 -42.5643 -14.3236 -43.1531 0.0203 0.1306 -130.5716 4.5330 4.8643 -9.4274 -15.7723 10.6426 15.7231 -60.4150 1.7728 2.2683 20.5089 10.3604 17.4656 62.6426 -29.3378 -34.6887 -0.2479 -0.4256 100.1351 -48.3911 -18.5989 8.1707 15.1480 6.9266 -15.4148 49.2734 -3.5786 -4.8226 20.6505 -28.4802 21.4815 -0.7260 56.5049 -1.2411 -27.4452 -25.6261 5.6493 1.6441 -1.4420 -1.8389 -17.6763 -54.8671 -19.8436 0.7126 53.5949 1.1275 10.8360 1.1021 -13.5896 -1.4210 0.6449 1.1036
0.3467 84.0099 2.9774 2.4106 2.4802 -3.9886 0.5167 8.2901 -0.0286 -0.5281 -1.3754 -0.8537 1.2800 13.6275 -2.3126 19.6800 12.3945 -3.4543 -3.2221 -4.1029 -10.3567 6.4200 -7.4065 -15.2483 -0.0175 -0.0937 0.0676 0.7428 -10.6946 -3.8127 -0.7515 -10.6953 3.9227 2.8414 7.6909 -8.4285 -42.5969 -14.1677 -42.8479 0.0580 0.1210 -130.7023 4.5084 4.5657 -9.3963 -15.7465 10.6445 15.6882 -60.3442 1.7870 2.2989 20.6630 10.4654 17.3645 62.7303 -28.7242 -34.9877 -0.2695 -0.5056 100.2454 -49.2530 -19.0918 8.4432 15.1431 6.8660 -15.3654 49.1884 -3.6214 -4.8076 20.6594 -28.2438 21.2915 -0.6957 56.7283 -1.2104 -27.5029 -25.9869 5.9009 1.6441 -1.4667 -1.8355 -17.7868 -54.7033 -19.8041 0.7342 53.4031 1.1650 10.9666 1.2417 -13.4536 -1.4170 0.6698 1.1022
0.5702 84.0189 3.3052 2.2946 2.4851 -4.1192 0.4518 8.2653 -0.0361 -0.5367 -1.3796 -0.8075 1.2834 13.5777 -2.2641 19.8322 12.3350 -3.4587 -3.2616 -4.1047 -10.5525 6.4906 -7.1621 -15.4517 -0.0171 -0.0955 0.0654 0.7468 -10.6991 -3.8138 -0.7552 -10.6960 3.9202 3.0358 7.5241 -8.4419 -42.5752 -13.9999 -42.6198 0.1081 0.1333 -130.8820 4.4551 4.2154 -9.3212 -15.7623 10.6288 15.6621 -60.2624 1.8118 2.3034 20.8508 10.5394 17.2277 62.7532 -28.0455 -35.2482 -0.3002 -0.5305 100.3845 -50.1010 -19.6057 8.5862 15.1258 6.8383 -15.3295 49.0873 -3.6203 -4.7959 20.6616 -28.0161 21.0877 -0.6861 56.8946 -1.1970 -27.5854 -26.2980 6.1596 1.6466 -1.4952 -1.8298 -17.9398 -54.5450 -19.6879 0.7775 53.2631 1.2299 11.0960 1.3357 -13.4006 -1.4163 0.6968 1.0985
0.7559 84.0364 3.6481 2.1844 2.5174 -4.1952 0.3619 8.2365 -0.0427 -0.5442 -1.3841 -0.7857 1.2745 13.5289 -2.1804 20.0453 12.2079 -3.4623 -3.3168 -4.0987 -10.7305 6.5788 -6.8067 -15.6952 -0.0154 -0.0965 0.0632 0.7500 -10.7067 -3.8193 -0.7539 -10.6982 3.9202 3.2450 7.3306 -8.4995 -42.4996 -13.7739 -42.5263 0.1911 0.1573 -131.0759 4.3512 3.9427 -9.2225 -15.7806 10.6466 15.6752 -60.1910 1.8270 2.3030 21.0982 10.5577 17.0930 62.6705 -27.2183 -35.4731 -0.3363 -0.6212 100.6134 -50.9255 -19.9494 8.6569 15.0787 6.8222 -15.2841 48.9949 -3.5768 -4.7761 20.6620 -27.7704 20.8579 -0.6962 56.9785 -1.2158 -27.6889 -26.5547 6.4386 1.6488 -1.5735 -1.8211 -18.1419 -54.3329 -19.4320 0.7876 53.1569 1.2565 11.2411 1.3856 -13.5335 -1.4169 0.6909 1.0933
0.8864 84.0898 4.0314 2.0912 2.6042 -4.1969 0.2404 8.2031 -0.1012 -0.5586 -1.3724 -0.7319 1.2589 13.4715 -2.0882 20.2933 12.0621 -3.4812 -3.3500 -4.0918 -10.9130 6.6932 -6.4011 -15.9248 -0.0161 -0.1008 0.0642 0.7527 -10.7229 -3.8236 -0.7585 -10.7106 3.9274 3.4921 7.1274 -8.5800 -42.3560 -13.5741 -42.4845 0.2841 0.1969 -131.3131 4.2771 3.7092 -9.1696 -15.8093 10.6852 15.7369 -60.1593 1.8341 2.3253 21.2935 10.5529 16.9102 62.6369 -26.1108 -35.6324 -0.4581 -0.7402 101.0334 -51.7129 -20.1168 8.6062 15.0500 6.8173 -15.2085 48.9059 -3.5379 -4.7296 20.6306 -27.5148 20.5446 -0.7253 56.9530 -1.2643 -27.8439 -26.7406 6.8336 1.6518 -1.6721 -1.8156 -18.3655 -54.1211 -19.1162 0.8226 53.0778 1.3254 11.4020 1.3413 -13.8340 -1.4161 0.6182 1.0803
0.9196 84.1255 4.4508 2.0080 2.7487 -4.1718 0.0946 8.1805 -0.1538 -0.5828 -1.3342 -0.6740 1.2105 13.4176 -1.9881 20.6337 11.8843 -3.5221 -3.3778 -4.0890 -11.0847 6.8327 -5.9666 -16.1412 -0.0115 -0.1068 0.0580 0.7613 -10.7383 -3.8346 -0.7574 -10.7230 3.9243 3.7917 6.9042 -8.6872 -42.1854 -13.4607 -42.4227 0.3139 0.2142 -131.5753 4.2806 3.5572 -9.1396 -15.8088 10.7420 15.8320 -60.1397 1.8689 2.3383 21.4685 10.5220 16.6705 62.6134 -24.7108 -35.6212 -0.7169 -0.8488 101.6136 -52.4615 -20.0916 8.5560 15.0451 6.8437 -15.1710 48.8679 -3.4717 -4.7315 20.6215 -27.2591 20.0802 -0.7731 56.8533 -1.3382 -28.1510 -26.8384 7.3818 1.6551 -1.7592 -1.8096 -18.6111 -53.9382 -18.6644 0.8485 53.0704 1.3937 11.5297 1.2136 -14.3598 -1.4171 0.5318 1.0791
0.8403 84.1341 4.9056 1.9505 2.9160 -4.1122 -0.0906 8.2018 -0.1875 -0.6209 -1.2730 -0.6303 1.0991 13.3862 -1.8783 21.0128 11.6842 -3.6160 -3.3898 -4.0692 -11.2231 7.0401 -5.3893 -16.3612 -0.0026 -0.1103 0.0476 0.7747 -10.7735 -3.8564 -0.7528 -10.7576 3.9221 4.1800 6.6355 -8.8318 -42.0141 -13.3856 -42.2720 0.3507 0.1513 -131.8644 4.4350 3.5563 -9.2017 -15.7405 10.7819 15.8920 -60.0980 1.8925 2.3611 21.6020 10.4933 16.3476 62.6951 -22.9277 -35.4536 -1.0199 -0.9861 102.3493 -53.4041 -19.9327 8.7431 15.0530 6.8282 -15.1506 48.8280 -3.4535 -4.7451 20.6373 -26.9668 19.4413 -0.8450 56.7304 -1.4509 -28.6424 -26.8370 8.0234 1.6625 -1.8408 -1.8168 -18.8988 -53.8092 -18.0248 0.8544 53.2819 1.4396 11.6175 0.9423 -15.1351 -1.4201 0.4301 1.0851
0.6079 84.0438 5.3938 1.9535 3.1079 -4.0052 -0.3558 8.2810 -0.1916 -0.6891 -1.2060 -0.6352 0.8842 13.3941 -1.7767 21.4690 11.5071 -3.6686 -3.3940 -4.0559 -11.4131 7.2999 -4.5523 -16.5683 0.0185 -0.1097 0.0182 0.8098 -10.8261 -3.9026 -0.7440 -10.8085 3.9008 4.6280 6.3055 -9.0396 -41.7004 -13.3050 -42.0006 0.3948 -0.0357 -132.1903 4.7639 3.6986 -9.4086 -15.6492 10.8251 15.9141 -60.0359 1.8965 2.3675 21.7168 10.5863 16.0090 62.8728 -20.7191 -34.9684 -1.4295 -1.1443 102.9641 -54.9463 -20.0503 9.6796 15.1021 6.7461 -15.1588 48.7930 -3.4789 -4.8110 20.7403 -26.6867 18.5529 -0.9120 56.7452 -1.5452 -29.3449 -26.8201 8.7667 1.6726 -1.9179 -1.8292 -19.3925 -53.8410 -16.9699 0.8362 53.9570 1.4553 11.7308 0.4176 -16.2412 -1.4266 0.3240 1.0970
0.1294 83.8019 5.9591 2.0239 3.2535 -3.8035 -0.7337 8.3478 -0.2284 -0.8109 -1.0939 -0.6023 0.5151 13.4293 -1.7471 21.9620 11.4168 -3.6687 -3.3588 -4.0711 -11.7084 7.5123 -3.3787 -16.6746 0.0455 -0.1127 -0.0232 0.8537 -10.8864 -3.9643 -0.7345 -10.8698 3.8713 4.9693 5.9752 -9.3360 -40.9132 -13.0998 -41.7160 0.4680 -0.2712 -132.3810 5.2293 3.7234 -9.8385 -15.6758 10.8203 15.8831 -59.9857 1.8780 2.4145 21.8248 10.9039 15.5408 63.0715 -17.9536 -33.8253 -1.9098 -1.2136 102.9804 -57.5885 -21.1510 11.4546 15.1803 6.6283 -15.1154 48.7480 -3.5256 -4.8982 21.0475 -26.2796 17.2391 -0.9384 56.8140 -1.5839 -30.2698 -26.8284 9.6819 1.6803 -1.8700 -1.8367 -20.1243 -53.9447 -15.4003 0.7867 55.2793 1.4416 11.7792 -0.5131 -17.8472 -1.4311 0.2785 1.1027
-0.7139 83.3785 6.6577 2.1515 3.3100 -3.4682 -1.2340 8.4210 -0.2073 -0.9735 -1.0217 -0.6882 -0.1036 13.5365 -1.7567 22.5587 11.5330 -3.6168 -3.3349 -4.1210 -12.0223 7.6624 -1.9050 -16.7795 0.0638 -0.1101 -0.0534 0.8997 -10.9206 -4.0106 -0.7432 -10.9101 3.8503 5.1032 5.7803 -9.7275 -39.3111 -12.8689 -41.3686 0.4368 -0.4912 -132.2630 5.5140 3.5903 -10.3756 -15.7509 10.7602 15.7621 -59.8193 1.8661 2.4128 21.7378 11.5282 14.9071 63.3572 -14.2514 -31.9201 -2.1820 -1.3888 102.1310 -62.2298 -24.0077 14.0098 15.2676 6.4949 -14.9763 48.6740 -3.5336 -4.9301 21.6505 -25.6974 15.4364 -0.9511 56.9343 -1.6075 -31.4895 -26.8319 10.8537 1.6835 -1.5558 -1.8614 -21.0372 -54.1167 -13.2829 0.7251 57.5701 1.4236 11.7388 -1.8973 -19.9486 -1.4359 0.2614 1.1254
-2.0202 82.7381 7.4688 2.1567 3.3886 -2.8197 -1.7047 8.4208 -0.1731 -1.1647 -1.0246 -0.8467 -0.8860 13.7271 -1.7023 23.2732 11.6181 -3.6293 -3.4274 -4.0819 -12.2820 7.9607 -0.4134 -17.2814 0.0134 -0.0947 0.0085 0.8743 -10.8759 -3.9448 -0.8237 -10.8777 3.9333 5.1244 5.7342 -10.3503 -37.1732 -12.5995 -40.9461 0.3837 -0.7554 -131.7966 5.6941 3.6922 -10.7820 -15.8774 10.6472 15.6803 -59.8834 1.8583 2.5066 21.2534 12.3942 13.8742 63.8327 -8.9728 -29.2721 -2.2456 -1.6497 101.1775 -69.0591 -29.4194 17.4322 15.3584 6.3306 -14.8211 48.3282 -3.5450 -4.9532 22.8194 -25.2068 13.1146 -0.9492 57.1397 -1.5947 -32.9238 -26.5974 12.0717 1.6826 -1.0210 -1.9055 -21.6265 -54.4836 -11.1945 0.7266 60.9018 1.4699 11.4225 -3.4802 -22.6303 -1.4570 0.3353 1.1167
-3.7565 82.0101 8.4096 1.6059 3.3986 -1.8992 -1.9310 8.4868 -0.1337 -1.3382 -0.9909 -0.8780 -1.4747 13.8825 -1.8046 23.8544 11.4451 -3.6242 -3.5713 -4.0766 -12.6216 8.2791 1.3431 -17.5150 0.0022 -0.1002 0.0011 0.8879 -10.8475 -3.9446 -0.8611 -10.8418 3.9238 5.2434 5.9314 -11.1497 -35.3653 -12.1670 -39.9021 0.5727 -0.9482 -131.7134 5.8202 3.9891 -10.6730 -16.0864 10.6492 15.5631 -60.2077 1.9257 2.4611 20.3044 13.3515 12.4419 64.6548 -1.9719 -26.0357 -2.2455 -1.7814 101.6273 -76.4487 -35.5198 22.1616 15.5656 6.1003 -14.5531 48.1127 -3.5136 -4.8874 25.0574 -24.5658 10.4378 -1.0541 56.9815 -1.8258 -34.3819 -25.8247 13.0098 1.6862 -0.7281 -1.8803 -21.3385 -55.1000 -9.9692 1.0858 65.3243 1.8792 10.5271 -3.7737 -24.4432 -1.4735 0.2225 1.1424
-5.9299 81.3514 9.5703 0.6288 3.5087 -0.9633 -1.8608 8.4719 -0.1602 -1.4210 -0.9494 -0.9035 -1.7097 14.0360 -1.9387 24.0437 11.3639 -3.6050 -3.6177 -4.0575 -12.8228 8.6986 2.6312 -17.4924 0.0073 -0.1157 -0.0184 0.8795 -10.8091 -3.9601 -0.8423 -10.7876 3.8997 4.9989 6.1258 -11.6033 -34.0950 -11.1922 -38.4568 0.9287 -1.2116 -131.9207 6.1701 3.5639 -10.1560 -16.0963 10.5145 15.4745 -60.2250 1.9582 2.5289 19.2371 14.3030 10.8637 65.5273 5.7975 -22.4240 -2.1950 -2.0148 104.1397 -85.0196 -40.0122 30.0927 15.7973 5.9757 -14.6511 48.1943 -3.5950 -4.9324 28.0814 -23.6273 7.9295 -1.0443 56.0263 -1.8868 -35.9039 -24.5702 13.5364 1.6867 -0.3461 -1.8447 -21.0369 -56.3155 -9.1438 1.5482 70.8739 2.2918 9.0447 -2.6925 -24.5198 -1.4881 -0.6611 1.2185
-8.5266 80.8936 11.0909 -0.3499 3.8925 -0.2195 -1.5675 8.3482 -0.2348 -1.4218 -0.9759 -0.9146 -1.7327 14.0078 -2.0869 23.8657 11.6338 -3.5907 -3.6034 -3.9932 -12.5091 9.1771 3.7506 -17.1209 0.0101 -0.1084 -0.0273 0.8739 -10.7991 -3.9756 -0.8309 -10.7574 3.8979 4.6626 6.3337 -11.6763 -33.7946 -9.9027 -36.5103 0.8974 -1.3520 -132.1122 6.4225 2.8001 -8.9841 -16.1570 10.4690 15.5385 -60.3071 1.9288 2.5670 17.6201 15.0481 9.3665 66.7148 14.2213 -18.2880 -2.3375 -1.9323 108.2329 -94.2552 -43.0914 39.9050 16.0041 5.8991 -14.9875 48.3063 -3.6716 -4.9204 30.9964 -22.0844 6.0274 -0.9861 53.7027 -1.8830 -37.2633 -22.6494 14.2757 1.6732 -0.0927 -1.7840 -22.1982 -58.0019 -7.6052 2.6954 75.9535 3.4216 7.5867 -0.5663 -22.5699 -1.4999 -1.7079 1.2802
-11.4753 80.6095 12.9507 -1.1144 4.7647 -0.0821 -0.9835 8.0230 -0.2718 -1.3382 -1.0542 -0.8630 -1.5898 13.5605 -2.1737 23.2190 12.1946 -3.4223 -3.4870 -3.9258 -11.8214 9.7243 4.8988 -16.4461 0.0123 -0.1010 -0.0284 0.8703 -10.8374 -3.9859 -0.8214 -10.7720 3.9041 4.1853 6.2421 -11.2658 -34.7081 -7.7460 -34.4417 0.7059 -1.3119 -132.1526 6.6605 2.0136 -7.0168 -16.1963 10.4365 15.6594 -60.4637 1.8784 2.5795 15.0698 15.5028 8.2797 68.2503 22.9045 -13.5848 -2.8705 -1.1812 113.4227 -103.3277 -45.4462 50.4330 16.0164 5.8495 -15.2863 48.2353 -3.6489 -4.8963 33.4295 -19.9976 5.2474 -0.8765 49.7739 -1.7938 -38.5657 -19.8933 15.5983 1.6574 -0.0888 -1.7103 -25.2423 -59.4357 -4.8597 3.9298 77.2797 4.7089 7.7566 -0.1580 -19.9208 -1.4872 -2.0027 1.3161
-14.6425 80.4296 15.0599 -1.4681 6.1730 -0.5300 -0.0769 7.5492 -0.2186 -1.1017 -1.1634 -0.7144 -1.3392 12.6671 -2.2023 21.8879 12.6637 -3.1347 -3.1432 -3.8223 -10.9789 10.3408 5.8915 -15.6957 0.0009 -0.1024 -0.0047 0.8549 -10.9055 -3.9673 -0.8264 -10.8315 3.9343 3.4424 5.8557 -10.4881 -36.4298 -4.9354 -32.6591 0.6458 -1.2070 -132.3307 7.0412 0.7046 -4.5959 -16.1955 10.2933 15.6389 -60.4668 1.8350 2.5540 11.0286 15.6097 7.6971 69.9963 31.7827 -8.5736 -3.9401 -0.1783 120.0189 -112.7362 -47.1132 62.0361 15.8474 5.7974 -15.4301 47.9303 -3.6661 -4.8419 35.0231 -17.6551 5.7290 -0.7469 44.3659 -1.6824 -39.5530 -16.3666 17.4061 1.6505 -0.2579 -1.6519 -29.4347 -60.6593 -1.7594 3.6155 73.4067 4.4852 8.5543 -1.2091 -18.2043 -1.4443 -2.0748 1.3197
-18.0379 80.2469 17.3834 -1.3093 7.9838 -1.1634 1.1953 7.0113 -0.0855 -0.7535 -1.3694 -0.5224 -1.1463 11.4871 -2.2481 20.2172 12.9349 -2.9309 -2.7524 -3.7050 -9.9620 11.0353 6.5674 -15.0266 -0.0479 -0.1059 0.0608 0.8088 -10.9617 -3.9026 -0.8759 -10.8848 4.0153 2.5452 5.4393 -9.4259 -37.9531 -2.2521 -31.4812 0.8105 -1.0538 -133.0245 7.4657 -2.4020 -2.7715 -16.3225 10.0810 15.5034 -60.6599 1.7802 2.4906 5.1274 15.3083 7.5432 71.1401 40.7546 -4.4266 -5.7963 0.5014 128.2695 -122.6104 -47.7252 74.3690 15.5198 5.7742 -15.4465 47.6070 -3.8063 -4.8079 35.8336 -15.2187 7.1594 -0.6773 37.7811 -1.6307 -40.0772 -12.0269 19.2597 1.6611 -0.5736 -1.6425 -33.8655 -61.9143 0.6020 2.3521 65.2436 3.2723 8.4535 -1.9976 -17.3669 -1.4023 -1.9151 1.2444
-21.6211 79.8351 19.8237 -0.6874 10.0768 -1.4564 2.8245 6.4261 0.1374 -0.3095 -1.7000 -0.3113 -0.9637 10.0894 -2.2736 18.5518 13.1845 -2.9051 -2.5193 -3.6099 -8.7860 11.5730 6.8966 -14.5790 -0.1049 -0.1058 0.1225 0.7707 -10.9894 -3.8355 -0.9482 -10.8987 4.0865 1.9499 4.9660 -7.9540 -39.0938 -0.0836 -31.1688 0.9911 -0.7903 -134.2076 7.6044 -7.5433 -1.4516 -16.3989 9.9557 15.4818 -61.0672 1.6511 2.4783 -2.6812 14.4175 7.6216 69.2667 50.0211 -3.3298 -8.4869 0.5095 137.8056 -134.2514 -46.5544 88.0431 15.1222 5.7331 -15.2067 47.3420 -3.9238 -4.6858 36.3482 -12.2668 8.7561 -0.6230 29.7305 -1.5167 -40.5815 -6.4557 21.0998 1.7195 -0.5387 -1.7042 -37.7646 -63.3551 1.4532 1.1628 54.5109 2.0545 7.8178 -2.5268 -16.6549 -1.4037 -1.6310 1.1415
-25.2887 78.9807 22.3074 0.3806 12.2868 -1.1042 4.5312 5.7524 0.3802 0.1372 -2.1758 -0.0808 -0.7445 8.4619 -1.9907 17.2592 13.8616 -3.0766 -2.2374 -3.6067 -7.7503 11.5981 6.7231 -14.0819 -0.1751 -0.0814 0.1982 0.7347 -11.0065 -3.7497 -1.0533 -10.9183 4.1781 2.4127 4.7152 -6.4163 -40.4005 0.8236 -31.2420 0.7407 -0.6063 -135.0992 7.4635 -13.5726 -0.5603 -16.4806 9.9233 15.3332 -61.4828 1.5822 2.6217 -11.6620 13.1106 7.7221 59.6946 57.2065 -9.1922 -12.4128 -0.2169 145.6946 -148.9497 -43.8160 103.3346 14.5518 5.6716 -14.4752 46.6639 -3.9059 -4.3202 36.7414 -8.9023 10.1479 -0.6953 20.6595 -1.7826 -40.8884 -0.0455 22.6024 1.7323 -0.5954 -1.7650 -40.4702 -65.0912 0.7730 0.6191 43.5821 1.5072 7.9115 -2.3571 -15.4617 -1.4250 -1.5561 1.0336
-29.3694 77.9583 25.0009 1.9260 14.4902 0.4293 5.9568 4.8939 0.7856 0.5383 -2.7085 0.2202 -0.4725 6.8028 -1.7965 16.5542 14.0012 -3.6391 -1.8380 -3.6561 -7.2117 11.0520 6.5636 -14.0234 -0.1913 -0.0831 0.2292 0.7513 -10.9847 -3.7118 -1.1045 -10.9419 4.2193 3.4016 4.7374 -5.5060 -41.5676 1.4634 -31.7397 0.1722 -0.1003 -135.2247 7.2358 -18.7565 -0.2028 -16.4478 10.0949 15.2300 -61.5109 1.6748 2.6881 -18.8550 11.7237 8.0911 39.3032 56.5592 -24.8021 -18.7524 -1.9818 148.5831 -163.9941 -40.7275 115.1902 14.1260 5.3899 -13.5896 45.2359 -3.8594 -4.0391 37.5421 -5.8172 10.6385 -0.6495 11.4377 -2.0327 -39.5078 7.6978 22.6636 1.7918 -1.5830 -1.8681 -40.7751 -66.3957 -2.1454 0.3113 34.3301 1.2433 9.1163 -1.3366 -14.9343 -1.3946 -1.6862 1.0355
-33.8487 76.8471 27.6683 3.5624 16.8839 2.9356 7.0846 3.7899 1.1298 1.1022 -3.1327 0.2480 -0.1468 5.2664 -1.6990 15.8961 12.4620 -4.0775 -1.4499 -3.7128 -7.1720 10.4047 6.5204 -14.6287 -0.1690 -0.1239 0.2087 0.7701 -11.0411 -3.7607 -1.0764 -11.0017 4.2225 3.4078 4.8599 -5.2311 -41.6486 2.6711 -32.4690 -0.3002 0.5425 -134.7113 7.1302 -21.7500 -0.7405 -16.1224 10.1214 15.1552 -61.0072 1.5604 2.6994 -22.3061 10.6167 9.6468 21.3973 44.4663 -36.8960 -27.2291 -5.3429 142.7803 -176.7885 -42.6303 122.2809 14.1836 4.6050 -12.7801 44.3832 -3.9031 -4.1069 38.6582 -4.9686 10.3756 -0.6333 4.2746 -2.4629 -34.4552 16.3427 22.3532 1.7962 -2.5632 -1.9134 -38.4906 -68.3628 -7.2669 0.3771 29.8038 1.2038 12.2861 4.8857 -13.5572 -1.3926 -1.8058 1.1053
-38.4390 75.1701 29.9755 4.7039 19.2987 5.7394 8.6023 2.6082 1.3932 1.4424 -3.4501 0.1705 0.5356 4.2115 -1.6143 14.7285 8.2739 -3.3905 -1.6871 -3.5367 -8.3557 9.6736 6.1981 -16.0716 -0.0834 -0.1822 0.0685 0.8173 -10.9806 -3.9014 -0.9426 -10.9029 4.0461 1.7162 4.9383 -5.1636 -40.0993 4.6961 -33.1909 -0.0840 1.8151 -134.6360 6.3114 -21.9513 -1.8624 -16.0826 10.0793 15.4263 -60.8945 1.3542 2.8523 -22.2410 9.7108 12.1326 10.2015 17.8803 -40.6698 -26.9006 -10.5510 121.4913 167.1271 -50.7931 134.4125 14.8962 3.6556 -13.0845 44.3963 -4.2035 -4.4298 40.1142 -6.4398 10.0501 -0.4817 -0.2053 -3.1239 -28.0643 23.5692 22.0388 1.7738 -1.3347 -1.7323 -38.5053 -74.2990 -9.8428 0.8394 33.9221 1.7280 19.4461 24.5426 -7.4328 -1.3786 -0.4382 0.9278
-42.9290 72.8165 31.8496 5.6257 19.7014 7.3839 9.4611 3.0553 1.3387 1.8387 -3.0658 0.2880 1.8465 3.5132 -1.0551 12.2533 2.9604 -1.8893 -2.6545 -3.5275 -9.9503 8.7729 5.2753 -18.0217 -0.0263 -0.1911 -0.0632 0.8701 -10.6872 -3.9703 -0.8789 -10.6171 3.8357 -0.0352 4.7820 -4.8983 -38.5237 5.3601 -30.9954 -0.3194 2.6264 -136.7639 4.1183 -24.1765 -2.9523 -16.0462 10.1486 15.5564 -61.1436 1.2196 2.8370 -21.0182 9.0359 14.9407 1.8764 -12.8746 -34.6616 -11.4394 -8.0815 88.6195 154.0567 -57.3162 150.2367 16.3028 3.6523 -13.6687 46.1656 -4.2045 -4.2508 41.9147 -7.1373 9.4263 -0.5293 -0.1879 -3.5360 -30.8548 22.5069 17.7696 1.7866 -0.6205 -1.6203 -57.0820 -81.3037 6.8108 1.3341 47.8516 2.0557 22.0715 24.3254 -3.5620 -1.3688 1.0029 1.0486
-47.1082 70.7630 33.4199 6.4528 19.8967 7.4882 9.9897 3.6675 1.3064 2.3443 -2.3956 0.3904 3.1834 3.7118 -0.2093 9.8905 -1.4352 -0.3383 -3.8257 -3.8143 -10.7716 7.4153 3.4596 -19.2468 -0.0917 -0.1830 -0.0843 0.7932 -10.5192 -3.9333 -0.9367 -10.4481 3.7818 -3.2689 4.9916 -4.3779 -36.0069 3.9825 -24.7804 -0.8334 3.2664 -139.0054 1.5516 -26.2836 -3.6723 -15.9955 10.5297 15.7148 -61.8570 1.0254 2.7554 -19.8101 8.6711 17.9849 -10.0939 -28.5131 -20.4048 -2.6151 -2.6689 56.9512 149.3272 -68.8034 167.7654 16.7360 4.5069 -14.4158 47.0427 -4.0156 -4.1617 42.3957 -8.9332 9.4833 -0.7071 2.8465 -3.7883 -34.5873 18.1115 13.9351 1.8514 -0.4900 -1.6423 -103.4070 -84.5054 53.0684 2.1229 59.6058 2.6260 20.1252 19.3605 -2.8350 -1.3936 1.6245 1.0866
-50.4843 69.1816 34.7991 7.7066 20.0978 6.6624 10.4049 4.3970 1.3585 2.7381 -1.7327 0.5767 3.9699 4.1527 0.5960 7.6085 -3.9347 0.9817 -4.5216 -4.1004 -11.4617 6.4278 2.1612 -20.0176 -0.1072 -0.1747 -0.0892 0.7383 -10.5487 -3.9283 -0.9146 -10.4871 3.7726 -5.8381 5.5444 -3.7678 -35.1298 0.9250 -16.5613 -0.9655 3.7608 -139.8173 -1.1129 -23.6850 -2.7944 -16.1155 10.7807 15.7766 -62.6600 1.1132 2.7085 -21.5144 8.7109 20.1968 -20.3912 -32.7690 -6.5517 0.6738 -0.8370 31.9412 127.6987 -78.4382 -157.1361 16.4145 5.4677 -14.8560 47.4792 -3.9112 -4.3147 41.1879 -10.0614 10.1051 -0.9147 5.8365 -3.7849 -35.6718 13.0237 13.1786 1.9492 -0.4677 -1.7386 -144.6171 -82.9422 94.9919 2.8577 67.9022 3.1969 17.6449 14.1950 -2.7236 -1.4008 2.0273 1.0982
-53.2507 67.8336 35.9379 8.8805 20.4568 5.3322 10.7310 5.2041 1.5152 3.0514 -1.1532 0.7196 4.5253 4.5292 1.3464 5.6132 -5.1037 1.7468 -4.7215 -4.2012 -11.8989 5.6144 1.2540 -20.6148 -0.0696 -0.1560 -0.1042 0.7429 -10.6681 -3.9700 -0.8458 -10.6454 3.7688 -7.3656 6.0489 -3.0364 -35.9951 -2.5100 -8.1659 -0.6065 3.7893 -139.8175 -2.9259 -17.9349 -1.9577 -16.2120 10.9784 16.1155 -63.4341 1.4224 2.8102 -24.8135 8.6122 21.5280 -27.1660 -34.3284 4.7769 1.6049 -0.3333 15.3367 75.9957 -78.7064 -94.6124 16.0953 6.1125 -15.4504 48.0776 -4.0329 -4.7170 39.5495 -9.8489 10.5418 -1.1073 7.7615 -3.5283 -34.7467 8.5383 15.2565 1.9973 -0.5009 -1.8580 -162.2830 -80.1232 113.8122 4.0746 74.3904 4.3067 15.3046 9.4113 -2.5860 -1.4042 2.4839 1.0980
-55.6388 66.4722 36.8845 9.3770 21.0431 3.9683 10.9445 5.8400 1.7113 3.2910 -0.7791 0.8064 5.1629 4.7988 1.9187 4.3372 -5.4430 2.1146 -4.4939 -4.2262 -12.3322 5.0375 0.4537 -20.8171 -0.0165 -0.1432 -0.1489 0.8001 -10.7762 -4.0466 -0.7959 -10.7894 3.7325 -7.7856 6.1258 -2.4164 -38.2978 -5.0066 -1.8735 -0.0958 3.4886 -140.0789 -3.1170 -13.5759 -2.0037 -16.4756 11.2287 16.4975 -63.9252 1.6876 2.9045 -27.3492 8.0973 22.2437 -31.6493 -35.8693 14.0697 0.3707 -0.0710 7.2869 63.9110 -73.6091 -73.9290 16.1991 6.4031 -16.0992 48.9022 -4.0008 -5.0565 38.8106 -8.1910 9.8188 -1.0190 8.2931 -3.1320 -32.4790 5.0704 19.8187 1.9949 -0.3058 -1.8830 -172.6064 -77.5984 125.4045 6.1788 79.8287 6.3644 13.4923 5.2504 -2.4100 -1.4084 2.9430 1.1303
-57.5287 65.1161 37.5571 9.2241 21.5368 3.0806 11.0084 6.2668 1.6918 3.4807 -0.4877 0.7490 5.9255 4.9987 2.2975 3.7098 -5.8326 2.1798 -4.2457 -4.1518 -12.2730 4.7247 -0.2310 -20.8753 -0.0057 -0.1163 -0.1512 0.8173 -10.7951 -4.0673 -0.7915 -10.8204 3.7397 -7.4950 5.8977 -1.8025 -41.1711 -6.9357 2.0135 -0.3689 2.9244 -140.9861 -2.3660 -10.8207 -2.1487 -16.6633 11.2884 16.7313 -63.7959 1.6814 2.9776 -28.5540 7.5688 22.6295 -34.7094 -37.0672 21.1273 -1.3004 -0.0218 4.0015 64.2334 -69.9083 -69.5612 16.3881 6.5340 -16.4846 49.6473 -4.0172 -5.2684 39.1733 -6.2397 8.5352 -0.8521 8.3031 -3.0568 -31.0130 2.9184 24.5685 1.9608 -0.2554 -1.7969 -178.8948 -75.7368 132.6470 10.1925 84.3192 10.2925 12.1486 1.8983 -2.2190 -1.4213 3.1832 1.1499
-58.8792 63.9327 38.0277 8.8512 21.8908 2.6193 11.1084 6.5215 1.6355 3.4744 -0.3711 0.8051 6.5354 5.1563 2.3922 3.4423 -6.2485 2.2194 -4.0484 -4.0792 -12.1575 4.5996 -1.0617 -20.9099 -0.0021 -0.1109 -0.1599 0.8182 -10.7485 -4.0819 -0.7883 -10.7948 3.7400 -6.6702 5.6973 -1.4686 -44.2774 -8.0111 3.6418 -0.7711 2.5668 -141.9921 -1.5851 -7.9363 -2.2099 -16.8047 11.2130 16.7945 -63.4431 1.6941 2.9256 -29.0371 6.8745 22.7670 -36.5479 -38.5400 26.4113 -2.7406 -0.0077 2.8656 61.6819 -67.6683 -65.3168 16.4449 6.6530 -16.6865 49.8446 -4.0123 -5.3587 39.9824 -4.8835 8.0471 -0.6061 7.7626 -3.2432 -30.4609 2.0605 27.5226 1.9731 -0.3672 -1.8283 176.9455 -74.3821 137.4167 22.9569 87.8314 23.0079 11.1667 -0.4954 -2.4951 -1.4235 3.1101 1.0988
-59.8610 62.9099 38.3659 8.6118 22.0507 2.4942 11.0126 6.6882 1.5619 3.4584 -0.3059 0.7113 6.8985 5.1810 2.3616 3.2450 -6.4963 2.4381 -3.9135 -4.0362 -11.9879 4.6109 -1.9857 -21.0225 -0.0241 -0.1102 -0.1481 0.7881 -10.7048 -4.0750 -0.8020 -10.7700 3.7662 -5.9387 5.4991 -1.2909 -46.7699 -8.6367 4.5359 -1.0752 2.4572 -142.8012 -1.0718 -5.6982 -2.4242 -17.0587 11.0689 16.7284 -63.3724 1.5804 2.9286 -29.1524 6.3000 22.9419 -37.3015 -39.6219 29.6487 -3.9451 0.0063 2.3887 58.8063 -66.7544 -61.9399 16.5755 6.7196 -16.6371 50.1635 -4.0172 -5.2544 40.4818 -3.9645 7.9925 -0.4417 6.8997 -3.5061 -29.7874 1.6510 29.6714 1.9701 -0.4974 -1.8760 174.9717 -73.3627 139.8067 140.5647 88.8798 140.5301 10.3537 -2.4878 -2.8829 -1.4219 3.1922 0.9712
-60.4661 62.0251 38.5672 8.5627 22.1771 2.5568 10.8764 6.7204 1.4731 3.4015 -0.2537 0.6884 7.0288 5.1963 2.3378 3.0160 -6.8794 2.5844 -3.9086 -3.9984 -11.9333 4.6841 -2.9189 -21.2063 -0.0197 -0.1190 -0.1697 0.7870 -10.6410 -4.0840 -0.7952 -10.7188 3.7320 -5.5978 5.3781 -1.2079 -48.2586 -9.1774 4.7138 -1.1137 2.3535 -143.3590 -0.7664 -4.1227 -2.5044 -17.0959 10.9874 16.6448 -63.3304 1.5526 2.8774 -29.0678 5.8097 22.9474 -37.3423 -40.0373 30.9986 -4.6922 0.0098 1.8804 56.9734 -66.6682 -59.8451 16.5717 6.8069 -16.6317 50.2722 -4.1305 -5.2769 40.9743 -3.3181 8.0235 -0.3312 6.1459 -3.7410 -29.6217 1.4203 30.6278 1.9668 -0.6148 -1.9065 174.1534 -72.3894 140.8147 169.2337 86.7736 169.1712 9.9007 -4.0762 -3.1868 -1.4172 3.0486 0.9257
-60.7829 61.3301 38.6584 8.6136 22.2199 2.7102 10.7332 6.6816 1.4360 3.3653 -0.2458 0.6726 6.9768 5.1726 2.3450 2.8084 -7.1593 2.8080 -4.0532 -4.0128 -11.9459 4.7799 -3.8000 -21.4640 -0.0222 -0.1217 -0.1760 0.7694 -10.5800 -4.0726 -0.7826 -10.6662 3.7091 -5.3735 5.3808 -1.1798 -49.0865 -9.5954 4.6862 -1.1041 2.2822 -143.5390 -0.5890 -3.0239 -2.6604 -17.0473 10.9709 16.5890 -63.3954 1.5101 2.8451 -28.8978 5.4734 22.8906 -36.8100 -40.1354 31.0985 -5.0318 0.0147 1.3312 54.8411 -66.6738 -57.4370 16.4715 6.9589 -16.6659 50.3722 -4.1489 -5.3510 41.2816 -2.8968 8.0594 -0.2409 5.5503 -3.9284 -29.7492 1.3206 31.1312 1.9534 -0.6267 -1.9409 174.1564 -71.6429 140.9145 173.4191 85.0948 173.3481 9.6299 -5.2620 -3.4657 -1.4110 2.9909 0.9214
-60.9222 60.8905 38.7090 8.7242 22.2468 2.8257 10.5946 6.5785 1.4124 3.2888 -0.2582 0.7499 6.8489 5.1425 2.3600 2.5703 -7.3164 3.0234 -4.1697 -4.0677 -12.0217 4.8786 -4.5587 -21.6415 -0.0235 -0.1333 -0.1757 0.7613 -10.5574 -4.0583 -0.7800 -10.6469 3.6976 -5.2589 5.4188 -1.1138 -49.3538 -9.8357 4.4250 -0.9852 2.2949 -143.4460 -0.4479 -2.0903 -2.9349 -17.0659 10.9499 16.5207 -63.4577 1.4384 2.8494 -28.6225 5.2463 22.8144 -36.1044 -40.0983 30.6475 -5.0607 0.0079 0.7722 52.6016 -66.7182 -54.8369 16.3843 7.0726 -16.6483 50.4663 -4.1645 -5.3783 41.4373 -2.6427 8.1193 -0.2063 5.1309 -4.0321 -29.9951 1.2995 31.3000 1.9406 -0.6946 -1.9664 174.5776 -71.1252 140.5591 174.5596 83.9958 174.4871 9.4972 -6.0675 -3.6719 -1.4040 2.9497 0.9218
-60.9356 60.6780 38.6983 8.8203 22.2941 2.8273 10.4543 6.4352 1.4321 3.2269 -0.2888 0.8327 6.6699 5.0871 2.4296 2.3348 -7.3334 3.2235 -4.2716 -4.1480 -12.0870 5.0159 -5.1848 -21.7732 -0.0270 -0.1453 -0.1702 0.7557 -10.5657 -4.0432 -0.7820 -10.6629 3.6947 -5.1569 5.4828 -0.9898 -49.3290 -9.9497 3.9410 -0.8583 2.2994 -143.1939 -0.3641 -1.4255 -3.2395 -17.0374 10.9636 16.4680 -63.5267 1.4161 2.8609 -28.2438 5.1089 22.7758 -35.4266 -40.1024 30.0463 -4.8635 0.0007 0.3433 50.3620 -66.9174 -52.2863 16.3564 7.1533 -16.6564 50.4770 -4.1619 -5.4211 41.4194 -2.5183 8.2368 -0.2114 4.8750 -4.1038 -30.2985 1.2544 31.3976 1.9354 -0.7079 -1.9725 175.0404 -70.8388 140.2009 175.0508 83.4162 174.9770 9.5035 -6.5940 -3.7921 -1.3962 2.9251 0.9371
-60.8646 60.5725 38.6575 8.8492 22.3471 2.7629 10.3199 6.2611 1.4659 3.1648 -0.3245 0.9227 6.4445 5.0160 2.5284 2.1573 -7.2294 3.3279 -4.3156 -4.1950 -12.1171 5.2195 -5.6571 -21.8828 -0.0374 -0.1535 -0.1596 0.7449 -10.5814 -4.0238 -0.7919 -10.6820 3.6987 -4.9461 5.5181 -0.8378 -49.2120 -9.9437 3.2359 -0.7423 2.2607 -142.8793 -0.3281 -0.9117 -3.4932 -17.0086 10.9693 16.4585 -63.4191 1.4371 2.8833 -27.8354 4.9855 22.7538 -34.6730 -40.2847 29.4467 -4.6162 -0.0032 0.0872 48.2409 -67.2020 -49.9649 16.3310 7.1484 -16.6738 50.4076 -4.1621 -5.4759 41.4107 -2.4630 8.4160 -0.2219 4.6644 -4.1481 -30.8321 1.3147 31.3423 1.9282 -0.7121 -1.9866 175.3940 -70.7255 139.9740 175.0101 83.1727 174.9467 9.5910 -6.9221 -3.9227 -1.3909 2.9064 0.9414
-60.7658 60.5935 38.5597 8.8064 22.3865 2.6797 10.1956 6.0673 1.5199 3.0829 -0.3780 1.0071 6.2248 4.9320 2.5884 2.0801 -7.0656 3.3422 -4.3628 -4.2185 -12.1135 5.4088 -5.9726 -21.9702 -0.0462 -0.1552 -0.1503 0.7409 -10.5988 -4.0156 -0.8053 -10.7069 3.7116 -4.6577 5.5041 -0.6972 -49.1152 -9.8657 2.4238 -0.7348 2.2435 -142.6005 -0.3594 -0.6594 -3.6588 -16.8802 10.9828 16.4376 -63.2617 1.4582 2.8577 -27.3670 4.8768 22.7201 -33.8600 -40.5280 28.8415 -4.3479 -0.0034 -0.0016 46.1599 -67.5050 -47.8161 16.3149 7.1203 -16.6548 50.3372 -4.1767 -5.4578 41.4069 -2.4416 8.5300 -0.2184 4.5361 -4.1457 -31.4484 1.3714 31.2376 1.9213 -0.6907 -2.0054 175.5864 -70.8298 139.9291 174.7989 83.2029 174.7513 9.7045 -7.1110 -4.0852 -1.3896 2.8854 0.9425
-60.6496 60.6872 38.4743 8.7246 22.4118 2.6344 10.0702 5.8869 1.5822 2.9974 -0.4455 1.0695 6.0051 4.8437 2.5989 2.0765 -6.8523 3.3433 -4.4113 -4.2460 -12.1613 5.6245 -6.1288 -22.0650 -0.0567 -0.1536 -0.1372 0.7324 -10.5995 -3.9972 -0.8200 -10.7093 3.7253 -4.2839 5.4499 -0.5906 -49.0727 -9.8232 1.6474 -0.7901 2.2172 -142.3495 -0.3714 -0.5057 -3.8716 -16.7889 10.9703 16.4192 -63.1098 1.4561 2.8597 -26.8606 4.7149 22.6669 -33.0069 -40.7548 28.1830 -4.1763 -0.0015 0.0922 44.2495 -67.8830 -45.9542 16.3018 7.0971 -16.6711 50.2036 -4.1548 -5.4848 41.4419 -2.5225 8.6794 -0.2263 4.4218 -4.1570 -32.0976 1.5508 30.9908 1.9128 -0.6686 -2.0149 175.7483 -71.0167 139.8979 174.5046 83.3829 174.4657 9.8144 -7.1328 -4.3405 -1.3897 2.8818 0.9502
-60.5134 60.8419 38.3460 8.6195 22.3952 2.6736 9.9426 5.7003 1.5999 2.8829 -0.5113 1.1121 5.7897 4.7681 2.5510 2.1578 -6.5925 3.2986 -4.4979 -4.2641 -12.2027 5.8473 -6.1061 -22.1653 -0.0611 -0.1491 -0.1308 0.7267 -10.6017 -3.9896 -0.8249 -10.7144 3.7327 -3.8421 5.4403 -0.5406 -49.0262 -9.8855 0.8749 -0.8897 2.2372 -142.0998 -0.4085 -0.4779 -4.0814 -16.6724 10.9813 16.3888 -63.0326 1.4636 2.8478 -26.2346 4.4905 22.5255 -32.0627 -40.8257 27.4221 -4.0755 0.0054 0.3993 42.3604 -68.2349 -44.2571 16.2464 7.0706 -16.6447 50.0350 -4.1051 -5.4937 41.4893 -2.6990 8.8424 -0.2527 4.2679 -4.1901 -32.6585 1.8165 30.5426 1.9048 -0.6703 -2.0211 175.9079 -71.3617 139.8068 173.9399 83.6913 173.9037 9.9099 -7.0757 -4.6973 -1.3898 2.8353 0.9554
-60.3120 61.0555 38.2151 8.5039 22.3240 2.7655 9.8232 5.5460 1.5987 2.7587 -0.5944 1.1081 5.5658 4.7177 2.4699 2.2764 -6.2926 3.2242 -4.6000 -4.2902 -12.2541 6.0957 -5.9409 -22.2902 -0.0645 -0.1447 -0.1223 0.7228 -10.6047 -3.9802 -0.8271 -10.7194 3.7404 -3.3345 5.3948 -0.4965 -48.9486 -9.9689 0.0586 -0.9369 2.2511 -141.8383 -0.5691 -0.4618 -4.2057 -16.5822 10.9670 16.3530 -62.9702 1.4743 2.8060 -25.4749 4.2875 22.3409 -31.3447 -40.9209 26.8114 -3.9780 0.0145 0.7419 40.2315 -68.4708 -42.3894 16.2314 7.0744 -16.5911 49.9550 -4.0670 -5.4475 41.5320 -2.9809 9.0649 -0.2887 4.1112 -4.2211 -33.2447 2.1730 29.9730 1.9013 -0.6106 -2.0121 176.3169 -71.8186 139.4774 173.4559 84.0606 173.4236 10.0668 -6.9970 -5.1183 -1.3884 2.8037 0.9714
-60.0565 61.3598 38.0700 8.4079 22.2439 2.9371 9.7049 5.3633 1.6014 2.6613 -0.6767 1.0607 5.3389 4.6807 2.3785 2.3392 -6.0106 3.1851 -4.7044 -4.2925 -12.3634 6.3591 -5.6563 -22.4745 -0.0708 -0.1403 -0.1058 0.7127 -10.6147 -3.9637 -0.8315 -10.7256 3.7609 -2.8726 5.3115 -0.4451 -48.7721 -10.0288 -0.8573 -0.9504 2.2650 -141.4875 -0.6644 -0.4124 -4.2349 -16.4047 11.0086 16.3578 -62.9555 1.4952 2.7481 -24.6840 4.1987 22.1430 -30.7008 -40.8346 26.0178 -3.7683 0.0211 1.1128 38.3933 -68.6855 -40.7958 16.2052 7.0604 -16.5673 49.8632 -4.0217 -5.4311 41.5524 -3.3730 9.3313 -0.3102 3.9190 -4.3072 -33.8360 2.6552 29.3042 1.8991 -0.5564 -2.0091 176.7250 -72.3734 139.0689 172.6889 84.5463 172.6641 10.2188 -6.8390 -5.4604 -1.3873 2.7427 0.9646
-59.7257 61.7605 37.9442 8.3089 22.1142 3.0772 9.6241 5.1898 1.5475 2.5611 -0.7210 1.0424 5.1264 4.6913 2.2833 2.3325 -5.7697 3.1400 -4.7946 -4.2949 -12.4311 6.5677 -5.3238 -22.6196 -0.0734 -0.1356 -0.0906 0.7072 -10.6242 -3.9546 -0.8298 -10.7331 3.7805 -2.4538 5.1894 -0.4078 -48.6646 -10.1147 -1.7102 -0.9246 2.2730 -141.0531 -0.7161 -0.1704 -4.2588 -16.3112 11.0075 16.3722 -62.8491 1.5247 2.7873 -23.8808 4.1509 21.9223 -30.1036 -40.4861 25.1342 -3.4768 0.0279 1.4202 37.2964 -68.8252 -39.8961 16.1700 7.0627 -16.5842 49.7627 -3.9967 -5.4550 41.5473 -3.8067 9.6078 -0.3400 3.8096 -4.3317 -34.3532 3.2287 28.5198 1.8953 -0.4984 -1.9898 177.3783 -73.0809 138.4389 171.4682 85.1940 171.4538 10.4282 -6.5943 -5.8183 -1.3868 2.7083 0.9581
-59.3246 62.2111 37.7928 8.1993 21.9798 3.1219 9.5451 5.0275 1.5368 2.4883 -0.7603 0.9884 4.9298 4.7040 2.2156 2.2497 -5.5582 3.1199 -4.8366 -4.2786 -12.4886 6.7732 -4.9461 -22.7874 -0.0712 -0.1297 -0.0836 0.7071 -10.6464 -3.9549 -0.8260 -10.7421 3.7945 -2.0732 5.0594 -0.3239 -48.6324 -10.0527 -2.5619 -0.7421 2.2592 -140.6163 -0.7973 0.2184 -4.2343 -16.2362 11.0192 16.3693 -62.8365 1.5580 2.7981 -23.0317 4.1576 21.7619 -29.5885 -39.7770 24.0780 -3.0852 0.0263 1.6787 37.1850 -69.0873 -39.8766 16.1067 7.0878 -16.6414 49.7158 -3.9821 -5.4643 41.5328 -4.2454 9.8836 -0.3990 3.8492 -4.3189 -34.7744 3.8469 27.6960 1.8859 -0.4954 -1.9639 178.0774 -73.8448 137.8139 169.8620 85.9141 169.8597 10.6377 -6.3214 -6.0921 -1.3883 2.7143 0.9390
-58.9145 62.6965 37.6856 8.0723 21.8354 3.1070 9.4732 4.8627 1.5063 2.4284 -0.7994 0.9243 4.7228 4.7159 2.1941 2.1332 -5.3905 3.0969 -4.8952 -4.2404 -12.4995 6.8904 -4.5197 -22.8895 -0.0659 -0.1240 -0.0888 0.7109 -10.6526 -3.9660 -0.8193 -10.7468 3.7920 -1.7888 4.9581 -0.2301 -48.6280 -9.9818 -3.2617 -0.5535 2.1768 -140.2118 -0.8659 0.7648 -4.1459 -16.1779 11.0393 16.3770 -62.8481 1.5964 2.8171 -22.1184 4.1838 21.6409 -29.1371 -38.8363 23.0182 -2.7203 0.0218 1.8766 38.2539 -69.5006 -40.9264 16.0297 7.1292 -16.7066 49.6619 -3.9483 -5.4782 41.4764 -4.5962 10.1031 -0.4369 3.9744 -4.2572 -35.0205 4.4075 26.9159 1.8760 -0.5170 -1.9364 178.8955 -74.6481 137.1316 167.1735 86.7289 167.1802 10.8493 -5.9877 -6.3453 -1.3903 2.7280 0.9174
-58.5697 63.2035 37.5932 7.8961 21.6417 2.9541 9.3934 4.7061 1.5025 2.3889 -0.8482 0.8419 4.5444 4.7828 2.1973 2.0103 -5.2860 3.1015 -4.9681 -4.2007 -12.5133 6.9479 -4.0825 -22.9802 -0.0626 -0.1147 -0.0940 0.7113 -10.6615 -3.9782 -0.8124 -10.7477 3.7917 -1.5855 4.9513 -0.1324 -48.6539 -9.9129 -3.7586 -0.4413 2.0931 -139.8412 -0.8569 1.4292 -4.0576 -16.1599 11.0863 16.4068 -62.9243 1.6440 2.8148 -21.0631 4.3204 21.5130 -28.9336 -37.8714 22.1314 -2.4309 0.0144 2.1999 40.4096 -70.3304 -42.9932 15.9164 7.1928 -16.7949 49.6636 -3.9408 -5.4953 41.3989 -4.8035 10.2568 -0.4570 4.2663 -4.1681 -35.2254 4.8408 26.2290 1.8620 -0.5735 -1.9113 -179.9930 -75.5236 136.2362 162.1972 87.5928 162.2132 11.0555 -5.6483 -6.5697 -1.3927 2.7718 0.9117
-58.1968 63.6991 37.4700 7.7022 21.3576 2.6542 9.2886 4.5708 1.4700 2.3524 -0.8791 0.7901 4.4072 4.8936 2.1854 1.8883 -5.2829 3.1768 -5.0445 -4.2171 -12.5976 6.8122 -3.6314 -22.9564 -0.0655 -0.1102 -0.0882 0.7063 -10.6622 -3.9715 -0.8124 -10.7373 3.7949 -1.4225 4.9649 0.0365 -48.8084 -9.7548 -4.1592 -0.3620 2.0267 -139.4650 -0.7599 2.2778 -4.0172 -16.1870 11.1096 16.4565 -62.9798 1.6618 2.8707 -19.8573 4.5377 21.4088 -28.9710 -36.9407 21.4942 -2.2971 0.0165 2.7036 44.0209 -71.6158 -46.4648 15.8779 7.1945 -16.7948 49.5992 -3.9174 -5.4587 41.3182 -4.9533 10.4845 -0.4813 4.8227 -4.0916 -35.3708 5.0208 25.5243 1.8493 -0.6430 -1.8818 -178.3081 -76.4093 134.8442 148.9093 88.5287 148.9430 11.2773 -5.1623 -6.7560 -1.3948 2.9162 0.9277
-57.7922 64.1937 37.3806 7.4800 20.9655 2.1983 9.1231 4.4457 1.4464 2.3080 -0.9151 0.7215 4.2931 5.0759 2.1505 1.8352 -5.3452 3.2180 -5.1005 -4.2589 -12.6583 6.4741 -3.1635 -22.7773 -0.0681 -0.1062 -0.0842 0.7012 -10.6544 -3.9620 -0.8136 -10.7240 3.7941 -1.2117 4.9722 0.2572 -49.1660 -9.4692 -4.6253 -0.3834 1.9730 -139.0005 -0.4995 3.2585 -3.9165 -16.2641 11.1196 16.4936 -63.0800 1.6725 2.9013 -18.3882 4.8038 21.3270 -29.2465 -36.1681 21.2272 -2.2882 0.0282 3.5164 48.8117 -73.2017 -51.0871 15.8943 7.2033 -16.7547 49.6298 -3.8703 -5.3968 41.2345 -5.0656 10.7041 -0.5149 5.7806 -3.9771 -35.4841 4.8417 24.8210 1.8387 -0.7361 -1.8687 -175.7793 -77.3616 132.6871 93.9085 89.1878 93.9644 11.5630 -4.5069 -6.8444 -1.3943 3.1135 0.9487
-57.2879 64.6852 37.2631 7.2078 20.4068 1.5852 8.8855 4.3591 1.3946 2.2305 -0.9401 0.6333 4.1516 5.3401 2.0698 1.8669 -5.4936 3.1846 -5.0839 -4.2695 -12.6833 5.9710 -2.6907 -22.4521 -0.0764 -0.1032 -0.0618 0.7014 -10.6534 -3.9301 -0.8319 -10.7218 3.8087 -0.8660 4.9743 0.5040 -49.6701 -9.0062 -5.3702 -0.3515 1.8779 -138.3908 -0.1746 4.4327 -3.6715 -16.3442 11.1446 16.4890 -63.2438 1.6991 2.8704 -16.5937 5.1012 21.3089 -29.7090 -35.7545 21.3571 -2.3532 0.0514 4.7901 54.9057 -74.7804 -57.0386 15.9695 7.1784 -16.6090 49.6868 -3.8279 -5.2580 41.0927 -5.2615 10.8940 -0.5480 7.3955 -3.8324 -35.4552 4.2014 23.9277 1.8409 -0.8164 -1.8827 -172.0485 -78.3870 129.4313 32.7690 88.3989 32.8494 11.8108 -3.6177 -6.9364 -1.3924 3.3617 0.9635
-56.7106 65.2191 37.0889 6.9033 19.6827 0.9722 8.6298 4.2462 1.2562 2.1090 -0.9149 0.6075 4.0023 5.7255 1.8977 1.9706 -5.8692 2.9662 -5.1603 -4.2519 -12.7411 5.4544 -2.1651 -22.1096 -0.0603 -0.1047 -0.0708 0.7256 -10.6355 -3.9212 -0.8244 -10.7021 3.7743 -0.4889 4.8906 0.6966 -50.2488 -8.6609 -6.4745 -0.3943 1.7497 -137.7154 0.1456 5.6100 -3.1634 -16.2200 11.1573 16.4542 -63.1026 1.7639 2.7600 -14.6777 5.3272 21.3240 -30.1782 -35.7557 21.7496 -2.4039 0.1083 6.2630 61.4461 -75.9668 -63.5335 16.0625 7.1757 -16.5680 49.6096 -3.8061 -5.2540 41.2177 -5.7772 10.9804 -0.6225 9.8498 -3.6338 -35.3815 3.2298 22.6103 1.8666 -0.8793 -1.8619 -166.7081 -79.5540 124.5094 16.2796 86.7237 16.4438 12.2201 -2.3679 -6.9983 -1.3949 3.4541 1.0786
-55.8864 65.7670 36.7387 6.5528 18.8192 0.4284 8.2483 4.2809 1.1606 1.9701 -0.9434 0.4899 3.7580 6.0724 1.6650 2.3623 -6.1809 2.6792 -5.1286 -4.2499 -12.8608 4.8685 -1.6402 -21.7430 -0.0633 -0.1005 -0.0465 0.7302 -10.6511 -3.8907 -0.8355 -10.7158 3.7914 0.1547 4.8645 0.6245 -50.7527 -8.6910 -7.6508 -0.4907 1.5414 -137.0512 0.4924 6.5395 -2.7033 -16.1797 11.1544 16.4236 -62.9754 1.8043 2.6539 -12.7553 5.5509 21.3632 -30.2665 -36.1204 22.0093 -2.5502 0.2045 7.9129 65.3103 -77.0282 -67.4004 16.1677 7.1802 -16.4769 49.5376 -3.6684 -5.1486 41.1754 -6.7168 11.0126 -0.7010 12.9251 -3.3870 -34.6254 1.9849 21.2197 1.8808 -0.9634 -1.8804 -159.7690 -80.7190 117.9603 10.2734 84.6451 10.4902 12.4463 -0.8712 -7.2191 -1.3892 3.7144 1.1001
-54.8182 66.4071 36.1552 6.1197 17.8040 0.0008 7.7426 4.3944 1.0248 1.8081 -0.9712 0.3695 3.4187 6.4316 1.2991 3.0942 -6.4308 2.2320 -5.1340 -4.2524 -13.0238 4.2947 -1.0057 -21.3373 -0.0509 -0.1046 -0.0592 0.7548 -10.6750 -3.9049 -0.8356 -10.7367 3.7728 0.9139 4.7869 0.3596 -50.8534 -9.2301 -9.1237 -0.5454 1.4068 -136.4201 0.8506 6.9182 -2.3154 -16.1741 11.2136 16.4490 -62.8618 1.8719 2.6224 -10.7471 5.7438 21.3244 -29.9220 -36.5844 22.0591 -2.8300 0.3057 9.5934 66.8174 -78.3904 -69.2035 16.3034 7.1496 -16.3592 49.4875 -3.5826 -5.0722 41.2540 -8.0756 10.9602 -0.8121 16.6095 -3.1031 -33.6439 0.5142 19.9050 1.8805 -0.9874 -1.8448 -149.6046 -81.9710 108.0427 6.7564 81.9365 7.0411 12.7244 1.0704 -7.4850 -1.3857 3.9248 1.1186
-53.4200 67.2533 35.3197 5.5525 16.6803 -0.1914 7.1673 4.5227 0.9939 1.5029 -1.0507 0.3759 3.0813 6.8050 0.7199 4.2647 -6.4315 1.7925 -5.2461 -4.3423 -13.6489 3.6858 -0.1574 -20.9962 -0.0100 -0.1306 -0.1462 0.8178 -10.7061 -3.9978 -0.8153 -10.7820 3.6804 1.8476 4.5132 -0.2916 -50.4357 -9.8233 -11.3111 -0.2282 1.2691 -135.6867 0.9121 7.2279 -1.9262 -16.2768 11.2391 16.3914 -62.8259 2.0225 2.4297 -8.4557 6.0323 21.0408 -29.2359 -37.2233 21.7339 -3.0444 0.4574 11.2053 64.3118 -79.8988 -67.2191 16.4103 7.1674 -16.2521 49.2633 -3.4890 -4.8824 41.3893 -9.9256 10.7355 -0.8462 20.7287 -2.6264 -31.7819 -1.1222 18.2573 1.9130 -0.8628 -1.8051 -133.3525 -83.2742 91.7524 4.5368 78.3821 4.9244 13.2034 3.4821 -7.9666 -1.3824 4.2060 1.1448
-51.5919 68.2083 34.1494 4.8237 15.3207 -0.2056 6.4816 4.7764 0.8433 1.2225 -1.1148 0.3105 2.5792 7.1491 0.2810 5.7134 -6.1044 1.1824 -5.3542 -4.3055 -13.9598 3.2918 0.8478 -20.8045 0.0208 -0.1341 -0.1924 0.8693 -10.7397 -4.0584 -0.8049 -10.8111 3.6362 2.8282 4.2286 -1.0546 -49.1952 -11.1259 -13.8300 -0.0100 1.0201 -134.8122 1.0723 7.0222 -1.3344 -16.2883 11.2764 16.3495 -62.9037 2.0626 2.2196 -6.1900 6.2433 20.7699 -27.3804 -37.2801 20.2130 -3.1904 0.5812 12.6169 60.0253 -81.6132 -63.6070 16.5162 7.1735 -16.1793 49.2908 -3.4916 -4.8538 41.5208 -11.8086 10.2611 -0.9009 25.3278 -2.3451 -31.5808 -2.9551 17.1800 1.8954 -0.7669 -1.7849 -105.5798 -83.9775 63.7025 3.1582 73.7338 3.6161 13.6557 6.4264 -8.1161 -1.3838 4.3899 1.1488
-49.2532 69.3659 32.6915 3.8918 13.7801 -0.0833 5.7970 5.1140 0.7080 0.9288 -1.1538 0.2962 2.0572 7.4978 -0.1507 7.4616 -5.4034 0.5540 -5.4815 -4.2811 -14.1942 3.0057 1.8658 -20.5470 0.0547 -0.1391 -0.2412 0.9109 -10.7716 -4.1237 -0.7775 -10.8289 3.5895 3.8584 3.9209 -2.0046 -47.2658 -12.8563 -16.7463 0.2165 0.7874 -133.6392 1.2742 6.5917 -0.8077 -16.3841 11.2985 16.3165 -62.9476 2.0626 2.1131 -4.0759 6.3252 20.3510 -24.6430 -37.4267 17.9864 -2.9125 0.6867 14.1067 44.9718 -82.5884 -49.4302 16.4355 7.1905 -16.1214 49.2286 -3.4637 -4.8520 41.7719 -13.8183 9.9064 -0.9812 29.8034 -2.1958 -33.2812 -4.8440 16.3313 1.8752 -0.7144 -1.7732 -71.4134 -82.8955 29.0236 2.2120 67.7273 2.7490 14.0291 10.0799 -8.2820 -1.3893 4.5305 1.1402
-46.4310 70.7831 30.9524 2.8347 12.1725 0.1703 5.0753 5.5076 0.6053 0.5886 -1.2064 0.3040 1.5112 7.8573 -0.5238 9.4948 -4.1850 -0.1005 -5.5766 -4.2283 -14.2272 2.8384 2.9322 -20.2096 0.0896 -0.1582 -0.2794 0.9445 -10.8035 -4.1796 -0.7415 -10.8480 3.5578 4.7334 3.7141 -3.3110 -44.3203 -14.5720 -20.2162 0.7724 0.5993 -132.2500 1.6223 5.9396 -0.4754 -16.5200 11.3284 16.2246 -63.0528 2.0812 2.0429 -2.0319 6.4043 19.6685 -20.9276 -37.9929 15.0842 -2.3838 0.7850 16.4216 19.6098 -81.4578 -25.3827 16.2109 7.3202 -16.1685 49.0160 -3.3564 -4.9039 41.9456 -16.1013 9.7756 -1.0854 34.1708 -2.0440 -36.1214 -6.5493 15.4041 1.8468 -0.6647 -1.7427 -47.1419 -79.4123 4.1477 1.6136 59.9303 2.2327 14.2688 14.4476 -8.6042 -1.3985 4.4725 1.1127
-43.1948 72.3997 28.9797 1.7896 10.4604 0.3375 4.2641 6.0079 0.4752 0.2768 -1.1532 0.2813 0.8315 8.2237 -0.7759 11.8073 -2.3504 -0.8556 -5.6001 -4.1120 -13.8756 2.8930 3.8343 -19.6547 0.1001 -0.1624 -0.2482 0.9382 -10.8506 -4.1742 -0.7174 -10.8653 3.6103 5.3338 3.6592 -4.7237 -40.3901 -16.4708 -23.8832 1.0477 0.5762 -130.5913 2.2607 4.4567 -0.6976 -16.5770 11.3368 16.1814 -62.9953 2.1396 2.0151 -0.0511 6.6380 18.8199 -15.8708 -38.9721 11.2622 -2.2846 0.9490 20.5631 -0.2257 -78.1175 -7.5015 15.9595 7.2748 -16.1152 48.7228 -3.4250 -5.0376 41.8460 -18.4782 9.9517 -1.2897 38.6726 -2.0070 -39.7286 -8.2155 14.8390 1.7933 -0.7303 -1.7151 -34.3522 -73.7411 -9.1509 1.2327 49.7432 1.9061 14.3328 19.4394 -9.0916 -1.4106 3.9812 1.0470
-39.5693 74.1916 26.7968 0.7576 8.8862 0.4113 3.3893 6.3666 0.6088 -0.1040 -1.1267 0.3152 0.1970 8.6749 -1.0477 14.2645 -0.1560 -1.5472 -5.5445 -3.9076 -13.5172 2.8336 4.1977 -18.9491 0.0853 -0.1106 -0.1956 0.9220 -10.8581 -4.1529 -0.7331 -10.8659 3.7018 5.9223 3.8543 -6.6022 -35.6846 -17.3524 -27.8875 1.6933 0.7042 -128.5886 2.7033 3.0298 -2.0303 -16.7687 11.2609 16.0275 -62.7759 2.2419 1.7688 2.1809 7.0425 17.2799 -9.1282 -41.8248 6.5452 -2.0855 1.3641 28.3322 -14.8101 -71.8446 4.5645 15.9150 7.1285 -15.9902 48.3587 -3.3421 -5.0348 41.1786 -21.1425 10.4648 -1.2828 43.0348 -1.8298 -41.7796 -9.9356 13.9111 1.7756 -0.7600 -1.7275 -27.6927 -66.2684 -16.1338 1.0565 36.4705 1.8960 13.8911 23.9101 -10.4376 -1.4535 2.7913 0.9213
-35.9588 75.9389 24.7300 -0.1757 7.4429 0.4588 2.2644 6.7835 0.7046 -0.3103 -1.1719 0.1066 -0.2136 8.9487 -1.1773 16.3025 2.4927 -2.0611 -5.1361 -3.8785 -13.0070 2.6590 4.3542 -17.9495 0.0494 -0.0804 -0.1185 0.9085 -10.8912 -4.0916 -0.7955 -10.8776 3.8151 6.9795 4.2349 -8.2223 -31.5256 -18.1911 -30.6358 1.3745 0.3527 -127.0664 3.3258 0.7318 -3.5394 -16.6165 11.1692 16.0464 -62.1623 2.1091 1.9294 4.5770 7.7456 15.5017 -0.7434 -43.8941 0.1228 -1.6711 1.7312 39.5651 -23.5855 -65.2789 10.7563 15.8031 6.9580 -15.7146 48.9536 -3.3367 -4.9662 39.8705 -23.1032 10.8415 -1.1988 46.8849 -1.7401 -42.7439 -12.3610 14.2998 1.7009 -0.5514 -1.7571 -24.8972 -58.1321 -19.1593 0.6231 22.8127 1.5963 13.7266 23.4925 -13.0445 -1.4612 1.1686 0.9986
-32.3390 77.5524 22.7291 -0.8694 6.2331 0.3217 1.0742 7.1487 0.6839 -0.4356 -1.3075 -0.1042 -0.3651 9.2536 -1.2540 17.5878 4.8939 -2.3436 -4.7764 -3.9207 -12.4823 2.5089 4.1554 -16.8963 -0.0037 -0.0839 -0.0240 0.8870 -10.9208 -3.9952 -0.8859 -10.8947 3.9320 8.0946 4.6660 -8.8981 -27.9245 -18.4303 -32.9453 0.8680 -0.0323 -126.6227 3.9001 -1.7743 -5.0540 -16.3463 11.2786 16.3126 -61.7368 1.8967 2.0876 6.9736 8.5542 13.9102 8.0634 -43.7452 -7.1740 -0.9056 1.6757 52.7000 -27.5430 -58.6014 12.5943 15.5427 6.9166 -15.5256 49.4046 -3.2258 -5.0157 38.1340 -24.4267 10.8378 -0.9957 50.4226 -1.4705 -41.8102 -14.7833 14.7297 1.6543 -0.1608 -1.7097 -22.0128 -51.8034 -22.5107 0.0734 11.6828 1.1087 12.4065 15.3996 -18.3730 -1.3345 -0.9293 1.2106
-28.7442 78.9780 20.8734 -1.3396 5.1478 -0.5244 0.0789 7.5755 0.5859 -0.4899 -1.4670 -0.2652 -0.3595 9.4369 -1.1214 17.9496 7.2111 -2.4790 -4.4460 -4.0622 -11.7882 2.4383 3.6593 -15.8373 -0.0316 -0.0954 0.0312 0.8743 -10.9421 -3.9420 -0.9331 -10.9128 4.0006 9.0425 5.2476 -8.7249 -25.3806 -18.3076 -34.3713 0.5446 -0.2791 -127.3560 4.6618 -3.7352 -6.7524 -16.3448 11.2775 16.4307 -61.6242 1.6218 2.3758 8.7887 9.5811 12.7733 15.6635 -40.6315 -12.9219 -0.6693 1.2235 64.6963 -28.8388 -52.6293 12.5783 15.1664 7.0569 -15.4481 49.6226 -3.1372 -5.1324 35.9544 -24.9741 11.5231 -0.7407 53.3388 -1.1669 -40.5778 -17.3881 15.4865 1.6065 0.1282 -1.6880 -17.9727 -49.1644 -27.1361 -0.2041 6.6976 0.7061 11.6297 8.9681 -21.1691 -1.1777 -2.2643 1.3079
-25.2871 80.2349 19.1627 -1.8342 4.2670 -2.2019 -0.3441 7.8339 0.5645 -0.5741 -1.6042 -0.2318 -0.2980 9.6592 -1.0406 17.5987 9.1537 -2.4297 -4.1088 -4.0742 -11.1602 2.4834 3.1574 -14.9186 -0.0078 -0.1193 -0.0071 0.8861 -10.9562 -3.9766 -0.8960 -10.9146 3.9458 8.9264 5.6829 -8.0397 -23.9262 -17.7932 -34.7908 0.6393 -0.3021 -128.9362 5.3999 -5.0070 -8.3330 -16.3685 11.3019 16.3805 -61.5839 1.6281 2.3788 10.3037 10.4748 12.0943 21.2245 -36.2030 -15.8083 -0.6972 0.6963 73.7625 -28.5757 -47.3029 11.2965 14.9222 7.2763 -15.4226 49.8655 -3.0187 -5.1728 33.7188 -25.2785 13.3693 -0.5175 55.4269 -0.9188 -39.2319 -19.9559 15.8707 1.5887 0.1551 -1.7518 -14.2355 -49.5477 -30.5487 -0.1138 10.7750 0.6128 12.7940 8.9965 -19.8674 -1.2153 -2.3371 1.2746
-22.1263 81.3621 17.6016 -2.5023 3.3635 -3.8154 -0.3773 8.0411 0.5160 -0.6676 -1.6939 -0.1822 -0.1344 10.0665 -1.0319 17.3158 10.7280 -2.3722 -3.8617 -4.0428 -10.7621 2.4463 2.7598 -14.1409 0.0360 -0.1411 -0.0814 0.9006 -10.9518 -4.0382 -0.8179 -10.9033 3.8349 7.9055 6.2062 -7.3605 -23.3499 -17.1973 -34.7269 0.9274 -0.1199 -130.5049 5.6729 -5.6008 -9.4036 -16.1974 11.3429 16.2785 -61.4428 1.7764 2.3120 12.0401 11.2857 11.6952 25.8562 -31.7791 -17.0411 -0.6964 0.3018 79.8919 -28.2537 -42.6236 9.3353 14.7878 7.4770 -15.4980 50.0349 -2.9530 -5.1217 32.0113 -25.5519 15.4408 -0.4133 56.8580 -0.8547 -37.7226 -21.8373 15.7072 1.5897 0.1643 -1.7873 -12.2950 -50.7498 -31.2095 0.0747 20.3250 0.7858 14.5576 10.2896 -16.4262 -1.3180 -1.6210 1.1744
-19.3881 82.3453 16.2225 -3.2614 2.4459 -4.7639 -0.2798 8.2220 0.4012 -0.7355 -1.7153 -0.2036 0.0178 10.6100 -1.1523 17.4276 12.1681 -2.3383 -3.7213 -4.0520 -10.5472 2.3891 2.4004 -13.5683 0.0616 -0.1389 -0.1336 0.9016 -10.9092 -4.0752 -0.7623 -10.8615 3.7510 6.9403 6.8616 -6.7497 -23.7759 -17.0165 -34.6771 0.9131 0.1423 -131.5503 5.4799 -5.5889 -9.7065 -16.0195 11.3548 16.1655 -61.2384 1.8703 2.2587 13.9156 12.0217 11.3686 30.8561 -27.4334 -17.8955 -0.6147 0.0908 84.1511 -29.1079 -39.0195 7.6297 14.7307 7.6099 -15.6505 50.1305 -2.9860 -5.0907 30.8832 -25.8790 16.9317 -0.4126 57.9378 -0.9719 -36.0784 -23.0693 15.1818 1.5977 0.0498 -1.7821 -11.5122 -51.3923 -30.2127 0.3649 31.2815 1.1254 15.6218 10.9995 -12.3627 -1.3776 -0.5925 1.0804
-17.1694 83.0949 15.0148 -3.8282 1.6711 -5.0278 -0.2923 8.4157 0.2655 -0.7707 -1.6877 -0.3732 0.0545 11.0798 -1.3187 17.7566 13.5606 -2.4299 -3.6541 -4.0387 -10.3200 2.4481 1.9308 -13.3095 0.0594 -0.1144 -0.1374 0.8782 -10.8465 -4.0675 -0.7404 -10.8030 3.7329 6.6091 7.5812 -6.2717 -25.2809 -17.2855 -34.7323 0.5922 0.3575 -132.0865 4.8852 -4.6433 -9.3270 -15.9565 11.3265 16.1309 -61.0630 1.8865 2.2646 15.6816 12.6347 10.9547 36.4826 -23.2312 -18.8117 -0.2725 0.1199 87.2880 -31.1579 -36.3585 6.8157 14.7654 7.5772 -15.8416 50.0647 -3.1217 -5.1228 29.8745 -26.2408 17.8441 -0.5058 58.7215 -1.1825 -34.3893 -23.8665 14.5309 1.6105 -0.2282 -1.7821 -10.9096 -51.3084 -28.9468 0.8016 41.2448 1.5755 15.2745 9.8940 -9.1695 -1.4197 -0.0614 1.0632
-15.3898 83.6789 13.9647 -3.9695 1.1771 -4.9089 -0.4739 8.6163 0.1222 -0.8242 -1.6409 -0.5755 -0.0683 11.3775 -1.5393 18.0529 14.8218 -2.5938 -3.5596 -4.0093 -10.1201 2.5973 1.3535 -13.2207 0.0582 -0.0964 -0.1383 0.8674 -10.8385 -4.0720 -0.7322 -10.7994 3.7385 6.6847 8.2219 -5.9048 -27.4149 -17.7784 -34.9595 0.1095 0.4748 -132.4059 4.3327 -3.1798 -8.6761 -16.0701 11.2108 16.1334 -61.0258 1.8402 2.3682 17.2600 13.0854 10.4819 42.0010 -18.7446 -19.4532 -0.1406 0.0937 89.9477 -33.5106 -34.1386 6.7273 14.8093 7.5124 -15.9812 49.8477 -3.1788 -5.1871 28.6059 -26.5367 18.4970 -0.6104 59.1325 -1.3278 -32.7942 -24.4272 13.9129 1.6249 -0.5969 -1.8021 -10.1623 -50.7600 -28.2028 1.1244 47.9688 1.8576 13.7094 7.1614 -7.7793 -1.4647 -0.1616 1.0531
-13.8873 84.0958 13.0304 -3.6273 0.9549 -4.7753 -0.7471 8.7949 0.0485 -0.9048 -1.6787 -0.7333 -0.3545 11.5912 -1.7974 18.2006 15.7282 -2.7095 -3.4741 -3.9629 -9.9224 2.7395 0.6632 -13.2710 0.0584 -0.0802 -0.1250 0.8653 -10.8552 -4.0693 -0.7317 -10.8235 3.7663 6.6134 8.7784 -5.7548 -29.5927 -18.2106 -35.2090 -0.2805 0.4911 -132.6724 4.0683 -1.6619 -8.1961 -16.1954 11.0734 16.0417 -61.0365 1.7428 2.4912 18.5617 13.4527 10.0476 46.7545 -14.3652 -19.4685 -0.4078 -0.0368 92.2538 -35.4568 -32.2660 6.9902 14.7992 7.5514 -16.0107 49.6312 -3.1476 -5.1650 26.9279 -26.7583 19.2754 -0.6801 59.3271 -1.3820 -31.3891 -25.0236 13.5708 1.6293 -0.7839 -1.8348 -9.9560 -49.8588 -27.3551 1.0483 49.8580 1.6883 11.8562 4.5570 -7.6318 -1.4922 -0.2246 0.9841
-12.5072 84.4403 12.1335 -2.9235 0.9441 -4.6908 -0.9632 8.7999 0.0595 -0.9756 -1.7365 -0.8811 -0.8677 11.7388 -2.0053 18.4186 16.2856 -2.8217 -3.5168 -4.0925 -9.9787 2.7458 -0.0381 -13.3198 0.0703 -0.1161 -0.1406 0.8675 -10.8848 -4.0757 -0.7113 -10.8767 3.7412 6.2053 9.0404 -5.8667 -31.7354 -18.2172 -35.2951 -0.4419 0.0148 -132.9109 3.7653 -0.0137 -7.8584 -16.0215 10.8534 15.8770 -60.8750 1.7813 2.5016 19.3330 13.5796 9.7031 51.0345 -10.5774 -19.3971 -0.6038 -0.1519 94.3007 -36.6683 -30.8524 7.1322 14.7480 7.6429 -15.8417 49.6934 -3.0891 -4.9264 24.9116 -27.0738 20.4042 -0.6131 59.5706 -1.2189 -30.1486 -25.8587 13.2846 1.6325 -0.7254 -1.8713 -11.3558 -48.7935 -25.2806 0.7466 47.2778 1.2779 10.6439 3.9632 -8.1409 -1.4630 0.1237 1.0489
-11.2850 84.6853 11.3214 -2.3381 0.8808 -4.8941 -1.0417 8.6939 0.0415 -1.0082 -1.7838 -0.8269 -1.1772 12.0190 -2.1690 18.3233 16.3177 -2.7129 -3.5646 -4.0568 -10.0456 2.8790 -0.7673 -13.5307 0.0652 -0.1251 -0.1219 0.8503 -10.8508 -4.0457 -0.7045 -10.8365 3.7492 5.4007 9.3540 -5.9613 -33.8003 -18.0153 -35.2919 -0.5681 -0.0926 -132.8882 3.7763 1.0129 -7.7608 -15.9415 10.8627 15.9132 -60.8521 1.8229 2.5140 19.9015 13.7273 9.6790 53.8347 -8.6268 -19.2580 -0.4883 -0.2938 95.9790 -37.8166 -29.1403 7.4199 14.7941 7.6350 -15.7861 49.6481 -3.0948 -4.8926 23.2042 -27.2364 21.5291 -0.5350 59.8122 -1.0797 -29.1354 -26.4393 13.0466 1.6278 -0.7247 -1.8724 -12.8810 -48.4108 -23.4301 0.6415 44.5851 1.2131 10.4313 5.6535 -8.6576 -1.4523 0.3283 1.0392
-10.2864 84.8867 10.6598 -1.9644 0.5440 -5.2241 -1.0466 8.6740 0.0206 -1.0027 -1.7882 -0.7733 -1.3081 12.3043 -2.2178 18.1785 16.2743 -2.6729 -3.5533 -4.0296 -10.1195 2.9427 -1.3163 -13.6315 0.0520 -0.1379 -0.1005 0.8308 -10.8481 -4.0135 -0.7113 -10.8311 3.7625 4.7661 9.6674 -6.0643 -36.0902 -17.5700 -35.1360 -0.6125 -0.1512 -132.6159 3.6089 2.2261 -7.7213 -15.8303 10.8727 15.9517 -60.7745 1.8160 2.4754 20.1312 13.8741 9.9287 55.4604 -8.1141 -18.9353 -0.5018 -0.2882 97.3324 -38.7382 -27.0843 7.4158 14.8739 7.5468 -15.7770 49.6407 -3.1205 -4.8982 22.0189 -27.0536 22.4108 -0.5212 60.0174 -1.0475 -28.4285 -26.7851 12.9847 1.6269 -0.7452 -1.8647 -13.9414 -47.8348 -22.3383 0.6154 42.4279 1.1893 10.5213 7.2520 -8.5775 -1.4439 0.3669 1.0100
-9.5355 85.0258 10.1403 -1.6364 0.1181 -5.5366 -1.0524 8.6628 0.0238 -0.9911 -1.7653 -0.7504 -1.4036 12.4865 -2.2097 18.0900 16.2293 -2.6833 -3.5235 -4.0117 -10.2100 2.9733 -1.8713 -13.6988 0.0482 -0.1386 -0.0983 0.8267 -10.8362 -4.0070 -0.7145 -10.8210 3.7596 4.2717 9.9629 -6.2847 -38.3393 -16.9655 -35.0106 -0.5598 -0.1723 -132.1708 3.3609 3.7050 -7.6758 -15.7937 10.8651 15.9742 -60.7722 1.7993 2.4463 20.0711 13.8999 10.2454 56.4379 -8.2010 -18.4886 -0.6350 -0.1891 98.6294 -39.2785 -24.5072 6.8689 14.9050 7.4576 -15.8316 49.6353 -3.1851 -4.9458 21.0816 -26.6807 23.0675 -0.5250 60.1488 -1.0383 -27.8215 -27.0329 13.0245 1.6336 -0.7752 -1.8734 -14.8009 -47.1757 -21.5609 0.5926 40.6070 1.1537 10.6293 8.5011 -8.4137 -1.4400 0.4061 0.9866
-8.9917 85.1207 9.7229 -1.3161 -0.2704 -5.8084 -1.0582 8.6249 0.0725 -0.9818 -1.7659 -0.7500 -1.5151 12.5997 -2.2232 18.1014 16.1533 -2.6952 -3.5209 -4.0080 -10.3161 3.0033 -2.4963 -13.7781 0.0496 -0.1291 -0.0991 0.8289 -10.8071 -4.0039 -0.7135 -10.7921 3.7517 3.8350 10.1929 -6.5794 -40.3555 -16.4082 -35.0188 -0.5317 -0.1840 -131.5937 3.2231 5.1776 -7.6481 -15.7895 10.8618 15.9891 -60.8364 1.7931 2.4173 19.8786 13.8666 10.6351 56.9067 -8.7199 -18.0121 -0.7695 -0.0952 99.9357 -39.5857 -21.5354 5.8175 14.8639 7.3891 -15.8833 49.6503 -3.2684 -4.9788 20.3322 -26.2880 23.4835 -0.5291 60.2578 -1.0151 -27.3090 -27.1800 13.1333 1.6407 -0.7887 -1.8983 -15.4539 -46.6588 -21.0358 0.5556 39.1691 1.1060 10.7140 9.4493 -8.2932 -1.4381 0.4647 0.9644
-8.6491 85.2209 9.3819 -1.0256 -0.5871 -5.9555 -1.0644 8.5289 0.0644 -1.0004 -1.7655 -0.6751 -1.6086 12.6681 -2.3206 18.1837 16.0193 -2.7271 -3.5138 -4.0034 -10.4773 3.0873 -3.1170 -13.8679 0.0472 -0.1140 -0.0905 0.8297 -10.7613 -3.9924 -0.7192 -10.7441 3.7575 3.4498 10.3338 -6.9191 -42.0632 -16.0061 -35.2358 -0.5597 -0.1759 -130.9355 3.2374 6.5497 -7.7157 -15.8386 10.8604 16.0333 -60.8838 1.8063 2.4191 19.7089 13.7735 11.0264 56.9941 -9.5795 -17.6071 -0.8132 0.0131 101.1366 -39.7954 -18.5497 4.4956 14.7825 7.3504 -15.9063 49.6259 -3.3105 -4.9753 19.7648 -25.9548 23.6636 -0.4785 60.2679 -0.9324 -26.8729 -27.1551 13.1894 1.6477 -0.7886 -1.9189 -15.8606 -46.3051 -20.8453 0.5455 38.1231 1.0919 10.7009 10.1963 -8.2699 -1.4375 0.5223 0.9428
-8.4871 85.2860 9.1082 -0.7931 -0.8489 -5.9998 -1.0752 8.4591 0.0970 -1.0189 -1.7951 -0.6665 -1.7004 12.7300 -2.4226 18.3887 15.8785 -2.8318 -3.5490 -4.0014 -10.5169 3.2043 -3.6400 -14.0144 0.0364 -0.1016 -0.0619 0.8225 -10.7223 -3.9591 -0.7328 -10.7016 3.7825 3.1495 10.4250 -7.3021 -43.5161 -15.8239 -35.4522 -0.5794 -0.1894 -130.3224 3.3243 7.6470 -7.8293 -15.8575 10.8393 15.9857 -60.9088 1.8245 2.3859 19.6878 13.6401 11.4012 56.7275 -10.6797 -17.2915 -0.7967 0.0085 102.1698 -40.0239 -15.6680 3.2206 14.7044 7.3259 -15.9377 49.6216 -3.3417 -4.9549 19.4297 -25.7313 23.6503 -0.4588 60.2791 -0.8980 -26.5756 -27.0368 13.2145 1.6504 -0.8014 -1.9397 -16.0799 -46.1330 -20.8480 0.5353 37.5304 1.0761 10.7235 10.7255 -8.2303 -1.4380 0.6363 0.9289
-8.5321 85.3260 8.8604 -0.6541 -1.0586 -5.9451 -1.0836 8.4054 0.0866 -1.0424 -1.8041 -0.6285 -1.7533 12.7799 -2.5377 18.6578 15.7480 -2.9582 -3.5814 -4.0014 -10.5244 3.3492 -4.0696 -14.1294 0.0289 -0.0955 -0.0418 0.8143 -10.6987 -3.9350 -0.7400 -10.6748 3.8013 2.9552 10.5110 -7.6963 -44.7084 -15.8193 -35.6502 -0.5964 -0.1908 -129.7762 3.4334 8.4301 -7.9797 -15.8261 10.8107 15.9359 -60.8675 1.8205 2.3574 19.7749 13.4695 11.7278 56.3007 -11.8852 -17.0809 -0.7973 -0.0162 103.0253 -40.1862 -12.9979 1.9832 14.6630 7.3093 -15.9968 49.6717 -3.3642 -4.9593 19.3424 -25.6120 23.4571 -0.4166 60.2171 -0.8427 -26.4097 -26.8244 13.1879 1.6519 -0.8200 -1.9522 -16.0876 -46.0436 -21.0292 0.5308 37.2751 1.0517 10.7040 11.0307 -8.1928 -1.4365 0.7402 0.9179
-8.7298 85.3817 8.6290 -0.6062 -1.2245 -5.8283 -1.0846 8.3788 0.1105 -1.0653 -1.8188 -0.6386 -1.7574 12.8367 -2.6460 18.9430 15.6058 -3.0880 -3.6088 -4.0038 -10.5036 3.5113 -4.4131 -14.2383 0.0235 -0.0938 -0.0259 0.8079 -10.6837 -3.9164 -0.7430 -10.6583 3.8137 2.8293 10.6151 -8.0896 -45.5769 -15.8791 -35.8133 -0.5666 -0.1418 -129.3538 3.4982 8.8838 -8.0328 -15.8324 10.7902 15.8571 -60.8662 1.8196 2.3254 19.9454 13.2538 11.9871 55.8118 -13.0691 -16.9939 -0.7891 -0.0419 103.6744 -40.3361 -10.8583 0.9998 14.6435 7.2838 -16.0374 49.7118 -3.3944 -4.9644 19.4760 -25.5501 23.1596 -0.4089 60.0449 -0.8379 -26.3269 -26.5326 13.1271 1.6509 -0.8240 -1.9457 -15.9106 -45.9728 -21.2957 0.5234 37.2804 1.0234 10.6195 11.1788 -8.2004 -1.4374 0.8326 0.9206
-9.0705 85.4521 8.4329 -0.6129 -1.3461 -5.6136 -1.0808 8.3543 0.1240 -1.0960 -1.8256 -0.6566 -1.7214 12.8828 -2.7499 19.2564 15.4845 -3.2012 -3.6013 -4.0007 -10.5242 3.6541 -4.6966 -14.3221 0.0239 -0.0906 -0.0264 0.8072 -10.6824 -3.9157 -0.7418 -10.6619 3.8134 2.7723 10.7297 -8.4899 -46.1927 -15.9434 -35.9534 -0.4893 -0.1072 -129.0367 3.4967 9.0633 -8.0460 -15.8192 10.7901 15.8229 -60.8574 1.8207 2.2842 20.1922 13.0490 12.2064 55.3992 -14.2638 -17.1084 -0.7412 -0.0468 104.1546 -40.4911 -9.1777 0.2225 14.6645 7.2763 -16.0801 49.7693 -3.4221 -4.9731 19.7516 -25.5080 22.7394 -0.3919 59.7325 -0.8171 -26.2880 -26.1842 13.0425 1.6522 -0.8157 -1.9474 -15.5925 -45.9071 -21.6860 0.5387 37.4732 1.0144 10.4941 11.0980 -8.2325 -1.4362 0.9316 0.9090
-9.4994 85.5405 8.2924 -0.6567 -1.4547 -5.3144 -1.0823 8.3331 0.1147 -1.1330 -1.8209 -0.6864 -1.6536 12.9095 -2.8474 19.6081 15.3776 -3.2838 -3.5587 -3.9965 -10.5725 3.7551 -4.9064 -14.3874 0.0276 -0.0865 -0.0366 0.8086 -10.6858 -3.9257 -0.7349 -10.6647 3.8016 2.7570 10.7895 -8.8764 -46.6932 -15.9153 -36.0565 -0.4145 -0.0558 -128.8344 3.4800 9.1083 -8.0226 -15.8453 10.7705 15.7705 -60.8760 1.8262 2.2550 20.5300 12.8729 12.4141 55.0767 -15.4375 -17.3884 -0.6891 -0.0647 104.4598 -40.6719 -7.7941 -0.3642 14.6883 7.2799 -16.0974 49.8175 -3.4303 -4.9690 20.1577 -25.4426 22.2726 -0.4004 59.2572 -0.8333 -26.2981 -25.7293 12.9633 1.6550 -0.8478 -1.9495 -15.2021 -45.8149 -22.1277 0.5564 37.8446 1.0096 10.3207 10.8072 -8.3229 -1.4366 1.0374 0.9061
-9.9943 85.6556 8.1699 -0.7308 -1.5836 -5.0259 -1.0850 8.3224 0.1198 -1.1583 -1.8358 -0.7663 -1.5631 12.9557 -2.8840 19.9358 15.3437 -3.3940 -3.5403 -3.9963 -10.5384 3.8287 -5.0615 -14.4037 0.0288 -0.0822 -0.0405 0.8103 -10.6994 -3.9303 -0.7333 -10.6783 3.7980 2.7498 10.8803 -9.2426 -47.0401 -15.8189 -36.1291 -0.3033 -0.0321 -128.7136 3.4510 9.1061 -8.0008 -15.8142 10.7512 15.7345 -60.8135 1.8043 2.2615 20.9039 12.7107 12.6228 54.8885 -16.5348 -17.7776 -0.6560 -0.0985 104.7160 -40.8910 -6.7224 -0.7013 14.6611 7.2896 -16.0945 49.9069 -3.4364 -4.9576 20.6590 -25.2938 21.8412 -0.4354 58.6462 -0.8920 -26.3158 -25.2431 12.8606 1.6554 -0.8709 -1.9477 -14.7375 -45.6818 -22.6038 0.5651 38.3430 0.9965 10.1727 10.3507 -8.3976 -1.4363 1.0890 0.9133
-10.5629 85.8063 8.1544 -0.8038 -1.6935 -4.7278 -1.0957 8.2792 0.0982 -1.1768 -1.8271 -0.8031 -1.4471 12.9626 -2.9363 20.2411 15.3123 -3.4904 -3.5201 -4.0012 -10.5011 3.8694 -5.2087 -14.3568 0.0323 -0.0781 -0.0506 0.8149 -10.7079 -3.9430 -0.7302 -10.6834 3.7897 2.7743 10.9227 -9.5780 -47.3738 -15.6909 -36.0472 -0.2551 0.0116 -128.6739 3.4374 8.8579 -7.9874 -15.7734 10.7475 15.7373 -60.7576 1.7945 2.2937 21.2506 12.4995 12.7678 54.8578 -17.4999 -18.2282 -0.6503 -0.0994 104.9712 -41.0284 -5.8980 -0.9295 14.6784 7.3042 -16.1016 49.9636 -3.4366 -4.9766 21.1854 -25.0563 21.4354 -0.4865 57.8562 -0.9760 -26.3481 -24.6775 12.7655 1.6580 -0.8942 -1.9413 -14.2513 -45.4985 -23.1271 0.5689 38.8444 0.9830 10.0394 9.7992 -8.4862 -1.4372 1.1242 0.9223
-11.1735 85.9607 8.2089 -0.8535 -1.7758 -4.4305 -1.1007 8.2244 0.0899 -1.1896 -1.8350 -0.8601 -1.3190 12.9424 -2.9807 20.5064 15.2724 -3.5901 -3.5103 -3.9951 -10.4120 3.8792 -5.3037 -14.3157 0.0347 -0.0735 -0.0559 0.8192 -10.7197 -3.9509 -0.7290 -10.6951 3.7866 2.7673 10.9837 -9.8513 -47.5899 -15.5084 -35.8993 -0.2453 0.0056 -128.6542 3.4407 8.4799 -8.0081 -15.7425 10.7338 15.7151 -60.7093 1.7603 2.3109 21.5526 12.2428 12.8854 54.9273 -18.2685 -18.6724 -0.6971 -0.1460 105.2751 -41.1074 -5.2760 -1.0403 14.6491 7.3461 -16.1335 50.0054 -3.4415 -4.9829 21.6743 -24.7459 21.0826 -0.5365 56.9373 -1.0628 -26.3817 -24.1006 12.6280 1.6588 -0.9234 -1.9330 -13.7595 -45.3251 -23.6160 0.5662 39.3910 0.9659 9.9092 9.1539 -8.5807 -1.4392 1.1095 0.9335
-11.8713 86.1421 8.3095 -0.8636 -1.8266 -4.1455 -1.1001 8.1483 0.0414 -1.2062 -1.8110 -0.8734 -1.1840 12.8423 -3.0409 20.7278 15.2036 -3.6704 -3.4916 -3.9941 -10.3308 3.8736 -5.3404 -14.2659 0.0363 -0.0685 -0.0612 0.8204 -10.7289 -3.9619 -0.7265 -10.7022 3.7864 2.7249 10.9930 -10.1011 -47.7323 -15.1941 -35.7496 -0.1985 0.0286 -128.6210 3.3974 8.0624 -8.0078 -15.7586 10.7573 15.7607 -60.7118 1.7262 2.3566 21.8305 11.9706 12.9700 55.1572 -18.9608 -19.1775 -0.6722 -0.1607 105.6571 -41.1525 -4.8139 -1.0384 14.6827 7.3779 -16.1635 50.0082 -3.4180 -5.0121 22.1404 -24.3462 20.7905 -0.5739 55.8387 -1.1273 -26.5041 -23.4402 12.5063 1.6602 -0.9051 -1.9252 -13.3037 -45.1481 -24.0987 0.5831 39.9341 0.9728 9.8001 8.4272 -8.6907 -1.4419 1.0553 0.9446
-12.6252 86.3039 8.4735 -0.8282 -1.8363 -3.9041 -1.0817 8.0849 0.0299 -1.2189 -1.8108 -0.9078 -1.0407 12.7180 -3.0799 20.8839 15.0593 -3.7188 -3.4972 -3.9840 -10.2605 3.8850 -5.3685 -14.2853 0.0349 -0.0622 -0.0597 0.8207 -10.7365 -3.9638 -0.7280 -10.7065 3.7902 2.6780 10.9660 -10.3611 -47.8238 -14.8465 -35.4977 -0.1634 0.0622 -128.6200 3.3435 7.5641 -7.9608 -15.7586 10.7762 15.7920 -60.7015 1.6913 2.3711 22.0291 11.7128 13.0592 55.4569 -19.5874 -19.7165 -0.6349 -0.2064 106.0627 -41.2007 -4.5392 -0.8874 14.6927 7.3940 -16.1753 50.0135 -3.4114 -5.0201 22.5643 -23.9392 20.5742 -0.6045 54.7426 -1.1861 -26.6823 -22.7935 12.3739 1.6587 -0.8847 -1.9229 -12.9252 -45.0563 -24.4362 0.5962 40.5830 0.9692 9.7005 7.5987 -8.8218 -1.4456 0.9653 0.9613
-13.4637 86.4430 8.6875 -0.7445 -1.8111 -3.6726 -1.0348 8.0127 0.0070 -1.2203 -1.8232 -0.9408 -0.9030 12.5785 -3.1176 20.9341 14.8580 -3.7207 -3.5060 -3.9750 -10.2186 3.8823 -5.3722 -14.3152 0.0350 -0.0586 -0.0620 0.8215 -10.7387 -3.9670 -0.7285 -10.7122 3.7907 2.5667 10.9151 -10.5916 -47.8271 -14.4703 -35.1686 -0.1660 0.1033 -128.6036 3.3391 6.9124 -7.9040 -15.7518 10.8065 15.8505 -60.7224 1.6901 2.3617 22.1589 11.4674 13.1387 55.7642 -20.1819 -20.2134 -0.5882 -0.2575 106.4334 -41.2014 -4.4191 -0.6705 14.7283 7.4083 -16.1987 50.0267 -3.4008 -5.0320 22.9234 -23.5387 20.4217 -0.6151 53.6540 -1.2206 -26.8239 -22.1583 12.1813 1.6587 -0.9173 -1.9202 -12.6109 -45.0461 -24.6927 0.6146 41.3461 0.9770 9.6048 6.6968 -8.9534 -1.4471 0.8445 0.9676
-14.3749 86.5225 8.9805 -0.6193 -1.7592 -3.4676 -0.9602 7.9478 -0.0304 -1.2134 -1.8154 -0.9552 -0.7666 12.4132 -3.1664 20.9005 14.6111 -3.7207 -3.5106 -3.9786 -10.1887 3.8855 -5.3981 -14.3182 0.0347 -0.0579 -0.0596 0.8167 -10.7371 -3.9651 -0.7227 -10.7114 3.7921 2.4404 10.8467 -10.8122 -47.7715 -14.1052 -34.8268 -0.1792 0.1728 -128.5672 3.4179 6.1913 -7.8556 -15.7685 10.8431 15.9250 -60.8085 1.6885 2.3383 22.1995 11.2292 13.2253 56.0828 -20.8195 -20.7061 -0.5460 -0.2457 106.7181 -41.1513 -4.4602 -0.5164 14.7770 7.4157 -16.2329 50.0293 -3.3936 -5.0573 23.2861 -23.1959 20.3610 -0.6435 52.6662 -1.2848 -26.9821 -21.5883 11.9413 1.6588 -0.9900 -1.9191 -12.3513 -45.1656 -24.9081 0.6454 42.2766 1.0062 9.5104 5.7181 -9.1008 -1.4484 0.7078 0.9783
-15.3075 86.4706 9.3114 -0.4388 -1.6921 -3.3146 -0.8583 7.9245 -0.0578 -1.1863 -1.8078 -0.9813 -0.6319 12.2348 -3.2045 20.7437 14.3123 -3.7049 -3.5151 -3.9780 -10.1384 3.8932 -5.4123 -14.3246 0.0274 -0.0590 -0.0390 0.8065 -10.7317 -3.9422 -0.7264 -10.7050 3.8131 2.3197 10.7507 -11.0148 -47.6834 -13.7774 -34.4748 -0.2143 0.2097 -128.5502 3.5705 5.4871 -7.8415 -15.7584 10.8483 15.9780 -60.8508 1.6913 2.3159 22.1034 10.9743 13.3346 56.3591 -21.4812 -21.2200 -0.5476 -0.2389 106.9186 -41.0420 -4.6018 -0.3779 14.8397 7.4098 -16.2841 50.0118 -3.3971 -5.1037 23.6469 -22.9658 20.4056 -0.6772 51.9452 -1.3444 -27.1303 -21.1675 11.5968 1.6577 -1.0881 -1.9222 -12.1950 -45.5355 -25.0360 0.6602 43.5483 1.0090 9.4278 4.6194 -9.2059 -1.4489 0.5596 0.9890
-16.2555 86.2357 9.6770 -0.2111 -1.6236 -3.1349 -0.7112 7.9639 -0.0869 -1.1408 -1.7761 -1.0285 -0.4941 12.0456 -3.2577 20.4479 13.9032 -3.6430 -3.5080 -3.9885 -10.1458 3.8607 -5.4616 -14.3194 0.0225 -0.0621 -0.0246 0.7993 -10.7335 -3.9281 -0.7293 -10.7069 3.8299 2.2222 10.6363 -11.2218 -47.5846 -13.6032 -34.1069 -0.2972 0.1860 -128.6109 3.7338 4.8735 -7.8864 -15.7475 10.8671 16.0264 -60.8685 1.6859 2.2950 21.8329 10.7402 13.4496 56.5671 -22.2591 -21.7768 -0.6259 -0.2034 107.1309 -40.8602 -4.8432 -0.4271 14.9310 7.3960 -16.3634 49.9872 -3.4237 -5.1935 24.0597 -22.9766 20.4593 -0.7021 51.7014 -1.3780 -27.3352 -20.9251 11.0195 1.6580 -1.1929 -1.9271 -12.1841 -46.2222 -25.0797 0.6736 45.3540 1.0000 9.3840 3.3146 -9.2363 -1.4481 0.4380 1.0016
-17.1672 85.7720 10.0725 0.1080 -1.5200 -2.8967 -0.5255 8.0561 -0.1170 -1.0777 -1.7323 -1.1104 -0.3915 11.8553 -3.3452 20.0674 13.2930 -3.5138 -3.5364 -4.0021 -10.2421 3.7926 -5.5612 -14.3875 0.0177 -0.0671 -0.0128 0.7966 -10.7177 -3.9145 -0.7364 -10.6906 3.8424 2.0377 10.4793 -11.4544 -47.3490 -13.4584 -33.9457 -0.3479 0.1682 -128.7947 3.9109 4.2846 -7.9356 -15.7753 10.8698 16.0462 -60.8658 1.6999 2.3007 21.4742 10.5141 13.5860 56.5162 -23.2215 -22.3153 -0.7892 -0.1412 107.3126 -40.6925 -5.0447 -0.7657 15.0118 7.4003 -16.4237 49.9949 -3.4623 -5.2545 24.5280 -23.2977 20.5234 -0.7620 51.9903 -1.4301 -27.6561 -20.8624 10.2011 1.6567 -1.2588 -1.9311 -12.4042 -47.3163 -24.9639 0.6947 47.7905 0.9963 9.3338 1.7725 -9.2763 -1.4469 0.4019 1.0187
-18.0753 85.0717 10.4408 0.4960 -1.4169 -2.6480 -0.3008 8.2054 -0.1353 -1.0014 -1.6652 -1.2082 -0.3275 11.7708 -3.4808 19.6846 12.4790 -3.3153 -3.6089 -4.0210 -10.4488 3.6456 -5.7800 -14.4979 0.0125 -0.0689 -0.0029 0.7967 -10.6966 -3.9013 -0.7462 -10.6701 3.8488 1.7030 10.2805 -11.6693 -46.9680 -13.4290 -34.0347 -0.3371 0.1042 -129.0180 4.0613 3.7460 -8.0252 -15.7664 10.8918 16.0463 -60.8378 1.7210 2.3256 21.0540 10.2846 13.7924 56.1948 -24.5548 -22.8685 -0.9428 -0.0781 107.3539 -40.4744 -5.0941 -1.4442 15.0348 7.4448 -16.4737 50.0248 -3.4611 -5.3051 25.0820 -23.9153 20.5479 -0.8596 52.8754 -1.5169 -28.1596 -21.0052 9.2160 1.6558 -1.2369 -1.9471 -12.8067 -48.7764 -24.6957 0.7389 50.8004 1.0172 9.2326 0.0707 -9.3221 -1.4467 0.4968 1.0321
-18.9571 84.2174 10.7543 0.9236 -1.3032 -2.3906 -0.0654 8.4042 -0.1521 -0.9237 -1.5894 -1.3149 -0.2693 11.8393 -3.6242 19.3878 11.5749 -3.1525 -3.6985 -4.0361 -10.6994 3.4266 -6.0739 -14.6220 0.0047 -0.0728 0.0074 0.7981 -10.6707 -3.8848 -0.7655 -10.6452 3.8583 1.2107 10.0777 -11.8942 -46.4910 -13.5609 -34.3712 -0.2706 0.0369 -129.2361 4.1577 3.5773 -8.0880 -15.7304 10.9057 16.0321 -60.7301 1.7344 2.3815 20.6884 10.0296 14.0906 55.6962 -26.2780 -23.5418 -1.0480 -0.0745 107.2114 -40.2526 -4.9294 -2.4014 15.0507 7.5021 -16.5035 50.1329 -3.4404 -5.3018 25.6649 -24.7601 20.5265 -0.9665 54.1515 -1.6205 -28.7034 -21.2821 8.2208 1.6572 -1.1810 -1.9674 -13.3206 -50.4854 -24.3318 0.7924 54.1126 1.0471 9.0892 -1.6522 -9.4104 -1.4437 0.7171 1.0249
-19.7978 83.3149 11.0022 1.3297 -1.1842 -2.1337 0.1859 8.6408 -0.1461 -0.8453 -1.4829 -1.4052 -0.1979 12.0567 -3.8035 19.2163 10.6339 -3.0465 -3.8231 -4.0409 -10.9111 3.1859 -6.4089 -14.7939 -0.0028 -0.0728 0.0193 0.7901 -10.6313 -3.8631 -0.7723 -10.6078 3.8612 0.5779 9.8828 -12.1063 -46.0751 -13.9025 -34.7746 -0.2796 0.0279 -129.3379 4.2404 3.7418 -8.1958 -15.6795 10.9190 16.0277 -60.6152 1.7271 2.4005 20.4197 9.7687 14.4762 55.1754 -28.3955 -24.3374 -0.9984 -0.0733 106.7598 -40.0883 -4.7588 -3.4165 15.0133 7.5283 -16.5037 50.2227 -3.3984 -5.2930 26.2951 -25.6967 20.4694 -1.0956 55.5311 -1.7708 -29.1725 -21.5724 7.2539 1.6583 -1.1311 -1.9892 -13.8505 -52.1827 -23.8939 0.8406 57.3603 1.0776 8.9245 -3.2941 -9.5734 -1.4402 0.9944 1.0147
-20.6196 82.4559 11.2536 1.6730 -1.0489 -1.8853 0.4360 8.8906 -0.1377 -0.7706 -1.3391 -1.4829 -0.0693 12.3755 -3.9904 19.2119 9.7913 -3.0496 -3.9234 -4.0463 -11.0263 2.9328 -6.7312 -14.9667 -0.0057 -0.0708 0.0228 0.7825 -10.6081 -3.8542 -0.7702 -10.5809 3.8586 -0.0843 9.7580 -12.3434 -45.7436 -14.4218 -35.2030 -0.2885 0.0443 -129.2666 4.2827 4.3671 -8.4244 -15.6526 10.8987 16.0007 -60.5346 1.6992 2.4015 20.2611 9.4741 14.8977 54.6425 -30.5712 -25.0442 -0.9346 -0.1111 105.9602 -39.9641 -4.5737 -4.3108 14.9522 7.5050 -16.4689 50.2531 -3.3849 -5.2801 26.9725 -26.6404 20.3663 -1.2365 56.7960 -1.9299 -29.5377 -21.8063 6.3278 1.6572 -1.1407 -1.9999 -14.2682 -53.7266 -23.5623 0.8961 60.2808 1.1193 8.7815 -4.7598 -9.7874 -1.4354 1.2756 1.0017
-21.4093 81.6731 11.4737 1.9594 -0.8938 -1.5974 0.6696 9.1539 -0.1071 -0.7009 -1.1991 -1.5912 0.1193 12.7444 -4.1320 19.3753 9.1157 -3.1399 -3.9694 -4.0508 -11.0625 2.6402 -7.0639 -15.0974 -0.0027 -0.0659 0.0159 0.7797 -10.5949 -3.8573 -0.7615 -10.5677 3.8471 -0.6465 9.7076 -12.5781 -45.5555 -15.0576 -35.6482 -0.3288 0.0744 -129.0303 4.3098 5.2812 -8.6972 -15.6477 10.8620 15.9735 -60.5571 1.6779 2.3875 20.0854 9.2140 15.2939 54.1993 -32.4368 -25.5627 -0.9425 -0.1168 104.8778 -39.8956 -4.4832 -5.0674 14.8878 7.5072 -16.4167 50.2716 -3.3845 -5.2716 27.6016 -27.5302 20.2028 -1.3636 57.8787 -2.0699 -29.8516 -21.9984 5.5173 1.6561 -1.1560 -1.9952 -14.5741 -55.0827 -23.3678 0.9274 62.8167 1.1338 8.6760 -6.0643 -9.9880 -1.4318 1.4947 1.0058
-22.1109 81.0321 11.7244 2.2093 -0.7228 -1.3412 0.8711 9.3976 -0.0953 -0.6397 -1.0608 -1.6790 0.3414 13.1313 -4.2114 19.6358 8.6476 -3.2880 -3.9799 -4.0510 -11.0513 2.3933 -7.4034 -15.1736 -0.0012 -0.0602 0.0124 0.7763 -10.6009 -3.8604 -0.7545 -10.5750 3.8414 -1.1054 9.7615 -12.7647 -45.4302 -15.8604 -36.0530 -0.3812 0.0920 -128.6400 4.2498 6.4344 -9.0085 -15.6889 10.8305 15.9381 -60.6497 1.6620 2.3670 19.8835 9.0175 15.6420 53.8293 -33.8763 -25.8926 -0.9878 -0.1452 103.6462 -39.8017 -4.5919 -5.6563 14.8203 7.4903 -16.3647 50.2798 -3.4108 -5.2786 28.1138 -28.2931 20.0681 -1.4743 58.6849 -2.1980 -30.1192 -22.0964 4.7745 1.6533 -1.1826 -1.9824 -14.7554 -56.2161 -23.2793 0.9460 64.8779 1.1375 8.5403 -7.1211 -10.1427 -1.4271 1.6364 1.0022
-22.6625 80.5753 11.8957 2.4512 -0.5346 -1.0657 1.0480 9.6089 -0.0817 -0.5914 -0.9445 -1.7604 0.5487 13.4895 -4.2512 20.0191 8.3102 -3.4645 -4.0021 -4.0631 -11.0420 2.1889 -7.7051 -15.2487 -0.0017 -0.0587 0.0120 0.7696 -10.6027 -3.8614 -0.7486 -10.5797 3.8431 -1.4580 9.8515 -12.9024 -45.3657 -16.6875 -36.3948 -0.4745 0.1104 -128.1936 4.0713 7.7311 -9.2962 -15.7891 10.7710 15.9310 -60.7311 1.6588 2.3764 19.6753 8.8991 15.9518 53.6692 -34.9046 -26.2148 -0.9295 -0.1252 102.3821 -39.6599 -4.9850 -6.1623 14.7832 7.4746 -16.3393 50.2731 -3.4267 -5.3167 28.4785 -28.9068 20.0300 -1.5584 59.1132 -2.2994 -30.4161 -22.0035 4.1992 1.6479 -1.1981 -1.9648 -14.8973 -57.0851 -23.2280 0.9087 66.4024 1.0866 8.4245 -7.9346 -10.3320 -1.4255 1.7431 1.0073
-23.1143 80.3331 12.0470 2.6801 -0.3321 -0.8233 1.1923 9.7715 -0.0990 -0.5509 -0.8535 -1.7989 0.7202 13.8067 -4.2632 20.3894 8.1203 -3.6226 -4.0211 -4.0790 -11.0022 2.0876 -7.9449 -15.3228 -0.0044 -0.0637 0.0143 0.7605 -10.6129 -3.8575 -0.7455 -10.5929 3.8467 -1.6831 9.9760 -12.9438 -45.3412 -17.4932 -36.6608 -0.5591 0.1251 -127.8380 3.8909 8.8720 -9.5365 -15.8941 10.7092 15.9356 -60.8023 1.6350 2.3745 19.3976 8.8692 16.1905 53.7339 -35.4819 -26.4823 -0.8181 -0.1243 101.3033 -39.4569 -5.6171 -6.5024 14.7540 7.4558 -16.3334 50.2927 -3.4518 -5.3349 28.5893 -29.3360 20.0715 -1.6010 59.2314 -2.3602 -30.5686 -21.8074 3.7507 1.6450 -1.2296 -1.9455 -14.9932 -57.6884 -23.1839 0.8844 67.3845 1.0621 8.3277 -8.4678 -10.5771 -1.4234 1.8202 1.0107
-23.4266 80.2720 12.1384 2.8951 -0.1081 -0.6533 1.3155 9.8932 -0.1108 -0.5135 -0.7907 -1.8269 0.8477 14.0613 -4.2435 20.7484 8.0596 -3.7468 -4.0636 -4.1058 -10.9453 2.0571 -8.1412 -15.4319 -0.0074 -0.0697 0.0203 0.7504 -10.6286 -3.8532 -0.7421 -10.6141 3.8576 -1.7995 10.0850 -12.8858 -45.3220 -18.1694 -36.8516 -0.5942 0.1595 -127.6756 3.7763 9.6655 -9.7093 -16.0130 10.6455 15.9297 -60.8683 1.6035 2.3794 19.1057 8.8785 16.3853 53.9292 -35.6276 -26.6582 -0.7330 -0.0933 100.4642 -39.1919 -6.3926 -6.6571 14.7499 7.4422 -16.3288 50.2901 -3.4794 -5.3457 28.5040 -29.5907 20.2022 -1.6072 59.0497 -2.3770 -30.6495 -21.5233 3.4446 1.6422 -1.2730 -1.9287 -15.0360 -58.0799 -23.1017 0.8501 67.9007 1.0330 8.2740 -8.7667 -10.8711 -1.4219 1.8731 1.0221
-23.6293 80.3814 12.2003 3.0909 0.1278 -0.5772 1.4080 9.9852 -0.1100 -0.4792 -0.7388 -1.8348 0.9496 14.2314 -4.1803 21.0247 8.1182 -3.8480 -4.0829 -4.1324 -10.9183 2.1011 -8.3126 -15.5662 -0.0100 -0.0745 0.0263 0.7431 -10.6350 -3.8448 -0.7391 -10.6246 3.8616 -1.7919 10.1865 -12.7601 -45.3642 -18.6572 -36.9648 -0.5170 0.1794 -127.7153 3.7350 10.1571 -9.8358 -16.1121 10.5906 15.9188 -60.8872 1.5842 2.3833 18.7533 8.9282 16.5115 54.3025 -35.3833 -26.8113 -0.6728 -0.0679 99.9388 -38.9745 -7.3734 -6.5507 14.7771 7.4412 -16.3412 50.2985 -3.4968 -5.3467 28.2280 -29.6594 20.4083 -1.5742 58.6117 -2.3357 -30.6444 -21.2105 3.2540 1.6420 -1.2922 -1.9200 -15.0126 -58.2540 -22.9834 0.7951 67.9614 0.9817 8.2278 -8.8539 -11.1656 -1.4222 1.8999 1.0431
-23.7148 80.6298 12.2213 3.2493 0.3703 -0.5521 1.4804 10.0703 -0.1111 -0.4510 -0.7102 -1.8176 1.0287 14.2920 -4.0890 21.2440 8.2794 -3.9134 -4.1008 -4.1624 -10.9475 2.1808 -8.4261 -15.6852 -0.0093 -0.0786 0.0238 0.7418 -10.6304 -3.8467 -0.7359 -10.6222 3.8592 -1.7025 10.2760 -12.5703 -45.4901 -19.0055 -36.9059 -0.4112 0.1905 -127.9242 3.7533 10.4624 -9.9626 -16.1895 10.5612 15.9478 -60.8810 1.5814 2.4341 18.3719 8.9840 16.5797 54.8735 -34.8750 -27.0895 -0.5606 -0.0535 99.6432 -38.8060 -8.4871 -6.3026 14.8059 7.4412 -16.3236 50.2831 -3.4965 -5.3344 27.8531 -29.5802 20.6516 -1.5186 57.9660 -2.2669 -30.6334 -20.8730 3.1553 1.6446 -1.2986 -1.9190 -14.9560 -58.2514 -22.8479 0.7759 67.6355 0.9743 8.2105 -8.7384 -11.4691 -1.4240 1.9066 1.0569
-23.6954 80.9744 12.1988 3.3618 0.5982 -0.5845 1.5309 10.1272 -0.1038 -0.4390 -0.7090 -1.7692 1.0947 14.2776 -4.0031 21.3630 8.5728 -3.9402 -4.0785 -4.1787 -11.0300 2.2879 -8.5332 -15.7911 -0.0071 -0.0842 0.0194 0.7406 -10.6306 -3.8532 -0.7308 -10.6283 3.8579 -1.5680 10.3625 -12.3633 -45.6512 -19.0948 -36.7928 -0.2050 0.1911 -128.1847 3.8410 10.6671 -10.0893 -16.2217 10.5571 15.9746 -60.8521 1.5927 2.4970 18.0111 9.0686 16.5978 55.5779 -34.2337 -27.4894 -0.4148 -0.0668 99.5193 -38.6554 -9.6228 -5.9355 14.8727 7.4496 -16.3243 50.2870 -3.4883 -5.3405 27.3834 -29.3922 20.9189 -1.4473 57.2208 -2.1636 -30.5258 -20.5049 3.1312 1.6469 -1.3425 -1.9131 -14.8720 -58.0960 -22.6910 0.7099 67.0109 0.9138 8.1759 -8.4291 -11.7058 -1.4272 1.9079 1.0543
-23.5699 81.4045 12.1727 3.4155 0.7691 -0.6769 1.5547 10.1445 -0.1109 -0.4334 -0.7124 -1.6908 1.1271 14.2091 -3.9243 21.3918 8.9543 -3.9134 -4.0357 -4.1776 -11.1398 2.4341 -8.5966 -15.8916 -0.0011 -0.0877 0.0095 0.7457 -10.6356 -3.8668 -0.7233 -10.6372 3.8496 -1.3959 10.4202 -12.1363 -45.9313 -19.0124 -36.5318 -0.0474 0.1941 -128.4278 3.9537 10.6285 -10.2249 -16.2067 10.5705 16.0225 -60.7918 1.6213 2.5404 17.6683 9.1653 16.5131 56.2676 -33.3928 -27.7828 -0.3198 -0.0600 99.4598 -38.5583 -10.6847 -5.4584 14.9342 7.4704 -16.3138 50.2197 -3.4783 -5.3500 26.8932 -29.0486 21.2017 -1.3845 56.3330 -2.0902 -30.3609 -20.0774 3.1495 1.6482 -1.3801 -1.9114 -14.7521 -57.7367 -22.5578 0.6522 66.1181 0.8625 8.1209 -7.9460 -11.8932 -1.4319 1.8816 1.0542
-23.4033 81.8887 12.0815 3.4235 0.8704 -0.7937 1.5381 10.1111 -0.1096 -0.4356 -0.7397 -1.6332 1.1024 14.1317 -3.8432 21.3776 9.4234 -3.8501 -3.9855 -4.1633 -11.2768 2.6345 -8.5823 -15.9946 0.0010 -0.0897 0.0071 0.7464 -10.6422 -3.8708 -0.7197 -10.6470 3.8494 -1.2573 10.4925 -11.9284 -46.2430 -18.7919 -36.1945 0.0657 0.1672 -128.6294 4.0586 10.4473 -10.3748 -16.1741 10.5887 16.0423 -60.7776 1.6435 2.5490 17.4345 9.2853 16.3565 56.8972 -32.4833 -28.0384 -0.2142 -0.1016 99.4383 -38.5668 -11.6143 -4.8389 14.9814 7.4786 -16.2770 50.1328 -3.4468 -5.3534 26.4368 -28.6017 21.4572 -1.3271 55.4183 -2.0133 -30.2047 -19.6626 3.1974 1.6517 -1.3763 -1.9156 -14.6337 -57.2548 -22.4429 0.6296 65.0843 0.8454 8.0597 -7.3750 -12.0171 -1.4377 1.9028 1.0437
-23.1758 82.3876 12.0231 3.4110 0.8883 -0.9356 1.4819 10.0220 -0.1200 -0.4496 -0.7868 -1.5771 0.9928 14.0512 -3.7823 21.3412 9.9692 -3.7588 -3.9514 -4.1456 -11.4010 2.8400 -8.4348 -16.0979 0.0032 -0.0906 0.0026 0.7479 -10.6568 -3.8823 -0.7170 -10.6636 3.8517 -1.1873 10.5770 -11.7601 -46.5587 -18.4422 -35.8431 0.1316 0.1257 -128.7853 4.1166 10.1719 -10.4615 -16.0806 10.6178 16.0943 -60.6994 1.6673 2.5799 17.2799 9.4577 16.0961 57.4161 -31.5395 -28.1933 -0.1093 -0.1667 99.4776 -38.6229 -12.4257 -4.1309 15.0040 7.5083 -16.2708 50.0548 -3.4392 -5.3386 26.0006 -28.0674 21.7333 -1.2705 54.5014 -1.9496 -29.9873 -19.2208 3.2565 1.6550 -1.3743 -1.9216 -14.5620 -56.6646 -22.3190 0.6349 63.9720 0.8633 7.9920 -6.7138 -12.1053 -1.4455 1.9189 1.0415
-22.9265 82.8512 11.9178 3.3783 0.8428 -1.0835 1.4080 9.8847 -0.1052 -0.4690 -0.8640 -1.5600 0.7864 14.0143 -3.7289 21.2837 10.4897 -3.6177 -3.9337 -4.1324 -11.4889 3.0314 -8.1502 -16.1726 0.0085 -0.0893 -0.0084 0.7537 -10.6865 -3.8994 -0.7119 -10.6939 3.8455 -1.1870 10.6565 -11.5965 -46.8035 -17.9751 -35.5592 0.2067 0.0727 -128.9268 4.1731 9.7864 -10.4719 -15.9102 10.6676 16.1200 -60.5971 1.6943 2.5557 17.1927 9.7160 15.7598 57.8001 -30.6538 -28.2728 -0.0082 -0.2646 99.5713 -38.6547 -13.1568 -3.3697 15.0118 7.5086 -16.2994 50.0127 -3.4554 -5.3305 25.6340 -27.4817 21.9302 -1.2330 53.6647 -1.9133 -29.7611 -18.8728 3.3789 1.6529 -1.3722 -1.9242 -14.5607 -56.0424 -22.1615 0.6623 62.8675 0.9111 7.9499 -6.0498 -12.1461 -1.4513 1.9502 1.0370
-22.7310 83.2785 11.9056 3.3368 0.7577 -1.2079 1.3091 9.6819 -0.1185 -0.4950 -0.9347 -1.5218 0.5123 13.9224 -3.6863 21.1927 10.9916 -3.5039 -3.8999 -4.1100 -11.5607 3.1700 -7.7822 -16.1919 0.0102 -0.0863 -0.0117 0.7530 -10.6965 -3.9078 -0.7073 -10.7038 3.8465 -1.2750 10.6801 -11.4451 -47.0508 -17.3748 -35.4063 0.2662 0.0313 -129.0384 4.2965 9.2896 -10.3552 -15.7166 10.7731 16.1788 -60.4954 1.7114 2.5375 17.2215 9.9959 15.3637 57.9680 -29.7941 -28.2800 0.0781 -0.3037 99.7201 -38.7360 -13.9689 -2.5014 15.0210 7.4962 -16.3403 50.0100 -3.5272 -5.3469 25.3356 -26.8635 22.0306 -1.1970 52.8832 -1.8732 -29.5564 -18.6028 3.5545 1.6534 -1.3909 -1.9267 -14.5826 -55.3820 -22.1058 0.6726 61.7433 0.9453 7.9474 -5.4605 -12.1440 -1.4586 1.9764 1.0269
-22.4829 83.6143 11.9441 3.2863 0.6618 -1.3131 1.1931 9.4297 -0.1396 -0.4972 -1.0114 -1.4849 0.1886 13.7923 -3.6381 20.9930 11.5008 -3.4161 -3.8219 -4.0749 -11.6146 3.2612 -7.2856 -16.1192 0.0042 -0.0827 -0.0039 0.7427 -10.7058 -3.9016 -0.7099 -10.7099 3.8588 -1.3991 10.6791 -11.2786 -47.4538 -16.9365 -35.1618 0.2057 -0.0762 -129.1659 4.2740 8.6724 -10.0015 -15.4640 10.9104 16.2844 -60.3359 1.6928 2.5426 17.2912 10.3309 14.9681 57.9977 -28.9348 -28.3048 0.1724 -0.2606 100.0663 -38.9543 -14.8543 -1.6313 15.0827 7.4647 -16.3848 50.1424 -3.5960 -5.3644 25.0792 -26.2500 21.9822 -1.1632 52.2349 -1.8181 -29.3828 -18.5191 3.8397 1.6543 -1.3853 -1.9374 -14.6255 -54.8134 -22.1426 0.6818 60.7357 0.9630 7.9614 -4.9942 -12.1074 -1.4652 1.8384 1.0155
-22.1492 83.8214 11.9550 3.2304 0.5903 -1.3206 1.0641 9.1390 -0.1632 -0.4737 -1.0990 -1.4893 -0.1394 13.6581 -3.6016 20.6311 11.9731 -3.4707 -3.7393 -4.0247 -11.5286 3.4168 -6.6604 -16.0350 -0.0129 -0.0744 0.0202 0.7217 -10.7167 -3.8792 -0.7227 -10.7089 3.8889 -1.4599 10.6282 -11.1570 -48.1381 -16.6815 -34.6050 -0.1009 -0.2338 -129.3863 4.1459 8.2261 -9.4934 -15.2751 11.0270 16.4028 -60.1267 1.6703 2.5761 17.3519 10.6897 14.5685 57.9299 -28.1167 -28.2990 0.1474 -0.1811 100.5495 -39.0996 -15.5565 -0.9884 15.1119 7.4823 -16.3922 50.3621 -3.5692 -5.3848 24.8592 -25.7496 21.7671 -1.1550 51.8171 -1.8095 -29.2175 -18.6333 4.2299 1.6564 -1.3231 -1.9590 -14.6789 -54.3863 -22.2773 0.6118 59.9204 0.8792 7.9893 -4.6709 -12.1023 -1.4692 1.5381 1.0126
