HIERARCHY
ROOT Hips
{
	OFFSET 0.0000 0.0000 0.0000
	CHANNELS 6 Xposition Yposition Zposition Zrotation Xrotation Yrotation
	JOINT Spine1
	{
		OFFSET -0.0137 5.0038 -0.0537
		CHANNELS 3 Zrotation Xrotation Yrotation
		JOINT Spine2
		{
			OFFSET -0.0000 7.1253 -0.0298
			CHANNELS 3 Zrotation Xrotation Yrotation
			JOINT Chest
			{
				OFFSET -0.0000 7.5501 -0.8160
				CHANNELS 3 Zrotation Xrotation Yrotation
				JOINT Neck1
				{
					OFFSET -0.1817 26.3113 -0.5533
					CHANNELS 3 Zrotation Xrotation Yrotation
					JOINT Neck2
					{
						OFFSET -0.0000 7.7094 2.3026
						CHANNELS 3 Zrotation Xrotation Yrotation
						JOINT Head
						{
							OFFSET -0.0000 6.1289 1.9537
							CHANNELS 3 Zrotation Xrotation Yrotation
							JOINT Jaw
							{
								OFFSET 0.0026 0.4756 3.0949
								CHANNELS 3 Zrotation Xrotation Yrotation
								End Site
								{
									OFFSET 0.0 1.0 0.0
								}
							}
							JOINT LeftEye
							{
								OFFSET 3.2064 5.3802 7.5869
								CHANNELS 3 Zrotation Xrotation Yrotation
								End Site
								{
									OFFSET 0.0 1.0 0.0
								}
							}
							JOINT RightEye
							{
								OFFSET -3.2224 5.3619 7.5582
								CHANNELS 3 Zrotation Xrotation Yrotation
								End Site
								{
									OFFSET 0.0 1.0 0.0
								}
							}
						}
					}
				}
				JOINT LeftShoulder
				{
					OFFSET 1.6217 23.2372 5.1134
					CHANNELS 3 Zrotation Xrotation Yrotation
					JOINT LeftArm
					{
						OFFSET 14.9198 0.0000 -5.5023
						CHANNELS 3 Zrotation Xrotation Yrotation
						JOINT LeftForeArm
						{
							OFFSET 28.7393 0.0000 -0.0026
							CHANNELS 3 Zrotation Xrotation Yrotation
							JOINT LeftHand
							{
								OFFSET 27.0940 -0.0000 0.0026
								CHANNELS 3 Zrotation Xrotation Yrotation
								JOINT LeftHandThumbEnd
								{
									OFFSET 12.2686 -3.2202 4.8331
									CHANNELS 3 Zrotation Xrotation Yrotation
									End Site
									{
										OFFSET 0.0 1.0 0.0
									}
								}
								JOINT LeftHandMiddleEnd
								{
									OFFSET 19.0120 -0.3129 -0.0340
									CHANNELS 3 Zrotation Xrotation Yrotation
									End Site
									{
										OFFSET 0.0 1.0 0.0
									}
								}
							}
						}
					}
				}
				JOINT RightShoulder
				{
					OFFSET -1.3801 23.1803 5.2142
					CHANNELS 3 Zrotation Xrotation Yrotation
					JOINT RightArm
					{
						OFFSET -15.0372 0.0000 -5.5456
						CHANNELS 3 Zrotation Xrotation Yrotation
						JOINT RightForeArm
						{
							OFFSET -28.7366 0.0000 -0.0026
							CHANNELS 3 Zrotation Xrotation Yrotation
							JOINT RightHand
							{
								OFFSET -27.1336 -0.0000 0.0026
								CHANNELS 3 Zrotation Xrotation Yrotation
								JOINT RightHandThumbEnd
								{
									OFFSET -12.2642 -3.2115 4.8040
									CHANNELS 3 Zrotation Xrotation Yrotation
									End Site
									{
										OFFSET 0.0 1.0 0.0
									}
								}
								JOINT RightHandMiddleEnd
								{
									OFFSET -19.0006 -0.3066 -0.0316
									CHANNELS 3 Zrotation Xrotation Yrotation
									End Site
									{
										OFFSET 0.0 1.0 0.0
									}
								}
							}
						}
					}
				}
			}
		}
	}
	JOINT LeftLeg
	{
		OFFSET 10.0432 -8.4345 2.5957
		CHANNELS 3 Zrotation Xrotation Yrotation
		JOINT LeftShin
		{
			OFFSET -0.0000 -43.2218 -0.8029
			CHANNELS 3 Zrotation Xrotation Yrotation
			JOINT LeftFoot
			{
				OFFSET 0.0000 -42.1551 -3.4815
				CHANNELS 3 Zrotation Xrotation Yrotation
				JOINT LeftToeBase
				{
					OFFSET 0.0000 -5.0595 13.2315
					CHANNELS 3 Zrotation Xrotation Yrotation
					End Site
					{
						OFFSET 0.0 1.0 0.0
					}
				}
			}
		}
	}
	JOINT RightLeg
	{
		OFFSET -10.0473 -8.2953 2.6203
		CHANNELS 3 Zrotation Xrotation Yrotation
		JOINT RightShin
		{
			OFFSET 0.0000 -43.3622 -0.8056
			CHANNELS 3 Zrotation Xrotation Yrotation
			JOINT RightFoot
			{
				OFFSET 0.0000 -42.1174 -3.4784
				CHANNELS 3 Zrotation Xrotation Yrotation
				JOINT RightToeBase
				{
					OFFSET -0.0000 -5.0796 13.2842
					CHANNELS 3 Zrotation Xrotation Yrotation
					End Site
					{
						OFFSET 0.0 1.0 0.0
					}
				}
			}
		}
	}
}
MOTION
Frames: 120
Frame Time: 0.033333
3.9004 87.2499 1.0267 -2.5310 -2.4995 0.9296 1.7937 7.9988 0.7738 0.1027 -1.5051 -0.2288 -0.8695 14.5898 -1.5262 -15.5502 3.8154 6.7740 4.1244 -4.0686 17.2129 -4.4090 -21.1207 22.5745 -0.0030 0.0354 -0.3546 0.6441 -10.7323 -4.2646 -0.6632 -10.7419 3.6064 -5.3427 10.6205 -17.0398 -82.3237 -6.5425 31.9369 0.9860 -0.6863 -99.7580 30.8666 12.0074 -15.2423 -14.5464 10.7649 15.9461 -59.1820 1.7779 2.5036 -7.3491 12.9161 16.7297 80.3822 12.9653 2.2812 0.0010 1.0548 58.5602 -11.5908 -6.4822 -0.3328 15.7560 6.8177 -15.8365 49.7325 -3.4900 -5.0105 31.1582 -30.5090 11.6423 -0.3942 34.1042 -1.1708 -29.0086 -0.9237 -3.6488 1.5415 -0.7503 -1.7447 -23.3408 -8.8194 4.6590 0.2304 33.8637 1.6315 28.9824 -19.8995 -1.6008 -1.4220 -1.0524 1.3507
3.8888 87.3934 1.0301 -2.6025 -2.4726 1.0556 1.8367 7.9219 0.7446 0.1070 -1.5268 -0.1787 -0.9356 14.4837 -1.5884 -15.4590 3.9008 6.8688 4.1441 -4.0714 17.2069 -4.3072 -20.6567 22.5477 -0.0052 0.0300 -0.3254 0.6519 -10.7098 -4.2341 -0.6753 -10.7096 3.6328 -5.3417 10.6867 -17.1961 -82.5925 -6.6077 32.4541 0.7164 -0.8535 -99.4522 30.8690 12.1146 -15.2796 -14.7082 10.7322 15.8877 -59.3423 1.7457 2.4666 -7.4969 12.9109 16.8967 80.4455 13.0231 2.2121 -0.2059 1.1776 58.4142 -10.5132 -8.4730 0.1899 15.8110 6.9223 -15.8586 49.9656 -3.4404 -4.9551 31.1477 -30.5243 11.6965 -0.4493 33.9330 -1.2328 -28.8384 -0.8106 -3.7287 1.5474 -0.8452 -1.7616 -23.1085 -8.5863 4.4690 0.1738 33.4477 1.6174 28.8805 -19.7553 -1.8615 -1.4271 -1.0269 1.3066
3.9135 87.4849 1.0558 -2.6910 -2.4087 1.2966 1.8850 7.8204 0.7335 0.1003 -1.5609 -0.1543 -0.9593 14.3478 -1.6367 -15.3547 4.0324 6.9251 4.1613 -4.0926 17.1955 -4.2304 -20.1113 22.4888 -0.0040 0.0296 -0.3265 0.6528 -10.6913 -4.2300 -0.6740 -10.6860 3.6235 -5.4234 10.6533 -17.2962 -82.6502 -6.6259 32.7603 0.4211 -0.8931 -99.2164 30.9341 11.9760 -15.2806 -14.7534 10.6699 15.8635 -59.3576 1.7161 2.4793 -7.5586 12.8837 17.0529 80.3604 13.0972 2.1327 -0.3402 1.1589 58.1499 -9.5273 -10.3924 0.6484 15.8241 6.9892 -15.8469 50.1012 -3.4383 -4.9554 31.1942 -30.4822 11.5031 -0.4562 33.6548 -1.2455 -28.7699 -0.6745 -3.7696 1.5574 -0.7939 -1.7681 -22.9004 -8.3334 4.2319 0.1409 33.0123 1.5915 28.9357 -19.7143 -2.1610 -1.4317 -0.8911 1.2930
3.8564 87.5666 1.0930 -2.8012 -2.3089 1.5825 1.9462 7.7035 0.7452 0.0933 -1.6335 -0.1332 -0.9488 14.2069 -1.6287 -15.2083 4.2601 6.9404 4.1642 -4.1109 17.1530 -4.1535 -19.5511 22.2778 -0.0016 0.0283 -0.3323 0.6538 -10.6782 -4.2260 -0.6700 -10.6668 3.6073 -5.5342 10.6353 -17.3385 -82.5919 -6.7336 32.7424 0.2154 -0.8803 -98.9543 30.8792 11.8161 -15.2892 -14.7817 10.6037 15.8125 -59.3203 1.7035 2.4737 -7.4746 12.8294 17.1960 79.9753 13.1763 2.1268 -0.3968 1.0864 57.7239 -8.5556 -11.9364 0.8684 15.8270 7.0532 -15.8606 50.1764 -3.4212 -4.9438 31.2680 -30.3916 11.1279 -0.4672 33.3682 -1.2652 -28.7314 -0.5413 -3.7123 1.5603 -0.7318 -1.7641 -22.6709 -8.0300 3.9978 0.0952 32.4983 1.5592 29.0119 -19.7134 -2.5030 -1.4338 -0.7276 1.2970
3.8086 87.6559 1.1749 -2.9084 -2.2092 1.9296 2.0125 7.5651 0.7645 0.0914 -1.7080 -0.0994 -0.9400 14.0818 -1.6078 -15.0157 4.5730 6.9198 4.1491 -4.1168 17.1000 -4.0858 -19.0100 21.9904 -0.0003 0.0307 -0.3340 0.6549 -10.6660 -4.2187 -0.6687 -10.6528 3.5943 -5.6527 10.6298 -17.3347 -82.4271 -6.9542 32.5543 0.0015 -0.8875 -98.7205 30.7239 11.6866 -15.2996 -14.7835 10.5260 15.7366 -59.2279 1.7034 2.4204 -7.2868 12.7660 17.3628 79.3200 13.1803 2.1397 -0.4419 1.0100 57.0468 -7.5017 -13.2390 0.8317 15.8284 7.0894 -15.8933 50.1683 -3.4334 -4.9418 31.3264 -30.3124 10.7230 -0.4730 33.0858 -1.2904 -28.6586 -0.4184 -3.6466 1.5591 -0.6481 -1.7567 -22.4355 -7.6673 3.8083 0.0612 31.9664 1.5549 29.1060 -19.7210 -2.9169 -1.4342 -0.5800 1.3055
3.7433 87.7430 1.2868 -2.9813 -2.1054 2.2656 2.0463 7.3946 0.7823 0.0886 -1.7819 -0.0475 -0.9357 13.9500 -1.5873 -14.7787 4.9976 6.9175 4.1367 -4.1142 16.9676 -4.0141 -18.3972 21.6228 0.0019 0.0379 -0.3380 0.6564 -10.6329 -4.2118 -0.6659 -10.6247 3.5788 -5.7218 10.6373 -17.2618 -82.1409 -7.2297 32.1859 -0.1123 -0.8732 -98.5018 30.4731 11.3950 -15.2699 -14.7612 10.4886 15.6940 -59.1310 1.7248 2.3747 -6.9499 12.6925 17.6063 78.3060 13.0708 2.0318 -0.4493 0.9123 56.0872 -6.2971 -14.2671 0.4635 15.8208 7.1031 -15.9244 50.0868 -3.4858 -4.9836 31.3295 -30.1819 10.3532 -0.4770 32.7770 -1.3235 -28.5820 -0.3140 -3.6003 1.5584 -0.5980 -1.7552 -22.2378 -7.3009 3.6381 0.0419 31.4507 1.5572 29.1124 -19.7132 -3.2678 -1.4346 -0.4808 1.3065
3.7134 87.8301 1.4512 -3.0250 -2.0358 2.5820 2.0609 7.1943 0.8144 0.0760 -1.8580 0.0047 -0.9437 13.8019 -1.5450 -14.5204 5.6174 6.9591 4.1165 -4.1220 16.7689 -3.9199 -17.7217 21.1774 0.0039 0.0409 -0.3245 0.6547 -10.6112 -4.1897 -0.6601 -10.6084 3.5830 -5.7248 10.6704 -17.1575 -81.7433 -7.4904 31.7383 -0.1722 -0.8408 -98.3240 30.1545 10.9581 -15.1985 -14.7741 10.4427 15.6167 -59.0926 1.7716 2.3261 -6.4988 12.6364 17.9672 77.0293 12.8846 1.7545 -0.5002 0.8373 54.9456 -5.0239 -14.9190 -0.3321 15.8025 7.1107 -15.9344 49.9677 -3.5577 -5.0210 31.3271 -29.9797 9.9705 -0.4861 32.4882 -1.3452 -28.5227 -0.2092 -3.4840 1.5572 -0.5601 -1.7554 -22.1013 -6.8785 3.5193 0.0146 30.9381 1.5586 29.1056 -19.7222 -3.5645 -1.4357 -0.4368 1.2963
3.6678 87.9263 1.6284 -3.0405 -1.9896 2.8552 2.0479 6.9574 0.8392 0.0408 -1.9639 0.0735 -0.9523 13.6466 -1.5058 -14.1901 6.4163 6.9974 4.0720 -4.1044 16.4817 -3.7861 -16.9247 20.6320 0.0059 0.0437 -0.3119 0.6540 -10.5992 -4.1713 -0.6557 -10.6048 3.5879 -5.6534 10.6968 -16.9971 -81.1284 -7.7250 31.2275 -0.1139 -0.8061 -98.1874 29.7939 10.2129 -15.1080 -14.7730 10.4173 15.5728 -59.0912 1.8060 2.2926 -5.8922 12.5814 18.3300 75.3923 12.5397 1.0417 -0.5402 0.7628 53.8522 -3.8031 -15.1351 -1.6379 15.7550 7.1247 -15.9177 49.8226 -3.6275 -5.0155 31.3209 -29.6862 9.5399 -0.4933 32.2079 -1.3593 -28.5337 -0.0897 -3.2795 1.5570 -0.5001 -1.7677 -21.9717 -6.4034 3.4072 -0.0126 30.3895 1.5598 29.0339 -19.7208 -3.8116 -1.4362 -0.4516 1.2829
3.6286 88.0335 1.8301 -3.0276 -1.9734 3.1026 1.9814 6.6589 0.8503 -0.0145 -2.0793 0.1574 -0.9818 13.4571 -1.5155 -13.7690 7.3393 7.0663 4.0147 -4.0725 16.1581 -3.5721 -16.0365 19.9723 0.0066 0.0474 -0.2903 0.6562 -10.5751 -4.1419 -0.6567 -10.5870 3.6011 -5.5224 10.6729 -16.7708 -80.3022 -7.8990 30.8485 0.0131 -0.7345 -98.1587 29.3981 9.2475 -15.1017 -14.7757 10.4192 15.5495 -59.1639 1.8473 2.2763 -5.0982 12.4830 18.6707 73.4537 11.9887 -0.4745 -0.6097 0.6584 53.1358 -2.9853 -14.8865 -3.3778 15.7738 7.1437 -15.8639 49.7327 -3.6809 -4.9861 31.3001 -29.2157 9.0673 -0.4805 31.8356 -1.3384 -28.6308 0.0864 -2.9624 1.5561 -0.4490 -1.7895 -21.8791 -5.8629 3.3119 -0.0234 29.8152 1.5971 28.9508 -19.7150 -4.0572 -1.4381 -0.4866 1.2695
3.5887 88.1514 2.0976 -2.9969 -1.9569 3.3890 1.8602 6.3138 0.8297 -0.0888 -2.2206 0.1931 -1.0337 13.2138 -1.5369 -13.2885 8.3256 7.0740 3.9500 -4.0174 15.7994 -3.2695 -15.1063 19.2447 0.0050 0.0487 -0.2671 0.6590 -10.5707 -4.1145 -0.6629 -10.5837 3.6197 -5.2694 10.6767 -16.5161 -79.3859 -8.0820 30.8721 0.1192 -0.6727 -98.3436 28.9480 7.9632 -15.1403 -14.8082 10.3790 15.5168 -59.2443 1.8456 2.2590 -4.1144 12.4040 18.8021 71.2746 11.0757 -3.2971 -0.6801 0.6017 53.4940 -3.2181 -14.1957 -5.4564 15.8528 7.1722 -15.8451 49.7781 -3.6955 -4.9194 31.2571 -28.6667 8.5420 -0.4601 31.3997 -1.3122 -28.7252 0.2540 -2.5750 1.5570 -0.4335 -1.8097 -21.7615 -5.2530 3.2283 -0.0310 29.2187 1.6357 28.8621 -19.6824 -4.4258 -1.4384 -0.5042 1.2639
3.5224 88.3246 2.3883 -2.9739 -1.8703 3.7477 1.7201 5.8851 0.7402 -0.1710 -2.3855 0.2361 -1.1391 12.8998 -1.5960 -12.8429 9.2718 7.0587 3.8655 -3.9685 15.3465 -2.8196 -14.1528 18.4318 0.0029 0.0468 -0.2501 0.6620 -10.5714 -4.1002 -0.6707 -10.5901 3.6407 -4.9805 10.6480 -16.2419 -78.3019 -8.3271 31.4775 0.2696 -0.5700 -98.8807 28.3262 6.3138 -15.2879 -14.8488 10.2941 15.5412 -59.3188 1.8071 2.2645 -2.8025 12.3485 18.6822 68.9617 9.7193 -8.3489 -0.6531 0.6387 56.1347 -5.8994 -13.3364 -7.5362 15.9111 7.1841 -15.9081 49.7837 -3.6820 -4.8308 31.2098 -28.0869 7.9330 -0.4102 30.8108 -1.2676 -28.8442 0.4686 -2.1546 1.5615 -0.5147 -1.8323 -21.6207 -4.6032 3.0522 -0.0422 28.4662 1.6589 28.7241 -19.6021 -4.8176 -1.4380 -0.5179 1.2740
3.4473 88.5228 2.7274 -2.9687 -1.7153 4.2165 1.5849 5.4001 0.6237 -0.2342 -2.5752 0.2908 -1.3031 12.5369 -1.7100 -12.4702 10.1030 7.0356 3.7400 -3.9340 14.8226 -2.3285 -13.1990 17.6264 0.0071 0.0395 -0.2612 0.6691 -10.5812 -4.1177 -0.6699 -10.6004 3.6346 -4.7329 10.5001 -15.9430 -77.1426 -8.6639 33.0515 0.2777 -0.3755 -100.1244 27.5573 4.3565 -15.7696 -14.9229 10.1816 15.5611 -59.4635 1.7328 2.2400 -1.2526 12.3382 18.3810 66.6675 8.2049 -15.4628 -0.5356 0.7913 62.2567 -11.1167 -12.2478 -8.9982 15.7760 7.1649 -16.0877 49.6802 -3.6654 -4.8022 31.1374 -27.5611 7.3309 -0.3587 30.1055 -1.2139 -28.8999 0.7310 -1.7866 1.5687 -0.6419 -1.8269 -21.4369 -3.9240 2.7401 -0.0621 27.6065 1.6464 28.5404 -19.5132 -5.1512 -1.4345 -0.5844 1.2883
3.3464 88.7649 3.1311 -2.9599 -1.4961 4.7708 1.4606 4.8877 0.5541 -0.2907 -2.7723 0.3187 -1.5030 12.0684 -1.8419 -12.1505 10.8567 7.0534 3.5621 -3.9018 14.2745 -1.8375 -12.2337 16.8032 0.0162 0.0228 -0.2818 0.6828 -10.5975 -4.1467 -0.6659 -10.6146 3.6202 -4.5207 10.1756 -15.6272 -75.9765 -9.1019 35.9084 0.0643 -0.1714 -102.3162 26.7437 2.1291 -16.6835 -15.0145 10.0622 15.5224 -59.6213 1.6752 2.2312 0.1761 12.2115 17.9961 64.1209 6.9865 -23.0162 -0.4137 0.9592 71.3917 -16.3437 -9.7602 -9.9337 15.5593 7.1225 -16.2131 49.6673 -3.6935 -4.8080 31.0274 -27.0296 6.8510 -0.3135 29.1818 -1.1590 -28.9320 1.0829 -1.5879 1.5745 -0.7745 -1.7855 -21.2554 -3.1763 2.3014 -0.1027 26.5137 1.6053 28.4637 -19.2832 -5.3959 -1.4340 -0.6600 1.3204
3.2582 89.0720 3.6030 -2.9002 -1.2318 5.2435 1.3353 4.3607 0.5184 -0.3568 -2.9935 0.3727 -1.7537 11.4861 -1.9361 -11.9091 11.5827 7.1026 3.3845 -3.8685 13.6954 -1.3715 -11.1803 15.9852 0.0230 0.0039 -0.2802 0.6955 -10.6168 -4.1486 -0.6656 -10.6299 3.6236 -4.3553 9.7527 -15.2234 -74.8009 -9.7601 39.9419 -0.2158 0.0264 -105.3494 25.9649 -0.5881 -18.0209 -15.2394 9.9183 15.4257 -59.9229 1.6263 2.2285 1.1402 11.9568 17.5582 61.0987 5.8194 -29.7802 -0.3547 0.9667 81.7680 -20.0577 -5.8956 -11.2202 15.4364 7.1541 -16.1916 49.7265 -3.7351 -4.8178 30.8087 -26.4201 6.5880 -0.2726 28.0508 -1.1088 -28.9414 1.4862 -1.3976 1.5762 -0.7991 -1.7408 -21.1444 -2.3569 1.8158 -0.1490 25.1163 1.5559 28.4192 -18.8240 -5.4848 -1.4360 -0.7561 1.3525
3.2177 89.4569 4.1120 -2.7534 -0.8957 5.5017 1.1986 3.7907 0.5155 -0.4275 -3.2218 0.4978 -2.0902 10.7822 -1.9867 -11.8271 12.2346 7.1550 3.2318 -3.8492 13.2199 -0.8836 -10.0091 15.1039 0.0221 -0.0134 -0.2358 0.6982 -10.6215 -4.1020 -0.6712 -10.6318 3.6661 -4.2393 9.2251 -14.6577 -73.5302 -10.7487 44.8687 -0.4430 0.2279 -108.8266 25.2602 -3.8178 -19.8528 -15.5859 9.7477 15.3054 -60.2648 1.5990 2.2159 1.5150 11.5935 17.1264 57.6639 4.1567 -35.5935 -0.3281 0.9270 91.5426 -22.4239 -2.1710 -12.9498 15.3707 7.2514 -16.1398 49.7118 -3.7748 -4.8993 30.4807 -25.6406 6.5413 -0.2618 26.6586 -1.0577 -29.0300 1.9803 -1.1440 1.5721 -0.7436 -1.6939 -21.1512 -1.5177 1.3535 -0.1849 23.3523 1.5300 28.4212 -18.0446 -5.4823 -1.4383 -0.8556 1.3828
3.2143 89.9038 4.6870 -2.5354 -0.4780 5.5069 1.0500 3.2036 0.5199 -0.5065 -3.4623 0.7224 -2.4893 9.9860 -1.9173 -11.9168 12.6956 7.2632 3.1352 -3.8496 12.7954 -0.3630 -8.7819 14.2015 0.0118 -0.0246 -0.1568 0.6925 -10.6293 -4.0204 -0.6871 -10.6341 3.7458 -4.1371 8.6284 -13.8940 -71.9984 -12.1043 49.9114 -0.3999 0.3582 -112.1673 24.6291 -7.0625 -21.9016 -15.9975 9.5973 15.1627 -60.5320 1.5728 2.0958 1.3473 11.1690 16.8411 54.3143 1.4535 -40.7122 -0.2515 0.9469 99.3878 -24.0726 0.5074 -14.9560 15.1812 7.3518 -16.1638 49.6108 -3.7803 -5.0563 30.0476 -24.6856 6.6040 -0.2507 25.0554 -0.9775 -29.2109 2.6182 -0.7311 1.5688 -0.6748 -1.6698 -21.2661 -0.7465 0.9383 -0.2103 21.2976 1.5193 28.4104 -16.9410 -5.3749 -1.4410 -0.9730 1.3935
3.2660 90.3949 5.2300 -2.3604 0.0538 5.2276 0.9087 2.6080 0.5710 -0.5808 -3.7063 1.0297 -2.8350 9.1663 -1.6998 -12.1764 12.8792 7.4238 3.0836 -3.8667 12.4385 0.1860 -7.6163 13.3321 0.0018 -0.0294 -0.0806 0.6862 -10.6324 -3.9401 -0.7018 -10.6305 3.8213 -3.9788 8.0101 -12.9255 -70.2487 -13.7918 54.4311 -0.0961 0.3218 -114.9291 23.9002 -9.8515 -23.7129 -16.4076 9.5406 15.0604 -60.7458 1.5390 1.8923 0.8074 10.7490 16.8006 51.6097 -2.4899 -45.2267 -0.1204 1.0885 104.8157 -25.6350 2.2787 -17.5244 14.7627 7.4452 -16.2517 49.4046 -3.7982 -5.1967 29.6783 -23.5796 6.5630 -0.2401 23.3064 -0.8895 -29.5086 3.3987 -0.0441 1.5659 -0.6818 -1.6735 -21.3589 -0.1508 0.6509 -0.2169 19.0934 1.5019 28.3350 -15.5951 -5.2349 -1.4449 -1.1057 1.3898
3.3222 90.8725 5.7699 -2.3000 0.6668 4.7718 0.7869 2.0529 0.6687 -0.6496 -3.9555 1.3781 -3.0794 8.3789 -1.3198 -12.5672 12.7715 7.6630 3.0621 -3.8908 12.0907 0.7616 -6.7088 12.5131 -0.0008 -0.0297 -0.0306 0.6911 -10.6398 -3.8913 -0.7122 -10.6354 3.8734 -3.6654 7.4198 -11.8775 -68.4111 -15.7057 58.1169 0.3324 0.1170 -116.8483 22.7849 -12.0181 -24.9393 -16.7190 9.6479 15.0886 -60.9419 1.5027 1.6464 0.1392 10.3910 17.0226 49.8507 -7.3324 -49.0199 -0.0605 1.3065 108.1481 -27.6719 3.6649 -20.9514 14.2663 7.4626 -16.2954 49.1594 -3.7981 -5.2724 29.5253 -22.4347 6.2500 -0.2135 21.5909 -0.7915 -29.9097 4.3341 0.9038 1.5676 -0.7765 -1.7069 -21.3347 0.2417 0.5424 -0.2154 16.9743 1.4545 28.2095 -14.1254 -5.1561 -1.4511 -1.2968 1.3804
3.3306 91.3070 6.1987 -2.4143 1.2607 4.2575 0.6765 1.5939 0.7535 -0.7261 -4.1596 1.7790 -3.1732 7.6639 -0.8299 -13.0117 12.4284 7.8999 3.0504 -3.9331 11.7898 1.3342 -6.1337 11.7342 0.0033 -0.0263 -0.0046 0.7023 -10.6399 -3.8657 -0.7146 -10.6366 3.8988 -3.0781 6.9044 -10.7881 -66.6419 -17.6773 60.6630 0.7564 -0.1973 -117.7709 21.1096 -13.5807 -25.6756 -16.9390 9.8535 15.2264 -61.1851 1.4421 1.4336 -0.5967 10.1100 17.4738 49.1148 -12.4589 -51.8867 -0.2054 1.5110 110.0492 -30.3417 4.9394 -25.2674 13.9690 7.3893 -16.2047 49.0003 -3.7832 -5.2390 29.6688 -21.2915 5.5893 -0.1705 20.0502 -0.7012 -30.2965 5.3431 1.9440 1.5703 -1.0080 -1.7484 -21.0749 0.4512 0.5949 -0.2100 15.2174 1.4013 28.0510 -12.7253 -5.2530 -1.4578 -1.4996 1.3810
3.2504 91.6645 6.5342 -2.6890 1.7396 3.8729 0.5719 1.2787 0.8524 -0.8086 -4.3100 2.1472 -3.1479 7.0974 -0.2912 -13.4505 11.8944 8.0623 3.0624 -3.9654 11.5552 1.8705 -5.9409 11.1130 0.0104 -0.0261 0.0061 0.7199 -10.6385 -3.8582 -0.7172 -10.6399 3.9115 -2.1416 6.5300 -9.8254 -65.1453 -19.3635 61.9490 0.9823 -0.5249 -117.7839 18.8552 -14.3938 -25.9131 -17.2027 10.1223 15.3708 -61.5595 1.4121 1.2833 -1.3284 9.9006 18.1006 49.0162 -17.0577 -53.6901 -0.5973 1.6352 111.1596 -32.7357 6.5564 -29.6965 13.9591 7.2842 -16.0031 48.9292 -3.7471 -5.1552 30.1328 -20.2251 4.5889 -0.1326 18.8051 -0.6411 -30.6534 6.2433 2.9429 1.5765 -1.2739 -1.7975 -20.5714 0.5196 0.6461 -0.2021 14.0020 1.3611 27.8503 -11.6575 -5.5300 -1.4642 -1.6518 1.3828
3.0279 91.8833 6.7717 -3.1107 2.0756 3.7654 0.4957 1.0989 0.9364 -0.8893 -4.4115 2.4765 -3.0639 6.7282 0.2212 -13.8260 11.2736 8.1696 3.0960 -3.9980 11.3842 2.4024 -6.0664 10.6247 0.0155 -0.0229 0.0129 0.7371 -10.6328 -3.8527 -0.7228 -10.6406 3.9167 -0.9060 6.2887 -9.0657 -63.9349 -20.5733 61.8968 1.0523 -0.7989 -117.1880 15.9128 -14.2767 -25.5395 -17.4177 10.3467 15.4863 -61.9768 1.3927 1.2085 -1.9965 9.7789 18.8057 49.0336 -20.6435 -54.1712 -1.2768 1.7715 112.1769 -34.4200 8.8209 -33.5968 14.1574 7.2223 -15.8259 48.9720 -3.7222 -5.0621 30.8595 -19.2589 3.2981 -0.0990 17.7854 -0.6306 -31.0426 7.0247 3.8541 1.5829 -1.4744 -1.8534 -19.8532 0.5252 0.5799 -0.1906 13.3374 1.3309 27.6436 -11.1154 -5.9069 -1.4673 -1.6754 1.3770
2.6862 91.9834 6.9032 -3.6252 2.2782 3.8896 0.4463 1.0416 1.0004 -0.9754 -4.4463 2.7616 -2.9921 6.5198 0.6638 -14.1663 10.5726 8.2099 3.1686 -4.0232 11.2984 2.9473 -6.5012 10.2849 0.0206 -0.0211 0.0090 0.7509 -10.6262 -3.8591 -0.7246 -10.6431 3.9114 0.4176 6.0965 -8.5405 -63.0519 -21.4090 60.7612 0.8790 -0.8466 -116.2494 12.5691 -13.3143 -24.6242 -17.4611 10.4745 15.5545 -62.1632 1.3890 1.2426 -2.5396 9.6852 19.5758 48.8337 -23.1543 -53.1960 -1.8618 1.9125 113.5795 -35.6776 11.7753 -36.7670 14.5684 7.2403 -15.8578 49.3079 -3.7056 -5.0488 31.7711 -18.4272 1.8850 -0.0522 16.9870 -0.6438 -31.4055 7.6813 4.6108 1.5869 -1.6069 -1.8946 -18.9837 0.4249 0.4332 -0.1816 13.2211 1.2939 27.4804 -11.0043 -6.2934 -1.4674 -1.6432 1.3689
2.1881 91.9707 6.9124 -4.2047 2.3433 4.2201 0.4258 1.1243 1.0802 -1.0633 -4.4038 2.9866 -2.9504 6.4318 1.0396 -14.4778 9.8224 8.2569 3.2264 -4.0450 11.3109 3.5400 -7.2295 10.0181 0.0232 -0.0203 0.0018 0.7589 -10.6269 -3.8691 -0.7260 -10.6524 3.9048 1.6736 5.9884 -8.2496 -62.5487 -21.9817 58.7698 0.5515 -0.6902 -115.1783 9.2402 -11.5343 -23.2310 -17.2048 10.5297 15.5806 -61.9651 1.3624 1.3349 -3.0414 9.6424 20.3919 48.3939 -24.7246 -50.6663 -2.3065 2.1619 115.6465 -36.4279 15.3857 -38.9300 15.2043 7.3299 -16.1254 49.9511 -3.6729 -5.1817 32.8561 -17.7321 0.4261 -0.0165 16.4008 -0.7025 -31.7960 8.2766 5.1422 1.5934 -1.6857 -1.9329 -17.9910 0.2356 0.2549 -0.1687 13.6418 1.2696 27.3431 -11.3763 -6.7586 -1.4677 -1.4878 1.3577
1.5960 91.8627 6.7968 -4.8220 2.2701 4.6617 0.4394 1.3565 1.1884 -1.1573 -4.3086 3.1429 -2.9453 6.4617 1.3677 -14.8196 9.0468 8.3565 3.2710 -4.0564 11.3368 4.1030 -8.2473 9.8805 0.0246 -0.0208 -0.0149 0.7670 -10.6385 -3.8892 -0.7312 -10.6742 3.8942 2.7208 5.9773 -8.1710 -62.5078 -22.3540 56.2879 -0.0247 -0.4421 -114.1044 6.5161 -9.1144 -21.5992 -16.7291 10.5318 15.5292 -61.4801 1.3501 1.4097 -3.5327 9.6403 21.2337 47.7818 -25.5471 -46.4550 -2.6830 2.4028 118.3557 -36.3079 19.6215 -38.9459 15.9546 7.4262 -16.4539 50.7602 -3.6000 -5.3907 34.0542 -17.1886 -1.0319 0.0089 16.0778 -0.7839 -32.0938 8.9329 5.3658 1.5975 -1.8433 -1.9610 -16.9194 -0.1074 0.0682 -0.1579 14.6636 1.2493 27.1876 -12.1819 -7.1441 -1.4647 -1.2670 1.3426
0.9603 91.6831 6.5734 -5.4334 2.0157 5.2190 0.5158 1.7043 1.1907 -1.2130 -4.1062 3.3690 -3.0080 6.6426 1.5957 -15.1873 8.2204 8.5456 3.1233 -4.0044 11.3425 4.6927 -9.5074 9.7981 0.0209 -0.0115 -0.0429 0.7710 -10.6121 -3.9228 -0.7425 -10.6566 3.8708 3.5114 5.9311 -8.1604 -62.8516 -22.3786 53.3304 -0.7321 -0.1621 -112.9849 4.7061 -6.4172 -19.7623 -16.2393 10.4613 15.4121 -60.9908 1.3086 1.5781 -4.3325 9.6176 21.9647 47.5591 -25.6241 -40.4913 -2.8782 2.5794 121.3576 -34.6963 23.7731 -35.8027 16.8077 7.4945 -16.3516 52.0016 -3.4751 -5.5455 35.4101 -16.6919 -2.6148 0.1153 16.0916 -0.7134 -32.5129 9.5190 5.0736 1.6363 -1.7425 -1.9357 -15.8597 -0.5066 -0.2462 -0.1726 16.0357 1.2471 27.1332 -13.1976 -7.3919 -1.4620 -1.0632 1.3844
0.3863 91.4954 6.2908 -5.8933 1.5942 5.7677 0.5888 2.1119 1.2856 -1.2843 -3.9245 3.4795 -3.0421 6.9279 1.8816 -15.6837 7.8304 8.6598 3.1266 -3.9990 11.3119 4.9701 -10.5168 9.7317 0.0175 -0.0007 -0.0247 0.7619 -10.5835 -3.8982 -0.7409 -10.6364 3.8870 3.8330 6.1544 -8.2628 -63.6063 -21.9491 49.9076 -1.2645 -0.0181 -111.5675 3.9066 -3.8058 -18.0434 -15.7416 10.4660 15.3753 -60.4530 1.2720 1.6727 -5.4256 9.6458 22.4097 48.1227 -25.1065 -33.0187 -2.5374 2.6262 123.8864 -31.2421 26.5813 -29.8504 17.3464 7.4645 -15.9520 52.6418 -3.3411 -5.5753 36.5257 -16.3684 -3.8337 0.1175 16.3406 -0.8401 -32.8671 10.3893 4.6490 1.6420 -2.1355 -1.9836 -14.9629 -0.7872 -0.3601 -0.1700 17.5764 1.2796 27.0175 -14.1833 -7.7396 -1.4553 -0.9394 1.3576
-0.1163 91.3002 6.0055 -6.1578 1.0510 6.3642 0.6567 2.5110 1.3373 -1.3141 -3.7791 3.5949 -3.0964 7.3385 2.1210 -16.1109 7.8430 8.6319 3.0827 -3.9846 11.2948 4.9988 -11.1853 9.7202 0.0156 0.0138 -0.0067 0.7504 -10.5677 -3.8773 -0.7327 -10.6242 3.8978 3.8568 6.4804 -8.4190 -64.6077 -20.7907 45.9384 -1.3675 -0.0110 -109.6458 4.1272 -1.1708 -16.3890 -15.3895 10.4892 15.3623 -60.0766 1.2789 1.8241 -6.7771 9.7693 22.6585 49.5416 -24.3349 -24.3172 -1.7940 2.5448 125.2559 -26.4385 27.0053 -23.0187 17.2157 7.3537 -15.6936 52.2373 -3.3530 -5.5730 37.3165 -16.1536 -4.8586 0.1169 16.8339 -0.9100 -33.0256 11.1155 4.1305 1.6501 -2.5250 -2.0360 -14.3009 -0.9461 -0.5008 -0.1625 19.1375 1.3195 26.9542 -15.1151 -8.0474 -1.4446 -0.8970 1.3125
-0.4819 91.0437 5.7052 -6.3455 0.4814 7.1141 0.7792 2.8696 1.4145 -1.2965 -3.6539 3.6479 -3.1024 7.7818 2.3070 -16.4378 8.1854 8.5738 3.0201 -3.9824 11.1850 4.9187 -11.4517 9.6990 0.0191 0.0330 0.0114 0.7394 -10.5473 -3.8584 -0.7147 -10.6075 3.9104 3.6439 6.9533 -8.5949 -65.9808 -19.2152 41.8453 -1.2577 -0.0386 -107.0267 5.3293 1.5779 -14.8001 -15.1711 10.4740 15.3230 -59.8016 1.3472 2.0023 -8.1797 9.9420 22.8352 51.4972 -23.6726 -15.2093 -0.7076 2.4769 125.2327 -21.8777 24.5277 -17.2418 16.7428 7.1911 -15.6871 51.2593 -3.4331 -5.6045 37.8965 -16.1053 -5.7310 0.1272 17.4491 -0.9668 -33.0851 11.3929 3.6356 1.6516 -2.6559 -2.0639 -13.8203 -0.9705 -0.6284 -0.1450 20.6654 1.3257 26.9667 -15.9982 -8.4753 -1.4427 -0.9294 1.2786
-0.6838 90.7021 5.4485 -6.4957 0.0071 8.1798 0.9555 3.1383 1.4457 -1.2358 -3.5453 3.6650 -3.0098 8.2200 2.3984 -16.5142 8.7439 8.4680 2.9534 -3.9827 10.9279 4.7906 -11.3700 9.6157 0.0297 0.0460 -0.0043 0.7348 -10.5413 -3.8725 -0.6895 -10.6024 3.8896 3.1335 7.5163 -8.7754 -67.7207 -17.6703 37.7987 -0.8969 -0.1158 -103.6465 7.5695 4.0015 -13.2917 -14.9919 10.4743 15.3274 -59.5651 1.4742 2.2193 -9.1339 10.1845 22.8827 53.2682 -23.2930 -6.7040 0.5295 2.4116 124.1883 -19.4418 20.4301 -13.1991 16.3504 7.1385 -15.7735 50.6002 -3.3609 -5.6346 38.1833 -16.2690 -6.6003 0.1643 18.0828 -0.9934 -33.0200 10.9071 3.3802 1.6468 -2.3222 -2.0757 -13.5174 -0.9282 -0.9886 -0.1312 22.1022 1.3254 27.0781 -16.8670 -9.1331 -1.4473 -0.9377 1.2518
-0.7019 90.2442 5.1889 -6.5422 -0.3056 9.7890 1.1008 3.3388 1.4408 -1.1281 -3.4555 3.6167 -2.8621 8.6932 2.3717 -16.2113 9.4324 8.3094 2.8365 -3.9727 10.5419 4.6360 -11.1847 9.3382 0.0385 0.0519 -0.0603 0.7249 -10.5497 -3.9251 -0.6619 -10.6038 3.8246 2.2635 8.1342 -9.0218 -69.7614 -16.6455 34.2442 -0.4953 -0.2717 -99.7101 11.0278 5.2445 -11.9819 -14.8341 10.5242 15.3478 -59.3810 1.5701 2.3570 -9.2998 10.4462 22.6876 54.2861 -22.6463 0.6374 1.5899 2.2573 122.8890 -18.9199 15.0341 -9.1811 15.9663 7.1434 -15.8018 50.2176 -3.1922 -5.5211 38.1149 -16.9090 -7.5281 0.1752 18.7741 -0.9857 -32.7069 9.7935 3.0764 1.6366 -1.6641 -2.0602 -13.4709 -0.8318 -1.7798 -0.1186 23.4758 1.3392 27.3617 -17.7886 -10.0148 -1.4527 -0.9004 1.2314
-0.5658 89.7705 4.8987 -6.4860 -0.4665 12.0065 1.1771 3.5299 1.4134 -0.9805 -3.3730 3.4912 -2.6389 9.2332 2.2559 -15.5218 10.1273 8.0241 2.6674 -3.9435 10.0561 4.4412 -11.0657 8.8468 0.0373 0.0450 -0.1097 0.7123 -10.5766 -3.9719 -0.6514 -10.6152 3.7720 1.1442 8.8456 -9.2811 -71.9577 -16.1390 31.1925 -0.1667 -0.5286 -95.4803 15.7205 4.8394 -10.9919 -14.7144 10.5595 15.3084 -59.2414 1.6054 2.3669 -8.7569 10.8213 22.2230 54.3809 -20.7884 6.7424 2.1745 1.8782 121.8252 -19.3366 7.7586 -4.0769 15.6936 7.0242 -15.7139 49.8110 -3.1028 -5.2999 37.7846 -18.1563 -8.6652 0.1414 19.7029 -0.9669 -32.1539 8.3906 2.5054 1.6230 -0.8723 -2.0272 -13.6441 -0.5452 -2.9958 -0.1245 24.5448 1.3418 27.8238 -18.6441 -11.0629 -1.4535 -0.8215 1.2117
-0.2903 89.3999 4.6102 -6.3568 -0.4192 14.8789 1.1953 3.6751 1.3923 -0.8367 -3.3577 3.3616 -2.2951 9.8348 2.1309 -14.4345 10.8948 7.5797 2.4728 -3.9747 9.4155 4.1963 -10.8832 8.0434 0.0279 0.0345 -0.1287 0.6984 -10.5692 -3.9761 -0.6538 -10.5944 3.7374 -0.2203 9.6809 -9.4547 -73.8277 -15.8073 28.2083 0.1215 -0.8512 -91.4566 20.9607 2.3538 -11.0093 -14.6092 10.6817 15.2839 -59.1846 1.6544 2.1851 -7.4990 11.3361 21.5796 53.8003 -17.0709 11.2845 2.1591 1.4527 120.6024 -20.2336 -1.0306 1.6260 15.7543 6.8679 -15.7145 49.2361 -3.2752 -4.9850 37.1593 -19.8456 -10.0012 -0.0176 20.4696 -1.1396 -31.1554 7.3061 1.8092 1.5795 -0.3005 -2.0262 -13.9490 0.0217 -4.6043 -0.1093 25.0415 1.3727 28.3861 -19.1161 -12.3288 -1.4458 -0.8211 1.1016
0.0689 89.1496 4.3636 -6.0865 -0.2235 18.2275 1.2150 3.7120 1.3949 -0.7063 -3.3398 3.2931 -2.0007 10.4206 2.0874 -12.9027 11.5171 6.9074 2.1679 -3.9815 8.8284 3.9676 -10.7994 6.8034 0.0051 0.0237 -0.0884 0.6744 -10.5596 -3.9232 -0.6750 -10.5761 3.7753 -1.5425 10.2537 -9.2503 -74.8854 -14.6370 25.0427 0.2781 -1.0198 -88.3833 25.6284 -1.2692 -12.2489 -14.7597 10.6042 15.2134 -59.2471 1.7169 2.0408 -5.9420 11.7794 21.1130 53.7235 -12.1017 13.8223 1.5441 1.1602 118.7977 -22.0863 -11.0947 6.3368 15.7481 6.8450 -15.8287 49.1138 -3.5392 -4.8327 36.5628 -21.7745 -11.9812 -0.1144 21.4213 -1.1891 -30.6250 6.7353 0.1332 1.5732 -0.0366 -2.0253 -14.3717 1.0971 -6.5638 -0.1931 24.5078 1.3090 29.0155 -19.2320 -13.4555 -1.4383 -0.8849 1.0658
0.4905 88.9789 4.1262 -5.7436 0.0205 21.5016 1.3360 3.6626 1.4072 -0.5994 -3.3239 3.4848 -1.6013 10.8357 2.2551 -11.4347 12.1308 6.2918 1.8221 -4.0343 7.9356 3.7946 -10.7696 5.3456 -0.0091 0.0191 -0.0532 0.6643 -10.5541 -3.8831 -0.6928 -10.5745 3.8107 -2.8090 10.8644 -8.4812 -75.2049 -12.3242 21.6592 0.4194 -0.9906 -86.6955 29.1357 -4.6781 -14.0591 -14.9546 10.4917 15.2472 -59.4322 1.7831 2.0070 -4.9966 12.1765 21.0933 55.0418 -7.8582 14.5496 0.8851 1.0070 116.0519 -26.6726 -22.2173 10.4020 15.5301 6.8059 -15.7851 49.4968 -3.6710 -4.6837 35.8660 -23.5039 -13.8762 -0.2455 22.0865 -1.3152 -30.3612 6.3159 -1.5406 1.5805 0.0830 -2.0104 -14.8169 2.4811 -8.3298 -0.2610 23.3515 1.2524 29.5069 -19.1180 -14.6735 -1.4313 -0.9214 1.0521
0.9071 88.8306 3.9548 -5.2744 0.2301 24.3332 1.5106 3.5913 1.4815 -0.4917 -3.3200 3.8469 -1.1838 11.0537 2.7253 -10.1950 12.6028 5.8023 1.4891 -4.0514 6.7235 3.5150 -10.7729 3.8423 -0.0123 0.0144 -0.0387 0.6684 -10.5688 -3.8724 -0.7036 -10.5999 3.8326 -3.8367 11.4919 -7.2364 -75.2179 -8.8189 18.7262 0.6124 -0.8594 -86.4010 31.5190 -7.0690 -15.9086 -15.0485 10.3922 15.3795 -59.6355 1.7812 2.0753 -5.1659 12.4193 21.4578 57.5686 -5.8805 14.4223 0.5108 0.7915 112.7779 -33.7133 -30.7687 15.1921 15.6452 6.6858 -15.3992 50.0215 -3.6722 -4.5411 35.0125 -25.0201 -15.3893 -0.3764 22.5960 -1.4838 -30.2845 6.0264 -2.9873 1.5935 0.1428 -1.9767 -15.3670 3.8414 -9.7166 -0.3168 22.1365 1.2147 29.7736 -19.0277 -15.8234 -1.4316 -0.8964 1.0383
1.2989 88.6674 3.8256 -4.6462 0.3189 26.7875 1.6853 3.5521 1.6083 -0.3792 -3.3218 4.3256 -0.8370 11.0789 3.3828 -9.0930 13.0118 5.4078 1.1147 -4.0323 5.3233 3.0985 -10.7609 2.2617 -0.0124 0.0149 -0.0335 0.6763 -10.5742 -3.8729 -0.7125 -10.6145 3.8440 -4.5656 12.1074 -5.6383 -75.2366 -4.8082 16.9895 0.8223 -0.6537 -87.0295 33.3456 -8.6016 -17.7342 -15.0351 10.4097 15.5687 -59.7753 1.7207 2.1663 -6.1987 12.4694 21.9980 60.3370 -5.9830 14.3137 0.1904 0.6241 109.7730 -38.9193 -34.3709 18.6392 15.8982 6.5615 -15.1720 50.1977 -3.6670 -4.5023 33.9924 -26.2271 -16.5830 -0.4789 22.9553 -1.6261 -30.3701 5.7893 -4.2130 1.6045 0.2026 -1.9238 -16.0726 4.9881 -10.8378 -0.3563 21.3137 1.2269 29.7848 -19.0805 -16.8595 -1.4388 -0.8328 1.0280
1.6180 88.4882 3.7191 -3.8594 0.2541 29.0277 1.8535 3.5201 1.7972 -0.2772 -3.3642 4.8913 -0.5926 11.0255 4.1628 -8.0194 13.5016 5.0704 0.6984 -3.9876 3.6983 2.5393 -10.5964 0.5658 -0.0077 0.0199 -0.0491 0.6860 -10.5684 -3.8888 -0.7140 -10.6114 3.8277 -5.1038 12.7058 -3.8813 -75.1274 -0.9505 16.7713 1.0490 -0.5415 -88.1785 35.1756 -9.8257 -19.4541 -14.9950 10.4229 15.6652 -59.8096 1.6619 2.1903 -7.7639 12.3991 22.6414 62.8928 -7.4272 14.4390 -0.1509 0.5014 107.0913 -41.0151 -34.5154 19.1930 15.8890 6.4636 -15.1052 50.0836 -3.6649 -4.4488 32.7710 -27.2103 -17.5884 -0.5517 23.3226 -1.7320 -30.4438 5.4995 -5.3208 1.6109 0.2626 -1.8882 -16.9277 6.0072 -11.8585 -0.3877 20.8925 1.2757 29.6172 -19.2777 -17.7677 -1.4470 -0.7772 1.0265
1.9002 88.3382 3.6684 -2.9523 0.0042 31.1279 1.9863 3.4415 2.0185 -0.1871 -3.4276 5.4914 -0.4102 10.9586 5.0097 -6.9926 14.1382 4.8013 0.2596 -3.9414 1.9431 1.9316 -10.1476 -1.2298 0.0034 0.0281 -0.0876 0.6982 -10.5391 -3.9249 -0.7054 -10.5788 3.7854 -5.5658 13.2820 -2.1670 -74.5648 2.3130 18.0527 1.2281 -0.5146 -89.4168 37.0402 -11.5168 -20.7980 -15.0177 10.3602 15.6454 -59.6862 1.6183 2.2076 -9.4194 12.2477 23.3499 64.8153 -9.7876 14.7190 -0.4097 0.4114 104.3094 -40.5742 -32.4531 17.2943 15.6368 6.3826 -15.1049 49.8365 -3.6518 -4.4007 31.3446 -27.8929 -18.3585 -0.6198 23.5871 -1.8041 -30.4090 5.1931 -6.4283 1.6144 0.2738 -1.8771 -17.9134 7.0524 -12.8987 -0.4188 20.6023 1.3446 29.3928 -19.4626 -18.6029 -1.4535 -0.7818 1.0285
2.1205 88.2005 3.6756 -2.0128 -0.3969 33.1079 2.0845 3.3219 2.1615 -0.1188 -3.5256 6.1180 -0.2319 10.9066 5.8663 -6.0288 14.8843 4.5013 -0.2355 -3.9025 0.2243 1.3710 -9.4031 -3.0465 0.0096 0.0407 -0.1080 0.7139 -10.5119 -3.9482 -0.7097 -10.5507 3.7628 -5.9283 13.6973 -0.6444 -73.2915 4.9159 20.3625 1.3778 -0.4939 -90.5418 38.4243 -13.8362 -21.4183 -15.1017 10.3202 15.5988 -59.4926 1.6320 2.1938 -10.8613 12.0614 24.0504 65.9536 -12.7654 15.1435 -0.6889 0.3582 101.2646 -38.7662 -29.0674 14.4023 15.3908 6.3708 -15.1769 49.6212 -3.6991 -4.4020 29.8292 -28.3126 -18.9336 -0.6372 23.6851 -1.7661 -30.3012 4.9268 -7.4913 1.6197 0.2301 -1.8960 -18.9644 8.2036 -14.0279 -0.4280 20.2358 1.4192 29.1217 -19.5981 -19.3290 -1.4556 -0.7583 1.0311
2.2959 88.1115 3.7383 -1.1939 -0.8714 34.9204 2.1810 3.1415 2.3009 -0.0456 -3.6276 6.6829 -0.0453 10.8764 6.6457 -5.1067 15.5902 4.2034 -0.7499 -3.8746 -1.2770 0.8760 -8.4864 -4.8010 0.0170 0.0456 -0.1206 0.7282 -10.4907 -3.9633 -0.7110 -10.5274 3.7523 -6.2703 13.9589 0.6537 -71.2091 6.8040 23.3027 1.4118 -0.5568 -91.5245 39.2725 -16.5583 -21.5530 -15.2244 10.2738 15.4694 -59.3371 1.6693 2.1501 -11.8746 11.8848 24.7378 66.3112 -16.0222 15.5761 -0.9283 0.2280 98.2941 -36.4778 -24.6961 11.5343 15.3199 6.4799 -15.3080 49.6401 -3.7673 -4.4534 28.4182 -28.5724 -19.3223 -0.6345 23.7090 -1.6995 -30.0748 4.7886 -8.5065 1.6237 0.0489 -1.9319 -19.9130 9.4743 -15.2296 -0.4326 19.6372 1.4826 28.9115 -19.6976 -19.8395 -1.4550 -0.7895 1.0505
2.3895 88.0499 3.8932 -0.5670 -1.2753 36.5221 2.2806 2.8854 2.4281 0.0309 -3.7348 7.1744 0.1526 10.8344 7.3362 -4.2912 16.1062 3.9152 -1.1971 -3.8572 -2.5402 0.4056 -7.5831 -6.3071 0.0273 0.0488 -0.1406 0.7451 -10.4591 -3.9887 -0.7086 -10.5008 3.7344 -6.5673 14.0777 1.7948 -68.6561 8.0020 26.3934 1.5074 -0.6477 -92.1975 39.9154 -19.5144 -21.5894 -15.3411 10.2383 15.2705 -59.3114 1.7224 2.0772 -12.6034 11.7154 25.3975 66.2749 -19.2230 15.9784 -0.9756 0.0261 95.8909 -34.0823 -19.5853 9.1613 15.3839 6.6416 -15.4939 49.7775 -3.8006 -4.5308 27.2934 -28.6864 -19.6594 -0.6122 23.5568 -1.6133 -29.9100 4.7517 -9.4813 1.6251 -0.1576 -1.9574 -20.6542 10.7574 -16.4248 -0.4216 18.7812 1.5200 28.7471 -19.7265 -20.1571 -1.4537 -0.8398 1.0738
2.4434 88.0152 4.0990 -0.1406 -1.6098 37.9125 2.3908 2.6188 2.5268 0.1001 -3.8446 7.6048 0.3580 10.7419 7.9389 -3.6055 16.4796 3.6513 -1.5454 -3.8539 -3.6441 -0.0700 -6.7726 -7.5310 0.0400 0.0475 -0.1687 0.7626 -10.4242 -4.0192 -0.7016 -10.4699 3.7043 -6.8198 14.1231 2.7213 -66.0514 8.6038 29.5738 1.7847 -0.6809 -92.6813 40.9176 -22.9340 -21.8953 -15.4560 10.2018 15.0645 -59.4337 1.7655 2.0212 -13.2539 11.4885 25.9537 66.2050 -22.0764 16.5191 -0.9335 -0.1317 94.5686 -31.6177 -13.6638 7.4535 15.4880 6.8263 -15.7024 50.0040 -3.7188 -4.6134 26.5091 -28.7041 -20.0300 -0.6017 23.3525 -1.5746 -29.8864 4.7311 -10.3366 1.6245 -0.2896 -1.9708 -21.1760 12.0028 -17.5745 -0.4045 17.8098 1.5222 28.6389 -19.7382 -20.2647 -1.4521 -0.9045 1.0824
2.4311 87.9654 4.3478 0.1510 -1.8776 39.1010 2.4993 2.3876 2.6501 0.1544 -3.9373 7.9358 0.5350 10.5899 8.4478 -3.0879 16.7694 3.4715 -1.8078 -3.8450 -4.6232 -0.5608 -6.1630 -8.4838 0.0513 0.0419 -0.1972 0.7749 -10.3934 -4.0470 -0.6921 -10.4402 3.6719 -6.9996 14.1011 3.4469 -63.6187 8.5702 32.9966 2.0883 -0.6788 -93.0511 42.7152 -27.2236 -22.8226 -15.5850 10.1522 14.8824 -59.6021 1.7736 2.0034 -13.9936 11.2557 26.3423 66.2938 -24.6099 17.3417 -0.8442 -0.1931 94.3885 -29.0281 -6.7311 6.7211 15.6526 6.9934 -15.9783 50.2327 -3.5966 -4.6909 26.0002 -28.6308 -20.4629 -0.6074 23.1082 -1.5650 -29.9097 4.7160 -11.0453 1.6228 -0.3237 -1.9744 -21.5227 13.1435 -18.5757 -0.4017 16.8691 1.5009 28.6639 -19.7604 -20.3172 -1.4553 -0.9321 1.0779
2.3994 87.9266 4.6221 0.3773 -2.0872 40.1988 2.5648 2.1765 2.7434 0.2112 -4.0220 8.1984 0.6733 10.4547 8.8315 -2.7233 17.0348 3.3774 -2.0055 -3.8276 -5.4694 -1.0245 -5.7693 -9.2055 0.0594 0.0392 -0.2182 0.7858 -10.3696 -4.0703 -0.6869 -10.4118 3.6490 -6.9710 14.0294 3.9691 -61.6602 7.9694 36.5067 2.3093 -0.6763 -93.3547 45.6877 -32.3215 -24.6754 -15.6423 10.1186 14.7626 -59.8006 1.7742 2.0337 -14.8715 11.0108 26.5004 66.5343 -26.8894 18.4927 -0.6669 -0.1256 94.9237 -26.5888 0.5940 7.0144 15.9291 7.0616 -16.1860 50.4026 -3.4746 -4.7357 25.6286 -28.5314 -20.9356 -0.6100 22.8184 -1.5788 -30.0046 4.8154 -11.5977 1.6183 -0.3360 -1.9716 -21.7332 14.1779 -19.3874 -0.4015 16.0559 1.4590 28.7916 -19.7606 -20.4255 -1.4602 -1.0023 1.0617
2.3282 87.8757 4.8981 0.5698 -2.2914 41.1899 2.6058 2.0199 2.8169 0.2606 -4.0772 8.3675 0.7724 10.3505 9.1143 -2.4558 17.2546 3.3142 -2.1725 -3.8101 -6.1165 -1.5159 -5.4873 -9.7127 0.0665 0.0356 -0.2372 0.7918 -10.3376 -4.0897 -0.6797 -10.3822 3.6301 -6.7289 13.9123 4.3917 -60.2997 6.9758 39.7730 2.4468 -0.6365 -93.8184 50.4909 -37.9011 -28.0330 -15.6538 10.1694 14.7938 -60.0505 1.7742 2.1050 -15.8824 10.7614 26.5807 67.0044 -28.8971 19.7548 -0.3999 0.0367 95.7028 -24.5753 7.2011 7.9879 16.1572 7.0567 -16.2383 50.4224 -3.4100 -4.7534 25.3649 -28.3177 -21.4912 -0.6093 22.4489 -1.5892 -30.2062 4.9955 -12.0593 1.6154 -0.3314 -1.9726 -21.8392 15.0455 -20.0086 -0.4000 15.5559 1.4217 29.0319 -19.7737 -20.6674 -1.4659 -1.0496 1.0424
2.2419 87.7996 5.1607 0.7334 -2.4995 42.1920 2.6154 1.8898 2.8389 0.3144 -4.1245 8.4748 0.8399 10.3057 9.2823 -2.2569 17.5048 3.2667 -2.3059 -3.8140 -6.5923 -1.9660 -5.2483 -10.0892 0.0752 0.0281 -0.2591 0.7987 -10.3147 -4.1088 -0.6697 -10.3642 3.6032 -6.3114 13.7206 4.6917 -59.3568 5.7836 42.6494 2.4904 -0.6442 -94.5287 57.7089 -43.4356 -33.3439 -15.5508 10.2548 14.8627 -60.3314 1.7589 2.1586 -16.8640 10.4924 26.6179 67.6109 -30.5426 21.0120 -0.1698 0.3162 96.4600 -23.1273 12.4923 9.2994 16.2487 7.0324 -16.2058 50.3804 -3.3462 -4.7658 25.1714 -28.0517 -22.1597 -0.6012 22.0573 -1.5967 -30.4966 5.1773 -12.4182 1.6136 -0.2937 -1.9801 -21.8629 15.7825 -20.4879 -0.3965 15.3804 1.3989 29.3403 -19.8544 -21.0003 -1.4692 -1.1022 1.0329
2.1466 87.7440 5.3993 0.9330 -2.7229 43.1948 2.5919 1.8096 2.8434 0.3437 -4.1586 8.5601 0.8906 10.3218 9.3495 -2.0854 17.7517 3.2107 -2.4285 -3.8132 -6.9346 -2.3053 -5.1161 -10.3680 0.0746 0.0222 -0.2557 0.8009 -10.3134 -4.1007 -0.6734 -10.3600 3.6007 -5.7749 13.4989 4.8840 -58.6291 4.5635 44.8161 2.4993 -0.6541 -95.2243 67.0158 -47.7705 -40.2683 -15.2708 10.3063 14.8617 -60.3917 1.6764 2.1634 -17.7793 10.2293 26.6484 68.2547 -31.8474 22.0182 0.0833 0.5804 97.1192 -22.1602 16.5063 10.6438 16.2678 6.9945 -16.1918 50.2792 -3.3584 -4.8277 24.9168 -27.7536 -22.8294 -0.5866 21.6021 -1.5870 -30.8461 5.3927 -12.6834 1.6132 -0.2614 -1.9894 -21.8513 16.3523 -20.8447 -0.3931 15.5759 1.3873 29.6922 -20.0364 -21.4822 -1.4684 -1.1279 1.0312
2.0460 87.6815 5.6373 1.1598 -2.9302 44.1842 2.5298 1.7743 2.9009 0.3529 -4.1651 8.5884 0.9417 10.3258 9.3522 -1.9052 17.9653 3.1614 -2.5570 -3.8071 -7.1847 -2.5335 -5.1003 -10.6239 0.0694 0.0212 -0.2376 0.8100 -10.3252 -4.0815 -0.6942 -10.3645 3.6230 -5.1522 13.3169 5.0461 -57.8984 3.4500 46.0315 2.3919 -0.7291 -95.6740 76.6875 -50.4637 -47.1601 -14.9196 10.3046 14.7563 -60.1240 1.5900 2.1414 -18.5815 10.0082 26.6910 68.7380 -32.7041 22.7815 0.2881 0.8358 97.5685 -21.6567 19.4393 11.8413 16.2605 6.9475 -16.1346 50.2685 -3.3789 -4.8947 24.6103 -27.4721 -23.4846 -0.5574 21.1090 -1.5434 -31.1532 5.6183 -12.8513 1.6082 -0.2658 -2.0008 -21.8075 16.8087 -21.0896 -0.3908 15.9325 1.3995 30.0345 -20.2593 -22.1715 -1.4673 -1.1628 1.0583
1.9501 87.6608 5.8513 1.3755 -3.0719 45.1969 2.4736 1.7509 2.9179 0.3394 -4.1721 8.6458 1.0037 10.3021 9.3412 -1.6722 18.0799 3.0535 -2.6914 -3.7963 -7.4002 -2.6418 -5.0976 -10.8841 0.0608 0.0296 -0.2202 0.8137 -10.3493 -4.0685 -0.7144 -10.3753 3.6427 -4.5351 13.1320 5.2049 -57.0044 2.3850 46.4483 2.1415 -0.8327 -95.9674 85.3853 -52.0774 -52.9930 -14.6358 10.2394 14.6118 -59.8175 1.5374 2.1146 -19.2444 9.7421 26.8138 68.6510 -33.0591 23.4499 0.4648 1.0075 97.7507 -21.3292 21.7211 12.7469 16.2339 6.9044 -16.1129 50.3436 -3.3843 -4.9373 24.3188 -27.2738 -24.0943 -0.4914 20.5877 -1.4658 -31.4065 5.8715 -13.0411 1.6021 -0.3567 -2.0097 -21.6868 17.2369 -21.3522 -0.3965 16.1696 1.4364 30.2488 -20.4578 -23.0570 -1.4635 -1.1898 1.0778
1.8563 87.6436 6.0556 1.5139 -3.1206 46.1289 2.4493 1.7075 2.9490 0.3174 -4.1813 8.6859 1.0924 10.2229 9.3769 -1.4068 18.0631 2.9389 -2.8040 -3.7751 -7.5861 -2.6685 -5.0431 -11.1592 0.0569 0.0310 -0.2088 0.8149 -10.3718 -4.0589 -0.7241 -10.3880 3.6615 -4.0076 12.8860 5.3944 -55.8725 1.2757 46.4552 1.8134 -0.8673 -96.1907 92.0750 -53.1772 -57.0484 -14.3829 10.2218 14.4904 -59.6916 1.5770 2.0987 -19.7984 9.4971 27.0496 67.6126 -32.9988 24.3555 0.5328 1.1175 97.6699 -20.9842 23.7137 13.0790 16.1453 6.8773 -16.1339 50.3228 -3.4415 -4.9498 24.1227 -27.1308 -24.6423 -0.4299 20.0842 -1.3875 -31.5484 6.0979 -13.2508 1.5945 -0.5190 -2.0061 -21.3276 17.7404 -21.3900 -0.4097 16.1816 1.4339 30.2539 -20.5471 -24.0893 -1.4606 -1.2436 1.1040
1.8060 87.6641 6.2547 1.5857 -3.1066 46.9406 2.4502 1.6607 2.9812 0.3074 -4.2005 8.7623 1.1734 10.0826 9.4283 -1.1649 17.9779 2.8174 -2.8981 -3.7843 -7.7771 -2.6435 -4.9282 -11.4600 0.0600 0.0260 -0.2092 0.8177 -10.3890 -4.0624 -0.7199 -10.4061 3.6624 -3.5064 12.5452 5.5626 -54.6062 0.1387 46.5566 1.5579 -0.9169 -96.5915 97.1452 -53.7789 -59.8125 -14.3250 10.1384 14.3731 -59.7489 1.5989 2.1171 -20.4832 9.2588 27.3934 66.1235 -32.7731 25.2095 0.4815 1.2079 97.6821 -20.7368 25.5472 12.9401 16.0291 6.8746 -16.1899 50.1861 -3.4936 -4.9778 24.0303 -26.9798 -25.1603 -0.3886 19.5912 -1.3396 -31.6621 6.2685 -13.3772 1.5927 -0.6627 -1.9951 -20.8733 18.3322 -21.3365 -0.4148 15.8875 1.4221 30.0925 -20.5368 -25.0395 -1.4578 -1.3032 1.1094
1.8111 87.6879 6.4456 1.6349 -3.0436 47.6173 2.4616 1.6109 3.0047 0.3236 -4.2246 8.8828 1.2224 9.8890 9.5207 -1.0059 17.8263 2.6619 -2.9696 -3.8022 -7.9215 -2.5923 -4.8051 -11.7773 0.0628 0.0199 -0.2229 0.8261 -10.3861 -4.0777 -0.7221 -10.4075 3.6469 -3.0732 12.1665 5.6679 -53.2766 -1.2725 47.1699 1.4182 -1.0032 -97.1849 101.3725 -53.7539 -61.9364 -14.4525 9.9955 14.2665 -59.8728 1.5528 2.1579 -21.2804 8.9994 27.8301 64.7851 -32.6129 25.3971 0.5248 1.2172 98.2429 -20.8447 26.8557 12.7552 15.9913 6.8576 -16.2255 50.0749 -3.5378 -5.0305 23.9969 -26.8328 -25.6802 -0.3785 19.1656 -1.3423 -31.7284 6.3861 -13.2868 1.5957 -0.7233 -1.9804 -20.5209 18.8543 -21.3329 -0.4149 15.5022 1.4382 29.9301 -20.4617 -25.6714 -1.4557 -1.3786 1.1048
1.8649 87.7250 6.6163 1.7064 -2.8794 48.1576 2.4701 1.5483 3.0973 0.3546 -4.2493 8.9820 1.2378 9.6328 9.6182 -0.9119 17.6544 2.5472 -3.0229 -3.8177 -8.0660 -2.5346 -4.7036 -12.0790 0.0653 0.0166 -0.2389 0.8424 -10.3876 -4.0940 -0.7336 -10.4103 3.6311 -2.7688 11.8546 5.7953 -51.9100 -3.1547 48.2593 1.3904 -1.1738 -97.8884 105.4513 -53.3100 -63.8692 -14.6715 9.8958 14.1549 -60.0555 1.4826 2.1870 -22.1415 8.8156 28.3172 63.3821 -32.6367 25.0977 0.5608 1.1508 99.3814 -21.4516 27.8326 12.4932 15.9024 6.8438 -16.2039 49.8722 -3.5619 -5.0920 23.9859 -26.8464 -26.2201 -0.3828 18.9498 -1.3608 -31.6905 6.4596 -12.9946 1.5958 -0.6829 -1.9541 -20.2806 19.2032 -21.3431 -0.4081 15.1530 1.4689 29.8611 -20.3893 -26.0334 -1.4565 -1.4563 1.1130
1.9841 87.7951 6.7696 1.8718 -2.6111 48.6043 2.4712 1.4671 3.2051 0.3851 -4.2712 9.1048 1.2173 9.3169 9.7506 -0.9463 17.4411 2.4965 -3.0759 -3.8285 -8.2288 -2.4747 -4.6109 -12.3777 0.0634 0.0162 -0.2400 0.8484 -10.3986 -4.1015 -0.7441 -10.4252 3.6389 -2.6315 11.5481 6.0316 -50.4860 -5.5131 49.5600 1.3967 -1.3524 -98.4270 109.3735 -52.5838 -65.6108 -14.8881 9.8626 14.0517 -60.2686 1.4643 2.2390 -23.0149 8.7196 28.7717 61.7494 -32.7911 24.6738 0.5124 1.1695 100.8692 -22.5021 29.0305 11.8547 15.8373 6.8552 -16.1823 49.7337 -3.5852 -5.1293 23.9202 -27.0109 -26.7330 -0.3797 18.8690 -1.3704 -31.5873 6.4849 -12.5602 1.5952 -0.6591 -1.9124 -20.1946 19.3590 -21.3238 -0.3936 14.8076 1.5060 29.8174 -20.1834 -26.2563 -1.4634 -1.5568 1.1254
2.1858 87.8820 6.8781 2.1417 -2.2864 49.0277 2.4708 1.3815 3.3073 0.4183 -4.3214 9.2046 1.1354 9.0145 9.8989 -1.1146 17.2796 2.4922 -3.1275 -3.8473 -8.5121 -2.3983 -4.5589 -12.6473 0.0543 0.0159 -0.2163 0.8386 -10.4237 -4.0812 -0.7527 -10.4473 3.6672 -2.6213 11.2713 6.3153 -49.1411 -8.3216 50.9830 1.4240 -1.4866 -98.7754 113.2455 -51.4929 -67.5092 -15.0915 9.8881 13.9676 -60.5095 1.4591 2.3112 -23.9267 8.6847 29.1767 60.0148 -33.0415 24.2577 0.3267 1.1194 102.6390 -23.6271 30.4908 10.8441 15.6637 6.9045 -16.2031 49.5730 -3.6146 -5.1993 23.7071 -27.3425 -27.1562 -0.3756 18.8961 -1.3640 -31.4700 6.4957 -12.0867 1.5982 -0.6564 -1.8635 -20.2330 19.4501 -21.2787 -0.3841 14.4480 1.5397 29.7654 -19.8417 -26.4080 -1.4678 -1.7708 1.1316
2.4556 88.0557 7.0080 2.5244 -1.9115 49.4349 2.5037 1.2648 3.5005 0.4704 -4.4345 9.3467 0.9655 8.8093 10.0251 -1.2945 17.1314 2.5330 -3.2986 -3.8356 -8.7476 -2.4030 -4.6384 -13.1986 0.0535 0.0014 -0.1623 0.8286 -10.4703 -4.0409 -0.7447 -10.5004 3.7331 -2.8470 11.0001 6.5244 -47.7349 -11.6793 52.3109 1.2514 -1.5253 -98.9087 116.6764 -50.0887 -69.3340 -15.3871 9.9955 14.0316 -60.7925 1.3928 2.5339 -24.8095 8.7080 29.3929 58.5920 -33.5796 23.5882 0.4504 1.1792 104.4319 -24.7381 31.9309 9.6216 15.7951 6.9540 -16.2420 49.3318 -3.7006 -5.2476 23.3419 -27.8610 -27.4493 -0.4109 19.0782 -1.4269 -31.3458 6.4270 -11.6476 1.6024 -0.7077 -1.8380 -20.3651 19.5172 -21.1096 -0.3524 14.0034 1.5056 29.6762 -18.9402 -26.6357 -1.4834 -2.0892 1.1193
2.8487 88.2441 7.1067 2.9644 -1.6267 49.7691 2.5640 1.1553 3.6825 0.5308 -4.4848 9.4045 0.7894 8.6188 10.1422 -1.6625 17.1453 2.6311 -3.3151 -3.8678 -9.1371 -2.4476 -4.6931 -13.5534 0.0467 -0.0059 -0.1355 0.8166 -10.5020 -4.0123 -0.7473 -10.5294 3.7630 -3.2587 10.7831 6.6930 -46.3155 -15.0535 53.2704 1.4443 -1.6655 -98.9744 118.5127 -48.4749 -70.0029 -15.6589 10.0308 13.9734 -60.9998 1.4222 2.6114 -25.6350 8.8056 29.6028 57.1384 -34.1750 23.2190 0.5227 1.0189 106.0189 -25.6613 33.6326 8.3252 15.8110 7.0722 -16.2125 49.3120 -3.7118 -5.2945 22.7350 -28.3390 -27.4334 -0.4275 19.2801 -1.4213 -31.1997 6.3162 -11.3780 1.6047 -0.7583 -1.7948 -20.6543 19.8164 -20.7155 -0.3500 13.4690 1.5293 29.6807 -18.0821 -26.6059 -1.4891 -2.5096 1.1447
3.2796 88.4097 7.1815 3.3831 -1.4010 50.0370 2.6855 1.0506 3.7967 0.6045 -4.5576 9.5209 0.6445 8.5068 10.2632 -2.0726 17.1434 2.6760 -3.3766 -3.8844 -9.4526 -2.5031 -4.7185 -13.8822 0.0416 -0.0049 -0.1250 0.7950 -10.4980 -3.9941 -0.7367 -10.5252 3.7660 -3.8362 10.4897 6.7967 -44.8500 -18.5383 53.8954 1.7308 -1.7791 -98.9511 119.2993 -46.8712 -70.1297 -15.8597 10.0891 13.9966 -61.1847 1.4321 2.7077 -26.3415 8.9055 29.6597 55.6168 -34.6930 23.3129 0.5942 1.0072 107.2872 -26.2604 35.2985 7.0960 15.9132 7.1837 -16.2361 49.3634 -3.7754 -5.3031 22.0817 -28.7802 -27.3256 -0.4395 19.5886 -1.3956 -31.1279 6.1250 -11.1791 1.6079 -0.8422 -1.7815 -21.0270 20.2795 -20.2677 -0.3564 12.7834 1.5704 29.5938 -16.9614 -26.5347 -1.4939 -2.9996 1.1658
3.7696 88.5621 7.2179 3.7564 -1.2442 50.1132 2.8423 0.9676 3.9112 0.6889 -4.6207 9.6243 0.5322 8.4618 10.3338 -2.5039 17.0785 2.7946 -3.4315 -3.8848 -9.7176 -2.5595 -4.8368 -14.1784 0.0384 -0.0014 -0.1201 0.7779 -10.5176 -3.9866 -0.7275 -10.5465 3.7720 -4.4525 10.1025 6.9151 -43.3710 -22.1952 54.2369 2.0698 -2.0124 -98.7714 118.8399 -45.2197 -69.3482 -15.9473 10.2257 14.0256 -61.3865 1.4505 2.7960 -26.9317 9.0116 29.6987 53.8846 -35.0833 23.9855 0.5451 0.9776 108.1138 -26.6854 36.9499 6.0592 16.0308 7.2425 -16.2419 49.4069 -3.8328 -5.3206 21.4170 -29.2294 -27.0996 -0.4493 20.1871 -1.3612 -31.0203 5.7715 -10.9949 1.6062 -0.8691 -1.7887 -21.4811 20.7933 -19.7923 -0.3621 12.0864 1.6141 29.5326 -15.8018 -26.3386 -1.4996 -3.4392 1.1906
4.2784 88.6946 7.1885 4.1044 -1.1198 49.9983 2.9943 0.9317 4.0000 0.7646 -4.6570 9.7182 0.4331 8.4715 10.3608 -2.9172 16.8326 2.9102 -3.5070 -3.8825 -9.8856 -2.5892 -5.1263 -14.3819 0.0355 0.0009 -0.1132 0.7701 -10.5289 -3.9803 -0.7264 -10.5613 3.7812 -5.0139 9.6706 6.9778 -42.2207 -26.0920 54.6093 2.2253 -2.2745 -98.5343 117.3055 -43.4662 -67.7477 -15.9470 10.3888 14.0350 -61.5407 1.4695 2.8310 -27.3771 9.1467 29.7019 52.0498 -35.3198 25.0751 0.3987 0.9046 108.5615 -27.0231 38.5838 5.4527 16.1431 7.3018 -16.2692 49.5292 -3.8759 -5.4162 20.7690 -29.7048 -26.7108 -0.4528 20.9734 -1.3215 -30.8373 5.2986 -10.8231 1.6071 -0.8577 -1.8010 -21.9915 21.2416 -19.3443 -0.3652 11.3908 1.6530 29.4693 -14.6981 -26.0636 -1.5056 -3.8400 1.2168
4.7389 88.8145 7.1596 4.3596 -1.0320 49.6644 3.1507 0.9731 4.0844 0.8272 -4.6714 9.7529 0.3581 8.5525 10.2852 -3.3140 16.3627 3.1041 -3.5461 -3.8796 -9.9606 -2.5878 -5.6493 -14.4739 0.0328 0.0005 -0.1142 0.7654 -10.5449 -3.9822 -0.7279 -10.5788 3.7864 -5.4348 9.2397 6.9632 -41.7062 -30.0489 55.2528 2.2921 -2.5075 -98.4168 114.6405 -41.7387 -65.2379 -15.8344 10.5512 14.0511 -61.5440 1.4670 2.8079 -27.6326 9.2243 29.7420 50.3670 -35.4175 26.2869 0.2735 0.7547 108.6026 -27.2057 40.0377 5.3892 16.1976 7.3465 -16.2662 49.5951 -3.9102 -5.4963 20.2292 -30.0956 -26.2584 -0.4491 21.8573 -1.2661 -30.5544 4.7720 -10.6352 1.6054 -0.8443 -1.8131 -22.4743 21.6093 -18.9019 -0.3770 10.7556 1.6956 29.3657 -13.6699 -25.6936 -1.5114 -4.1803 1.2544
5.1403 88.8928 7.1297 4.5298 -0.8965 49.1695 3.2625 1.0724 4.1361 0.8518 -4.6479 9.7405 0.3138 8.6330 10.1542 -3.6469 15.6439 3.2736 -3.5588 -3.8622 -9.7975 -2.6048 -6.3365 -14.4220 0.0294 0.0035 -0.1086 0.7662 -10.5418 -3.9769 -0.7360 -10.5798 3.7956 -5.6109 8.8384 6.8411 -42.0854 -33.6144 56.2921 2.2344 -2.5696 -98.6832 111.2635 -40.2889 -61.9221 -15.7375 10.6502 14.0779 -61.4247 1.4826 2.8243 -27.6886 9.2346 29.6970 48.8391 -35.3504 27.5605 0.1463 0.7550 108.1783 -27.3267 41.2801 5.6468 16.2138 7.4323 -16.3125 49.6773 -3.8762 -5.5573 19.8310 -30.4662 -25.7209 -0.4509 22.6856 -1.2357 -30.1751 4.2919 -10.4559 1.6028 -0.8813 -1.8375 -22.9146 21.7478 -18.6036 -0.3868 10.1955 1.7448 29.2578 -12.8209 -25.4315 -1.5152 -4.3722 1.2658
5.5023 88.9868 7.0516 4.5922 -0.7752 48.5754 3.3010 1.2347 4.0425 0.8689 -4.5658 9.6533 0.3247 8.7169 9.8952 -4.0718 14.8181 3.4728 -3.3367 -3.8807 -9.5953 -2.5472 -7.1635 -13.8578 0.0162 0.0252 -0.1191 0.7574 -10.5281 -3.9825 -0.7535 -10.5607 3.7878 -5.5190 8.5909 6.5436 -43.5327 -36.3681 57.8152 2.4040 -2.7046 -99.6159 107.2205 -38.4909 -57.9261 -15.6272 10.6777 14.1059 -61.2706 1.5479 2.8258 -27.4902 9.2395 29.5837 47.0974 -34.9910 29.1535 -0.2248 0.7836 107.1409 -27.5290 42.3616 6.1414 15.9097 7.5805 -16.5739 50.0876 -3.8782 -5.7189 19.5180 -30.6585 -25.0335 -0.4092 23.2862 -1.1328 -29.7181 3.9770 -10.2715 1.6029 -0.9541 -1.8511 -23.2766 21.7779 -18.3355 -0.4220 9.7475 1.8644 29.0600 -12.4511 -25.0437 -1.5024 -4.6950 1.2815
5.7735 89.0819 7.0040 4.4908 -0.5316 47.8786 3.3453 1.3485 3.9789 0.8773 -4.5154 9.4577 0.3849 8.8501 9.6240 -4.3580 13.9825 3.6365 -3.1647 -3.8845 -9.1089 -2.4844 -8.0908 -13.2711 0.0168 0.0350 -0.1200 0.7573 -10.5377 -3.9895 -0.7513 -10.5770 3.7930 -5.2871 8.2583 5.8982 -45.5611 -38.5353 59.4350 2.4549 -2.6934 -101.2418 103.0591 -36.4091 -54.0837 -15.6472 10.7540 14.3482 -61.1996 1.5059 2.9008 -26.9680 9.1454 29.3156 45.3481 -34.5486 30.6439 -0.5769 0.9749 105.4223 -28.1129 43.0195 6.6599 15.8270 7.6394 -16.7495 50.2052 -3.8582 -5.8064 19.5232 -30.9931 -24.3207 -0.4124 23.8977 -1.1406 -29.3336 3.7553 -10.1495 1.6061 -1.0404 -1.8872 -23.4198 21.6398 -18.1346 -0.4359 9.2750 1.8779 28.9165 -11.6578 -24.6851 -1.4911 -4.8737 1.2521
5.9592 89.1880 6.9557 4.2602 -0.2232 47.0980 3.3639 1.4159 3.8371 0.9020 -4.4768 9.1726 0.5031 9.0051 9.2923 -4.5616 13.2946 3.8034 -2.9508 -3.9197 -8.4388 -2.3948 -9.0404 -12.4294 0.0105 0.0426 -0.0928 0.7420 -10.5292 -3.9613 -0.7474 -10.5742 3.8164 -4.8045 7.9931 4.8882 -48.3080 -39.5956 60.7657 2.5604 -2.6901 -103.9037 97.6642 -34.1831 -49.3531 -15.6273 10.7595 14.4792 -61.0287 1.4745 2.8385 -25.9072 8.9656 29.0934 43.3591 -33.8715 32.0185 -0.9487 1.0645 102.8652 -29.1135 42.9621 7.3588 15.7108 7.6898 -16.8265 50.1712 -3.7473 -5.7818 19.7267 -31.3262 -23.5638 -0.4157 24.4261 -1.1457 -28.9670 3.6494 -9.9871 1.6148 -0.9753 -1.8738 -23.4651 21.3044 -17.9785 -0.4335 8.8810 1.9133 28.8233 -10.9599 -24.1003 -1.4841 -5.0742 1.2212
6.0857 89.2882 6.8607 3.9043 0.1135 46.1557 3.4446 1.4577 3.7590 0.9336 -4.4716 8.8184 0.7050 9.2291 8.9412 -4.6184 12.6612 3.9872 -2.7772 -3.9003 -7.4773 -2.3641 -9.9627 -11.5228 0.0100 0.0253 -0.0538 0.7227 -10.5294 -3.9296 -0.7276 -10.5880 3.8606 -4.2136 7.6581 3.5622 -50.8776 -39.3235 60.6956 2.2096 -2.4375 -107.2575 91.5340 -32.4223 -44.0591 -15.5316 10.7798 14.6155 -60.9634 1.4472 2.7359 -24.2426 8.7688 28.9174 40.8043 -32.9157 33.3959 -1.1033 1.3024 99.2133 -30.9874 42.2629 7.8191 15.9641 7.6505 -16.6929 49.8951 -3.6142 -5.6276 20.1712 -31.7369 -22.9534 -0.4508 25.0908 -1.2414 -28.6730 3.5573 -9.7269 1.6189 -0.9516 -1.8442 -23.4234 20.6880 -17.8857 -0.4057 8.6931 1.8578 28.8886 -10.0503 -23.5374 -1.4945 -4.9434 1.1773
6.2183 89.3776 6.7093 3.5540 0.2809 45.0598 3.4429 1.5694 3.4781 0.9594 -4.4055 8.4364 0.9831 9.4412 8.4772 -4.7412 12.1969 4.1514 -2.3621 -3.9080 -6.4651 -2.1986 -10.7000 -9.9164 -0.0087 0.0536 -0.0399 0.6782 -10.4832 -3.9059 -0.7185 -10.5268 3.8753 -3.5686 7.8016 2.1342 -52.4701 -37.6505 58.0853 1.5167 -2.2927 -110.7213 83.6362 -30.9494 -36.7979 -15.2933 10.7358 14.6141 -61.2603 1.4712 2.4874 -22.0553 8.6969 28.9507 37.2004 -31.1744 35.4114 -1.5319 1.3345 94.1575 -33.3693 41.4153 8.3112 15.9257 7.7592 -16.7216 50.2060 -3.4953 -5.5955 20.4894 -31.8753 -22.0088 -0.4185 25.5738 -1.2300 -28.3300 3.6941 -9.4972 1.6302 -0.9075 -1.7802 -23.5664 19.9049 -17.8411 -0.3925 8.8624 1.9022 28.9379 -9.8168 -22.8023 -1.4798 -5.1166 1.1787
6.3246 89.4743 6.4966 3.2221 0.2874 43.8850 3.4867 1.6845 3.1979 0.9941 -4.4109 7.9988 1.2552 9.8035 8.0689 -4.6793 11.7518 4.2191 -1.9943 -3.8187 -5.3102 -1.9934 -11.3168 -8.3099 -0.0193 0.0820 -0.0234 0.6427 -10.4850 -3.8902 -0.7020 -10.5031 3.8924 -3.1023 7.8773 0.6685 -51.4654 -35.4292 52.5265 -0.1867 -1.6542 -112.3889 73.4135 -30.5188 -27.6640 -15.1215 10.8867 15.1047 -61.6812 1.4877 2.4794 -19.6311 8.7552 28.8604 32.6142 -28.4671 37.9184 -1.6993 1.4613 87.9296 -36.9408 40.2924 7.5131 16.0029 7.9169 -16.6731 50.2057 -3.4119 -5.4106 20.7355 -31.9751 -21.0216 -0.4374 26.2175 -1.3102 -27.9863 3.7189 -9.3560 1.6465 -1.0240 -1.8002 -23.8431 19.0478 -17.8517 -0.3503 9.3128 1.8516 29.0773 -9.2747 -22.1704 -1.4828 -5.0396 1.1839
6.4506 89.5016 6.3039 3.0504 0.2259 42.3751 3.4327 1.7461 3.0420 1.0418 -4.4413 7.4567 1.4567 10.2101 7.7307 -4.4786 11.3831 4.2071 -1.5299 -3.6538 -3.8664 -1.8668 -11.5197 -6.9481 -0.0194 0.0789 -0.0013 0.6366 -10.5492 -3.8832 -0.6948 -10.5488 3.9248 -2.8471 7.8403 -0.5754 -47.4035 -32.9799 44.8518 -1.8268 -0.5643 -111.1256 58.2975 -29.4533 -16.0959 -15.2877 11.1244 15.7658 -61.0662 1.5171 2.6863 -17.0273 9.0006 28.5945 27.0824 -24.2014 40.7057 -1.2266 1.4951 80.5250 -41.7991 39.5941 5.1649 16.1407 8.0085 -16.5668 49.6494 -3.3320 -5.1177 20.7949 -32.0776 -19.8668 -0.4688 27.0680 -1.3750 -27.5419 3.3046 -9.2344 1.6418 -1.1771 -1.8716 -24.3173 18.0960 -17.6802 -0.3227 9.8182 1.8057 29.1627 -8.6680 -21.7258 -1.5072 -4.5816 1.1792
6.6481 89.5540 6.1144 3.0094 -0.0096 40.6348 3.2697 1.8140 2.7832 1.0530 -4.3757 6.8998 1.5906 10.5278 7.3467 -4.4011 11.3972 3.9882 -0.8848 -3.6628 -2.4775 -1.6245 -11.4259 -5.1930 -0.0205 0.1148 -0.0263 0.6335 -10.5674 -3.8984 -0.6930 -10.5514 3.8933 -3.1305 7.9710 -1.3184 -40.9036 -30.8638 36.9972 -2.1230 0.4744 -106.9352 42.0532 -23.3664 -7.7822 -15.1541 10.8029 15.4609 -60.2421 1.6108 2.4387 -14.4433 9.6719 28.2530 21.0451 -17.3287 43.5340 -0.8945 1.4689 71.8076 -47.5391 39.6172 0.9379 16.1781 7.9820 -16.3855 49.4271 -3.1934 -5.0722 20.6176 -31.8253 -18.3836 -0.3795 27.8396 -1.2378 -27.0199 2.8542 -9.1039 1.6348 -1.3704 -2.0050 -25.0002 17.2330 -17.2770 -0.4071 10.5203 1.8362 29.2044 -8.5779 -20.7828 -1.4957 -4.6106 1.1896
6.8933 89.6040 6.0002 2.9474 -0.3738 38.8328 3.1554 1.8438 2.6361 1.0474 -4.3840 6.5427 1.5529 10.9597 7.0107 -4.2543 11.6488 3.5761 -0.4317 -3.7239 -1.3307 -1.2395 -11.4316 -3.5584 -0.0196 0.1254 -0.0607 0.6229 -10.5621 -3.9183 -0.6809 -10.5495 3.8425 -3.1273 7.9420 -1.8945 -36.0172 -30.1158 32.7223 -1.8612 1.4609 -101.0123 35.7601 -18.7746 -7.8255 -14.7314 10.5250 15.2217 -59.5875 1.4707 2.1568 -12.6043 10.5191 27.8432 17.4267 -9.1060 44.1818 -0.6558 1.2396 62.1633 -53.9492 37.8815 -4.9410 16.7302 7.3553 -15.7327 49.6211 -3.1105 -4.9386 20.4605 -31.4093 -16.8133 -0.3616 28.6415 -1.1821 -26.6806 2.3425 -9.0119 1.6347 -1.4252 -2.1124 -25.5912 16.5779 -16.5430 -0.4598 11.4231 1.7534 29.0559 -7.8881 -19.6440 -1.4927 -5.0814 1.2198
7.1008 89.6959 5.9544 2.9461 -0.7165 37.1259 2.9609 1.9145 2.6129 0.9942 -4.3265 6.3274 1.2787 11.2320 6.7405 -4.2391 12.0076 3.3251 -0.1063 -3.8430 -0.4944 -0.9682 -11.4480 -2.1904 -0.0147 0.1088 -0.1342 0.6109 -10.5480 -3.9841 -0.6594 -10.5552 3.7605 -2.7965 7.8938 -2.2412 -34.4119 -32.1710 33.1371 -1.7224 1.9355 -93.6342 37.1837 -15.8594 -11.0372 -14.9389 10.5378 15.1602 -59.8500 1.4527 2.0365 -11.4462 11.1702 27.5853 17.1401 -1.5717 42.2940 -0.1680 0.7370 51.9982 -57.4410 31.7039 -9.2713 16.7645 6.7334 -15.1592 50.6317 -2.9344 -4.8053 20.3442 -30.8479 -15.4248 -0.4214 29.1083 -1.2129 -26.5615 1.9070 -8.8090 1.6414 -1.1473 -2.1277 -26.1402 15.9963 -15.6933 -0.4716 12.3045 1.6994 28.8965 -7.4241 -18.6032 -1.4827 -5.3704 1.2215
7.2042 89.7023 5.9306 2.9623 -0.7835 35.8081 2.5905 2.0705 2.6248 0.8158 -4.2013 6.2869 0.8803 11.2618 6.4813 -4.4431 12.1317 3.3392 0.0729 -3.9299 0.0837 -0.7946 -11.5083 -1.1700 -0.0025 0.0917 -0.2069 0.6146 -10.5308 -4.0591 -0.6388 -10.5479 3.6846 -2.1739 7.7654 -2.4936 -35.9330 -36.8007 37.6945 -1.9550 2.1366 -84.6821 44.1854 -12.7053 -13.7411 -15.6453 10.5184 15.3688 -60.3514 1.5837 2.2454 -10.5688 11.4745 27.2234 19.1727 5.8167 38.5775 0.0507 0.2356 42.6778 -55.6463 22.0703 -12.1401 16.5902 6.5530 -15.1844 52.3940 -2.9492 -4.9165 20.3573 -30.5752 -14.3294 -0.5343 29.2253 -1.3459 -26.5575 1.7138 -8.8418 1.6414 -0.8643 -2.0399 -26.4381 15.3684 -15.0129 -0.4964 13.0404 1.6384 28.7293 -7.3737 -18.1688 -1.4562 -5.1853 1.1849
7.1357 89.6720 5.8853 2.9088 -0.4594 34.9912 2.0907 2.3402 2.5834 0.5685 -4.0093 6.3479 0.3637 11.1185 6.2145 -5.0379 11.8551 3.6907 0.0935 -3.9359 0.6184 -0.5744 -11.9176 -0.4851 0.0061 0.0825 -0.2193 0.6165 -10.5308 -4.0802 -0.6231 -10.5492 3.6784 -1.6220 7.5812 -2.5754 -38.9711 -41.9793 44.6349 -2.1704 2.3141 -76.0577 53.5991 -13.6006 -14.8809 -16.2743 10.1218 15.5956 -60.9352 1.7890 2.5198 -9.7453 11.9347 26.5393 22.1416 11.6238 32.8746 0.6977 0.1688 35.2822 -50.4926 10.7572 -14.6944 17.4431 6.1793 -16.0239 53.8445 -3.3610 -5.3291 20.5917 -30.7720 -13.5112 -0.6464 29.0516 -1.5116 -26.6389 1.6810 -9.0463 1.6371 -0.6597 -1.9382 -26.4126 14.4740 -14.6614 -0.5162 13.5897 1.6441 28.7076 -7.9425 -18.0980 -1.4451 -4.7477 1.1715
6.9312 89.6016 5.8128 2.6721 0.3221 34.6702 1.6168 2.6696 2.5754 0.3041 -3.8706 6.3841 -0.1763 10.9101 6.0934 -5.9756 11.3043 4.1331 -0.1220 -3.8633 1.4137 -0.3791 -12.7288 -0.3086 0.0114 0.0535 -0.1804 0.6250 -10.5861 -4.0572 -0.6204 -10.6160 3.7298 -1.0651 7.5801 -2.5802 -43.2231 -46.3817 53.1132 -2.1431 2.4287 -69.2795 63.2515 -21.2056 -18.2426 -16.3179 9.4531 15.3366 -60.9573 1.7579 2.5287 -9.0280 12.5130 25.6254 25.7209 14.1283 24.0720 1.1991 0.5422 29.1923 -43.6002 -0.7070 -17.2088 18.0611 6.0481 -16.8341 53.2970 -3.8217 -5.5947 21.2263 -31.6487 -13.1855 -0.7314 28.9192 -1.6590 -26.7036 1.7914 -9.5277 1.6247 -0.5328 -1.8626 -25.9537 13.2640 -14.9422 -0.4884 13.6698 1.7064 28.6212 -8.5410 -17.8958 -1.4640 -4.0706 1.1943
6.6279 89.5636 5.8072 2.2705 1.3070 34.8719 1.1886 2.9653 2.4496 0.0591 -3.6056 6.3320 -0.6380 10.6318 5.9643 -7.3877 10.7106 4.5602 -0.1953 -3.9208 2.0261 -0.1174 -13.5534 -0.1689 0.0030 0.0982 -0.1287 0.6085 -10.5546 -3.9967 -0.6203 -10.5844 3.7856 -0.5923 7.6861 -2.3669 -47.3562 -48.4298 61.6428 -1.8756 1.6898 -66.0375 70.2909 -29.1500 -23.8855 -16.1934 9.1027 14.8091 -60.8572 1.7222 2.4748 -8.2906 13.2732 24.4211 29.1056 13.9503 12.1942 -0.2515 1.2606 24.8375 -38.4777 -8.1599 -19.7366 17.5990 6.8249 -17.0600 52.5646 -3.7739 -5.5204 22.0497 -32.4446 -13.4527 -0.6084 28.2615 -1.5937 -26.7249 2.1887 -9.7280 1.6073 -0.3956 -1.8131 -25.3028 12.1435 -15.9141 -0.4657 13.0172 1.7789 28.4148 -9.6589 -17.3190 -1.4665 -3.6315 1.2856
6.2366 89.6758 5.8587 1.6836 2.4753 35.3295 0.9944 3.1310 2.4019 -0.1179 -3.4548 6.2082 -0.9660 10.3021 5.8361 -8.4889 10.4729 4.9415 -0.3154 -3.9186 2.1590 0.1240 -14.3924 -0.4182 -0.0019 0.1284 -0.0671 0.6072 -10.5200 -3.9325 -0.6292 -10.5621 3.8509 -0.4010 7.7659 -2.1584 -49.5561 -47.9921 68.1433 -1.4904 0.4734 -65.6974 75.4121 -35.2216 -29.9109 -16.3934 9.0661 14.3993 -60.9182 1.6252 2.5602 -7.2942 13.8771 22.6720 30.7464 12.0231 -1.9844 -2.1794 1.9035 23.3732 -35.6966 -10.5412 -19.8730 17.2852 7.4491 -16.5964 51.8498 -3.5781 -5.2845 23.2558 -33.1822 -14.4799 -0.4896 27.3774 -1.5399 -26.8644 2.7889 -9.8028 1.6027 -0.3515 -1.8065 -24.3147 11.0380 -17.0962 -0.4400 12.1954 1.7205 27.7993 -9.9281 -16.6631 -1.4752 -3.1716 1.3316
5.8898 89.8324 5.9966 1.2047 3.5014 35.7310 0.8445 3.1361 2.3734 -0.2294 -3.3872 6.0133 -1.2264 9.9390 5.5049 -9.1229 10.7543 5.2302 -0.2910 -3.9249 2.1037 0.2352 -14.8697 -0.7205 -0.0038 0.1364 -0.0178 0.6139 -10.4833 -3.8845 -0.6407 -10.5352 3.9037 -0.2444 7.7239 -1.8675 -50.3304 -45.9012 72.6599 -1.0951 -0.7646 -66.6120 78.9491 -39.4628 -33.8078 -16.4303 9.2276 14.1566 -60.8673 1.7400 2.5615 -6.2788 14.4478 20.6946 30.8726 10.0107 -15.1888 -3.3128 2.2135 24.1301 -32.3371 -10.5925 -17.7953 16.8826 7.6019 -16.3477 51.0061 -3.6182 -5.1481 24.2900 -33.6050 -15.3973 -0.3977 26.3377 -1.4667 -27.0892 3.2912 -9.7643 1.6033 -0.2902 -1.8072 -23.4802 10.3698 -18.1973 -0.4073 11.0074 1.6008 27.0784 -9.9005 -16.0861 -1.4810 -2.7850 1.3351
5.5903 89.9514 6.1800 0.8507 4.1358 35.8399 0.7443 3.1073 2.3760 -0.2815 -3.3810 5.7213 -1.4443 9.5823 5.0359 -9.3348 11.3113 5.4726 -0.2003 -3.9118 2.0924 0.2018 -15.0008 -0.9022 -0.0021 0.1207 -0.0031 0.6324 -10.5015 -3.8797 -0.6570 -10.5654 3.9328 -0.1760 7.6909 -1.5293 -50.2851 -42.8519 75.4391 -0.5722 -1.8564 -67.7400 81.0152 -42.5908 -35.5159 -16.2844 9.4015 13.9332 -60.7030 1.8628 2.4345 -5.5289 14.9768 18.7051 30.1317 8.4429 -25.9911 -3.1980 2.1513 27.2100 -27.6316 -9.4412 -15.5877 16.6285 7.5608 -16.3240 50.5405 -3.7069 -5.1531 25.0168 -33.7297 -15.7022 -0.3736 25.4864 -1.4187 -27.2958 3.5818 -9.7711 1.6064 -0.2433 -1.8390 -22.8705 10.2695 -18.9670 -0.4128 9.6720 1.4718 26.5702 -9.7542 -15.7189 -1.4820 -2.4048 1.3127
5.3475 89.9631 6.3162 0.6191 4.3631 35.4084 0.6841 3.0486 2.3439 -0.2948 -3.4342 5.4678 -1.6755 9.3147 4.5516 -9.2699 11.7863 5.5855 -0.2209 -3.8832 2.2491 0.1462 -14.7891 -0.8767 0.0004 0.1042 -0.0049 0.6585 -10.5445 -3.9009 -0.6794 -10.6166 3.9500 -0.2596 7.9072 -1.1174 -50.1782 -39.4089 77.0962 0.0842 -2.4242 -68.8346 82.3747 -45.2719 -36.2050 -16.2227 9.4544 13.7640 -60.4625 1.9022 2.3615 -5.2958 15.3648 17.0639 29.5188 7.1916 -33.5634 -2.4736 1.8151 31.7760 -23.5325 -8.1616 -13.7542 16.3302 7.5352 -16.4311 50.1125 -3.8319 -5.1908 25.4688 -33.6123 -15.4116 -0.3563 25.0410 -1.3848 -27.4158 3.5944 -9.7894 1.6077 -0.1649 -1.8733 -22.5988 10.4070 -19.2727 -0.4398 8.5665 1.4140 26.3734 -9.7056 -15.4898 -1.4798 -1.9459 1.2718
5.0774 89.9274 6.3659 0.4248 4.2243 34.3842 0.6929 2.9617 2.3311 -0.3062 -3.5092 5.2820 -1.8632 9.1939 4.1457 -9.2161 12.0423 5.6339 -0.2765 -3.8487 2.4855 0.0733 -14.4196 -0.5840 0.0077 0.0948 -0.0219 0.6837 -10.5617 -3.9326 -0.6906 -10.6416 3.9482 -0.5904 8.4414 -0.7111 -50.2811 -36.1862 78.2019 0.6175 -2.5917 -69.6567 83.3293 -47.8027 -36.6177 -16.2831 9.4306 13.5909 -60.2294 1.8925 2.3358 -5.2783 15.6059 16.0877 29.3711 5.5167 -38.2811 -1.8245 1.4483 36.8425 -21.8166 -7.4209 -12.2168 16.0352 7.5952 -16.5093 49.9011 -3.9032 -5.1828 25.7631 -33.2229 -14.6230 -0.3351 24.9261 -1.3541 -27.3839 3.4908 -9.7276 1.6063 -0.1480 -1.9189 -22.5482 10.5630 -19.1309 -0.4629 7.8670 1.3921 26.3156 -9.8617 -15.0597 -1.4756 -1.6630 1.2622
4.8226 89.8839 6.3215 0.2427 3.8620 33.0930 0.7571 2.8709 2.2704 -0.3189 -3.5835 5.1382 -1.9585 9.1822 3.9057 -9.3018 12.1200 5.6732 -0.2542 -3.8204 2.7283 -0.0494 -14.0705 -0.0788 0.0163 0.0943 -0.0607 0.7017 -10.5632 -3.9739 -0.6911 -10.6422 3.9060 -1.0493 8.9847 -0.3024 -50.4993 -33.4811 78.8505 1.0703 -2.4934 -70.2065 84.3946 -50.0600 -37.6522 -16.2658 9.4092 13.5132 -59.7568 1.8562 2.2484 -5.1729 15.6968 15.7230 29.7826 3.1118 -41.1202 -1.5224 1.2307 42.3401 -22.2081 -6.9655 -11.0334 15.9682 7.7385 -16.5294 50.0770 -3.8946 -5.1289 25.9409 -32.6451 -13.5377 -0.3215 24.8483 -1.3389 -27.3148 3.4089 -9.6543 1.6075 -0.1352 -1.9609 -22.5804 10.6553 -18.7714 -0.4544 7.5601 1.3811 26.2098 -10.2064 -14.4522 -1.4685 -1.5033 1.2669
4.5903 89.8712 6.1625 0.0990 3.4046 31.6872 0.8205 2.7938 2.2300 -0.3233 -3.6444 4.9914 -1.9358 9.1840 3.8083 -9.5830 12.1271 5.8061 -0.1273 -3.8032 2.9181 -0.2348 -13.7342 0.4543 0.0233 0.0901 -0.0836 0.7181 -10.5535 -3.9976 -0.6936 -10.6303 3.8843 -1.5292 9.4427 0.0297 -50.8569 -31.1351 79.2647 1.4472 -2.1988 -70.6606 86.5577 -51.9295 -39.8945 -16.2784 9.4323 13.5314 -59.4076 1.8439 2.1445 -4.8365 15.7186 15.8465 30.9228 0.0528 -43.0313 -1.4030 1.1841 48.7432 -24.3306 -6.8770 -9.6744 16.0543 7.8929 -16.4410 50.3830 -3.8388 -5.0374 26.0005 -31.9887 -12.2253 -0.3079 24.6600 -1.3188 -27.2569 3.4262 -9.5506 1.6096 -0.1073 -1.9996 -22.6926 10.5926 -18.2868 -0.4452 7.5915 1.3781 26.0826 -10.6437 -13.7647 -1.4639 -1.3292 1.2757
4.3059 89.8746 5.9430 0.0056 2.9783 30.5117 0.8932 2.7078 2.1713 -0.3200 -3.7032 4.8955 -1.8352 9.1948 3.7723 -9.9934 12.0274 5.9434 0.0106 -3.8130 3.0716 -0.4398 -13.4797 0.9080 0.0272 0.0850 -0.0795 0.7234 -10.5300 -3.9870 -0.6903 -10.6032 3.8782 -1.8962 9.7865 0.2842 -51.4888 -28.9569 79.4210 1.7409 -1.8145 -71.3211 90.1068 -53.1050 -43.6977 -16.2236 9.5303 13.6863 -59.2356 1.8337 2.0721 -4.2403 15.6854 16.2176 33.0274 -3.0971 -44.4005 -1.4778 1.2605 56.2604 -27.7351 -7.4766 -7.0494 16.0269 7.9458 -16.3750 50.4187 -3.8565 -5.0051 25.9930 -31.4031 -10.9319 -0.3106 24.2514 -1.3069 -27.3192 3.6535 -9.5766 1.6145 -0.1175 -1.9958 -22.8015 10.4658 -17.8892 -0.4314 7.7049 1.3657 25.9303 -11.0984 -13.1619 -1.4594 -1.1579 1.2582
4.0412 89.9093 5.7127 -0.0607 2.6109 29.6343 0.9583 2.5899 2.1244 -0.3056 -3.7650 4.8051 -1.6844 9.2247 3.7927 -10.4121 11.8006 6.0518 0.1185 -3.8443 3.1829 -0.6241 -13.1862 1.2112 0.0307 0.0771 -0.0616 0.7338 -10.5103 -3.9627 -0.6930 -10.5791 3.8875 -2.1867 10.0421 0.4507 -52.2641 -26.8216 79.1916 2.0945 -1.4541 -72.4173 94.5287 -53.4229 -48.5264 -16.1689 9.5877 13.8501 -59.2989 1.8240 2.0867 -3.3703 15.6122 16.7655 36.0214 -5.8092 -45.1688 -1.7605 1.2377 64.3524 -31.8689 -8.1216 -2.6867 15.8091 7.7736 -16.3836 50.2200 -3.9012 -5.0855 25.9185 -30.9614 -9.7216 -0.3248 23.7098 -1.3107 -27.5124 3.9728 -9.8014 1.6182 -0.1660 -1.9700 -22.8955 10.3514 -17.6620 -0.4086 7.7706 1.3296 25.8108 -11.4932 -12.5860 -1.4564 -1.0456 1.2348
3.7812 89.9294 5.4830 -0.1195 2.2929 29.0970 1.0140 2.4439 2.0945 -0.2936 -3.8277 4.7760 -1.4828 9.2838 3.8326 -10.7195 11.5032 6.1212 0.1851 -3.8868 3.2722 -0.8012 -12.8038 1.3458 0.0335 0.0708 -0.0475 0.7388 -10.5052 -3.9434 -0.6914 -10.5646 3.8922 -2.4887 10.2152 0.4794 -53.0898 -24.7208 78.6029 2.4367 -1.2502 -73.9617 98.7038 -52.9125 -53.2880 -16.0621 9.6227 14.0121 -59.4429 1.8378 2.1348 -2.2853 15.4862 17.3968 39.4167 -7.8466 -45.3481 -2.1126 1.0454 72.2173 -35.5335 -6.8925 1.9283 15.7469 7.4238 -16.3610 50.1810 -3.9117 -5.2133 25.8321 -30.6382 -8.6643 -0.3442 23.0647 -1.2838 -27.7896 4.3472 -10.1546 1.6181 -0.1848 -1.9463 -22.9627 10.2887 -17.6676 -0.3875 7.7744 1.2684 25.8023 -11.8504 -12.0988 -1.4532 -0.9715 1.2033
3.5069 89.9105 5.2545 -0.1965 1.9946 28.8240 1.0736 2.3096 2.0878 -0.2882 -3.8732 4.7777 -1.2197 9.3389 3.9254 -10.9153 11.1810 6.1497 0.2561 -3.9161 3.2790 -0.9580 -12.3969 1.4204 0.0363 0.0670 -0.0509 0.7461 -10.5124 -3.9424 -0.6926 -10.5588 3.8820 -2.9205 10.3690 0.4104 -53.9450 -22.7170 77.6115 2.8004 -1.1325 -75.8513 101.8686 -51.9122 -57.2251 -15.8985 9.6317 14.1546 -59.4464 1.8544 2.1470 -1.1902 15.2975 18.0086 43.0186 -9.2780 -44.9865 -2.3849 0.9327 79.3446 -37.9508 -3.8298 5.7255 15.9342 7.1463 -16.2230 50.3693 -3.8396 -5.2665 25.7565 -30.3902 -7.7918 -0.3554 22.4164 -1.2419 -28.1088 4.7618 -10.5176 1.6132 -0.2208 -1.9517 -22.9931 10.2103 -17.8446 -0.3589 7.8518 1.2014 25.8886 -12.2794 -11.6571 -1.4514 -0.9270 1.1799
3.1961 89.8527 5.0032 -0.3190 1.7050 28.7169 1.1540 2.1973 2.0720 -0.2824 -3.9178 4.8120 -0.9192 9.4250 4.0601 -11.0108 10.8678 6.1896 0.2975 -3.9424 3.1702 -1.0772 -12.0259 1.4016 0.0362 0.0652 -0.0575 0.7495 -10.5214 -3.9429 -0.6958 -10.5528 3.8676 -3.5253 10.5411 0.2932 -54.8175 -20.8839 76.3215 3.1406 -1.0576 -77.8843 104.4180 -50.6692 -60.7964 -15.7384 9.5936 14.2610 -59.3445 1.8513 2.0949 -0.1336 15.0369 18.5892 46.6026 -10.2335 -44.1268 -2.4588 0.8980 85.6353 -39.0405 0.1681 8.7348 16.1584 6.9651 -16.0792 50.5167 -3.7701 -5.2757 25.7574 -30.2171 -7.0873 -0.3658 21.8245 -1.1988 -28.4253 5.1714 -10.8776 1.6061 -0.3192 -1.9674 -22.9792 10.1321 -18.1679 -0.3279 7.9925 1.1682 26.0192 -12.7921 -11.2450 -1.4493 -0.9030 1.1593
2.8510 89.7773 4.7295 -0.4977 1.4204 28.6542 1.2692 2.1138 2.0355 -0.2695 -3.9380 4.8870 -0.5980 9.5377 4.2534 -11.0834 10.5849 6.1776 0.2808 -3.9492 3.0756 -1.1289 -11.7987 1.3413 0.0337 0.0689 -0.0587 0.7505 -10.5228 -3.9400 -0.7015 -10.5438 3.8601 -4.2730 10.7308 0.2364 -55.6961 -19.2624 74.8441 3.3681 -0.9688 -79.8339 106.4683 -49.4840 -64.0767 -15.6052 9.5458 14.3221 -59.2835 1.8329 2.0381 0.7989 14.7868 19.1558 49.8917 -10.7842 -42.8192 -2.2528 1.0139 90.9994 -39.0614 4.3044 10.9973 16.3123 6.9019 -16.0608 50.5678 -3.7513 -5.3029 25.8521 -30.0857 -6.5169 -0.3435 21.3186 -1.1388 -28.7550 5.5171 -11.2011 1.5985 -0.4181 -1.9812 -22.9211 9.9753 -18.5418 -0.3004 8.2849 1.1673 26.1995 -13.3383 -10.8664 -1.4471 -0.9208 1.1403
2.5202 89.6852 4.4553 -0.6949 1.1124 28.5888 1.4033 2.0850 2.0329 -0.2439 -3.9368 4.9341 -0.3018 9.6742 4.4362 -11.1432 10.3983 6.1549 0.2921 -3.9533 2.9770 -1.2106 -11.7332 1.3172 0.0331 0.0766 -0.0667 0.7492 -10.5187 -3.9449 -0.7008 -10.5313 3.8467 -5.0707 10.9662 0.1872 -56.5831 -17.8014 73.3900 3.5221 -0.7943 -81.6229 107.9884 -48.5795 -66.9670 -15.5401 9.5398 14.3843 -59.3355 1.8109 1.9791 1.6095 14.5859 19.6794 52.5317 -10.9823 -41.0629 -1.7825 1.1380 95.4622 -38.3823 8.1783 12.7137 16.2379 6.9061 -16.0905 50.4399 -3.7221 -5.2989 25.9751 -29.9868 -6.0291 -0.3252 20.9379 -1.0989 -28.9662 5.8365 -11.4696 1.5909 -0.5319 -1.9824 -22.8356 9.7644 -18.8675 -0.2692 8.7867 1.1732 26.3301 -13.9379 -10.4808 -1.4456 -0.9394 1.1261
2.2039 89.6044 4.1448 -0.9241 0.7928 28.4462 1.5728 2.0776 2.0068 -0.2097 -3.9176 5.0131 -0.0274 9.8388 4.5964 -11.2497 10.3650 6.1425 0.2999 -3.9705 2.9181 -1.2991 -11.7343 1.3293 0.0354 0.0778 -0.0682 0.7490 -10.4990 -3.9381 -0.6959 -10.5109 3.8363 -5.8853 11.2247 0.1598 -57.4567 -16.4069 72.0557 3.6335 -0.6237 -83.2419 108.7061 -48.0230 -69.1955 -15.4995 9.5964 14.4470 -59.5447 1.7574 1.9185 2.2782 14.4911 20.2180 54.6051 -10.8816 -39.0344 -1.2188 1.2479 99.0599 -37.3422 11.6224 14.1308 16.0520 6.9566 -16.1482 50.2685 -3.6684 -5.2622 26.1671 -29.8659 -5.5868 -0.3097 20.6501 -1.0854 -29.0816 6.0602 -11.6442 1.5849 -0.6318 -1.9725 -22.7133 9.5291 -19.0127 -0.2343 9.4300 1.1643 26.4106 -14.5095 -10.1616 -1.4429 -0.9784 1.1136
1.9383 89.5258 3.8396 -1.1173 0.4819 28.2415 1.7278 2.0711 1.9862 -0.1676 -3.8897 5.0698 0.1987 10.0124 4.7170 -11.3764 10.4644 6.1337 0.3036 -3.9961 2.9234 -1.3957 -11.7544 1.3773 0.0359 0.0761 -0.0617 0.7430 -10.4748 -3.9223 -0.6887 -10.4896 3.8349 -6.6182 11.4542 0.1355 -58.3196 -14.9681 70.8695 3.7444 -0.4531 -84.7198 108.3090 -47.7310 -70.3300 -15.4305 9.7100 14.5814 -59.7765 1.7138 1.8936 2.8346 14.4826 20.6852 56.1196 -10.5586 -36.8037 -0.6536 1.3706 101.7464 -36.1575 14.5027 15.2802 15.8194 7.0492 -16.2602 50.1500 -3.6351 -5.2510 26.3578 -29.6743 -5.1934 -0.3100 20.3652 -1.0792 -29.1345 6.1960 -11.6956 1.5837 -0.6979 -1.9474 -22.6420 9.2427 -19.0194 -0.2129 10.1599 1.1451 26.5098 -15.0095 -9.8802 -1.4420 -1.0342 1.1105
1.7331 89.4536 3.5719 -1.2796 0.1787 27.9558 1.8736 2.0719 1.9618 -0.1329 -3.8704 5.1202 0.4064 10.2104 4.8102 -11.4759 10.6308 6.1103 0.3277 -4.0131 2.9657 -1.5093 -11.8086 1.5074 0.0360 0.0782 -0.0570 0.7401 -10.4607 -3.9109 -0.6855 -10.4720 3.8286 -7.1664 11.6978 0.0996 -59.2314 -13.4052 69.8194 3.9248 -0.3577 -86.2261 106.8179 -47.6227 -70.2415 -15.3947 9.8153 14.6703 -59.9715 1.6781 1.8628 3.2428 14.4885 21.0445 57.1153 -10.0365 -34.4606 -0.2480 1.3930 103.6328 -34.8361 16.7685 16.1696 15.5816 7.1380 -16.3564 50.0196 -3.5614 -5.2268 26.5108 -29.4738 -4.8849 -0.3095 20.1599 -1.0780 -29.1084 6.3355 -11.5851 1.5842 -0.7278 -1.9150 -22.5598 8.9211 -18.9027 -0.2024 10.9538 1.1140 26.5863 -15.4983 -9.6516 -1.4407 -1.0473 1.0936
1.5644 89.3901 3.3027 -1.4249 -0.1306 27.6473 2.0116 2.0923 1.9452 -0.0999 -3.8418 5.1269 0.5927 10.4041 4.8727 -11.5411 10.8441 6.1150 0.3657 -4.0423 3.0142 -1.6072 -11.8842 1.6297 0.0331 0.0828 -0.0532 0.7340 -10.4575 -3.9010 -0.6850 -10.4661 3.8266 -7.5241 11.8925 0.0626 -60.1786 -11.7909 68.9218 4.0045 -0.3005 -87.7603 104.7722 -47.5115 -69.3869 -15.4131 9.9393 14.7477 -60.2764 1.6738 1.8302 3.5397 14.5041 21.2916 57.7387 -9.4521 -32.1793 0.1419 1.3800 104.7868 -33.5935 18.5283 16.7212 15.4394 7.1707 -16.4139 49.8831 -3.5382 -5.1957 26.6853 -29.2296 -4.6908 -0.3140 20.0270 -1.0899 -29.0650 6.4384 -11.3715 1.5857 -0.7844 -1.8934 -22.4876 8.6125 -18.7100 -0.2069 11.7696 1.0975 26.6334 -15.9569 -9.4843 -1.4419 -1.0173 1.0811
1.4347 89.3267 3.0469 -1.5635 -0.4468 27.3478 2.1533 2.1253 1.9214 -0.0745 -3.8128 5.0967 0.7633 10.5949 4.9270 -11.5659 11.0698 6.1588 0.4113 -4.0633 3.1075 -1.6898 -11.9542 1.7568 0.0285 0.0861 -0.0505 0.7261 -10.4436 -3.8915 -0.6862 -10.4510 3.8267 -7.8011 12.0392 0.0448 -61.1726 -10.2024 68.0559 3.9282 -0.1832 -89.3984 102.3796 -47.3218 -68.0453 -15.4936 10.0920 14.8971 -60.6911 1.6828 1.8270 3.8340 14.5401 21.4656 58.1154 -8.8844 -30.0073 0.5243 1.3870 105.3510 -32.4691 19.8507 17.2052 15.3925 7.1884 -16.4615 49.8052 -3.5362 -5.1868 26.8877 -28.9340 -4.5872 -0.2985 19.9315 -1.0851 -29.0819 6.4745 -11.1783 1.5852 -0.8277 -1.8789 -22.3997 8.3264 -18.4470 -0.2268 12.5957 1.0881 26.6826 -16.3927 -9.4107 -1.4441 -0.9461 1.0734
1.3260 89.2567 2.7789 -1.6970 -0.8146 27.0063 2.3037 2.1882 1.8864 -0.0454 -3.7786 5.0804 0.9254 10.8305 4.9523 -11.6094 11.3194 6.1758 0.4757 -4.0922 3.2102 -1.7126 -12.0349 1.9124 0.0246 0.0900 -0.0466 0.7189 -10.4401 -3.8823 -0.6866 -10.4473 3.8225 -7.9805 12.1811 0.0227 -62.2412 -8.5299 67.1542 3.8041 -0.2260 -91.2379 99.4609 -46.9262 -66.1134 -15.5970 10.1849 15.0485 -61.1197 1.6674 1.8164 4.0124 14.6460 21.5772 58.3423 -8.3004 -27.9700 0.7993 1.3487 105.4764 -31.5337 20.6672 17.6487 15.3743 7.1801 -16.4983 49.7746 -3.5206 -5.1566 27.0949 -28.6311 -4.4927 -0.2868 19.9640 -1.0771 -29.1536 6.4254 -10.9951 1.5842 -0.8328 -1.8781 -22.3387 8.1155 -18.1216 -0.2354 13.4082 1.0547 26.7583 -16.7873 -9.3579 -1.4440 -0.9059 1.0615
1.2100 89.1786 2.5446 -1.7969 -1.2320 26.6279 2.4367 2.2606 1.8476 -0.0096 -3.7377 5.0567 1.0669 11.1063 4.9284 -11.6183 11.5859 6.1527 0.5467 -4.1132 3.3871 -1.6527 -12.0769 2.0974 0.0204 0.0903 -0.0424 0.7159 -10.4498 -3.8759 -0.6918 -10.4535 3.8245 -8.1368 12.2957 -0.0003 -63.3547 -6.7525 66.0173 3.7620 -0.3095 -93.2377 96.2459 -46.3981 -63.8442 -15.6977 10.2205 15.2067 -61.4232 1.6422 1.8084 4.1503 14.7804 21.6129 58.3665 -7.6841 -25.9920 0.9616 1.2186 105.2602 -30.6733 21.0237 17.9417 15.3559 7.1622 -16.5016 49.7970 -3.5034 -5.1448 27.2572 -28.3121 -4.3426 -0.2727 20.1130 -1.0619 -29.2285 6.2934 -10.8458 1.5804 -0.8472 -1.8847 -22.3182 7.9340 -17.7216 -0.2462 14.2576 1.0290 26.8632 -17.1805 -9.2833 -1.4440 -0.8985 1.0572
1.1147 89.0435 2.2909 -1.8705 -1.6989 26.1738 2.5499 2.3566 1.8273 0.0336 -3.7042 4.9952 1.1992 11.4377 4.9033 -11.5719 11.8896 6.1416 0.6332 -4.1251 3.6177 -1.5225 -12.1189 2.2968 0.0183 0.0887 -0.0362 0.7123 -10.4606 -3.8711 -0.6923 -10.4621 3.8332 -8.3504 12.3804 -0.0428 -64.5663 -4.9321 64.6890 3.7277 -0.3466 -95.3920 92.9999 -45.9206 -61.4375 -15.7796 10.2083 15.2958 -61.5686 1.6277 1.7854 4.2936 14.9472 21.6136 58.1421 -7.0457 -24.0704 1.0358 1.0641 104.7886 -29.9189 21.0617 18.0678 15.3519 7.1612 -16.4869 49.8649 -3.4852 -5.1122 27.4211 -27.9949 -4.1703 -0.2695 20.4590 -1.0538 -29.2280 6.0521 -10.6599 1.5776 -0.8728 -1.8932 -22.3672 7.7480 -17.2380 -0.2484 15.2136 1.0103 26.9980 -17.6081 -9.2063 -1.4440 -0.8976 1.0600
1.0541 88.8848 2.0988 -1.9173 -2.2420 25.5939 2.6544 2.4770 1.8019 0.0737 -3.6574 4.9131 1.3242 11.8241 4.8597 -11.4379 12.1982 6.0980 0.7052 -4.1225 3.9526 -1.3352 -12.1308 2.5209 0.0174 0.0863 -0.0335 0.7088 -10.4642 -3.8686 -0.6903 -10.4658 3.8373 -8.6713 12.4737 -0.0460 -65.9487 -3.1973 63.1514 3.6935 -0.3258 -97.6459 89.5737 -45.2890 -58.7800 -15.8949 10.2025 15.3470 -61.6413 1.6269 1.7561 4.4021 15.1647 21.6063 57.7617 -6.3820 -22.1339 0.9826 0.9454 104.1124 -29.2314 20.9458 18.0189 15.2873 7.2065 -16.4694 49.9513 -3.4610 -5.0961 27.6010 -27.6421 -3.9776 -0.2674 21.0111 -1.0397 -29.1967 5.7355 -10.4993 1.5731 -0.9238 -1.9102 -22.5076 7.5245 -16.6647 -0.2450 16.3399 1.0205 27.2006 -18.0441 -9.0280 -1.4417 -0.9041 1.0710
1.0290 88.6744 1.8916 -1.9618 -2.8674 24.9300 2.7448 2.6402 1.7948 0.1129 -3.6038 4.8037 1.4460 12.2409 4.7798 -11.1982 12.5430 6.0109 0.7680 -4.1148 4.3326 -1.1139 -12.1126 2.7958 0.0177 0.0811 -0.0409 0.7161 -10.4776 -3.8786 -0.6968 -10.4789 3.8335 -8.9994 12.6891 -0.0365 -67.5115 -1.6840 61.5073 3.6169 -0.3358 -99.9742 86.0431 -44.4603 -56.0177 -16.1080 10.1711 15.3713 -61.6985 1.6183 1.6958 4.4343 15.4160 21.5666 57.3163 -5.6365 -20.3262 0.9081 0.8011 103.4018 -28.6454 20.8596 17.8011 15.2139 7.2527 -16.4124 50.0680 -3.4513 -5.0484 27.8157 -27.3404 -3.7182 -0.2748 21.8278 -1.0368 -29.1642 5.3102 -10.4449 1.5705 -0.9560 -1.9242 -22.7040 7.3074 -16.0518 -0.2383 17.6220 1.0359 27.4498 -18.5835 -8.7708 -1.4363 -0.8655 1.0861
1.0643 88.4352 1.7378 -2.0233 -3.5029 24.1709 2.8175 2.8110 1.7328 0.1537 -3.5371 4.6861 1.5586 12.6418 4.7064 -10.8751 12.8554 5.8915 0.8241 -4.1000 4.7366 -0.8644 -12.0737 3.1155 0.0161 0.0757 -0.0492 0.7151 -10.4666 -3.8847 -0.6988 -10.4665 3.8244 -9.3035 12.9135 -0.0676 -69.0993 -0.4201 59.7483 3.4255 -0.2666 -102.2251 82.7797 -43.4523 -53.4978 -16.2686 10.1205 15.4442 -61.6416 1.6117 1.6534 4.4642 15.6495 21.4557 56.8145 -4.8417 -18.5873 0.8074 0.7985 102.6320 -28.1309 20.9320 17.4437 15.1818 7.3208 -16.3923 50.2236 -3.4350 -5.0033 28.0983 -27.1056 -3.3756 -0.2870 22.8452 -1.0616 -29.1337 4.7731 -10.4426 1.5693 -0.9881 -1.9393 -22.9407 7.0785 -15.4278 -0.2286 18.9063 1.0831 27.6693 -19.0690 -8.4065 -1.4311 -0.8596 1.0970
1.1350 88.1955 1.5930 -2.0963 -4.0829 23.2984 2.8553 2.9709 1.6716 0.1813 -3.4762 4.5240 1.6801 13.0057 4.6283 -10.4863 13.1360 5.7934 0.8870 -4.0845 5.1539 -0.6913 -12.0638 3.5285 0.0140 0.0714 -0.0675 0.7128 -10.4713 -3.9032 -0.7000 -10.4719 3.8084 -9.4823 13.1439 -0.1780 -70.6058 0.7038 57.7167 3.2779 -0.2854 -104.3937 79.3244 -42.3452 -50.7345 -16.4237 10.0043 15.5049 -61.5080 1.6142 1.6059 4.5272 15.8585 21.3319 56.2518 -3.9302 -17.0281 0.7093 0.7589 101.9489 -27.6602 21.3840 16.9512 15.2118 7.3566 -16.3728 50.3571 -3.4362 -4.9481 28.4095 -26.9979 -2.9282 -0.3124 24.0455 -1.0945 -29.0399 4.1489 -10.4540 1.5719 -1.0121 -1.9410 -23.1411 6.8037 -14.7678 -0.2160 20.1491 1.1191 27.8590 -19.5576 -7.9403 -1.4264 -0.8542 1.1051
1.2745 87.9672 1.4798 -2.1858 -4.6327 22.2809 2.8739 3.1257 1.5913 0.1909 -3.4117 4.3628 1.8181 13.3348 4.5240 -10.1227 13.3388 5.7007 0.9707 -4.0879 5.6514 -0.5665 -12.1149 4.0290 0.0099 0.0631 -0.0733 0.7029 -10.4742 -3.9084 -0.6974 -10.4760 3.8027 -9.5329 13.3806 -0.3806 -72.0342 1.7153 55.1608 3.2075 -0.3234 -106.4151 75.4451 -41.0348 -47.4560 -16.5138 9.8175 15.5440 -61.2297 1.5898 1.6137 4.6573 16.0480 21.2112 55.6170 -2.9141 -15.5435 0.5637 0.7996 101.3349 -27.1150 21.9919 16.3803 15.1978 7.3763 -16.3789 50.4134 -3.4305 -4.9151 28.7918 -26.9654 -2.3573 -0.3424 25.4124 -1.1363 -29.0071 3.3632 -10.4694 1.5764 -1.0566 -1.9299 -23.3525 6.5175 -14.0118 -0.2061 21.3077 1.1615 28.0523 -20.0099 -7.4117 -1.4227 -0.8470 1.1095
1.4834 87.7273 1.3945 -2.2418 -5.1319 21.0635 2.8308 3.2938 1.5131 0.1912 -3.3284 4.1767 1.9311 13.5960 4.3483 -9.8165 13.4018 5.6240 1.1016 -4.0826 6.2741 -0.5402 -12.2822 4.7232 0.0044 0.0604 -0.0693 0.6857 -10.4719 -3.9038 -0.6903 -10.4791 3.8078 -9.3945 13.6422 -0.7182 -73.3671 2.5628 51.9487 3.1819 -0.3400 -108.1359 71.4390 -39.4665 -43.9561 -16.4284 9.6201 15.4995 -60.7344 1.5410 1.6545 4.8220 16.2348 21.1167 55.0168 -1.8710 -14.1887 0.4772 0.8563 100.9360 -26.3872 22.5000 15.8696 15.1753 7.3753 -16.3552 50.4371 -3.3822 -4.9043 29.1532 -27.0069 -1.5874 -0.4002 26.9112 -1.1950 -28.9485 2.4968 -10.4894 1.5840 -1.1071 -1.9081 -23.6090 6.1592 -13.1220 -0.1864 22.4127 1.2106 28.2344 -20.4307 -6.8128 -1.4217 -0.8515 1.1204
1.7148 87.4744 1.3337 -2.2434 -5.5718 19.6555 2.7267 3.4998 1.4309 0.1723 -3.2287 3.9739 2.0029 13.7753 4.1382 -9.5612 13.2724 5.5365 1.2923 -4.0692 7.0051 -0.6137 -12.4824 5.6083 -0.0021 0.0631 -0.0608 0.6696 -10.4701 -3.8963 -0.6863 -10.4790 3.8204 -9.0401 13.8493 -1.1936 -74.5730 3.1647 48.1058 3.1270 -0.3239 -109.5303 67.5043 -37.6261 -40.6647 -16.1548 9.4414 15.3762 -60.1217 1.4958 1.7589 4.9365 16.3036 20.9498 54.4884 -0.6392 -12.8827 0.4259 0.9823 100.7689 -25.4275 22.5607 15.5512 15.1441 7.3951 -16.3730 50.3927 -3.3297 -4.9725 29.4953 -27.1121 -0.6398 -0.4626 28.4966 -1.2483 -28.9263 1.5964 -10.4655 1.5954 -1.1253 -1.8818 -23.9195 5.7100 -12.0692 -0.1693 23.4943 1.2486 28.4020 -20.8120 -6.2470 -1.4246 -0.8002 1.1279
2.0071 87.1905 1.2810 -2.2098 -5.9352 18.1265 2.5880 3.7355 1.3742 0.1393 -3.1377 3.7059 2.0147 13.9402 3.8606 -9.3595 12.9477 5.4683 1.5047 -4.0485 7.8233 -0.7637 -12.7638 6.6220 -0.0058 0.0658 -0.0552 0.6608 -10.4786 -3.8894 -0.6842 -10.4859 3.8244 -8.5210 14.0106 -1.8179 -75.7262 3.3497 43.8423 2.9887 -0.3095 -110.6439 63.8746 -35.6009 -38.0718 -15.8264 9.2969 15.1815 -59.6030 1.4283 1.8507 4.9479 16.3195 20.7298 54.0607 0.7214 -11.6095 0.4336 1.0625 100.7910 -24.3433 22.2516 15.4265 15.0633 7.3931 -16.3664 50.2633 -3.2821 -5.0617 29.8287 -27.3505 0.3905 -0.5403 30.2099 -1.3077 -28.8631 0.7023 -10.4156 1.6068 -1.1369 -1.8541 -24.2335 5.0755 -10.9011 -0.1534 24.7033 1.2831 28.5241 -21.2175 -5.6029 -1.4282 -0.7685 1.1390
2.3264 86.8680 1.2483 -2.1415 -6.2241 16.4947 2.4234 4.0076 1.3449 0.0928 -3.0269 3.3713 1.9490 14.0932 3.5206 -9.2788 12.4286 5.4384 1.7633 -4.0256 8.7204 -0.9814 -13.1739 7.8158 -0.0087 0.0685 -0.0538 0.6577 -10.5003 -3.8890 -0.6865 -10.5052 3.8306 -7.8547 14.1332 -2.5845 -76.9052 2.9379 39.5764 2.7342 -0.3189 -111.3239 60.4348 -33.5207 -36.0171 -15.5293 9.2564 15.0451 -59.3012 1.4145 1.9416 4.7833 16.3211 20.4300 53.8401 2.0913 -10.3315 0.4916 1.1263 100.8390 -23.1851 21.6479 15.5123 15.0015 7.3893 -16.3882 50.1385 -3.3064 -5.1747 30.1531 -27.6929 1.5770 -0.6099 31.9153 -1.3632 -28.8492 -0.1388 -10.4051 1.6107 -1.0735 -1.8350 -24.5905 4.2389 -9.5919 -0.1397 26.0992 1.3133 28.6202 -21.6108 -4.9011 -1.4349 -0.7687 1.1601
2.6789 86.5338 1.1404 -2.0478 -6.4562 14.7625 2.2246 4.3410 1.2909 0.0485 -2.9295 2.9898 1.8299 14.2870 3.0938 -9.3582 11.7979 5.4491 2.0289 -4.0009 9.6534 -1.2477 -13.6862 9.1829 -0.0117 0.0752 -0.0572 0.6589 -10.5303 -3.8958 -0.6937 -10.5365 3.8325 -7.0517 14.2139 -3.5014 -78.0526 1.8383 35.5764 2.3657 -0.3038 -111.4817 57.1137 -31.4913 -34.1738 -15.3167 9.2690 14.9155 -59.2258 1.4006 2.0176 4.3732 16.3416 20.0276 53.9523 3.3064 -9.0538 0.6399 1.0633 100.8115 -21.9461 20.7635 15.7409 14.9436 7.3419 -16.3833 50.0019 -3.3505 -5.2744 30.4514 -28.1520 2.8947 -0.6752 33.6487 -1.4127 -28.8150 -0.8836 -10.4257 1.6087 -0.9288 -1.8230 -24.9888 3.1721 -8.2146 -0.1063 27.7001 1.3276 28.6126 -22.0123 -4.0496 -1.4417 -0.8069 1.1778
3.0584 86.1835 1.0412 -1.9231 -6.6084 12.9712 1.9980 4.7062 1.2122 0.0044 -2.8057 2.5856 1.6672 14.4651 2.5829 -9.6377 11.1354 5.5540 2.2990 -3.9850 10.5952 -1.5305 -14.3173 10.6691 -0.0149 0.0877 -0.0633 0.6610 -10.5592 -3.9113 -0.7024 -10.5666 3.8369 -6.1391 14.1499 -4.5092 -78.9481 0.0630 32.1821 1.9662 -0.2371 -110.9950 53.7578 -29.5612 -32.0943 -15.2814 9.2868 14.8034 -59.2461 1.3726 2.0315 3.7523 16.3562 19.5579 54.4007 4.3201 -7.8018 0.9051 0.9799 100.6318 -20.5670 19.6477 16.0344 14.8753 7.2593 -16.3635 49.7787 -3.4804 -5.3403 30.7153 -28.6937 4.3078 -0.7180 35.3264 -1.4529 -28.7886 -1.5555 -10.4841 1.6047 -0.7699 -1.8098 -25.4552 1.8588 -6.8111 -0.0484 29.4402 1.3709 28.5791 -22.3818 -3.1470 -1.4449 -0.8448 1.1973
3.4131 85.8309 0.9062 -1.7642 -6.7192 11.1363 1.7359 5.1175 1.1490 -0.0398 -2.6910 2.1297 1.4684 14.6713 2.0386 -10.0935 10.5069 5.7141 2.5795 -3.9723 11.5800 -1.8413 -15.0892 12.1985 -0.0171 0.0976 -0.0743 0.6615 -10.5860 -3.9325 -0.7081 -10.5948 3.8379 -5.1268 14.0300 -5.5699 -79.5419 -2.2652 29.6392 1.6463 -0.2010 -109.9885 50.6863 -27.6746 -29.6872 -15.3317 9.3083 14.6998 -59.2236 1.3482 2.0139 3.0221 16.3876 19.0378 55.0985 5.1528 -6.5200 1.2145 0.8603 100.2906 -19.0255 18.2886 16.3512 14.8004 7.1822 -16.3550 49.5634 -3.5663 -5.3936 30.9459 -29.2414 5.7153 -0.7514 36.9460 -1.4948 -28.7006 -2.1755 -10.4986 1.5985 -0.6303 -1.8051 -25.9798 0.3567 -5.4508 0.0264 31.2641 1.4282 28.4866 -22.7363 -2.0536 -1.4439 -0.9199 1.2210
3.7399 85.5039 0.7394 -1.6305 -6.7820 9.3060 1.4675 5.5376 1.0909 -0.0755 -2.5604 1.6827 1.2816 14.8785 1.4536 -10.6925 9.9200 5.8810 2.8641 -3.9730 12.5644 -2.1639 -15.8733 13.7731 -0.0191 0.1036 -0.0968 0.6654 -10.6040 -3.9615 -0.7162 -10.6126 3.8253 -4.0474 13.9197 -6.5970 -79.9117 -4.9203 28.1767 1.3205 -0.2259 -108.5372 48.3421 -25.7815 -27.1745 -15.3265 9.3306 14.6398 -59.1237 1.3355 1.9781 2.2732 16.4162 18.4716 55.9397 5.8813 -5.1549 1.4617 0.7076 99.8275 -17.2994 16.5767 16.7389 14.7341 7.1534 -16.3601 49.4567 -3.6318 -5.4317 31.2414 -29.7082 6.9584 -0.7827 38.4019 -1.5377 -28.6273 -2.7530 -10.4456 1.5902 -0.5165 -1.8103 -26.5098 -1.2496 -4.2026 0.1271 33.0297 1.5239 28.4012 -23.0171 -0.8125 -1.4400 -0.9923 1.2450
3.9856 85.1887 0.5615 -1.5689 -6.7957 7.4975 1.2161 5.9539 1.0241 -0.1047 -2.4192 1.2817 1.1261 15.0621 0.8638 -11.3692 9.4248 6.0670 3.1520 -3.9979 13.5289 -2.4930 -16.5886 15.3050 -0.0198 0.1062 -0.1233 0.6703 -10.6136 -3.9923 -0.7228 -10.6185 3.8039 -2.9677 13.8256 -7.5522 -79.9810 -7.5910 27.5341 1.0096 -0.2874 -106.7717 46.6812 -24.0023 -24.6637 -15.2827 9.3815 14.6351 -59.0219 1.3392 1.9802 1.6161 16.4313 17.8929 56.8212 6.5750 -3.6968 1.5776 0.6430 99.2007 -15.3881 14.5640 17.1248 14.7315 7.1349 -16.3778 49.4169 -3.6962 -5.4736 31.6457 -30.0874 7.9940 -0.8112 39.6963 -1.5743 -28.5614 -3.3324 -10.3173 1.5837 -0.4600 -1.8055 -26.9660 -2.8912 -3.0831 0.2445 34.6374 1.6363 28.2904 -23.2048 0.5533 -1.4324 -1.0610 1.2653
4.1930 84.9187 0.3873 -1.5652 -6.7505 5.8389 0.9942 6.3589 0.9747 -0.1390 -2.3039 0.9152 0.9895 15.2358 0.3254 -12.0394 9.0387 6.2289 3.4245 -4.0355 14.3896 -2.8183 -17.1890 16.6923 -0.0207 0.1059 -0.1420 0.6713 -10.6360 -4.0143 -0.7259 -10.6327 3.7904 -1.9767 13.7633 -8.4414 -79.7386 -9.9869 27.4041 0.6824 -0.4290 -104.9285 45.3604 -22.2644 -22.1012 -15.1752 9.4597 14.6474 -58.9041 1.3838 1.9746 1.0698 16.4787 17.3122 57.7096 7.1619 -2.2338 1.5524 0.6446 98.3826 -13.4159 12.4806 17.3535 14.7644 7.1532 -16.4036 49.4731 -3.7215 -5.5041 32.0920 -30.4171 8.8099 -0.8398 40.8072 -1.6203 -28.4726 -3.8384 -10.0715 1.5748 -0.4285 -1.8019 -27.2829 -4.4629 -2.1232 0.3468 36.0197 1.7337 28.1722 -23.3902 1.8857 -1.4252 -1.0854 1.2750
4.3387 84.6998 0.2351 -1.6173 -6.5872 4.2340 0.7957 6.6918 0.9217 -0.1801 -2.1962 0.6212 0.8793 15.3796 -0.1647 -12.6961 8.7401 6.3667 3.6399 -4.0809 15.1568 -3.0946 -17.7458 17.8895 -0.0209 0.1062 -0.1560 0.6698 -10.6503 -4.0300 -0.7251 -10.6421 3.7781 -1.2024 13.7070 -9.1969 -79.2243 -12.0925 27.4244 0.4550 -0.5096 -102.9853 44.2498 -20.5402 -19.4038 -15.0307 9.6017 14.6985 -58.8006 1.4797 1.9623 0.6924 16.5164 16.8122 58.4892 7.6417 -0.8202 1.3515 0.7628 97.3430 -11.5684 10.4459 17.4709 14.8288 7.1874 -16.4204 49.5843 -3.7471 -5.5209 32.5519 -30.6839 9.4592 -0.8556 41.6338 -1.6540 -28.3661 -4.1813 -9.6528 1.5675 -0.4203 -1.7872 -27.4796 -6.0178 -1.2221 0.4440 37.1485 1.8386 28.0520 -23.5109 3.1700 -1.4194 -1.0978 1.2805
4.4024 84.5805 0.0699 -1.7246 -6.3214 2.7693 0.6287 6.9626 0.8598 -0.2344 -2.1048 0.3775 0.7747 15.4928 -0.5802 -13.3042 8.5460 6.4988 3.8079 -4.1276 15.7670 -3.3215 -18.2593 18.8437 -0.0207 0.1092 -0.1760 0.6641 -10.6588 -4.0494 -0.7187 -10.6462 3.7590 -0.6438 13.6731 -9.8310 -78.6026 -13.8109 27.5160 0.3092 -0.5605 -101.0514 43.2758 -18.8675 -16.7864 -14.9303 9.7996 14.7694 -58.7585 1.5893 1.9455 0.4104 16.5361 16.4229 59.2872 7.8896 0.3731 1.1519 0.8404 96.0793 -9.9911 8.7358 17.3935 14.9113 7.2233 -16.4432 49.6689 -3.7541 -5.5353 33.0191 -30.8549 9.9226 -0.8722 42.1044 -1.6982 -28.3296 -4.3450 -9.0948 1.5596 -0.4105 -1.7754 -27.5155 -7.4861 -0.4107 0.5225 38.0087 1.9159 27.9699 -23.5271 4.3137 -1.4167 -1.0958 1.2785
4.3878 84.5326 -0.0883 -1.8544 -5.9733 1.4527 0.4739 7.1868 0.8077 -0.2846 -2.0234 0.1715 0.6270 15.5639 -0.9293 -13.8725 8.4990 6.6517 3.9197 -4.1802 16.2117 -3.4707 -18.7702 19.5858 -0.0191 0.1185 -0.1953 0.6500 -10.6526 -4.0669 -0.7014 -10.6378 3.7384 -0.2818 13.7156 -10.3592 -77.9919 -15.1710 27.6568 0.2666 -0.5548 -99.2008 42.4970 -17.4372 -14.4685 -14.8756 9.9759 14.8221 -58.7607 1.6457 1.9490 0.1654 16.5659 16.1144 60.2346 7.8244 1.2586 1.0318 0.8508 94.6655 -8.6242 7.3089 17.2227 14.9749 7.2458 -16.4309 49.7275 -3.7503 -5.5090 33.4396 -30.9287 10.2096 -0.8775 42.2596 -1.7458 -28.3040 -4.3260 -8.3702 1.5533 -0.3925 -1.7714 -27.4356 -8.8431 0.3535 0.5834 38.6494 1.9825 27.8983 -23.4676 5.2839 -1.4161 -1.1315 1.2658
4.3059 84.5651 -0.2101 -1.9828 -5.5755 0.3247 0.3428 7.3714 0.7410 -0.3312 -1.9574 0.0271 0.4127 15.6244 -1.2210 -14.3443 8.5867 6.8252 3.9871 -4.2209 16.4761 -3.5790 -19.1903 20.0567 -0.0153 0.1357 -0.2210 0.6399 -10.6433 -4.0922 -0.6837 -10.6284 3.7076 -0.0600 13.7968 -10.7340 -77.4781 -16.2099 27.8776 0.2637 -0.5755 -97.5479 41.9430 -16.3823 -12.6923 -14.8399 10.1141 14.8959 -58.7516 1.6768 1.9906 -0.0816 16.6142 15.7942 61.3114 7.4363 1.8082 1.0192 0.7710 93.2504 -7.4110 5.9915 17.0436 15.0530 7.2366 -16.4023 49.7111 -3.7178 -5.4996 33.7694 -30.8767 10.2661 -0.8691 42.1555 -1.7761 -28.2857 -4.1716 -7.4672 1.5517 -0.4093 -1.7706 -27.2627 -10.0432 1.0229 0.6297 39.0915 2.0516 27.8482 -23.3037 6.0188 -1.4166 -1.2101 1.2493
4.1545 84.6535 -0.2700 -2.0939 -5.1802 -0.5939 0.2343 7.5055 0.6915 -0.3616 -1.9042 -0.0983 0.1613 15.6721 -1.4416 -14.7076 8.7877 6.9811 4.0229 -4.2489 16.6716 -3.6725 -19.5173 20.2626 -0.0082 0.1497 -0.2400 0.6337 -10.6220 -4.1117 -0.6628 -10.6130 3.6863 0.0332 13.9317 -10.9718 -77.0637 -16.9057 28.0766 0.3409 -0.5964 -96.2095 41.5466 -15.6622 -11.2245 -14.8238 10.2139 14.9692 -58.7558 1.6765 2.0700 -0.3195 16.6362 15.4794 62.3875 6.9329 2.1294 1.0931 0.7091 91.9597 -6.4459 4.5210 16.9562 15.1588 7.1818 -16.3986 49.6305 -3.7681 -5.5120 33.9994 -30.6422 10.1541 -0.8466 41.7863 -1.7978 -28.3164 -3.9421 -6.4412 1.5586 -0.4736 -1.7666 -27.0296 -11.0005 1.5931 0.6474 39.3447 2.0807 27.8452 -23.1239 6.5047 -1.4203 -1.3097 1.2397
3.9926 84.7736 -0.2451 -2.2099 -4.8342 -1.2732 0.1538 7.5859 0.6555 -0.3848 -1.8873 -0.2047 -0.0529 15.7533 -1.6171 -15.0193 9.0931 7.0644 4.0207 -4.3046 16.8228 -3.6825 -19.8546 20.2613 0.0002 0.1483 -0.2703 0.6318 -10.6152 -4.1427 -0.6435 -10.6224 3.6535 0.0183 14.1806 -11.0921 -76.8690 -17.3152 28.2550 0.5226 -0.6298 -95.2198 41.3133 -15.2135 -10.0816 -14.8094 10.2364 15.0405 -58.7938 1.6387 2.2009 -0.5348 16.6773 15.1192 63.2997 6.4715 2.3561 1.1691 0.7050 90.9387 -5.7327 3.1276 16.9076 15.2233 7.1353 -16.4290 49.5832 -3.8073 -5.5579 34.1795 -30.2256 9.8415 -0.8215 41.2428 -1.8185 -28.4141 -3.6720 -5.3527 1.5731 -0.5969 -1.7564 -26.7564 -11.6688 2.0043 0.6477 39.4338 2.0647 27.8188 -22.9749 6.7959 -1.4257 -1.4740 1.2463
3.8070 84.8567 -0.1448 -2.2938 -4.5708 -1.6894 0.1015 7.5938 0.6066 -0.3977 -1.9101 -0.2961 -0.2362 15.8986 -1.7782 -15.2813 9.4038 7.0777 3.9323 -4.3723 16.9654 -3.5977 -20.0890 20.0945 0.0118 0.1390 -0.3395 0.6372 -10.6058 -4.2092 -0.6252 -10.6300 3.5774 -0.0648 14.4148 -11.1407 -76.8679 -17.4149 28.5535 0.6054 -0.7032 -94.6368 41.2209 -14.7105 -9.1376 -14.8889 10.2193 15.1180 -58.9464 1.5814 2.3414 -0.6774 16.6500 14.7459 63.8651 6.2852 2.4822 1.1911 0.7193 90.3852 -5.3627 2.1102 16.7735 15.2530 7.1480 -16.4598 49.5914 -3.7778 -5.5530 34.3218 -29.7197 9.4395 -0.7944 40.6560 -1.8153 -28.5702 -3.4072 -4.3561 1.5924 -0.6979 -1.7458 -26.5299 -12.0848 2.2889 0.6176 39.5088 1.9900 27.7018 -22.8876 6.8404 -1.4304 -1.6755 1.2558
