HIERARCHY
ROOT Hips
{
	OFFSET 0.0000 0.0000 0.0000
	CHANNELS 6 Xposition Yposition Zposition Zrotation Xrotation Yrotation
	JOINT Spine1
	{
		OFFSET -0.0137 5.0038 -0.0537
		CHANNELS 3 Zrotation Xrotation Yrotation
		JOINT Spine2
		{
			OFFSET -0.0000 7.1253 -0.0298
			CHANNELS 3 Zrotation Xrotation Yrotation
			JOINT Chest
			{
				OFFSET -0.0000 7.5501 -0.8160
				CHANNELS 3 Zrotation Xrotation Yrotation
				JOINT Neck1
				{
					OFFSET -0.1817 26.3113 -0.5533
					CHANNELS 3 Zrotation Xrotation Yrotation
					JOINT Neck2
					{
						OFFSET -0.0000 7.7094 2.3026
						CHANNELS 3 Zrotation Xrotation Yrotation
						JOINT Head
						{
							OFFSET -0.0000 6.1289 1.9537
							CHANNELS 3 Zrotation Xrotation Yrotation
							JOINT Jaw
							{
								OFFSET 0.0026 0.4756 3.0949
								CHANNELS 3 Zrotation Xrotation Yrotation
								End Site
								{
									OFFSET 0.0 1.0 0.0
								}
							}
							JOINT LeftEye
							{
								OFFSET 3.2064 5.3802 7.5869
								CHANNELS 3 Zrotation Xrotation Yrotation
								End Site
								{
									OFFSET 0.0 1.0 0.0
								}
							}
							JOINT RightEye
							{
								OFFSET -3.2224 5.3619 7.5582
								CHANNELS 3 Zrotation Xrotation Yrotation
								End Site
								{
									OFFSET 0.0 1.0 0.0
								}
							}
						}
					}
				}
				JOINT LeftShoulder
				{
					OFFSET 1.6217 23.2372 5.1134
					CHANNELS 3 Zrotation Xrotation Yrotation
					JOINT LeftArm
					{
						OFFSET 14.9198 0.0000 -5.5023
						CHANNELS 3 Zrotation Xrotation Yrotation
						JOINT LeftForeArm
						{
							OFFSET 28.7393 0.0000 -0.0026
							CHANNELS 3 Zrotation Xrotation Yrotation
							JOINT LeftHand
							{
								OFFSET 27.0940 -0.0000 0.0026
								CHANNELS 3 Zrotation Xrotation Yrotation
								JOINT LeftHandThumbEnd
								{
									OFFSET 12.2686 -3.2202 4.8331
									CHANNELS 3 Zrotation Xrotation Yrotation
									End Site
									{
										OFFSET 0.0 1.0 0.0
									}
								}
								JOINT LeftHandMiddleEnd
								{
									OFFSET 19.0120 -0.3129 -0.0340
									CHANNELS 3 Zrotation Xrotation Yrotation
									End Site
									{
										OFFSET 0.0 1.0 0.0
									}
								}
							}
						}
					}
				}
				JOINT RightShoulder
				{
					OFFSET -1.3801 23.1803 5.2142
					CHANNELS 3 Zrotation Xrotation Yrotation
					JOINT RightArm
					{
						OFFSET -15.0372 0.0000 -5.5456
						CHANNELS 3 Zrotation Xrotation Yrotation
						JOINT RightForeArm
						{
							OFFSET -28.7366 0.0000 -0.0026
							CHANNELS 3 Zrotation Xrotation Yrotation
							JOINT RightHand
							{
								OFFSET -27.1336 -0.0000 0.0026
								CHANNELS 3 Zrotation Xrotation Yrotation
								JOINT RightHandThumbEnd
								{
									OFFSET -12.2642 -3.2115 4.8040
									CHANNELS 3 Zrotation Xrotation Yrotation
									End Site
									{
										OFFSET 0.0 1.0 0.0
									}
								}
								JOINT RightHandMiddleEnd
								{
									OFFSET -19.0006 -0.3066 -0.0316
									CHANNELS 3 Zrotation Xrotation Yrotation
									End Site
									{
										OFFSET 0.0 1.0 0.0
									}
								}
							}
						}
					}
				}
			}
		}
	}
	JOINT LeftLeg
	{
		OFFSET 10.0432 -8.4345 2.5957
		CHANNELS 3 Zrotation Xrotation Yrotation
		JOINT LeftShin
		{
			OFFSET -0.0000 -43.2218 -0.8029
			CHANNELS 3 Zrotation Xrotation Yrotation
			JOINT LeftFoot
			{
				OFFSET 0.0000 -42.1551 -3.4815
				CHANNELS 3 Zrotation Xrotation Yrotation
				JOINT LeftToeBase
				{
					OFFSET 0.0000 -5.0595 13.2315
					CHANNELS 3 Zrotation Xrotation Yrotation
					End Site
					{
						OFFSET 0.0 1.0 0.0
					}
				}
			}
		}
	}
	JOINT RightLeg
	{
		OFFSET -10.0473 -8.2953 2.6203
		CHANNELS 3 Zrotation Xrotation Yrotation
		JOINT RightShin
		{
			OFFSET 0.0000 -43.3622 -0.8056
			CHANNELS 3 Zrotation Xrotation Yrotation
			JOINT RightFoot
			{
				OFFSET 0.0000 -42.1174 -3.4784
				CHANNELS 3 Zrotation Xrotation Yrotation
				JOINT RightToeBase
				{
					OFFSET -0.0000 -5.0796 13.2842
					CHANNELS 3 Zrotation Xrotation Yrotation
					End Site
					{
						OFFSET 0.0 1.0 0.0
					}
				}
			}
		}
	}
}
MOTION
Frames: 120
Frame Time: 0.033333
-5.1061 94.7993 1.9061 4.7000 0.7902 -0.4127 0.3797 -0.0653 -0.8011 -0.0467 -4.5784 -0.6779 2.6690 15.8309 -3.1212 11.2864 4.6959 -1.4246 -6.6163 -4.4462 -20.6431 4.4254 -2.9973 -27.8299 -0.0449 -0.0900 0.1948 0.7924 -10.6852 -3.6774 -0.8620 -10.7650 4.0389 -0.3633 16.8474 -3.1241 -70.4192 14.7154 -36.8921 -1.3271 -0.1921 -29.4901 17.9621 -17.4013 -5.5900 -16.5577 10.1824 15.7522 -60.4824 1.3646 2.4659 13.5282 12.1450 11.9771 65.0847 -24.1200 -31.2080 1.3399 0.3371 99.1014 -55.7085 11.5074 10.6115 14.3563 7.7265 -16.2147 49.8114 -3.7138 -5.3259 6.5534 -3.7344 10.0827 -0.0730 21.5414 -0.6009 -16.4186 -14.8072 11.5037 1.6623 0.9820 -1.9715 -5.6145 -36.5132 -45.0262 -0.1046 33.0772 -0.3059 2.5342 0.4480 -20.5389 -1.4571 1.5594 0.9006
-5.1607 94.8704 2.0368 4.6765 0.8307 -0.4851 0.4218 -0.0317 -0.8115 0.0193 -4.5815 -0.6420 2.6640 15.7795 -3.1490 11.4006 4.7867 -1.4239 -6.7606 -4.4680 -20.6078 4.4343 -2.7234 -28.0573 -0.0589 -0.1231 0.2199 0.7727 -10.7092 -3.6541 -0.8695 -10.7960 4.0693 -0.0738 16.9002 -3.0900 -70.8830 14.4969 -36.8680 -1.2215 -0.2374 -29.2166 17.5944 -17.9329 -5.5751 -16.4950 10.1763 15.6551 -60.5604 1.3960 2.3260 13.2668 12.3287 11.8725 65.4569 -24.0868 -30.9751 1.4566 0.2160 99.1339 -55.9305 12.3717 10.6869 14.4347 7.6632 -16.0810 49.7260 -3.7038 -5.1894 6.5303 -3.6995 10.3080 -0.0983 21.4232 -0.6556 -16.3851 -14.8481 11.2686 1.6620 0.8777 -1.9840 -5.6155 -36.3760 -45.0480 -0.1355 32.8741 -0.3564 2.7885 0.6283 -20.3526 -1.4661 1.4944 0.9106
-5.1416 94.8574 2.1607 4.6702 0.8628 -0.5747 0.4639 -0.0038 -0.7997 0.0535 -4.5791 -0.6141 2.7036 15.7508 -3.1302 11.4442 4.8808 -1.4104 -6.7919 -4.4969 -20.6601 4.4103 -2.5923 -28.1342 -0.0656 -0.1349 0.2360 0.7612 -10.7422 -3.6400 -0.8716 -10.8286 4.0898 0.0916 16.9240 -3.0740 -71.1898 14.4464 -36.8482 -1.1014 -0.2667 -29.1687 17.3881 -18.4432 -5.6264 -16.4721 10.2123 15.6614 -60.5859 1.3994 2.3258 12.9473 12.4825 11.8536 65.5661 -24.0473 -30.6721 1.3870 0.2289 99.3561 -56.2056 13.0489 10.6350 14.4503 7.6016 -15.9711 49.5916 -3.7104 -5.1238 6.4910 -3.7156 10.5026 -0.1012 21.5094 -0.6681 -16.2687 -15.0726 11.0656 1.6674 0.8542 -1.9911 -5.6346 -36.4459 -45.1118 -0.1366 32.9528 -0.3766 3.0121 0.7037 -20.1892 -1.4700 1.4922 0.9269
-5.1176 94.8397 2.3096 4.6635 0.8851 -0.7092 0.4908 -0.0059 -0.7664 0.0748 -4.5859 -0.5909 2.7544 15.7435 -3.1111 11.4388 5.0174 -1.3676 -6.7526 -4.5246 -20.7496 4.3559 -2.5796 -28.0805 -0.0662 -0.1359 0.2408 0.7560 -10.7589 -3.6370 -0.8676 -10.8422 4.0963 0.1570 16.9174 -3.0094 -71.3725 14.4802 -36.7790 -1.0372 -0.3162 -29.2423 17.3901 -18.8402 -5.7152 -16.4292 10.2111 15.6632 -60.5062 1.3846 2.3506 12.6466 12.6114 11.8873 65.5160 -24.0314 -30.3978 1.3625 0.2728 99.5531 -56.5214 13.5667 10.5261 14.5036 7.5368 -15.8776 49.4887 -3.6922 -5.0910 6.4422 -3.7153 10.7174 -0.0928 21.6477 -0.6667 -16.1826 -15.3514 10.9245 1.6697 0.8784 -1.9984 -5.6756 -36.5237 -45.1601 -0.1407 33.0447 -0.4135 3.2190 0.7442 -19.9708 -1.4728 1.5032 0.9317
-5.0565 94.8228 2.4811 4.6633 0.8985 -0.8641 0.5020 -0.0416 -0.7447 0.0867 -4.5978 -0.5707 2.8013 15.7591 -3.0954 11.3977 5.1686 -1.3218 -6.6989 -4.5306 -20.8007 4.3303 -2.6221 -28.0210 -0.0649 -0.1301 0.2406 0.7567 -10.7589 -3.6390 -0.8651 -10.8377 4.0956 0.1892 16.9045 -2.9306 -71.5131 14.5428 -36.8468 -0.9759 -0.3392 -29.2765 17.4271 -19.2344 -5.7478 -16.3856 10.1967 15.6500 -60.4069 1.3694 2.3681 12.4072 12.7091 11.9360 65.4465 -24.0396 -30.1285 1.2952 0.3188 99.7256 -56.7944 13.9447 10.3219 14.4913 7.5147 -15.8346 49.4232 -3.6720 -5.0834 6.3851 -3.6258 10.9338 -0.0805 21.7000 -0.6768 -16.1718 -15.5913 10.9039 1.6684 0.8859 -2.0076 -5.7215 -36.5721 -45.1995 -0.1315 33.0907 -0.4175 3.4393 0.7860 -19.7908 -1.4734 1.4980 0.9331
-5.0107 94.8176 2.6837 4.6596 0.9089 -1.0385 0.4940 -0.0954 -0.7464 0.0903 -4.6181 -0.5673 2.8195 15.7862 -3.1125 11.3374 5.3135 -1.3013 -6.6258 -4.5166 -20.7747 4.3123 -2.6315 -27.9276 -0.0650 -0.1273 0.2423 0.7536 -10.7638 -3.6409 -0.8618 -10.8397 4.0995 0.2313 16.8876 -2.8362 -71.6562 14.6495 -37.0628 -0.9130 -0.3420 -29.2852 17.3948 -19.5497 -5.6305 -16.3751 10.2017 15.6594 -60.3668 1.3726 2.3872 12.2679 12.7477 12.0036 65.3905 -24.0170 -29.8550 1.2611 0.3139 99.8548 -57.0601 14.2313 10.0518 14.4698 7.4835 -15.7837 49.3711 -3.6660 -5.0766 6.3238 -3.4510 11.0748 -0.0720 21.6530 -0.6741 -16.1664 -15.8007 10.9427 1.6650 0.8914 -2.0263 -5.7848 -36.5797 -45.1987 -0.1159 33.1017 -0.3986 3.6973 0.8283 -19.6394 -1.4716 1.4743 0.9348
-5.0076 94.8348 2.9072 4.6407 0.9407 -1.2334 0.4704 -0.1540 -0.7390 0.0965 -4.6473 -0.5836 2.8296 15.7724 -3.1339 11.2832 5.4708 -1.2960 -6.5615 -4.4866 -20.7113 4.3023 -2.6120 -27.8271 -0.0681 -0.1274 0.2503 0.7514 -10.7640 -3.6324 -0.8653 -10.8375 4.1077 0.2635 16.8788 -2.7746 -71.7857 14.8306 -37.3871 -0.8586 -0.3406 -29.2791 17.2575 -19.8411 -5.4623 -16.3430 10.1890 15.6518 -60.3370 1.3923 2.4011 12.2475 12.7257 12.1013 65.3490 -23.9024 -29.6154 1.2337 0.3005 99.9653 -57.3165 14.3721 9.8949 14.4575 7.4818 -15.7551 49.3368 -3.6507 -5.0657 6.2872 -3.2168 11.1802 -0.0746 21.5074 -0.6811 -16.1833 -15.9497 11.0173 1.6635 0.8599 -2.0332 -5.8616 -36.5324 -45.0762 -0.0999 33.0819 -0.3783 3.9546 0.8705 -19.5501 -1.4702 1.4588 0.9324
-4.9903 94.8876 3.1608 4.5921 1.0096 -1.4273 0.4430 -0.2519 -0.7628 0.0941 -4.6674 -0.5758 2.8499 15.7212 -3.1831 11.2430 5.6375 -1.3042 -6.5088 -4.4607 -20.6546 4.2826 -2.5792 -27.6713 -0.0724 -0.1349 0.2587 0.7485 -10.7623 -3.6199 -0.8713 -10.8354 4.1147 0.3003 16.8622 -2.7502 -71.9036 15.0933 -37.8875 -0.8381 -0.3478 -29.2868 17.0600 -20.2114 -5.3538 -16.3464 10.1886 15.6498 -60.3192 1.4060 2.4284 12.3009 12.6889 12.1663 65.3884 -23.7327 -29.3561 1.1895 0.3021 100.0924 -57.5521 14.4493 9.7838 14.4514 7.4743 -15.7137 49.3155 -3.6258 -5.0642 6.2834 -2.9536 11.1972 -0.0751 21.2407 -0.6797 -16.1973 -16.0070 11.1612 1.6642 0.8199 -2.0306 -5.9276 -36.4173 -44.8635 -0.0719 32.9976 -0.3323 4.2025 0.9043 -19.4943 -1.4665 1.4452 0.9244
-4.9944 94.9296 3.4342 4.5021 1.1015 -1.5781 0.4015 -0.3462 -0.7955 0.0930 -4.6771 -0.5840 2.8990 15.6083 -3.2363 11.2507 5.8154 -1.3315 -6.4662 -4.4363 -20.5759 4.2404 -2.5469 -27.5183 -0.0750 -0.1400 0.2611 0.7472 -10.7653 -3.6170 -0.8748 -10.8358 4.1169 0.3700 16.8381 -2.7702 -71.9769 15.4116 -38.3895 -0.8665 -0.3700 -29.3810 16.7846 -20.4465 -5.3051 -16.3176 10.1975 15.6307 -60.3334 1.4341 2.4581 12.4046 12.6463 12.2198 65.4751 -23.5634 -29.1211 1.1859 0.2864 100.1786 -57.8589 14.4482 9.7002 14.4601 7.4745 -15.6722 49.2470 -3.6116 -5.0285 6.3299 -2.6950 11.1717 -0.0752 20.9176 -0.6878 -16.2239 -16.0482 11.2944 1.6625 0.7735 -2.0295 -5.9988 -36.2378 -44.5432 -0.0470 32.9348 -0.2861 4.5015 0.8522 -19.4817 -1.4627 1.4377 0.9220
-5.0037 94.9825 3.7420 4.3710 1.2070 -1.6909 0.3432 -0.4337 -0.8177 0.0813 -4.6944 -0.5852 2.9842 15.4545 -3.2821 11.3054 6.0343 -1.4026 -6.4118 -4.3964 -20.5183 4.2088 -2.4750 -27.4041 -0.0763 -0.1458 0.2622 0.7475 -10.7679 -3.6129 -0.8776 -10.8349 4.1164 0.4991 16.8124 -2.7867 -71.9864 15.8204 -38.9291 -0.9306 -0.3965 -29.6991 16.4876 -20.5250 -5.3032 -16.2968 10.2382 15.6348 -60.3826 1.4745 2.4295 12.5622 12.5670 12.2581 65.5371 -23.3334 -28.9049 1.1283 0.2604 100.2947 -58.2665 14.3505 9.6664 14.4305 7.4922 -15.6584 49.1821 -3.6088 -5.0123 6.4286 -2.4451 11.0760 -0.0760 20.5895 -0.6899 -16.2259 -16.0891 11.4198 1.6640 0.7199 -2.0282 -6.0747 -36.0118 -44.1042 -0.0224 32.9253 -0.2489 4.8311 0.7315 -19.5295 -1.4598 1.4419 0.9186
-5.0587 95.0229 4.0786 4.2040 1.3075 -1.7333 0.2638 -0.5234 -0.8110 0.0545 -4.7215 -0.6103 3.0914 15.2928 -3.3083 11.3938 6.2735 -1.5264 -6.3600 -4.3517 -20.4561 4.1932 -2.3066 -27.3641 -0.0748 -0.1487 0.2569 0.7500 -10.7845 -3.6219 -0.8762 -10.8460 4.1135 0.6679 16.7561 -2.7860 -71.8848 16.3696 -39.3724 -0.9688 -0.4287 -30.4220 16.1256 -20.3471 -5.2670 -16.2799 10.2779 15.6425 -60.4753 1.5037 2.3785 12.7941 12.4498 12.3063 65.5527 -23.1238 -28.8128 1.1132 0.1930 100.4203 -58.8319 14.2048 9.6770 14.4295 7.4861 -15.6153 49.1629 -3.5980 -4.9994 6.5885 -2.2387 10.9234 -0.0778 20.3559 -0.6893 -16.2157 -16.2016 11.5179 1.6609 0.6746 -2.0222 -6.1863 -35.7612 -43.5405 0.0003 33.0483 -0.2048 5.2223 0.5148 -19.6877 -1.4587 1.4321 0.9243
-5.1774 95.0364 4.4310 4.0203 1.3695 -1.6864 0.1599 -0.6106 -0.8230 0.0053 -4.7201 -0.5886 3.2189 15.1082 -3.3114 11.5431 6.5031 -1.6718 -6.3038 -4.3259 -20.4624 4.1882 -2.0904 -27.3577 -0.0712 -0.1508 0.2457 0.7544 -10.8023 -3.6368 -0.8729 -10.8580 4.1050 0.8693 16.6444 -2.7438 -71.6552 17.0821 -39.6827 -0.9306 -0.4567 -31.6666 15.7362 -19.8858 -5.2248 -16.3262 10.3458 15.6822 -60.5919 1.5250 2.3183 13.0541 12.3112 12.3647 65.6127 -22.9028 -28.9086 1.0380 0.1495 100.5646 -59.4357 13.9542 9.6998 14.4483 7.4896 -15.5943 49.1970 -3.6133 -5.0114 6.8197 -2.0590 10.6119 -0.0776 20.2784 -0.7040 -16.2487 -16.3852 11.6136 1.6588 0.5903 -2.0207 -6.3711 -35.4832 -42.8557 0.0186 33.3182 -0.1712 5.6115 0.1700 -20.0064 -1.4589 1.3828 0.9379
-5.3050 94.9739 4.7912 3.8364 1.4040 -1.5183 0.0156 -0.6781 -0.8188 -0.0520 -4.7265 -0.5574 3.3447 14.9038 -3.2523 11.7737 6.7261 -1.8549 -6.2538 -4.3103 -20.5600 4.2305 -1.8368 -27.4018 -0.0681 -0.1483 0.2338 0.7574 -10.8134 -3.6518 -0.8692 -10.8682 4.0960 1.1349 16.4693 -2.6592 -71.2597 17.9232 -39.6190 -0.8294 -0.4815 -33.6220 15.2644 -19.0190 -5.1370 -16.3033 10.3783 15.7211 -60.6527 1.5171 2.2803 13.3467 12.1262 12.4477 65.7563 -22.6694 -29.4002 0.9869 0.1060 100.7286 -60.1218 13.5294 9.7523 14.4780 7.4657 -15.5556 49.1827 -3.6246 -5.0090 7.1029 -1.9349 10.1045 -0.0792 20.4235 -0.7210 -16.3887 -16.7458 11.7333 1.6549 0.5003 -2.0313 -6.6265 -35.2745 -42.0584 0.0302 33.8863 -0.1471 5.9876 -0.3478 -20.4662 -1.4591 1.2726 0.9449
-5.5446 94.8265 5.1944 3.6540 1.3919 -1.2321 -0.1787 -0.7304 -0.8070 -0.1201 -4.7260 -0.4854 3.4324 14.7089 -3.1553 12.1156 6.9295 -2.0544 -6.2172 -4.3070 -20.7181 4.3689 -1.5791 -27.5495 -0.0657 -0.1496 0.2246 0.7568 -10.8276 -3.6624 -0.8632 -10.8789 4.0875 1.4178 16.2701 -2.5409 -70.5846 18.9009 -39.0123 -0.6607 -0.4873 -36.5080 14.6839 -17.6815 -4.9792 -16.2893 10.4095 15.7662 -60.7449 1.4897 2.2549 13.6619 11.9110 12.5724 66.0080 -22.4487 -30.2659 0.8878 0.0749 100.9425 -60.8713 12.8288 9.7685 14.5484 7.4380 -15.5046 49.1841 -3.6115 -5.0113 7.4559 -1.8927 9.3803 -0.0763 20.8842 -0.7493 -16.6692 -17.2844 11.8788 1.6542 0.3843 -2.0518 -6.9836 -35.1292 -41.0563 0.0554 34.8203 -0.0808 6.4142 -1.1140 -21.1554 -1.4571 1.1003 0.9625
-5.9188 94.5532 5.6692 3.4707 1.3152 -0.8216 -0.4391 -0.7259 -0.7931 -0.2067 -4.7121 -0.3967 3.4581 14.5130 -2.9559 12.6144 7.0608 -2.2965 -6.2310 -4.2947 -20.9636 4.6214 -1.3014 -27.8288 -0.0625 -0.1552 0.2166 0.7552 -10.8357 -3.6680 -0.8549 -10.8916 4.0779 1.7344 16.0572 -2.3900 -69.5688 20.0215 -37.5653 -0.4844 -0.4679 -40.6133 13.8631 -15.9527 -4.7603 -16.2130 10.4540 15.8621 -60.8018 1.4242 2.2587 13.9538 11.6669 12.7342 66.4981 -22.2485 -31.6492 0.8376 0.0265 101.2788 -61.6737 11.8096 9.8184 14.5940 7.3860 -15.4450 49.1184 -3.6153 -4.9980 7.9227 -2.0392 8.4295 -0.0786 21.9103 -0.7779 -17.1574 -18.0876 11.9641 1.6523 0.2547 -2.0746 -7.4427 -35.0856 -39.7887 0.0617 36.2650 -0.0305 6.8965 -2.2342 -22.1040 -1.4535 0.9648 0.9736
-6.4693 94.0854 6.1981 3.2884 1.1326 -0.2450 -0.7815 -0.5977 -0.7433 -0.3231 -4.6694 -0.2819 3.3805 14.3162 -2.6899 13.3748 7.1094 -2.5944 -6.3124 -4.3258 -21.2329 5.0020 -1.0654 -28.3207 -0.0512 -0.1646 0.1888 0.7676 -10.8520 -3.6972 -0.8440 -10.9164 4.0482 2.1696 15.8884 -2.2137 -68.1903 21.2498 -35.3642 -0.3168 -0.3712 -46.0899 12.6769 -14.1947 -4.5242 -16.0058 10.5101 15.9608 -60.8559 1.3908 2.2015 14.1775 11.4209 12.9330 67.2743 -22.0481 -33.5519 0.7851 -0.0741 101.9518 -62.5667 10.6030 9.8848 14.6492 7.2841 -15.3671 48.9715 -3.6526 -4.9536 8.5453 -2.4653 7.1974 -0.0948 23.8019 -0.8089 -17.9158 -19.2293 11.9547 1.6532 0.0761 -2.0825 -8.0351 -35.1349 -38.0806 0.0489 38.3802 0.0046 7.5348 -3.8020 -23.4839 -1.4513 0.8953 0.9801
-7.2673 93.3219 6.7843 3.1318 0.8109 0.4882 -1.2123 -0.3318 -0.6521 -0.4752 -4.5454 -0.1097 3.1419 14.1411 -2.3904 14.3877 6.9663 -2.9207 -6.4998 -4.4257 -21.5301 5.4867 -0.8748 -29.0142 -0.0364 -0.1757 0.1489 0.7972 -10.8630 -3.7418 -0.8437 -10.9395 4.0089 2.7321 15.8332 -2.0363 -66.4317 22.4725 -32.6157 -0.2754 -0.2445 -52.7470 11.2998 -12.6087 -4.1478 -15.7549 10.6263 16.1550 -60.8668 1.3938 2.0999 14.2039 11.2340 13.0956 68.3629 -21.7212 -35.6576 0.6219 -0.0671 102.9736 -63.4511 9.2462 9.9725 14.7036 7.1780 -15.2874 48.8515 -3.6883 -4.9387 9.3733 -3.1399 5.7121 -0.1193 26.5938 -0.8451 -19.1767 -20.7246 11.9034 1.6566 0.0134 -2.0856 -8.7850 -35.3693 -35.8357 0.0018 41.4159 -0.0148 8.3845 -5.7849 -25.3872 -1.4505 0.9221 1.0102
-8.3267 92.2337 7.4385 3.0474 0.3090 1.2988 -1.7189 0.0803 -0.5559 -0.6615 -4.3833 0.0993 2.7231 14.1031 -1.9290 15.5663 6.5505 -3.2705 -6.6950 -4.4793 -21.8315 5.9382 -0.8173 -29.8585 -0.0489 -0.1685 0.1885 0.8130 -10.8543 -3.7028 -0.8858 -10.9564 4.0556 3.3107 16.0773 -1.9497 -64.1488 23.4422 -29.5622 -0.5407 -0.2542 -60.2745 9.9978 -11.0231 -3.4591 -15.5861 10.7095 16.3576 -60.8128 1.3992 1.9575 14.0076 11.1643 13.1298 69.6052 -21.1776 -37.7253 0.4894 -0.0297 104.2950 -64.2691 7.9522 9.9590 14.8276 7.2026 -15.4711 48.8224 -3.7045 -4.9633 10.3999 -3.9233 4.2399 -0.1826 30.1114 -0.9686 -21.0076 -22.5194 11.7882 1.6597 0.1147 -2.0937 -9.7412 -36.0475 -33.0144 -0.0766 45.8477 -0.1013 9.5624 -7.7655 -27.5895 -1.4681 0.8786 1.0269
-9.5348 90.8415 8.1556 2.9539 -0.3756 2.0651 -2.1940 0.6311 -0.4184 -0.8621 -4.1596 0.2493 2.1756 14.2170 -1.4348 16.6638 6.2043 -3.5320 -6.8830 -4.6143 -22.3471 6.4555 -1.0405 -30.4375 -0.0404 -0.1636 0.1502 0.8485 -10.8724 -3.7419 -0.9051 -10.9889 4.0165 3.6800 16.2977 -1.9620 -61.5643 24.5786 -26.5233 -0.9610 -0.2102 -68.5923 8.8243 -9.8475 -2.6608 -15.3847 10.7702 16.6321 -60.5431 1.3833 1.9724 13.4204 11.1643 13.1239 70.8671 -20.3415 -39.5572 0.4104 0.0990 105.8786 -64.5444 6.3906 9.7320 14.9114 7.2287 -15.6504 49.0269 -3.6940 -5.1225 11.7789 -4.6268 3.2109 -0.2150 33.9177 -1.0629 -23.0719 -24.5463 11.1511 1.6688 0.3440 -2.0774 -10.9513 -37.4584 -30.0235 -0.1070 52.1970 -0.1186 10.8025 -9.1697 -28.8957 -1.4706 0.4866 1.1097
-10.9235 89.3339 8.9850 2.7432 -1.2278 2.6472 -2.5284 1.2164 -0.3363 -0.9972 -3.9355 0.5916 1.6044 14.6082 -1.1658 17.5175 5.8960 -3.5452 -7.0625 -4.7656 -22.7657 6.9287 -1.4839 -30.7531 -0.0421 -0.1415 0.1311 0.8515 -10.9159 -3.7623 -0.9134 -11.0178 4.0015 3.8437 16.6734 -2.0383 -58.8306 25.4020 -24.3455 -1.3665 -0.1241 -76.1807 7.9338 -8.9164 -2.0354 -15.3054 10.7271 16.7251 -60.2587 1.3112 1.8981 12.7058 11.1420 13.0417 71.7404 -19.5827 -41.1201 0.4055 0.3078 107.4547 -64.0408 4.7336 9.0087 14.9456 7.2164 -15.7033 49.1555 -3.6559 -5.1398 13.5588 -4.7698 2.5744 -0.2424 37.1045 -1.1471 -24.8677 -26.3692 10.1708 1.6690 0.5754 -2.0106 -12.6671 -39.6886 -26.7659 0.1345 59.9938 0.2010 10.6972 -8.5680 -27.8337 -1.4680 -0.5624 1.1134
-12.6019 87.9038 10.0350 2.4123 -1.9360 3.2604 -2.6721 1.6730 -0.2841 -1.1007 -3.7724 0.7519 1.2160 15.0646 -0.9607 17.9334 5.6973 -3.5685 -7.2290 -4.8174 -22.9426 7.2503 -1.7690 -30.8826 -0.0345 -0.1206 0.1033 0.8549 -10.9349 -3.7945 -0.9014 -11.0336 3.9746 3.6384 16.8436 -2.3183 -56.3743 26.2125 -23.3078 -1.4895 0.0100 -82.4442 7.1287 -7.6631 -1.3707 -15.3134 10.7148 16.8534 -60.0708 1.2866 1.7871 11.9571 11.1630 13.0727 72.3502 -19.2267 -42.8977 0.5823 0.3581 108.6112 -62.9754 3.1213 8.2509 14.9700 7.2183 -15.8962 49.3803 -3.7137 -5.1876 15.7049 -4.5197 2.1048 -0.2482 39.2964 -1.1675 -26.6436 -27.9783 9.0597 1.6701 0.9231 -1.9674 -15.2238 -42.1153 -23.0359 0.4715 66.9109 0.5655 9.4697 -7.8390 -25.7832 -1.4409 -1.0540 1.1473
-14.6098 86.6299 11.3179 2.0318 -2.3509 3.9884 -2.6517 2.0135 -0.2586 -1.1448 -3.6164 0.7669 0.9331 15.3865 -0.9752 18.0685 5.3874 -3.5543 -7.4301 -4.8681 -22.8942 7.3752 -1.9120 -30.8059 -0.0259 -0.1204 0.0754 0.8465 -10.9623 -3.8227 -0.8755 -11.0627 3.9419 3.5424 16.9401 -2.8414 -54.7907 26.4089 -23.3566 -1.2883 0.3218 -86.7549 6.5414 -6.1942 -0.7969 -15.4400 10.7589 16.9965 -60.1457 1.3254 1.7584 11.2265 11.0734 13.2192 72.5214 -19.1588 -44.6097 0.5787 0.2514 109.2190 -61.7117 1.5114 7.8490 14.9593 7.2595 -16.0216 49.5431 -3.7014 -5.1891 18.0139 -3.8547 1.5595 -0.2321 40.1767 -1.2031 -28.4074 -29.0063 8.3152 1.6661 1.1945 -1.9403 -18.4722 -44.3478 -19.2171 0.9461 70.3199 1.1884 8.6614 -8.2114 -24.2175 -1.4156 -0.9714 1.1858
-16.9106 85.5256 12.8185 1.6320 -2.2553 4.7574 -2.4609 2.1688 -0.2873 -1.0989 -3.4615 0.7180 0.8139 15.5089 -1.1829 17.7836 4.6518 -3.4800 -7.6510 -4.8906 -22.7903 7.3542 -1.7671 -30.7766 -0.0188 -0.1396 0.0415 0.8361 -11.0139 -3.8590 -0.8512 -11.1200 3.9095 3.6357 16.7799 -3.5565 -54.2676 25.8539 -24.0790 -0.9192 0.5948 -89.1362 6.2005 -5.1985 -0.4063 -15.6247 10.7896 17.1037 -60.3965 1.3423 1.7768 10.5445 10.9154 13.5325 72.1369 -19.8490 -46.4230 0.5567 0.0590 109.0104 -60.5849 -0.2492 7.8512 14.9426 7.2403 -15.9973 49.5847 -3.6660 -5.1159 20.3876 -3.0454 1.0154 -0.1930 39.8149 -1.2385 -30.2991 -29.3527 8.0086 1.6596 1.3385 -1.9199 -21.9418 -46.6304 -15.7573 1.4269 69.3933 1.9114 8.0794 -8.2451 -23.4802 -1.3860 -0.9255 1.2102
-19.4162 84.6199 14.5919 1.3055 -1.5931 5.3621 -2.0742 2.1237 -0.3574 -0.9655 -3.3441 0.6223 0.8569 15.3908 -1.4845 16.8185 3.3531 -3.2813 -7.8502 -4.8940 -22.7492 7.1477 -1.3585 -30.7613 -0.0179 -0.1599 0.0126 0.8251 -11.0550 -3.8853 -0.8397 -11.1728 3.8796 3.8724 16.3188 -4.3997 -54.7082 24.7139 -25.1348 -0.4891 0.7595 -89.7051 6.1202 -5.0163 -0.1891 -15.8064 10.7917 17.1337 -60.6795 1.3598 1.8110 9.8465 10.7435 14.0445 70.9898 -21.4065 -48.1320 0.5256 -0.0615 107.8511 -59.5402 -2.3572 7.9975 14.9437 7.1133 -15.8615 49.5519 -3.6453 -5.0271 22.6905 -1.9582 0.6587 -0.1478 37.9296 -1.2396 -32.3351 -28.7940 8.1713 1.6618 1.3285 -1.9325 -25.2767 -48.9570 -13.0364 1.4930 64.4450 2.1834 7.1706 -7.1151 -22.9814 -1.3516 -0.7680 1.1794
-22.2633 83.9180 16.7184 0.9567 -0.3507 5.8195 -1.4106 1.9107 -0.5059 -0.7490 -3.3294 0.4762 1.1310 14.9226 -1.7795 15.0405 1.5769 -2.9504 -8.0315 -4.8346 -22.5915 6.7787 -0.8310 -30.9505 -0.0297 -0.1653 0.0187 0.8055 -11.0740 -3.8757 -0.8444 -11.2039 3.8831 4.3567 15.6948 -5.3067 -56.0145 23.2604 -26.4063 -0.1312 0.8375 -88.3905 6.2391 -5.4636 -0.1710 -15.9067 10.8202 17.0607 -60.9936 1.4231 1.9077 8.8647 10.5820 14.6336 69.0106 -23.6528 -49.5780 0.5303 -0.0305 105.5213 -58.4291 -5.2029 8.3883 14.9939 6.9857 -15.7632 49.6156 -3.6060 -4.9842 25.0867 -0.4790 0.5799 -0.1109 34.2844 -1.2330 -34.5179 -27.1098 8.7107 1.6759 1.1746 -1.9673 -27.8447 -51.0465 -11.5965 1.1635 55.8858 1.9567 5.9449 -4.6873 -22.1303 -1.3379 -0.6873 1.1253
-25.4670 83.3820 19.2605 0.4575 1.3756 6.2667 -0.4490 1.5377 -0.7352 -0.4756 -3.4796 0.2739 1.6833 14.1060 -2.0112 12.5669 -0.4098 -2.5211 -8.1311 -4.6720 -22.2595 6.2779 -0.1292 -31.3935 -0.0504 -0.1752 0.0763 0.7855 -11.0955 -3.8152 -0.8683 -11.2320 3.9454 5.2607 15.0554 -6.1497 -58.0507 21.9923 -27.9935 0.2286 0.8655 -85.1847 6.3901 -6.6031 -0.2489 -16.0101 10.8206 16.8815 -61.3377 1.4527 2.0426 7.5471 10.6205 15.2512 66.1905 -26.3326 -50.5134 0.4240 0.2282 101.9716 -57.2828 -8.9830 9.1098 15.0805 6.8207 -15.6629 49.7553 -3.4984 -4.8726 27.7260 1.5849 0.8960 -0.0913 28.5525 -1.3267 -36.6222 -23.8744 9.4932 1.7050 0.7256 -2.0048 -28.8725 -52.3456 -12.0477 0.7086 44.3914 1.5011 5.2351 -2.0610 -20.8695 -1.3634 -0.7228 1.0585
-29.2472 82.8077 22.3507 -0.2350 3.5952 7.0296 0.7923 0.8901 -1.0798 -0.2033 -3.7939 0.0291 2.3838 12.9142 -2.1919 9.9561 -2.3670 -2.0423 -8.1859 -4.4452 -22.0275 5.6278 0.7106 -32.2173 -0.0624 -0.2149 0.1371 0.7868 -11.1649 -3.7541 -0.8971 -11.2965 4.0107 6.5209 14.5565 -6.9206 -60.2597 21.0934 -29.7485 0.3324 0.8246 -79.9639 6.4032 -8.5921 -0.4850 -16.1070 10.8455 16.6503 -61.9240 1.4542 2.2603 6.0030 10.9280 15.7281 62.5942 -29.1169 -51.0612 0.4170 0.5254 97.1905 -55.9961 -13.8334 9.9499 15.0296 6.5451 -15.6065 49.9107 -3.3826 -4.8892 31.0471 4.3401 1.5841 -0.0481 20.3912 -1.3880 -38.3371 -18.3468 10.2933 1.7874 0.1240 -1.9887 -27.7977 -52.5425 -15.0082 0.4220 30.3484 1.1212 6.0609 -0.2466 -20.0345 -1.3897 -1.1973 1.0941
-33.7429 81.9782 25.8016 -0.6934 6.2126 8.5547 2.0268 -0.0363 -1.4384 -0.0658 -4.2821 -0.2086 2.8422 11.5404 -2.5261 7.6098 -4.2052 -1.6172 -7.9451 -4.2838 -22.1096 4.7969 1.7152 -33.1056 -0.0673 -0.2367 0.2498 0.7786 -11.2144 -3.6406 -0.9015 -11.3232 4.1298 7.7076 14.1971 -7.9485 -61.4815 20.9693 -31.1321 0.1248 0.8389 -73.0797 5.7640 -11.0034 -1.0398 -16.3180 10.9302 16.3192 -62.5641 1.3923 2.1501 4.5034 11.2348 15.8017 58.3291 -32.0100 -51.4244 0.7262 0.8248 91.2412 -53.9550 -19.3520 10.3476 14.9566 6.3274 -15.5217 50.0387 -3.1738 -4.8376 34.9050 6.3076 2.6439 -0.0656 11.6780 -1.8195 -39.2465 -10.2807 9.7211 1.8037 -1.5103 -1.8835 -25.3188 -52.9052 -20.0485 0.3827 17.4562 0.9205 8.2928 0.7548 -20.3743 -1.3763 -1.8615 1.1518
-38.6975 80.8477 29.2683 -0.3158 8.7356 11.0318 3.0035 -0.7372 -1.8361 -0.1016 -4.6980 -0.2080 2.5970 10.1118 -3.2555 5.7340 -6.3903 -1.3635 -7.7823 -4.2278 -22.6580 4.0582 2.8874 -34.2459 -0.0650 -0.2586 0.3316 0.7912 -11.2355 -3.5535 -0.9079 -11.3221 4.2114 8.6488 13.8162 -9.3347 -61.1544 21.3436 -31.7613 -0.4997 0.8006 -64.4976 4.1022 -12.4290 -1.4319 -16.6807 10.9313 15.9673 -63.0199 1.4156 2.0075 2.5503 11.3128 15.4678 52.7412 -34.7782 -51.0754 1.0966 1.0594 83.6379 -50.2519 -26.0888 9.6160 14.8603 6.0772 -15.3511 50.0987 -2.9090 -4.8711 38.7304 6.5463 3.4384 -0.0804 4.3829 -2.2512 -39.0074 -0.3100 7.1636 1.8323 -3.9742 -1.7839 -22.4432 -55.0525 -26.4248 0.2542 10.3745 0.7482 11.2226 0.5739 -22.1361 -1.2235 -2.1504 1.2333
-43.8863 79.4649 32.5293 0.9682 10.8716 13.5502 3.7999 -0.8939 -2.0828 0.0082 -4.7918 -0.2651 1.6003 8.8774 -3.9029 3.8427 -9.1865 -1.1703 -7.8918 -4.2377 -22.7613 3.5599 3.9635 -36.0098 -0.0561 -0.2983 0.3836 0.7761 -11.2575 -3.4859 -0.8758 -11.3217 4.2469 8.4801 13.6765 -10.7974 -58.7980 21.7374 -31.1553 -1.3122 0.9367 -54.5546 1.9609 -13.5459 -1.4156 -16.9693 10.7833 15.5506 -63.2528 1.4808 1.9151 -0.4835 11.1044 15.3170 44.7022 -37.4157 -49.0135 0.9979 1.3147 73.1286 -43.6426 -34.2427 7.9048 14.6417 5.9742 -15.3809 50.1655 -2.9428 -5.0405 41.3436 4.5313 4.3145 -0.2874 -0.0079 -2.7268 -37.0748 9.1259 5.3635 1.7617 -4.7373 -1.6516 -19.0998 -59.1802 -32.8624 0.1610 11.2057 0.6482 11.8440 0.3048 -23.0194 -1.1414 -2.1078 1.2521
-49.0834 77.5674 35.5367 2.7045 12.7071 15.1994 4.7727 -0.6311 -1.9523 0.3368 -4.6244 -0.2694 0.3333 7.9734 -4.4072 1.1647 -12.0674 -0.1981 -8.2595 -4.4125 -23.2419 3.6731 5.1151 -37.6613 -0.0475 -0.3588 0.3914 0.7657 -11.2995 -3.4420 -0.8471 -11.3234 4.2099 7.1232 13.5343 -12.0090 -55.0899 21.6706 -29.0342 -2.4053 1.0637 -44.4280 -0.4697 -14.9796 -0.7639 -16.8292 10.4824 15.0630 -62.4741 1.4994 1.8707 -4.9948 10.6211 15.5316 33.6446 -38.7357 -43.7343 0.1228 1.4783 58.8742 -34.1657 -42.4427 5.4248 14.4439 6.1375 -15.5018 50.2216 -2.9372 -5.1955 42.3931 1.0051 5.4752 -0.4935 -1.5557 -3.0822 -32.7508 15.8024 6.1024 1.6850 -3.5443 -1.5764 -13.8790 -64.9426 -39.8946 0.1217 19.1142 0.5125 10.5782 2.2534 -21.6635 -1.1850 -2.0203 1.3131
-54.0419 75.0137 38.2298 3.9369 14.4239 15.6912 6.6538 -0.1391 -1.5813 0.6120 -4.4226 -0.2090 -0.5939 7.6042 -4.9058 -2.2741 -14.5971 1.8168 -8.9704 -4.6083 -24.0469 4.4920 6.6643 -38.5879 -0.0457 -0.4660 0.3229 0.8008 -11.3624 -3.4687 -0.8755 -11.3373 4.0903 4.5842 13.1236 -12.3100 -50.8399 21.0056 -25.8958 -2.9330 1.1845 -34.8606 -2.4160 -16.2642 1.1988 -16.7195 10.0654 14.2379 -61.5673 1.7615 1.5342 -10.3190 10.4883 16.2470 19.9209 -37.1544 -34.7693 -0.8156 1.7850 41.0487 -22.6395 -50.4549 2.5433 14.2634 6.4094 -16.0359 49.8066 -3.3050 -5.7478 42.9570 -3.2839 7.1809 -0.5025 -0.6945 -3.3351 -27.3884 19.2792 8.8871 1.6732 -1.3780 -1.5924 -4.8049 -73.3543 -49.5359 0.4586 32.8398 0.6638 8.6574 14.2082 -17.4411 -1.3624 -0.4552 1.0160
-58.6766 71.7923 40.6133 4.6759 15.5894 14.8084 8.0747 0.8770 -1.0209 1.2393 -3.9691 -0.2921 -0.6582 7.4308 -4.7549 -4.9867 -16.2864 3.7027 -9.4864 -4.8985 -24.1039 5.1820 7.0185 -38.7454 -0.0436 -0.5111 0.2119 0.8846 -11.3693 -3.5728 -0.9532 -11.3432 3.9659 2.4560 12.3488 -11.5165 -48.2108 17.4017 -20.6021 -2.4009 1.1529 -26.6877 -1.7032 -18.0893 3.9167 -16.5292 10.1080 13.5069 -60.4742 2.1100 1.3518 -16.0407 10.9050 17.0251 7.8717 -32.0368 -26.3226 0.0839 0.6735 24.1732 -8.9745 -54.4807 -2.9402 14.0813 6.9017 -16.3146 49.4239 -3.5442 -6.1090 43.5941 -6.5370 8.4293 -0.5275 3.0034 -3.4328 -24.6165 18.1334 10.5389 1.7190 -0.2582 -1.5994 9.6330 -82.2745 -63.0704 0.8964 47.9773 0.9874 7.4808 18.8535 -13.5780 -1.3690 1.3757 0.7908
-62.7056 69.1384 42.8572 5.0772 16.6791 13.3140 9.1020 1.7928 -0.5173 1.8969 -3.3850 -0.4759 -0.0252 7.5572 -4.2192 -6.3742 -17.2084 4.5338 -9.3850 -5.0788 -23.2638 6.0994 7.3739 -38.1642 -0.0583 -0.5428 0.0923 0.8618 -11.2817 -3.6684 -0.9581 -11.2544 3.8279 0.6265 11.4940 -10.3222 -48.5009 11.3559 -12.5143 -0.3844 1.0414 -22.3333 5.6704 -27.1818 4.1942 -15.7128 10.9058 14.3370 -59.6198 1.9872 2.1422 -20.5238 11.3312 17.7525 -0.7079 -28.5008 -20.6690 2.2170 -0.1417 13.5140 1.2967 -51.4942 -6.6030 13.6878 7.1716 -15.9270 49.2904 -3.4565 -6.0872 44.0908 -8.5313 8.6769 -0.7086 8.2980 -3.5054 -24.6206 14.0978 11.0794 1.8196 0.1479 -1.5805 78.2952 -86.6693 -130.0198 1.0823 60.6000 0.9877 6.5226 14.9725 -11.5222 -1.3631 2.3782 0.9059
-66.0466 66.8463 44.9759 5.3562 17.8223 11.4633 9.7285 2.2872 -0.2028 2.4031 -2.8010 -0.5375 1.1349 8.0237 -3.4565 -6.4830 -17.4742 4.9649 -9.1502 -5.1900 -22.1417 6.9390 7.3992 -37.2660 -0.0884 -0.5124 0.1363 0.8031 -11.2510 -3.6419 -0.9589 -11.2413 3.9041 -1.5555 11.0664 -8.6599 -50.8052 7.5150 -5.8401 1.0956 1.1934 -22.4149 13.1161 -35.1853 -0.8858 -15.1405 11.0823 15.3944 -59.8006 1.5320 2.7745 -22.7869 11.6201 18.5145 -7.5870 -27.7823 -15.7478 3.0659 -0.2615 9.3429 4.4865 -46.1917 -4.4246 13.9600 7.2107 -16.1829 49.6548 -3.4214 -6.0979 43.8973 -9.5006 8.7008 -1.0065 13.5402 -3.6892 -26.4272 7.8977 11.8004 1.8983 0.2504 -1.6329 135.4523 -83.3295 174.9887 1.3310 70.3552 1.1241 5.9629 10.3411 -10.9800 -1.3758 2.8390 1.0495
-68.7663 65.0141 47.0074 5.3700 18.8160 9.6686 10.2546 2.6439 -0.0397 2.7514 -2.3439 -0.4446 2.5930 8.4033 -2.6067 -6.1528 -17.0600 5.2269 -8.8823 -5.3419 -21.3009 7.5097 7.2573 -35.9432 -0.1100 -0.4471 0.1571 0.7780 -11.2629 -3.6434 -0.9742 -11.2418 3.9542 -3.1178 11.1531 -6.5773 -53.9612 8.3641 -4.9981 0.8640 1.1239 -23.6636 10.9677 -34.9819 -1.4977 -15.4460 10.7307 15.6566 -60.2643 1.5717 2.8638 -23.5444 11.7556 19.7889 -13.4185 -27.0079 -10.9966 2.9875 -0.2777 7.6951 5.3679 -42.3737 -0.5928 14.3569 7.1730 -16.4743 49.8625 -3.3608 -5.8702 43.5300 -9.0869 8.5782 -1.1150 17.3873 -3.7628 -27.9714 1.7942 13.9446 1.9038 0.2891 -1.6814 145.9769 -79.6003 166.4411 1.6828 77.6795 1.4016 5.8222 6.3165 -10.5535 -1.3742 3.1074 1.1631
-70.9265 63.4889 48.7948 4.9195 19.7204 8.0240 10.7969 2.8189 0.0251 2.9841 -2.0373 -0.2655 4.1930 8.6013 -1.6853 -5.9001 -16.3449 5.4770 -8.3994 -5.4128 -20.6427 7.6214 6.7589 -34.3142 -0.1052 -0.3793 0.1002 0.7850 -11.2660 -3.7220 -0.9681 -11.2331 3.9169 -3.9915 11.4617 -4.4294 -57.5219 11.3664 -7.9149 0.4310 1.0948 -24.6285 2.2826 -30.3112 1.1137 -16.0152 10.1522 15.3981 -60.0341 1.8629 2.7321 -23.6461 11.8222 21.1656 -17.7028 -25.4025 -6.3907 3.0805 -0.3130 6.3386 6.6279 -39.0367 2.0451 14.8330 7.1526 -16.7656 49.7920 -3.3563 -5.7588 43.4630 -7.6477 8.5657 -0.9301 19.0748 -3.8072 -29.2540 -2.3821 16.7156 1.8840 0.0642 -1.7094 148.3303 -76.7499 165.8241 1.7771 83.3257 1.4813 5.8593 3.0450 -10.3745 -1.3637 3.1142 1.1105
-72.7262 62.2727 50.2475 4.4285 20.6061 6.8781 11.2372 2.7264 0.0235 3.1526 -1.8518 -0.0957 5.3833 8.5987 -0.8575 -5.9660 -15.6653 5.7595 -7.8888 -5.3536 -19.9660 7.5543 6.3591 -33.1078 -0.1095 -0.3577 0.0895 0.7853 -11.2092 -3.7383 -0.9751 -11.1836 3.9140 -4.5938 11.7362 -2.9566 -59.9913 13.4148 -9.7194 0.6259 1.3046 -25.6432 -1.6098 -27.4162 1.6518 -16.1672 9.8672 15.2086 -59.5493 1.9380 2.6622 -23.6032 11.7562 22.3212 -19.7555 -23.5519 -3.0145 3.4836 -0.3211 5.3933 7.6099 -35.9291 3.0669 15.1354 7.0684 -16.9134 49.5420 -3.4578 -5.8559 43.7724 -6.0091 8.8980 -0.6964 18.5401 -3.9824 -30.3495 -4.0075 18.7892 1.9119 -0.2852 -1.8148 148.9891 -74.6509 166.5135 2.1991 87.5029 1.9242 5.8439 0.5219 -10.5608 -1.3612 3.0119 1.0411
-74.2068 61.1974 51.3263 4.1284 21.3775 6.3128 11.5827 2.5405 0.0472 3.2895 -1.7822 -0.0362 6.1146 8.5408 -0.2566 -6.2412 -15.1653 6.1203 -7.4442 -5.3060 -19.4050 7.4532 5.9075 -32.4473 -0.1194 -0.3624 0.0901 0.7817 -11.1607 -3.7400 -0.9909 -11.1526 3.9224 -5.0668 11.7827 -2.2403 -60.7763 14.1497 -9.0137 1.4535 1.5540 -26.6778 -1.0875 -27.0839 0.8321 -16.2174 9.8416 15.1043 -59.5792 1.8838 2.6980 -23.4714 11.6587 23.0749 -20.7039 -22.8089 -0.6110 3.8330 -0.3113 4.8797 7.7912 -33.3582 3.0280 15.2948 6.9910 -16.9894 49.4321 -3.6207 -6.0733 44.3666 -4.8664 9.8201 -0.5529 16.7055 -4.2010 -31.6361 -4.0496 19.5911 1.9266 -0.5934 -1.9145 150.0903 -72.9311 166.3178 174.9641 89.1540 174.7093 5.7998 -1.3698 -10.9475 -1.3709 2.9346 1.0403
-75.2592 60.2006 52.0157 3.8836 22.0607 6.0726 11.8426 2.3546 -0.0066 3.5105 -1.7418 -0.1029 6.6187 8.4729 0.2044 -6.5778 -14.7599 6.3282 -7.1745 -5.2161 -18.5238 7.4926 5.3785 -32.0394 -0.1525 -0.3617 0.1590 0.7527 -11.1098 -3.6729 -1.0310 -11.1251 4.0036 -5.5628 11.6500 -1.7562 -60.2410 13.8059 -6.5425 2.2789 1.7483 -27.6034 1.8049 -27.8033 -0.2151 -16.1149 9.8973 14.9645 -59.7871 1.7862 2.7205 -23.4675 11.5806 23.5002 -21.2678 -22.7503 1.2862 4.0613 -0.2835 4.4916 7.6073 -31.8396 2.1795 15.2990 6.9316 -16.9309 49.6400 -3.6563 -6.2287 45.1406 -4.2220 10.8805 -0.5335 14.7761 -4.5208 -34.0518 -3.5133 20.6462 1.8848 -0.8596 -1.9445 151.7848 -71.4767 165.4853 177.5580 86.4062 177.2917 5.6930 -2.7365 -11.5007 -1.3946 2.8068 1.0704
-75.9161 59.3385 52.4121 3.8123 22.6027 6.1954 12.0708 2.1738 0.0157 3.6046 -1.7766 -0.0928 7.0891 8.3940 0.3060 -6.9283 -14.4546 6.6080 -7.0008 -5.2425 -18.0998 7.5311 4.5459 -31.7404 -0.1590 -0.3645 0.1587 0.7492 -11.0726 -3.6726 -1.0416 -11.1146 4.0087 -5.5578 11.4345 -1.5910 -59.6516 12.8566 -3.9110 2.6484 1.8765 -28.1185 4.3139 -28.6385 -1.0045 -15.9180 9.9137 14.9843 -59.6595 1.6648 2.7973 -23.4339 11.2748 23.5715 -21.7797 -23.6819 3.0254 3.9523 -0.2373 3.9026 7.0323 -30.2121 1.1311 15.3146 6.8572 -16.8009 49.7720 -3.6646 -6.2387 45.7583 -4.1524 12.0285 -0.4556 12.8072 -4.7232 -35.4330 -2.5253 21.2800 1.9088 -0.9372 -1.9881 153.3703 -70.3340 164.4145 177.8819 84.3087 177.6366 5.6887 -3.8185 -12.2827 -1.4018 2.7024 1.0972
-76.2352 58.6762 52.6485 3.8843 23.0594 6.4195 12.2158 1.9968 -0.0677 3.6767 -1.7720 -0.0823 7.4220 8.3610 0.3150 -7.2337 -14.2908 6.8332 -6.8890 -5.2750 -17.8111 7.6700 3.7028 -31.4823 -0.1551 -0.3647 0.1353 0.7556 -11.0518 -3.6980 -1.0423 -11.1121 3.9902 -5.4305 11.1901 -1.5434 -59.1314 12.1637 -2.3316 2.8782 1.8897 -28.1892 5.5415 -28.5935 -1.3700 -15.8140 9.8944 14.9674 -59.6481 1.6730 2.8341 -23.4019 10.8680 23.5950 -22.2149 -24.8987 4.3614 3.5347 -0.2069 3.3297 6.3676 -29.1704 -0.1572 15.2968 6.8516 -16.7412 49.8561 -3.7327 -6.1757 46.0309 -4.4359 13.0794 -0.4117 11.2175 -4.8582 -36.2515 -1.2675 21.8295 1.9275 -0.9394 -2.0059 155.2549 -69.4434 162.9752 177.8524 82.7599 177.6127 5.7293 -4.5934 -13.0692 -1.4062 2.5965 1.0846
-76.3391 58.2224 52.6968 4.0475 23.4447 6.5568 12.2833 1.8730 -0.1326 3.7596 -1.7625 -0.1294 7.5869 8.3673 0.2796 -7.4988 -14.3105 7.0495 -6.8233 -5.2721 -17.6018 7.8302 2.8728 -31.2758 -0.1461 -0.3648 0.1030 0.7639 -11.0489 -3.7344 -1.0330 -11.1213 3.9609 -5.2149 10.9198 -1.4978 -58.7832 11.7416 -1.3973 2.9498 1.7922 -28.0166 6.2173 -27.9806 -1.4935 -15.7395 9.8302 14.9398 -59.7052 1.7445 2.8319 -23.5083 10.4347 23.5499 -22.3844 -26.2912 5.4453 2.9895 -0.1798 2.8606 5.8388 -28.6250 -1.5553 15.2392 6.9006 -16.7621 49.9957 -3.7222 -6.1522 46.0025 -4.9056 14.0900 -0.3575 9.9864 -4.9017 -36.7850 0.1243 22.2311 1.9313 -0.8819 -1.9970 157.3440 -68.8214 161.4016 177.8313 81.7802 177.6097 5.8688 -5.1108 -13.7910 -1.4112 2.5266 1.0610
-76.2761 58.0799 52.6425 4.2955 23.7495 6.5714 12.2851 1.8655 -0.1553 3.8160 -1.7559 -0.1851 7.7030 8.3986 0.1848 -7.7351 -14.3544 7.3956 -6.7191 -5.3421 -17.4450 7.8474 2.1350 -31.0350 -0.1586 -0.3618 0.1193 0.7514 -11.0560 -3.7253 -1.0454 -11.1417 3.9908 -4.9770 10.6277 -1.4827 -58.6190 11.5399 -0.8943 2.9920 1.7700 -27.6484 6.7952 -27.3642 -1.3839 -15.8268 9.8222 15.0569 -59.9819 1.8514 2.6757 -23.7692 10.1047 23.4921 -22.3703 -27.9160 6.3418 2.3383 -0.1561 2.5454 5.3729 -28.5315 -2.8371 15.1032 6.9902 -16.8381 50.0412 -3.7024 -6.0815 45.5759 -5.3908 15.0038 -0.3468 8.9571 -4.9940 -36.9209 1.9332 22.6276 1.9273 -1.0277 -1.9897 159.5326 -68.5369 159.8547 177.8621 81.4126 177.6256 5.9275 -5.4384 -14.4845 -1.4108 2.7145 0.9403
-76.0634 58.2315 52.4440 4.5743 24.0468 6.4215 12.2997 1.8688 -0.1755 3.8602 -1.6861 -0.2347 7.6624 8.4858 0.0996 -8.0021 -14.6503 7.5403 -6.7049 -5.2710 -17.1730 8.0215 1.5261 -30.8609 -0.1499 -0.3662 0.1033 0.7641 -11.0672 -3.7450 -1.0415 -11.1643 3.9768 -4.8937 10.3487 -1.4416 -58.3765 11.2069 -0.3776 3.0403 1.7177 -26.9495 7.2548 -26.8967 -1.2279 -15.9128 9.6903 14.9775 -60.0117 1.8161 2.6450 -24.1228 9.7748 23.3983 -22.1537 -29.4486 7.0131 1.7054 -0.1441 2.4187 4.7798 -28.8645 -3.9476 15.0863 7.0811 -16.9076 50.0867 -3.6813 -6.1474 45.0945 -5.8562 15.7214 -0.2823 8.3891 -4.9545 -36.9880 3.5076 22.7561 1.9224 -1.1540 -1.9791 161.5620 -68.4832 158.5520 177.5677 81.6197 177.3519 6.1245 -5.4685 -14.9313 -1.4125 2.5963 0.9244
-75.8674 58.5944 52.2086 4.9432 24.3132 6.2197 12.3109 1.9175 -0.1649 3.8800 -1.6127 -0.2261 7.5715 8.5566 -0.0157 -8.3932 -14.9758 7.7213 -6.7169 -5.2126 -16.9888 8.2349 1.1538 -30.7931 -0.1524 -0.3712 0.1257 0.7666 -11.0926 -3.7270 -1.0497 -11.1870 4.0048 -4.9220 10.1980 -1.4792 -58.0416 10.6790 0.2307 2.9937 1.6551 -25.9991 7.5141 -26.6418 -0.9375 -15.8745 9.5938 14.9376 -59.9584 1.8246 2.6725 -24.5807 9.4634 23.3187 -21.8172 -30.9148 7.4327 1.0260 -0.1323 2.4848 4.1499 -29.8364 -4.8726 15.0074 7.1625 -16.9020 50.0945 -3.6846 -6.1115 44.3357 -6.2071 16.3411 -0.2499 7.9004 -4.8484 -36.9707 4.9558 22.8293 1.9104 -1.2316 -1.9887 163.3909 -68.6158 157.4301 176.8810 82.2782 176.6840 6.2930 -5.4243 -15.2346 -1.4168 2.4880 0.9587
-75.6110 59.2242 51.9858 5.3572 24.5798 5.8406 12.2966 1.9762 -0.1541 3.8892 -1.5464 -0.1961 7.4217 8.6347 -0.0872 -8.8330 -15.3516 7.7850 -6.7553 -5.1594 -16.7585 8.4310 0.8897 -30.7592 -0.1644 -0.3687 0.1712 0.7540 -11.1096 -3.6789 -1.0632 -11.2020 4.0541 -5.0209 10.0758 -1.5440 -57.6498 10.0959 0.8990 2.8550 1.4818 -24.7869 7.2975 -26.1720 -0.4306 -15.8159 9.5770 14.9516 -59.9403 1.8659 2.6584 -25.0520 9.1830 23.2161 -21.4566 -32.2995 7.8477 0.3511 -0.1197 2.6762 3.6095 -31.1177 -5.6995 14.9826 7.2484 -16.8678 50.1895 -3.6273 -6.0701 43.2712 -6.4039 17.1413 -0.2272 7.1890 -4.7276 -36.8183 6.3731 23.0320 1.9050 -1.2061 -1.9891 165.0433 -68.9704 156.5922 175.9194 83.3674 175.7394 6.3671 -5.3218 -15.4385 -1.4195 2.4709 1.0081
-75.4202 60.1380 51.7995 5.8381 24.8679 5.3225 12.2670 1.9770 -0.1661 3.8477 -1.5155 -0.1260 7.2114 8.6887 -0.1964 -9.2942 -15.7617 7.8288 -6.8344 -5.1406 -16.5373 8.5528 0.7627 -30.6841 -0.1789 -0.3596 0.2269 0.7322 -11.1181 -3.6158 -1.0713 -11.2019 4.1070 -5.1712 9.9910 -1.5612 -57.2098 9.6206 1.5065 2.5892 1.3023 -23.4479 6.8091 -25.2160 0.2898 -15.7529 9.6043 15.0180 -59.9062 1.9349 2.6741 -25.4675 8.9692 23.2187 -20.9723 -33.4740 8.1282 -0.1745 -0.1018 2.9324 3.0313 -32.9010 -6.4350 14.9202 7.2964 -16.7726 50.1137 -3.5591 -5.9366 41.8532 -6.4648 18.3244 -0.1817 5.9674 -4.6871 -36.2149 8.0619 23.3505 1.9118 -1.2176 -1.9890 166.3668 -69.5671 156.0857 174.5924 84.8119 174.4321 6.2790 -5.2331 -15.5020 -1.4183 2.4067 1.0467
-75.3175 61.4138 51.8427 6.3314 25.1499 4.6438 12.2646 1.7775 -0.3361 3.7283 -1.4130 0.0020 6.9665 8.7482 -0.2779 -9.8939 -16.4018 7.8485 -7.0130 -5.0588 -16.3634 8.6965 0.8559 -30.6509 -0.1593 -0.3634 0.1967 0.7512 -11.1091 -3.6399 -1.0532 -11.1804 4.0655 -5.4391 9.9365 -1.5260 -56.6795 9.3870 1.9144 2.2051 1.1608 -22.1283 6.2093 -24.1591 0.8013 -15.6111 9.5356 14.8559 -59.5464 1.9732 2.6926 -25.7083 8.7629 23.3468 -20.4172 -34.3368 8.4648 -0.3749 -0.0837 3.1018 2.4593 -35.1146 -7.2786 14.9780 7.3179 -16.6816 50.0428 -3.5012 -5.8883 40.3115 -6.4466 20.0044 -0.1233 4.2337 -4.5792 -34.7632 10.3619 23.6499 1.9354 -1.1426 -1.9997 166.9945 -70.5311 156.2179 170.4121 86.7120 170.2990 6.2000 -4.9810 -15.3898 -1.4227 2.2084 1.1467
-75.2484 62.9690 51.9825 6.7227 25.3135 3.8126 12.2163 1.4809 -0.4450 3.6468 -1.4604 -0.0361 6.5991 8.7538 -0.3280 -10.4474 -17.0101 7.9890 -7.1394 -5.1047 -16.3947 8.4571 1.1616 -30.4965 -0.1473 -0.3606 0.1756 0.7528 -11.1273 -3.6611 -1.0318 -11.1900 4.0416 -5.4551 9.7665 -1.4792 -56.3972 9.7450 2.0161 1.8563 1.0989 -21.0457 5.4091 -22.8684 1.4120 -15.5582 9.5156 14.7746 -59.2755 2.0438 2.6002 -25.6248 8.6768 23.6552 -19.5439 -34.9115 8.7339 -0.3740 -0.0801 3.4540 1.4838 -37.7193 -7.8736 14.9621 7.3529 -16.5897 49.9893 -3.4529 -5.7559 38.5865 -6.1757 22.0969 -0.0994 1.9396 -4.6235 -32.1972 13.4654 23.8366 1.9458 -1.4497 -2.0146 166.5700 -71.9507 157.2708 152.4823 88.8069 152.3762 5.8944 -4.8383 -15.1208 -1.4193 2.2319 1.1249
-75.2336 64.7290 52.2794 7.0568 25.2731 2.8550 12.0819 1.0430 -0.5784 3.5411 -1.5848 -0.1224 6.1277 8.7406 -0.4648 -10.9816 -17.7626 8.0934 -7.2775 -5.1724 -16.4351 7.9999 1.5533 -30.2202 -0.1276 -0.3680 0.1212 0.7705 -11.1768 -3.7246 -1.0093 -11.2283 3.9858 -5.2131 9.5223 -1.4220 -56.3381 10.4025 2.0385 1.3787 1.0536 -20.2877 4.7478 -21.0477 2.3891 -15.6094 9.5257 14.5828 -59.1950 2.1184 2.4084 -24.9794 8.6182 24.0844 -18.4773 -35.0573 8.9783 -0.2968 -0.0794 4.5038 -0.0426 -40.6816 -8.4335 14.9180 7.4527 -16.5692 49.9660 -3.3550 -5.7163 36.8446 -5.6856 24.3729 -0.1078 -0.4254 -4.6563 -28.3368 17.1329 24.2950 1.9441 -1.8450 -2.0212 165.2318 -73.8946 159.1019 19.4213 88.4740 19.3073 5.5879 -4.7711 -14.6824 -1.4170 2.3299 1.0812
-75.2187 66.6435 52.6686 7.3287 24.9444 2.0031 11.8919 0.5084 -0.6522 3.2798 -1.9028 -0.2022 5.6059 8.7668 -0.8840 -11.3469 -18.5390 8.1819 -7.2681 -5.2583 -16.7143 7.2546 1.8967 -29.9336 -0.1100 -0.3807 0.0522 0.7918 -11.2314 -3.7920 -0.9917 -11.2762 3.9068 -4.6190 9.1425 -1.5792 -56.8878 11.4231 1.6921 1.1552 1.0003 -19.9103 4.2301 -19.2640 3.7007 -15.7582 9.4448 14.3130 -59.1130 2.1821 2.3675 -23.4124 8.3426 24.4720 -17.2838 -35.5710 9.3293 -0.3667 -0.0820 7.3259 -3.1948 -43.3713 -7.9396 14.9331 7.5285 -16.7094 49.7816 -3.4251 -5.7791 35.1511 -5.1795 26.4008 -0.1343 -2.2713 -4.4331 -23.0545 20.9616 25.2956 1.9759 -1.8374 -2.0790 162.2905 -76.3590 162.1840 5.4472 85.8009 5.3431 5.4956 -4.8824 -14.1698 -1.4015 2.5019 1.0560
-75.2573 68.6583 53.0146 7.4150 24.0495 1.0890 11.4946 0.0242 -0.8197 3.0320 -2.1195 -0.2915 5.0059 8.8421 -1.2988 -11.2702 -19.0084 7.9847 -7.2183 -5.2011 -16.8498 6.6216 2.0106 -29.5580 -0.1030 -0.3951 0.0376 0.8138 -11.2917 -3.8104 -1.0010 -11.3134 3.8910 -4.2529 9.0950 -1.8410 -57.5698 12.0111 0.4996 1.0490 0.9154 -19.3705 4.2101 -17.6067 4.7109 -15.9120 9.4466 13.9962 -59.3163 2.2482 2.2728 -20.7286 8.1147 24.5495 -15.9967 -36.5578 9.6579 -0.6232 -0.0243 12.6062 -9.0919 -46.2001 -5.4817 14.9180 7.5585 -16.7748 49.9361 -3.4621 -5.7497 33.7156 -4.3184 27.4699 -0.2233 -2.5140 -4.1551 -19.3961 22.3524 26.4880 1.9648 -1.6427 -2.1043 158.0791 -79.5431 166.4977 3.2093 82.8396 3.1111 5.5048 -4.9010 -13.5686 -1.4022 2.7217 0.9969
-75.2460 70.7345 53.2929 7.3015 22.6207 0.3168 10.9589 -0.3740 -0.9605 2.6959 -2.3768 -0.4266 4.4263 9.1714 -1.7658 -10.7294 -19.1043 7.4972 -7.0877 -5.0634 -17.0209 6.0232 1.8228 -29.0474 -0.1035 -0.3907 0.0597 0.8261 -11.3224 -3.7916 -1.0148 -11.3270 3.9099 -4.1333 9.3143 -2.3750 -58.6694 12.0752 -1.5223 1.0083 0.8132 -18.7589 4.7660 -16.9683 5.1237 -16.2264 9.4596 13.7980 -59.9159 2.2535 2.0886 -17.1839 7.8731 24.0575 -14.2493 -38.6306 9.9054 -0.6853 0.0812 20.4838 -17.7077 -47.3226 -1.0902 15.0201 7.5321 -16.7883 50.1994 -3.4539 -5.6584 32.6296 -3.3630 27.6248 -0.3258 -1.4828 -3.9327 -18.7543 21.7335 26.4390 1.9694 -1.6719 -2.1434 149.3591 -83.3476 175.2443 2.2502 79.6356 2.1637 5.5705 -4.7240 -13.1422 -1.4051 2.9029 0.9601
-75.1982 72.8230 53.4458 7.1090 20.8005 -0.2495 10.2474 -0.6497 -1.0419 2.3480 -2.6549 -0.6274 3.7867 9.6653 -2.2224 -9.8484 -18.7853 6.8501 -6.9422 -4.8955 -17.2618 5.5549 1.4822 -28.6064 -0.1047 -0.3722 0.1043 0.8310 -11.3148 -3.7461 -1.0229 -11.3096 3.9495 -4.4030 9.7596 -3.1201 -60.0523 11.7354 -4.5556 1.0107 0.7098 -17.9436 5.8555 -17.2742 4.9767 -16.5428 9.4889 13.7296 -60.5793 2.2225 1.9316 -13.2712 7.8330 23.1910 -11.2638 -41.0636 9.2099 -0.4854 0.1504 30.4177 -27.6308 -46.3408 3.9929 15.2402 7.4221 -16.6339 50.4908 -3.4086 -5.4620 31.7272 -2.4396 26.8636 -0.3655 0.6292 -3.6300 -19.0146 19.7348 26.1277 1.9920 -1.7138 -2.1981 116.4845 -87.1086 -151.9819 1.7590 76.1819 1.6945 5.7118 -4.3309 -12.8886 -1.4106 2.9774 0.9148
-75.0691 74.9623 53.4448 6.8644 18.7364 -0.5634 9.3954 -0.7904 -1.1275 1.9840 -2.9116 -0.7810 3.1133 10.2879 -2.7045 -8.6932 -18.1060 6.1345 -6.7880 -4.7604 -17.5391 5.2252 1.0090 -28.2149 -0.1017 -0.3524 0.1476 0.8317 -11.2685 -3.7006 -1.0184 -11.2514 3.9835 -5.0167 10.3283 -4.0177 -61.6393 11.2358 -8.6344 1.0875 0.6393 -16.8266 7.2511 -18.4555 4.4139 -16.7146 9.5640 13.8099 -61.1013 2.1670 1.8385 -9.3374 7.9410 22.1487 -6.5948 -43.0917 7.2624 -0.3650 0.1832 41.5638 -36.6309 -43.0880 8.0677 15.4533 7.2557 -16.3399 50.5845 -3.4116 -5.2496 30.8027 -2.0135 25.4505 -0.3681 3.7996 -3.1371 -18.6160 16.7655 26.2818 2.0028 -1.5907 -2.2133 24.3631 -86.1345 -60.0501 1.4772 72.2893 1.4410 5.8842 -3.6177 -12.7742 -1.4191 3.0039 0.8798
-74.8231 77.1499 53.2596 6.5071 16.5375 -0.6512 8.4262 -0.7502 -1.1923 1.6434 -3.1146 -0.8995 2.3801 10.9951 -3.2461 -7.1216 -17.1686 5.2606 -6.6770 -4.6432 -17.7131 5.0404 0.4974 -27.9870 -0.0966 -0.3286 0.1888 0.8305 -11.2205 -3.6591 -1.0078 -11.2026 4.0183 -5.6389 10.8985 -4.9876 -63.4180 10.6847 -13.5920 1.0921 0.5055 -15.3661 8.5888 -19.9354 3.5069 -16.7468 9.6789 14.0177 -61.4179 2.1056 1.8420 -5.5085 8.1092 20.9517 -0.2620 -44.5125 4.4168 -0.2211 0.2111 53.1062 -43.4702 -37.9165 10.2697 15.5992 7.0960 -16.0244 50.4741 -3.4554 -5.0258 29.6451 -2.4171 23.6693 -0.3641 7.9650 -2.6101 -18.5398 12.4633 26.4824 1.9979 -1.4825 -2.1961 3.0962 -81.4153 -39.0172 1.2001 67.9194 1.2022 6.1139 -2.3988 -12.8194 -1.4323 2.9082 0.8719
-74.4647 79.3110 52.8768 6.1077 14.2485 -0.5946 7.3460 -0.4827 -1.2564 1.2892 -3.2330 -0.9267 1.5800 11.7282 -3.8676 -5.1025 -16.0019 4.2925 -6.6534 -4.5216 -17.7835 5.0454 0.1092 -27.9013 -0.0873 -0.3034 0.2024 0.8234 -11.1701 -3.6492 -0.9824 -11.1610 4.0307 -6.0640 11.5022 -6.0270 -65.2061 9.8927 -18.8304 0.8703 0.3498 -13.5745 9.4776 -21.3177 2.8675 -16.7252 9.7594 14.1752 -61.4519 2.0159 1.8699 -2.0079 8.2834 19.5755 7.7967 -45.0581 1.1031 -0.0654 0.1683 64.1628 -47.7671 -31.3892 10.6310 15.6195 7.0984 -15.8402 50.2691 -3.4865 -4.8641 28.3063 -3.6519 21.8532 -0.4079 12.8789 -2.0365 -18.8081 7.1701 26.3903 1.9764 -1.4873 -2.1585 -3.4617 -76.2706 -32.6759 0.9063 63.1591 0.9455 6.3626 -0.6924 -12.9327 -1.4428 2.7510 0.8792
-73.9513 81.3102 52.2207 5.7123 11.8343 -0.5261 6.1744 0.0326 -1.2587 0.9181 -3.2522 -0.9535 0.6813 12.4475 -4.5050 -2.6789 -14.5581 3.1956 -6.6973 -4.3820 -17.7100 5.2822 -0.0637 -27.8248 -0.0733 -0.2797 0.1774 0.8140 -11.1169 -3.6786 -0.9448 -11.1207 4.0075 -6.0589 12.1215 -7.1638 -66.8964 8.6323 -23.7036 0.3292 0.1603 -11.5595 9.2794 -22.1112 3.3727 -16.6442 9.7435 14.2490 -61.1206 1.9323 1.8716 0.9798 8.4737 17.9698 17.3554 -44.1198 -2.1486 -0.0201 0.1935 74.3916 -50.2118 -24.1250 9.8882 15.5365 7.2855 -15.7830 50.0846 -3.5109 -4.7172 26.8803 -5.3069 20.3992 -0.5172 18.1265 -1.6046 -19.3848 2.0449 25.2637 1.9388 -1.5980 -2.0944 -7.0741 -71.1077 -29.2680 0.5522 58.2311 0.6119 6.4479 1.3734 -13.0173 -1.4526 2.5717 0.8994
-73.0955 82.8247 51.3991 5.2517 9.4395 -0.6537 5.0972 0.6856 -1.2309 0.5389 -3.2045 -1.0047 -0.2239 13.1323 -5.0109 -0.0492 -12.7932 2.0129 -6.8065 -4.2584 -17.5994 5.6910 -0.2485 -27.4532 -0.0569 -0.2580 0.1376 0.8254 -11.0664 -3.7231 -0.9220 -11.0813 3.9667 -5.5642 12.7753 -8.2138 -68.3162 6.5164 -27.5199 -0.5697 -0.0205 -9.6006 8.0183 -21.9458 5.0432 -16.5512 9.6818 14.2620 -60.4894 1.8843 1.7475 3.1489 8.7715 16.0280 27.5477 -41.3988 -4.3615 0.0682 0.4085 83.5710 -52.1715 -16.8060 9.0409 15.4443 7.5516 -15.8986 49.9724 -3.5265 -4.6639 25.6066 -6.5245 19.3429 -0.6378 23.0355 -1.4921 -21.6989 -2.3626 22.6537 1.8741 -1.7272 -2.0388 -9.6471 -66.4171 -26.6800 0.2900 53.7442 0.3784 6.2603 3.4291 -13.1065 -1.4626 2.4436 0.9135
-71.8762 83.7095 50.4841 4.7412 7.2598 -1.0964 4.1986 1.3336 -1.2836 0.2777 -3.0816 -1.1845 -1.0763 13.7205 -5.2450 2.3502 -10.8148 1.0182 -6.8677 -4.1797 -17.4762 6.2305 -0.6806 -26.9083 -0.0477 -0.2268 0.1676 0.8476 -11.0385 -3.7085 -0.9269 -11.0525 4.0041 -4.9282 13.6309 -8.7942 -69.1524 3.4677 -30.1897 -1.2364 -0.0830 -7.9890 6.6975 -21.5450 6.8758 -16.5131 9.7695 14.4425 -60.1197 1.8337 1.5303 4.5277 9.3889 14.1343 37.0662 -37.5427 -4.7559 0.4095 1.0347 91.0461 -54.5697 -9.9320 8.4923 15.4246 7.7040 -16.1612 50.0598 -3.6079 -4.7691 24.7895 -6.4405 18.0817 -0.6018 27.0409 -1.5888 -26.1968 -6.3742 20.5787 1.7965 -2.1716 -2.0475 -11.5525 -62.6273 -24.5387 0.2975 50.1488 0.4240 5.5355 5.3749 -13.0615 -1.4793 2.2841 0.8991
-70.4276 83.9557 49.4460 4.3077 5.6082 -1.6683 3.4082 1.8684 -1.2282 0.0730 -3.0551 -1.3439 -1.5700 14.1843 -5.4249 4.1411 -8.8459 0.4133 -6.6701 -4.1581 -17.6606 6.6621 -1.2225 -26.1879 -0.0496 -0.2017 0.1749 0.8664 -10.9921 -3.7006 -0.9494 -10.9959 4.0119 -4.4245 14.3981 -9.1583 -69.5012 -0.2029 -31.2751 -1.2163 -0.0862 -6.9658 7.2859 -23.0441 6.9616 -16.3815 10.0470 14.7323 -60.0114 1.8217 1.5381 5.9725 10.1811 12.6226 43.9551 -33.3238 -3.0819 0.8066 1.3252 96.3870 -57.0188 -3.3406 8.0502 15.3471 7.6701 -16.3651 49.7659 -3.6490 -4.9349 24.3162 -4.8053 16.8689 -0.3025 28.3942 -1.4123 -30.9898 -9.2574 21.6152 1.7760 -1.6500 -2.1686 -12.7281 -60.1869 -23.1430 0.2933 47.2929 0.5033 4.6156 7.1951 -12.9901 -1.4842 2.0617 0.8177
-68.8820 83.9191 48.2745 4.4945 4.3642 -2.0093 2.4569 2.3777 -1.1605 -0.1522 -2.9761 -1.4634 -2.0805 14.7987 -5.4091 5.5901 -7.4937 -0.0053 -6.4049 -4.2213 -18.0739 7.1487 -1.8665 -25.9850 -0.0595 -0.1780 0.2064 0.8721 -10.9920 -3.6847 -0.9753 -10.9943 4.0647 -4.3190 14.9211 -9.6088 -68.8852 -3.7428 -31.0445 -0.6310 -0.1049 -7.1364 11.8674 -27.4925 3.4928 -16.1629 10.5351 15.2839 -60.4518 1.7115 1.5077 8.4437 11.0267 11.7796 48.3973 -29.9772 -1.2005 1.4209 1.3669 100.0602 -59.2801 2.6159 8.4819 15.2253 7.5841 -16.5183 49.6083 -3.7478 -4.9482 23.3319 -3.8325 16.4383 -0.0846 29.6585 -1.2962 -34.1128 -11.7604 22.4459 1.6989 -0.8186 -2.2227 -14.4141 -58.9282 -21.8556 0.2883 44.7311 0.5254 3.7406 9.1664 -12.7967 -1.4795 1.9708 0.7480
-67.4514 83.8193 47.0158 5.4141 3.3785 -1.7572 1.3897 2.8376 -1.1303 -0.4332 -2.7390 -1.3287 -2.9286 15.7884 -5.4983 7.0718 -6.9919 -0.4917 -6.5934 -4.2522 -18.3266 7.9376 -2.6670 -27.0554 -0.0622 -0.1919 0.2275 0.8554 -10.9694 -3.6629 -0.9662 -11.0035 4.0883 -3.8019 15.0324 -9.9111 -67.5350 -6.0917 -32.0424 -0.1317 -0.1359 -8.1499 18.2397 -31.8935 -2.3209 -15.5834 10.6076 15.5902 -60.2047 1.4974 1.6755 12.1551 11.4704 11.7225 50.6387 -27.7944 -0.3673 1.8638 1.1053 102.6766 -61.0371 7.0854 9.2258 15.0232 7.4750 -16.6437 49.3437 -3.8959 -5.1218 21.9092 -4.5018 16.1730 -0.0043 32.5414 -1.1242 -35.1433 -13.8430 21.7120 1.6607 -0.1756 -2.2657 -16.8175 -58.4260 -20.9090 0.2899 42.1654 0.5261 3.3950 11.4533 -12.2423 -1.4688 1.7456 0.7795
-66.1316 83.7816 45.6777 5.9161 2.8729 -1.1195 0.7335 3.3252 -1.1405 -0.6580 -2.5146 -1.0384 -3.2901 16.9488 -5.6108 8.2163 -6.9389 -0.8436 -6.8091 -4.2907 -18.7145 8.7660 -3.5772 -28.5106 -0.0651 -0.2144 0.2677 0.8188 -10.9731 -3.6184 -0.9373 -11.0500 4.1296 -2.6504 15.0044 -9.9976 -65.8855 -6.8674 -34.5611 -0.1081 -0.1638 -9.3218 21.4817 -32.2182 -5.4654 -15.4037 10.4631 15.8095 -59.9824 1.3343 1.9267 15.8285 11.7092 12.1178 51.3712 -26.6850 -0.7573 1.9558 0.8726 105.0673 -61.3919 10.1358 11.2653 14.8894 7.4036 -16.5556 49.1830 -3.9835 -5.1971 20.8465 -6.5479 15.8775 -0.0032 36.0630 -1.0106 -34.8583 -15.9121 20.3844 1.6496 0.2965 -2.2139 -17.6858 -57.9973 -21.6196 0.3127 39.1439 0.5610 3.4725 13.9698 -11.6144 -1.4498 1.5688 0.8348
-64.9659 83.9051 44.3155 5.8657 2.9136 -0.4931 0.4202 3.8283 -1.1475 -0.7676 -2.2874 -0.8440 -3.0310 17.8778 -5.5347 9.1303 -6.9439 -1.0851 -6.9015 -4.3120 -19.2081 9.3947 -4.3549 -29.6302 -0.0636 -0.2280 0.2752 0.7837 -10.9830 -3.6032 -0.8997 -11.1002 4.1318 -1.3547 14.9145 -9.8937 -64.5295 -5.8448 -37.4136 -0.4936 -0.1816 -10.6701 21.3562 -30.4891 -5.6791 -15.5443 10.3092 15.7828 -59.9415 1.3150 2.1386 18.4290 11.7926 12.5388 51.6320 -26.7493 -2.4686 2.1390 0.7802 106.8797 -61.1869 11.2770 13.3243 14.8685 7.4025 -16.3839 49.2065 -3.9586 -5.1787 20.1317 -9.2006 15.4114 -0.0400 39.3341 -0.9811 -34.0263 -17.5612 19.3171 1.6585 0.4711 -2.1108 -17.1238 -57.4178 -23.1426 0.2925 35.6897 0.5764 3.8652 16.4516 -11.1633 -1.4350 1.5166 0.8667
-63.9893 84.0396 43.0786 5.8135 3.2979 -0.1225 0.1989 4.3542 -1.0870 -0.7916 -2.0913 -0.8268 -2.7118 18.4314 -5.2821 9.8802 -6.8910 -1.2229 -7.0339 -4.3151 -19.6979 9.9475 -4.7487 -30.3976 -0.0620 -0.2382 0.2564 0.7696 -11.0121 -3.6206 -0.8810 -11.1486 4.1080 -0.3576 14.8977 -9.7755 -63.7491 -3.3944 -39.4957 -0.8746 -0.1903 -12.4718 19.1667 -27.5642 -4.5180 -15.6707 10.1716 15.5863 -59.8716 1.3843 2.2464 19.6265 11.7797 12.9014 52.0790 -27.5681 -5.1073 2.2620 0.6444 107.7282 -61.2887 10.9986 14.2298 14.8822 7.4209 -16.2309 49.2746 -3.9375 -5.1360 19.3572 -11.5648 15.1540 -0.1117 41.7204 -1.0042 -33.4942 -18.6979 18.7254 1.6719 0.4931 -2.0833 -16.5218 -57.0083 -24.1369 0.2197 32.4577 0.5455 4.5009 18.5980 -10.8426 -1.4252 1.5645 0.8649
-63.2344 84.1574 42.0378 5.9111 3.9402 0.0471 0.0647 4.7236 -1.0288 -0.8158 -1.9262 -0.7573 -2.5600 18.7427 -5.0868 10.4109 -6.9017 -1.2587 -7.1968 -4.3349 -20.1552 10.4441 -4.9428 -30.8630 -0.0591 -0.2391 0.2259 0.7750 -11.0413 -3.6500 -0.8809 -11.1782 4.0783 -0.0092 14.9483 -9.6718 -63.4011 -0.1951 -40.4983 -1.0815 -0.1826 -14.5987 16.4985 -24.4633 -3.5324 -15.6840 10.0521 15.2920 -59.7041 1.4548 2.2075 20.0025 11.6348 13.2550 52.1723 -28.6384 -7.9140 2.1526 0.4570 107.8889 -61.4959 10.2046 14.0181 14.8781 7.4450 -16.1512 49.2742 -3.9472 -5.0921 18.5070 -13.5629 15.2154 -0.1955 43.2801 -1.0247 -33.3586 -19.4719 18.4230 1.6788 0.5408 -2.1145 -16.0392 -56.9897 -24.7103 0.1577 29.7795 0.5117 5.2246 20.3495 -10.4712 -1.4186 1.5732 0.8389
-62.7917 84.2613 41.2979 6.0825 4.6730 0.2142 0.0227 4.9098 -0.9952 -0.8773 -1.7917 -0.6156 -2.5344 18.9182 -5.0063 10.7524 -7.0472 -1.2367 -7.3137 -4.3830 -20.5688 10.7789 -5.0800 -31.1763 -0.0541 -0.2255 0.2021 0.7941 -11.0526 -3.6783 -0.8898 -11.1829 4.0559 -0.1289 14.9379 -9.5135 -63.4138 3.0163 -40.6549 -1.1878 -0.1366 -16.4067 14.3975 -22.1717 -3.1950 -15.6466 9.9989 15.0858 -59.6278 1.4416 2.1198 20.0780 11.3627 13.6128 51.6970 -29.5794 -10.2661 1.8479 0.3809 107.8041 -61.7665 9.5831 13.3910 14.9049 7.5045 -16.0928 49.3820 -3.9018 -5.0421 17.8112 -15.1888 15.4632 -0.2733 44.1328 -1.0253 -33.2912 -19.9512 18.0709 1.6845 0.5446 -2.1611 -15.5949 -57.2572 -25.1728 0.0977 27.9088 0.4520 5.7793 21.5688 -10.1377 -1.4177 1.5049 0.8202
-62.6395 84.3703 40.8311 6.2364 5.2767 0.4337 0.0504 5.0102 -0.9617 -0.9360 -1.6910 -0.5034 -2.5345 18.9821 -4.9685 10.8899 -7.2579 -1.1991 -7.3609 -4.3845 -20.8911 10.9010 -5.1932 -31.4073 -0.0498 -0.2093 0.1942 0.8083 -11.0373 -3.6861 -0.8948 -11.1614 4.0437 -0.3659 14.8567 -9.3219 -63.7373 5.7266 -40.4519 -1.2452 -0.0857 -17.5025 12.9130 -20.9167 -3.1777 -15.6395 10.0035 14.9883 -59.6322 1.4039 2.0547 20.0212 11.1340 13.9098 51.0653 -30.3652 -11.9896 1.5426 0.4029 107.5712 -62.2719 9.3354 12.6253 14.9045 7.5772 -16.0655 49.5862 -3.8565 -5.0207 17.4234 -16.3408 15.7777 -0.3203 44.4153 -1.0354 -33.1770 -20.0812 17.5941 1.6910 0.4200 -2.1896 -15.0813 -57.6105 -25.7191 0.0624 26.9312 0.4046 6.0063 22.2193 -9.9141 -1.4207 1.4425 0.8107
-62.7916 84.4628 40.6408 6.3294 5.6936 0.6827 0.1243 5.0741 -0.9453 -0.9707 -1.6355 -0.4312 -2.4863 18.9852 -4.9313 10.8728 -7.4641 -1.1668 -7.3988 -4.3778 -21.1076 10.8970 -5.2227 -31.6474 -0.0487 -0.2120 0.1997 0.8135 -11.0345 -3.6837 -0.8974 -11.1550 4.0510 -0.5550 14.8048 -9.1615 -64.2559 7.7331 -40.1180 -1.2707 -0.0356 -17.9324 11.9216 -20.4515 -3.2110 -15.6701 10.0438 15.0097 -59.6831 1.4014 2.0348 19.8253 10.9935 14.1141 50.7334 -31.0196 -13.3004 1.3727 0.4408 107.3650 -62.9383 9.4120 11.7890 14.9018 7.6145 -16.0018 49.7517 -3.8266 -5.0110 17.3485 -17.0470 16.0768 -0.3644 44.3205 -1.0730 -33.0453 -19.9798 17.0124 1.6965 0.2576 -2.1933 -14.3942 -57.9945 -26.5422 0.0566 26.7055 0.3766 6.0844 22.4535 -9.6999 -1.4205 1.4498 0.8078
-63.1331 84.5591 40.6456 6.3805 5.9517 0.9253 0.2405 5.0837 -0.9240 -0.9833 -1.6123 -0.4318 -2.3847 18.9094 -4.8748 10.7272 -7.6218 -1.1238 -7.3970 -4.3718 -21.3018 10.7713 -5.2025 -31.8390 -0.0479 -0.2197 0.2006 0.8117 -11.0283 -3.6819 -0.8937 -11.1450 4.0507 -0.6972 14.7980 -9.0359 -64.9013 9.1925 -39.7603 -1.2696 0.0022 -17.9015 11.2957 -20.3900 -3.2890 -15.7374 10.0792 15.0349 -59.7034 1.4491 1.9947 19.5362 10.9338 14.2407 50.6642 -31.5121 -14.2799 1.2670 0.4849 107.1291 -63.5433 9.7808 10.8733 14.8818 7.6279 -15.9451 49.8134 -3.7957 -4.9986 17.4997 -17.3032 16.3537 -0.3869 43.8240 -1.1136 -32.9249 -19.6389 16.4476 1.7040 0.0827 -2.1751 -13.5720 -58.4146 -27.6036 0.0563 27.1773 0.3309 6.1932 22.2729 -9.3800 -1.4196 1.4887 0.8190
-63.6812 84.6640 40.8924 6.4127 6.0935 1.1980 0.3996 5.0089 -0.9595 -0.9678 -1.6251 -0.4265 -2.2425 18.7705 -4.8448 10.4812 -7.7381 -1.0575 -7.3961 -4.3800 -21.4707 10.5691 -5.1544 -31.9881 -0.0469 -0.2292 0.2009 0.8116 -11.0134 -3.6811 -0.8916 -11.1267 4.0517 -0.8299 14.7887 -8.9457 -65.5786 10.2575 -39.3746 -1.3075 0.0044 -17.6669 10.9864 -20.6851 -3.5075 -15.7949 10.1001 15.0100 -59.7120 1.4786 1.9430 19.1914 10.8764 14.2994 50.7807 -31.8611 -15.0483 1.2453 0.6057 106.8614 -63.9945 10.2259 9.9111 14.8182 7.6429 -15.8907 49.8125 -3.7811 -4.9833 17.8340 -17.1553 16.5370 -0.4105 42.8865 -1.1747 -32.8341 -19.1033 15.9862 1.7128 -0.0658 -2.1574 -12.7118 -58.8787 -28.7977 0.0815 28.2754 0.3129 6.2673 21.7438 -9.0407 -1.4202 1.5404 0.8309
-64.3239 84.7623 41.3290 6.4409 6.1517 1.4568 0.6017 4.8658 -0.9871 -0.9223 -1.6970 -0.4832 -2.0649 18.6304 -4.8301 10.1667 -7.8370 -0.9636 -7.3959 -4.3862 -21.5766 10.2920 -5.0673 -32.1056 -0.0478 -0.2352 0.2088 0.8104 -11.0027 -3.6712 -0.8914 -11.1148 4.0554 -0.9548 14.8000 -8.8765 -66.3031 10.9988 -38.9806 -1.3008 0.0049 -17.3617 10.8029 -21.2313 -3.7942 -15.8543 10.0857 14.9709 -59.7394 1.4893 1.9169 18.8133 10.8206 14.3312 50.9924 -32.1554 -15.7153 1.3499 0.6644 106.6193 -64.1679 10.7066 9.0822 14.7763 7.6520 -15.8684 49.7972 -3.7615 -4.9671 18.2908 -16.6179 16.6085 -0.4256 41.5830 -1.2261 -32.7370 -18.4429 15.6098 1.7206 -0.2040 -2.1408 -11.8726 -59.3868 -30.0104 0.1322 29.8820 0.3272 6.2855 20.8328 -8.7042 -1.4200 1.6205 0.8311
-65.0793 84.8449 41.9083 6.4957 6.1644 1.7023 0.8162 4.6623 -1.0172 -0.8565 -1.8124 -0.5663 -1.8542 18.4735 -4.8306 9.8520 -7.9689 -0.8891 -7.4347 -4.4029 -21.6504 9.9384 -4.8940 -32.1879 -0.0512 -0.2434 0.2256 0.8088 -10.9843 -3.6525 -0.8962 -11.0996 4.0717 -1.0164 14.8640 -8.8770 -67.0643 11.3980 -38.6184 -1.3221 -0.0040 -17.0497 10.8111 -21.9263 -4.1440 -15.9342 10.0543 14.9827 -59.7503 1.4696 1.9264 18.4142 10.7769 14.3360 51.2418 -32.3653 -16.2531 1.5103 0.7003 106.4268 -64.0599 11.0595 8.6733 14.7604 7.6663 -15.8731 49.8337 -3.7334 -4.9691 18.7546 -15.7492 16.6128 -0.4278 39.9275 -1.2696 -32.6618 -17.6598 15.4212 1.7249 -0.2878 -2.1318 -11.1831 -59.8705 -31.0756 0.1862 31.7721 0.3422 6.2618 19.5871 -8.3683 -1.4207 1.7489 0.8221
-65.8468 84.9254 42.5311 6.5568 6.1639 1.9487 1.0595 4.4228 -1.0575 -0.7755 -1.9388 -0.6760 -1.6022 18.3044 -4.8568 9.5314 -8.1254 -0.7954 -7.4912 -4.4389 -21.6704 9.5488 -4.7193 -32.2369 -0.0555 -0.2478 0.2462 0.8057 -10.9597 -3.6289 -0.9014 -11.0743 4.0905 -0.9989 14.8987 -8.9088 -67.9237 11.5650 -38.4539 -1.3347 -0.0225 -16.7907 10.8632 -22.6047 -4.4537 -15.9991 10.0374 14.9393 -59.8437 1.4688 1.8855 17.9571 10.7142 14.3784 51.4754 -32.4619 -16.7268 1.5950 0.7175 106.3191 -63.6923 11.2120 8.4953 14.7575 7.6745 -15.9045 49.8405 -3.7333 -4.9751 19.2345 -14.6371 16.5041 -0.4209 37.9796 -1.2936 -32.6345 -16.7326 15.4316 1.7285 -0.3552 -2.1230 -10.6826 -60.3128 -31.8739 0.2388 33.8142 0.3717 6.1538 18.1522 -8.1518 -1.4215 1.8974 0.8170
-66.6558 84.9882 43.1958 6.6489 6.1849 2.1821 1.3173 4.1556 -1.1187 -0.6973 -2.0633 -0.7932 -1.3224 18.1187 -4.9119 9.2223 -8.2566 -0.6950 -7.5513 -4.4974 -21.6295 9.1525 -4.5846 -32.2146 -0.0604 -0.2466 0.2606 0.7994 -10.9369 -3.6123 -0.9039 -11.0473 4.1016 -0.9048 14.8956 -8.9504 -68.8306 11.5924 -38.6343 -1.3833 -0.0375 -16.5843 10.8296 -23.1296 -4.6939 -16.0020 10.0288 14.9102 -59.9493 1.4811 1.8245 17.4292 10.6279 14.4457 51.6366 -32.5018 -17.1172 1.6518 0.6932 106.2418 -63.1391 11.1500 8.4330 14.7519 7.6750 -15.9415 49.8691 -3.7018 -4.9742 19.6842 -13.3561 16.3556 -0.4028 35.7679 -1.3051 -32.6520 -15.6823 15.6186 1.7282 -0.3822 -2.1136 -10.3381 -60.7433 -32.4355 0.2944 35.8826 0.4242 6.0006 16.5796 -8.0773 -1.4226 2.0453 0.8064
-67.4883 85.0431 43.8666 6.7694 6.2563 2.4347 1.5647 3.8664 -1.1670 -0.6221 -2.1857 -0.9326 -1.0322 17.9548 -4.9764 8.9124 -8.3898 -0.6037 -7.5885 -4.5167 -21.5808 8.8003 -4.4391 -32.1316 -0.0660 -0.2432 0.2758 0.7938 -10.9183 -3.5942 -0.9095 -11.0241 4.1165 -0.7607 14.8596 -9.0186 -69.6953 11.4775 -39.0240 -1.4383 -0.0560 -16.4573 10.8052 -23.5871 -4.9296 -15.9829 10.0221 14.8916 -60.1127 1.4891 1.8102 16.9131 10.5065 14.5397 51.7206 -32.5298 -17.4887 1.6846 0.6614 106.1740 -62.4062 10.9178 8.4534 14.7527 7.6257 -15.9749 49.8077 -3.6851 -4.9687 20.0232 -12.0899 16.1587 -0.3785 33.5316 -1.2989 -32.6205 -14.5795 15.9126 1.7293 -0.4205 -2.1083 -10.1718 -61.1501 -32.7125 0.3429 37.8203 0.4711 5.8299 15.0250 -8.0731 -1.4233 2.1978 0.7809
-68.2732 85.0915 44.5203 6.9034 6.3456 2.6818 1.8176 3.5850 -1.2314 -0.5497 -2.2722 -1.0773 -0.7583 17.7852 -5.0489 8.6436 -8.4781 -0.5194 -7.5943 -4.5289 -21.5036 8.4505 -4.2840 -31.9197 -0.0688 -0.2397 0.2763 0.7869 -10.8981 -3.5917 -0.9074 -10.9986 4.1148 -0.6253 14.7682 -9.1122 -70.4486 11.1491 -39.3920 -1.5332 -0.0834 -16.3370 10.7751 -24.0120 -5.1718 -15.9938 9.9905 14.8240 -60.2162 1.4946 1.7784 16.4343 10.3510 14.6626 51.7184 -32.5783 -17.8016 1.6981 0.6484 106.0267 -61.5370 10.4873 8.6114 14.7647 7.6016 -16.0473 49.7572 -3.6513 -4.9707 20.3089 -10.8617 16.0044 -0.3650 31.2840 -1.2950 -32.5085 -13.4245 16.2186 1.7328 -0.4927 -2.0995 -10.1864 -61.4998 -32.7195 0.3831 39.5793 0.5130 5.7257 13.5706 -8.1583 -1.4273 2.3178 0.7628
-69.0114 85.1483 45.1303 7.0505 6.4688 2.9170 2.0611 3.3115 -1.2811 -0.4731 -2.3569 -1.2249 -0.5118 17.6527 -5.1342 8.3924 -8.5190 -0.4383 -7.5991 -4.5213 -21.3973 8.1569 -4.1596 -31.6587 -0.0697 -0.2378 0.2705 0.7824 -10.8780 -3.5960 -0.9039 -10.9760 4.1072 -0.5083 14.6489 -9.2264 -71.0558 10.6291 -39.7126 -1.6295 -0.1127 -16.2024 10.7546 -24.5498 -5.4955 -15.9796 9.9599 14.7761 -60.2027 1.4781 1.8110 15.9933 10.1791 14.7649 51.7432 -32.6790 -18.1103 1.7330 0.6257 105.8584 -60.6808 9.9916 8.7717 14.7596 7.5423 -16.0959 49.7175 -3.6284 -4.9588 20.5307 -9.7611 15.9166 -0.3520 29.1504 -1.2827 -32.2984 -12.2791 16.4728 1.7373 -0.5962 -2.0899 -10.2881 -61.8002 -32.6071 0.4052 41.0775 0.5404 5.6624 12.2550 -8.2893 -1.4312 2.4131 0.7425
-69.6843 85.2027 45.6799 7.1928 6.5828 3.1464 2.2915 3.0641 -1.2870 -0.3914 -2.4463 -1.3871 -0.2921 17.5524 -5.1988 8.1555 -8.5013 -0.3779 -7.5851 -4.5045 -21.2367 7.8660 -4.0590 -31.3877 -0.0702 -0.2347 0.2690 0.7792 -10.8618 -3.5976 -0.9008 -10.9548 4.1049 -0.4303 14.5542 -9.3431 -71.4993 9.9734 -39.9394 -1.6478 -0.1227 -16.0256 10.7089 -25.0394 -5.8003 -16.0145 9.9357 14.7325 -60.2110 1.4621 1.8534 15.5988 9.9988 14.8721 51.8605 -32.8764 -18.5455 1.8383 0.5695 105.7117 -59.9059 9.4981 8.9277 14.7899 7.4953 -16.1313 49.7020 -3.6134 -4.9732 20.6764 -8.7826 15.8601 -0.3412 27.1993 -1.2810 -32.0312 -11.1889 16.6957 1.7394 -0.6836 -2.0843 -10.5382 -61.9850 -32.2500 0.4151 42.3086 0.5529 5.6478 11.0841 -8.5262 -1.4359 2.4710 0.7312
-70.2316 85.2462 46.1464 7.3258 6.6962 3.3698 2.5158 2.8337 -1.3273 -0.3131 -2.5250 -1.4926 -0.0591 17.4579 -5.2599 7.9012 -8.4098 -0.3052 -7.5494 -4.4872 -21.0700 7.5818 -3.9954 -31.0952 -0.0731 -0.2336 0.2759 0.7750 -10.8560 -3.5940 -0.9021 -10.9424 4.1156 -0.3963 14.4561 -9.4477 -71.8079 9.1977 -39.9604 -1.7103 -0.1280 -15.7707 10.6959 -25.3939 -6.1137 -16.0412 9.9172 14.7287 -60.2031 1.4511 1.8810 15.1998 9.8311 14.9305 51.9891 -33.0665 -18.9534 1.8829 0.4954 105.6315 -59.2051 8.9950 9.1029 14.7911 7.4615 -16.1215 49.6606 -3.6087 -4.9555 20.7725 -7.9254 15.7819 -0.3240 25.4472 -1.2661 -31.7844 -10.2402 16.8821 1.7381 -0.7485 -2.0820 -10.8142 -62.1190 -31.8541 0.4463 43.3004 0.5901 5.6515 10.0651 -8.7974 -1.4370 2.5025 0.7253
-70.6197 85.2940 46.4991 7.4561 6.8071 3.5588 2.7133 2.6245 -1.3266 -0.2295 -2.6147 -1.6212 0.1662 17.3862 -5.2627 7.6718 -8.2689 -0.2447 -7.5035 -4.4706 -20.9141 7.2786 -3.9183 -30.8348 -0.0783 -0.2290 0.2903 0.7692 -10.8429 -3.5773 -0.9070 -10.9231 4.1309 -0.4087 14.3544 -9.5331 -72.0278 8.3943 -39.7066 -1.7641 -0.1462 -15.5102 10.7086 -25.5965 -6.4401 -16.0491 9.9238 14.7269 -60.1778 1.4485 1.8939 14.8637 9.6729 15.0159 52.0996 -33.2497 -19.3802 1.8896 0.4334 105.5675 -58.6047 8.5671 9.3408 14.8627 7.4385 -16.0862 49.7031 -3.5900 -4.9560 20.8061 -7.2043 15.7555 -0.3089 23.9542 -1.2528 -31.6499 -9.4446 16.9949 1.7359 -0.7766 -2.0830 -11.1447 -62.2173 -31.4089 0.4625 44.0606 0.6037 5.6477 9.2222 -9.0758 -1.4387 2.5316 0.7186
-70.8152 85.3224 46.7683 7.5773 6.8799 3.7119 2.8904 2.4430 -1.3429 -0.1526 -2.6873 -1.7254 0.3953 17.3432 -5.2119 7.4816 -8.1032 -0.1710 -7.4422 -4.4621 -20.8235 6.9419 -3.8337 -30.5979 -0.0831 -0.2275 0.3013 0.7673 -10.8350 -3.5648 -0.9152 -10.9103 4.1449 -0.4368 14.2432 -9.5836 -72.1751 7.7068 -39.2963 -1.8436 -0.1814 -15.3635 10.7800 -25.7086 -6.7483 -16.1019 9.9491 14.7619 -60.1900 1.4688 1.8975 14.5462 9.5613 15.0981 52.1647 -33.4544 -19.7792 1.8711 0.3961 105.4943 -58.0672 8.2545 9.4923 14.9023 7.3948 -16.0552 49.7012 -3.6106 -4.9305 20.7904 -6.5867 15.7294 -0.2860 22.7266 -1.2212 -31.6060 -8.8629 17.0950 1.7326 -0.7780 -2.0799 -11.6761 -62.2530 -30.7407 0.4751 44.6043 0.6145 5.6763 8.6125 -9.4134 -1.4406 2.5652 0.7152
-70.8435 85.3715 46.9142 7.7108 6.8996 3.8357 3.0192 2.2930 -1.3240 -0.0880 -2.7489 -1.8119 0.6102 17.3358 -5.1733 7.3864 -7.9221 -0.1154 -7.4220 -4.4751 -20.7123 6.6065 -3.7286 -30.3901 -0.0873 -0.2245 0.3126 0.7687 -10.8245 -3.5556 -0.9241 -10.8963 4.1570 -0.4461 14.1380 -9.5938 -72.3319 7.1985 -38.8961 -1.8656 -0.2151 -15.3736 10.8808 -25.8346 -6.9961 -16.1464 9.9694 14.7798 -60.1989 1.4875 1.8961 14.2838 9.4677 15.2051 52.2020 -33.7049 -20.2048 1.8849 0.3633 105.4161 -57.5795 8.1007 9.4458 14.9594 7.3594 -16.0455 49.7214 -3.6133 -4.9637 20.6728 -6.1045 15.7498 -0.2661 21.8558 -1.1988 -31.6158 -8.5077 17.1457 1.7314 -0.7357 -2.0807 -12.3695 -62.2132 -29.9445 0.4696 44.8777 0.6004 5.7362 8.2301 -9.7387 -1.4425 2.5892 0.7173
-70.7348 85.4136 47.0162 7.8564 6.8715 3.9410 3.0996 2.1709 -1.3520 -0.0440 -2.7839 -1.8332 0.8252 17.3781 -5.1358 7.3519 -7.7229 -0.0804 -7.4099 -4.4917 -20.6211 6.3323 -3.5822 -30.2124 -0.0928 -0.2252 0.3228 0.7681 -10.8124 -3.5428 -0.9351 -10.8805 4.1694 -0.4167 14.0578 -9.5673 -72.4195 6.8791 -38.6396 -1.9190 -0.2575 -15.5099 10.9924 -25.9808 -7.1827 -16.2166 9.9914 14.8213 -60.2760 1.5183 1.9035 14.0590 9.3836 15.2869 52.1531 -33.9436 -20.5230 1.8422 0.3623 105.3570 -57.1025 8.0212 9.1931 14.9722 7.3054 -16.0357 49.7270 -3.6383 -4.9856 20.4890 -5.7440 15.7376 -0.2404 21.3185 -1.1593 -31.6425 -8.3292 17.1758 1.7280 -0.6986 -2.0848 -13.1780 -62.1243 -29.1008 0.4845 44.8986 0.6202 5.7968 8.1195 -10.0892 -1.4413 2.5936 0.7165
-70.4609 85.4623 47.0011 7.9981 6.7889 4.0165 3.1312 2.1024 -1.3609 -0.0140 -2.8121 -1.8304 1.0282 17.4600 -5.1093 7.3993 -7.5123 -0.0841 -7.4198 -4.5027 -20.4849 6.1125 -3.4005 -30.0660 -0.1003 -0.2265 0.3384 0.7612 -10.8129 -3.5288 -0.9434 -10.8825 4.1901 -0.3482 14.0387 -9.5224 -72.4732 6.7448 -38.5278 -1.9153 -0.2992 -15.8131 11.1301 -26.1092 -7.3135 -16.2872 9.9888 14.8514 -60.3577 1.5298 1.9100 13.8305 9.2875 15.3535 52.0745 -34.1238 -20.7949 1.8120 0.3312 105.2816 -56.6658 7.9653 8.9027 14.9729 7.2577 -16.0085 49.7436 -3.6232 -5.0133 20.2290 -5.4950 15.7035 -0.2230 21.1348 -1.1518 -31.6875 -8.3377 17.2809 1.7259 -0.6538 -2.0894 -14.0827 -61.9637 -28.1937 0.4828 44.6895 0.6302 5.9181 8.2427 -10.3807 -1.4386 2.6054 0.7200
-70.0801 85.5198 46.9162 8.1487 6.6586 4.0462 3.1255 2.1020 -1.3648 0.0168 -2.8242 -1.8106 1.2009 17.5586 -5.0579 7.5094 -7.2826 -0.1148 -7.4568 -4.5235 -20.3786 5.9805 -3.2311 -30.0013 -0.1062 -0.2293 0.3463 0.7518 -10.8133 -3.5217 -0.9457 -10.8844 4.2014 -0.2680 14.0600 -9.4902 -72.4837 6.7112 -38.3978 -1.9150 -0.3411 -16.2140 11.3006 -26.0466 -7.3729 -16.3414 9.9767 14.8803 -60.3856 1.5304 1.9064 13.6393 9.1889 15.3854 51.9799 -34.2368 -21.0129 1.7949 0.3187 105.2520 -56.2956 7.9088 8.6753 14.9978 7.2408 -15.9987 49.7850 -3.6057 -5.0430 19.9206 -5.3134 15.6426 -0.2111 21.2455 -1.1196 -31.7767 -8.5258 17.3481 1.7265 -0.6276 -2.0950 -15.0722 -61.7418 -27.2484 0.4740 44.2604 0.6355 6.0817 8.5479 -10.6103 -1.4358 2.5739 0.7294
-69.6458 85.5765 46.7882 8.2875 6.4862 4.0047 3.0899 2.1558 -1.3494 0.0413 -2.8237 -1.7803 1.3242 17.6789 -4.9840 7.6604 -7.0343 -0.1328 -7.5166 -4.5471 -20.3047 5.9271 -3.0958 -29.9897 -0.1132 -0.2315 0.3627 0.7438 -10.8106 -3.5031 -0.9515 -10.8861 4.2188 -0.1659 14.1538 -9.4728 -72.4280 6.7932 -38.3157 -1.8945 -0.3737 -16.7673 11.4537 -25.8162 -7.3166 -16.3952 9.9452 14.9069 -60.4370 1.5150 1.9197 13.4637 9.1334 15.4044 51.8650 -34.3154 -21.1331 1.7302 0.2915 105.1969 -55.9415 7.7743 8.6004 15.0611 7.2527 -15.9919 49.8547 -3.5893 -5.0565 19.5625 -5.2362 15.5648 -0.2010 21.6796 -1.1003 -31.9110 -8.8931 17.4209 1.7225 -0.5943 -2.0946 -16.0971 -61.4315 -26.2394 0.4656 43.6346 0.6479 6.2519 9.0196 -10.7705 -1.4321 2.5298 0.7361
-69.1061 85.6323 46.5736 8.4051 6.3030 3.9061 3.0450 2.2509 -1.3341 0.0656 -2.8019 -1.7112 1.4324 17.7891 -4.9108 7.7649 -6.7891 -0.1487 -7.5568 -4.5643 -20.2866 5.9280 -3.0078 -29.9742 -0.1189 -0.2388 0.3717 0.7347 -10.8190 -3.4927 -0.9548 -10.9001 4.2312 -0.0716 14.2805 -9.4524 -72.3407 6.9458 -38.3248 -1.8711 -0.4040 -17.3518 11.5505 -25.4715 -7.2025 -16.4292 9.9112 14.9187 -60.3990 1.4955 1.9447 13.2800 9.1081 15.3968 51.7602 -34.3690 -21.1836 1.6738 0.2944 105.1506 -55.6298 7.5427 8.6636 15.1018 7.2709 -15.9820 49.8842 -3.5618 -5.0552 19.1878 -5.2509 15.4915 -0.1923 22.3387 -1.0765 -32.0672 -9.3581 17.5096 1.7200 -0.5359 -2.0945 -17.0785 -61.0669 -25.2632 0.4640 42.8239 0.6642 6.3879 9.6488 -10.9102 -1.4302 2.4963 0.7361
-68.5232 85.6788 46.3542 8.5191 6.0946 3.7399 2.9941 2.3753 -1.3264 0.0867 -2.7445 -1.6330 1.4822 17.8952 -4.8120 7.8246 -6.5406 -0.1524 -7.5704 -4.5707 -20.3580 5.9493 -2.9624 -29.9251 -0.1192 -0.2441 0.3658 0.7340 -10.8386 -3.4992 -0.9547 -10.9254 4.2261 0.0219 14.3858 -9.4203 -72.2656 7.1410 -38.3874 -1.8505 -0.4169 -17.8937 11.5625 -25.1347 -7.0841 -16.4290 9.8820 14.9163 -60.3480 1.4691 1.9851 13.0930 9.1093 15.4042 51.7338 -34.4142 -21.2902 1.6862 0.2302 105.1395 -55.3607 7.4020 8.7662 15.1380 7.2715 -15.9501 49.8996 -3.5562 -5.0388 18.8168 -5.3465 15.4573 -0.1937 23.2103 -1.0603 -32.2751 -9.9153 17.6070 1.7187 -0.4769 -2.1010 -18.0616 -60.6864 -24.2489 0.4581 41.9424 0.6771 6.4740 10.3239 -11.0373 -1.4279 2.4249 0.7410
-67.9024 85.7057 46.0770 8.6194 5.8751 3.5596 2.9285 2.5202 -1.3112 0.1123 -2.6968 -1.5563 1.4903 18.0136 -4.7152 7.8644 -6.2818 -0.1535 -7.5987 -4.5737 -20.4189 6.0108 -2.9693 -29.9201 -0.1188 -0.2464 0.3636 0.7334 -10.8533 -3.5032 -0.9529 -10.9441 4.2244 0.0846 14.4793 -9.3828 -72.2106 7.3305 -38.4122 -1.8363 -0.4238 -18.3286 11.5094 -24.8836 -6.9564 -16.3934 9.8533 14.9105 -60.3154 1.4580 1.9859 12.9528 9.1429 15.4234 51.7790 -34.4083 -21.3741 1.6857 0.1934 105.1702 -55.1936 7.3183 8.9619 15.1933 7.2966 -15.9423 49.9045 -3.5247 -5.0366 18.4054 -5.4967 15.4312 -0.1900 24.2080 -1.0341 -32.4585 -10.5348 17.7009 1.7171 -0.4232 -2.1132 -18.9903 -60.2648 -23.2910 0.4377 41.0020 0.6709 6.5872 11.0243 -11.1391 -1.4260 2.3445 0.7378
-67.3108 85.7297 45.8268 8.7087 5.6453 3.3753 2.8609 2.6718 -1.2838 0.1290 -2.6308 -1.4852 1.4719 18.1341 -4.6252 7.9080 -6.0649 -0.1629 -7.6153 -4.5818 -20.4596 6.0657 -3.0254 -29.9392 -0.1169 -0.2483 0.3611 0.7374 -10.8642 -3.5072 -0.9529 -10.9551 4.2219 0.1151 14.5437 -9.3557 -72.2051 7.4945 -38.3342 -1.8034 -0.4350 -18.6170 11.4414 -24.6009 -6.8630 -16.3926 9.8564 14.9363 -60.3068 1.4667 1.9945 12.8582 9.2215 15.4185 51.8941 -34.3986 -21.3829 1.6485 0.1883 105.1983 -55.0794 7.2200 9.2738 15.2446 7.3200 -15.9444 49.8798 -3.5348 -5.0345 18.0159 -5.6661 15.4071 -0.1966 25.2235 -1.0427 -32.6491 -11.1807 17.8192 1.7140 -0.3579 -2.1252 -19.8208 -59.7987 -22.4277 0.4057 40.0064 0.6529 6.6798 11.7325 -11.2593 -1.4250 2.2748 0.7398
-66.7265 85.7627 45.6114 8.7794 5.4376 3.1958 2.7956 2.8027 -1.2701 0.1320 -2.5718 -1.3921 1.4512 18.2480 -4.5417 7.9496 -5.8784 -0.1631 -7.6130 -4.5816 -20.5284 6.1205 -3.1209 -29.9472 -0.1137 -0.2488 0.3559 0.7435 -10.8713 -3.5164 -0.9524 -10.9616 4.2189 0.0955 14.6128 -9.3435 -72.1836 7.5700 -38.1082 -1.8407 -0.4463 -18.7157 11.3087 -24.3728 -6.7662 -16.4211 9.8420 14.9577 -60.2469 1.4523 1.9810 12.8346 9.2867 15.3922 52.0347 -34.3283 -21.3772 1.5689 0.1976 105.2181 -55.0425 7.1421 9.5349 15.2747 7.3563 -15.9369 49.8682 -3.5247 -5.0251 17.6480 -5.8245 15.3334 -0.1919 26.1875 -1.0373 -32.8289 -11.7958 17.9678 1.7111 -0.2992 -2.1392 -20.5084 -59.3328 -21.7238 0.3726 38.9822 0.6353 6.7655 12.4573 -11.3368 -1.4256 2.2090 0.7415
-66.1693 85.7689 45.3788 8.8236 5.2588 3.0235 2.7384 2.9408 -1.2417 0.1314 -2.5183 -1.3236 1.4181 18.3595 -4.4602 7.9854 -5.7458 -0.1591 -7.5985 -4.5762 -20.5718 6.1675 -3.2201 -29.9714 -0.1101 -0.2479 0.3500 0.7500 -10.8807 -3.5230 -0.9522 -10.9696 4.2126 0.0412 14.6650 -9.3143 -72.1720 7.6069 -37.7749 -1.8604 -0.4489 -18.7237 11.1704 -24.1270 -6.6730 -16.4170 9.8573 14.9678 -60.2258 1.4406 1.9635 12.8452 9.3432 15.3606 52.2619 -34.2555 -21.4068 1.5312 0.1137 105.2392 -55.0702 7.2406 9.7368 15.2613 7.3808 -15.9349 49.8509 -3.5207 -4.9968 17.3044 -6.0025 15.2548 -0.1883 27.1030 -1.0228 -32.9475 -12.3791 18.0895 1.7085 -0.2457 -2.1495 -21.0893 -58.9053 -21.1052 0.3395 38.0261 0.6137 6.8507 13.1392 -11.3835 -1.4253 2.1233 0.7464
-65.6382 85.7894 45.1370 8.8583 5.1007 2.8634 2.6799 3.0627 -1.2127 0.1251 -2.4712 -1.2632 1.3770 18.4745 -4.3707 8.0195 -5.6486 -0.1678 -7.5774 -4.5530 -20.6329 6.2382 -3.3467 -30.0585 -0.1086 -0.2494 0.3499 0.7548 -10.8917 -3.5256 -0.9546 -10.9806 4.2154 -0.0529 14.7064 -9.3017 -72.1466 7.6548 -37.4515 -1.9112 -0.4482 -18.6131 11.0052 -24.0050 -6.6406 -16.4516 9.8657 14.9798 -60.2012 1.4230 1.9697 12.9031 9.4508 15.3032 52.5997 -34.1992 -21.4870 1.5006 0.0745 105.2564 -55.1587 7.3331 9.9396 15.2307 7.3906 -15.9364 49.8055 -3.5533 -4.9846 16.9843 -6.1889 15.2020 -0.1734 27.9528 -0.9954 -33.0549 -12.8800 18.2022 1.7059 -0.1820 -2.1502 -21.5665 -58.4978 -20.5897 0.2955 37.1073 0.5714 6.9068 13.8057 -11.3753 -1.4266 2.0594 0.7521
-65.1671 85.8063 44.8887 8.8853 4.9590 2.7294 2.6301 3.1665 -1.2034 0.1112 -2.4166 -1.1875 1.3165 18.5901 -4.3065 8.0566 -5.5756 -0.1958 -7.5565 -4.5411 -20.6726 6.3115 -3.4788 -30.1491 -0.1060 -0.2525 0.3464 0.7608 -10.8981 -3.5290 -0.9556 -10.9865 4.2103 -0.1464 14.7352 -9.2858 -72.1628 7.7720 -37.2421 -1.9048 -0.4227 -18.4445 10.8108 -23.8476 -6.5919 -16.4789 9.8880 15.0000 -60.2101 1.3978 1.9903 12.9658 9.5441 15.2191 52.9666 -34.0896 -21.5458 1.4228 0.0329 105.3303 -55.2399 7.4340 10.0625 15.2070 7.3948 -15.9190 49.7504 -3.5751 -4.9762 16.7002 -6.3711 15.1470 -0.1650 28.7136 -0.9649 -33.1159 -13.3376 18.2818 1.7041 -0.1125 -2.1510 -21.9019 -58.1535 -20.2674 0.2628 36.2768 0.5467 6.9335 14.3956 -11.3481 -1.4267 2.0204 0.7620
-64.7504 85.8050 44.6575 8.9162 4.8423 2.5820 2.5838 3.2653 -1.1812 0.1024 -2.3835 -1.1252 1.2412 18.7273 -4.2533 8.1027 -5.5268 -0.2132 -7.5370 -4.5282 -20.7048 6.3927 -3.6143 -30.2747 -0.1043 -0.2505 0.3466 0.7642 -10.9065 -3.5292 -0.9558 -10.9966 4.2105 -0.2592 14.7613 -9.2387 -72.1751 7.9168 -37.1845 -1.8833 -0.4100 -18.1948 10.5718 -23.5637 -6.5099 -16.5257 9.9009 15.0229 -60.1986 1.4098 2.0230 13.0214 9.6524 15.1537 53.3210 -34.0127 -21.6231 1.3712 -0.0150 105.4300 -55.3627 7.5603 10.1409 15.2190 7.4085 -15.9004 49.7796 -3.5807 -4.9840 16.4484 -6.5613 15.1343 -0.1526 29.4390 -0.9320 -33.1487 -13.7762 18.3253 1.7034 -0.0530 -2.1532 -22.1143 -57.9305 -20.0773 0.2352 35.6268 0.5168 6.9566 14.9137 -11.2894 -1.4273 1.9512 0.7751
-64.3811 85.7956 44.4941 8.9466 4.7291 2.4495 2.5307 3.3520 -1.1565 0.0876 -2.3606 -1.0656 1.1714 18.8636 -4.2266 8.1694 -5.4837 -0.2641 -7.5333 -4.5180 -20.7288 6.4814 -3.7519 -30.4176 -0.1069 -0.2463 0.3618 0.7596 -10.8993 -3.5112 -0.9563 -10.9893 4.2231 -0.3626 14.8023 -9.2091 -72.2246 8.0771 -37.2584 -1.8407 -0.3939 -17.8552 10.3230 -23.1712 -6.3709 -16.5550 9.9267 15.0627 -60.2244 1.4289 2.0442 13.0781 9.7604 15.0954 53.6545 -33.9303 -21.6988 1.3086 -0.0455 105.5578 -55.4909 7.6727 10.1752 15.2648 7.4442 -15.8849 49.8310 -3.5826 -4.9950 16.2662 -6.6931 15.1704 -0.1445 30.0409 -0.9095 -33.1695 -14.1480 18.3334 1.7010 0.0073 -2.1551 -22.2269 -57.7850 -20.0480 0.2187 35.1499 0.4973 6.9957 15.2930 -11.1696 -1.4252 1.8898 0.7854
-64.0695 85.7790 44.3852 8.9848 4.6207 2.3279 2.4822 3.4283 -1.1466 0.0765 -2.3279 -0.9906 1.1081 18.9727 -4.2079 8.2143 -5.4435 -0.3056 -7.5292 -4.5195 -20.7833 6.5708 -3.8932 -30.5723 -0.1139 -0.2444 0.3857 0.7479 -10.8888 -3.4809 -0.9600 -10.9751 4.2461 -0.4442 14.8324 -9.1676 -72.2843 8.2106 -37.4210 -1.8427 -0.3894 -17.4945 10.1142 -22.7026 -6.1650 -16.5736 9.9318 15.0722 -60.2194 1.4621 2.0632 13.1053 9.8250 15.0236 53.9317 -33.8726 -21.8019 1.2682 -0.0315 105.7202 -55.5780 7.7053 10.1376 15.2754 7.4775 -15.8691 49.8576 -3.5885 -5.0085 16.1267 -6.7494 15.2067 -0.1411 30.4894 -0.8881 -33.1885 -14.4491 18.3151 1.6987 0.0356 -2.1504 -22.2767 -57.7214 -20.1265 0.2221 34.8508 0.4976 7.0137 15.5610 -11.0247 -1.4207 1.8299 0.7823
-63.8366 85.7495 44.3351 9.0080 4.5387 2.2193 2.4446 3.4819 -1.1453 0.0713 -2.3104 -0.9302 1.0531 19.0585 -4.1950 8.2500 -5.4259 -0.3074 -7.5625 -4.5468 -20.8524 6.6088 -3.9827 -30.6994 -0.1193 -0.2440 0.4069 0.7366 -10.8811 -3.4565 -0.9593 -10.9689 4.2647 -0.5072 14.8780 -9.1443 -72.3808 8.3423 -37.5402 -1.8176 -0.3680 -17.2635 9.8996 -22.2977 -5.9040 -16.5727 9.9081 15.0352 -60.2156 1.4883 2.0327 13.1211 9.8387 14.9912 54.0697 -33.8078 -21.8586 1.2373 -0.0385 105.8192 -55.6912 7.7523 10.0346 15.2700 7.5188 -15.8790 49.8636 -3.5787 -5.0117 16.0293 -6.7398 15.2593 -0.1252 30.7474 -0.8720 -33.1979 -14.6543 18.2657 1.6979 0.0166 -2.1498 -22.2598 -57.7071 -20.2649 0.2363 34.6885 0.5109 7.0548 15.7147 -10.8631 -1.4154 1.7791 0.7887
-63.6791 85.7539 44.3085 8.9950 4.4771 2.1094 2.4269 3.5225 -1.1427 0.0750 -2.3009 -0.9206 1.0261 19.1129 -4.1575 8.2702 -5.3871 -0.2837 -7.6027 -4.5768 -20.9034 6.6522 -4.0411 -30.8254 -0.1215 -0.2469 0.4163 0.7297 -10.8788 -3.4453 -0.9563 -10.9664 4.2726 -0.5618 14.8917 -9.1083 -72.4958 8.4700 -37.6565 -1.8133 -0.3568 -17.1470 9.7888 -21.9520 -5.6659 -16.6222 9.8715 14.9993 -60.2482 1.4938 2.0174 13.1150 9.8491 14.9960 54.0788 -33.7536 -21.8572 1.2108 -0.0639 105.8057 -55.7736 7.7398 10.0120 15.2607 7.5498 -15.8995 49.8666 -3.5589 -5.0061 15.9705 -6.6795 15.3078 -0.1211 30.8701 -0.8717 -33.1719 -14.8023 18.2915 1.6975 -0.0213 -2.1427 -22.1194 -57.7101 -20.5034 0.2429 34.6356 0.5181 7.0676 15.7723 -10.6693 -1.4112 1.7498 0.7854
-63.5513 85.7869 44.2977 8.9890 4.4607 2.0137 2.4214 3.5274 -1.1789 0.0802 -2.2913 -0.8929 0.9994 19.1318 -4.1237 8.2536 -5.3582 -0.2335 -7.6430 -4.5924 -20.9688 6.6918 -4.0946 -30.9000 -0.1214 -0.2548 0.4152 0.7247 -10.8812 -3.4441 -0.9514 -10.9698 4.2704 -0.6113 14.9247 -9.0717 -72.5474 8.5515 -37.7710 -1.8362 -0.3432 -17.1532 9.6970 -21.7944 -5.4564 -16.6318 9.8295 14.9327 -60.2869 1.4771 2.0001 13.0775 9.8519 15.0438 54.0755 -33.7538 -21.9003 1.2069 -0.0963 105.6766 -55.7877 7.7469 9.9124 15.1968 7.5854 -15.9452 49.8405 -3.5307 -4.9951 15.9286 -6.5983 15.3682 -0.1270 30.8413 -0.8794 -33.0800 -14.8448 18.3442 1.7031 -0.1010 -2.1393 -21.9204 -57.7451 -20.7659 0.2551 34.6440 0.5286 7.0259 15.7622 -10.4915 -1.4083 1.7731 0.7712
-63.5322 85.8222 44.3477 8.9881 4.4610 1.9109 2.4216 3.5333 -1.2040 0.0992 -2.2898 -0.9083 0.9641 19.1196 -4.0900 8.1988 -5.3002 -0.1677 -7.6863 -4.6045 -21.0039 6.7605 -4.1073 -30.9586 -0.1197 -0.2649 0.4085 0.7278 -10.9007 -3.4525 -0.9504 -10.9853 4.2636 -0.6290 14.9496 -9.0331 -72.6076 8.5916 -37.8478 -1.8432 -0.3024 -17.2354 9.6215 -21.7815 -5.3077 -16.6316 9.7734 14.8759 -60.3159 1.4677 2.0015 12.9626 9.8950 15.1182 54.1700 -33.8607 -22.0361 1.3020 -0.1198 105.5433 -55.7912 7.7693 9.7820 15.1738 7.5588 -15.9740 49.7746 -3.5000 -4.9950 15.8883 -6.4647 15.4276 -0.1383 30.7020 -0.9061 -32.9804 -14.8374 18.4351 1.7064 -0.1655 -2.1423 -21.7502 -57.8023 -20.9459 0.2704 34.7288 0.5542 6.9596 15.6973 -10.3894 -1.4065 1.8238 0.7548
-63.5812 85.8640 44.4659 8.9894 4.4759 1.8284 2.4386 3.5243 -1.2239 0.1122 -2.2815 -0.9150 0.9384 19.0594 -4.0886 8.1156 -5.2475 -0.1261 -7.7200 -4.6064 -21.0315 6.8027 -4.1188 -30.9695 -0.1144 -0.2699 0.3949 0.7326 -10.8973 -3.4684 -0.9430 -10.9801 4.2458 -0.6601 14.9397 -9.0204 -72.6393 8.5802 -37.8086 -1.8938 -0.2586 -17.3233 9.5639 -21.7011 -5.1786 -16.6157 9.7060 14.7979 -60.2861 1.4549 1.9950 12.8402 9.9061 15.1732 54.2323 -34.0004 -22.1812 1.4429 -0.0857 105.3626 -55.7204 7.7314 9.7018 15.1496 7.5397 -16.0153 49.7276 -3.4766 -4.9964 15.8873 -6.2834 15.4783 -0.1491 30.4232 -0.9288 -32.9082 -14.7210 18.5461 1.7104 -0.2093 -2.1456 -21.6039 -57.8316 -21.0723 0.2802 34.8461 0.5733 6.9320 15.5863 -10.3275 -1.4088 1.8741 0.7401
-63.7259 85.8751 44.5886 8.9973 4.5176 1.7907 2.4590 3.5056 -1.2317 0.1266 -2.2893 -0.9180 0.9234 19.0044 -4.1224 7.9989 -5.2148 -0.0901 -7.7034 -4.5903 -21.0734 6.8121 -4.1321 -30.9081 -0.1090 -0.2673 0.3800 0.7390 -10.9051 -3.4876 -0.9388 -10.9889 4.2341 -0.6629 14.9157 -9.0041 -72.6389 8.5258 -37.6595 -1.9511 -0.2368 -17.4552 9.5719 -21.5537 -5.0556 -16.5890 9.6624 14.7433 -60.2259 1.4449 1.9873 12.7089 9.9167 15.2227 54.2314 -34.1181 -22.2894 1.5000 -0.0415 105.2803 -55.5801 7.7684 9.6714 15.1449 7.5200 -16.0331 49.6819 -3.4825 -5.0116 15.8979 -6.1177 15.4750 -0.1592 30.1315 -0.9606 -32.8757 -14.5340 18.6837 1.7128 -0.2443 -2.1539 -21.4685 -57.9228 -21.1863 0.2891 35.0637 0.5883 6.8622 15.4236 -10.2899 -1.4115 1.9043 0.7227
-63.9163 85.8839 44.7533 9.0036 4.5720 1.7820 2.4924 3.4805 -1.2062 0.1390 -2.3110 -0.9670 0.9219 18.9533 -4.1334 7.8677 -5.1993 -0.0355 -7.6410 -4.5799 -21.1333 6.7625 -4.2088 -30.8024 -0.1050 -0.2598 0.3681 0.7448 -10.9044 -3.5028 -0.9364 -10.9870 4.2228 -0.7117 14.9076 -8.9720 -72.5358 8.4031 -37.3728 -2.0255 -0.2460 -17.5838 9.7563 -21.3351 -5.0303 -16.5835 9.6405 14.7227 -60.1132 1.4330 1.9747 12.6000 9.9293 15.2581 54.1391 -34.2338 -22.3673 1.5084 0.0095 105.2490 -55.4135 7.8250 9.6174 15.1362 7.4977 -16.0557 49.6410 -3.5227 -5.0224 15.9223 -5.9543 15.4249 -0.1589 29.8283 -0.9720 -32.8566 -14.3406 18.8192 1.7138 -0.2573 -2.1597 -21.3287 -58.0594 -21.3015 0.2801 35.4068 0.5722 6.7938 15.1978 -10.1990 -1.4175 1.9275 0.7142
-64.1262 85.9005 44.9280 9.0151 4.6470 1.8102 2.5391 3.4219 -1.1842 0.1535 -2.3298 -1.0243 0.9256 18.9029 -4.1572 7.7191 -5.2016 0.0222 -7.5599 -4.5726 -21.1910 6.6975 -4.2928 -30.6863 -0.1026 -0.2512 0.3603 0.7516 -10.8953 -3.5111 -0.9377 -10.9779 4.2128 -0.7830 14.8682 -8.9171 -72.4479 8.2994 -37.0807 -2.0692 -0.2594 -17.6943 9.9582 -21.1327 -5.0265 -16.6013 9.6265 14.7252 -59.9850 1.4237 1.9521 12.4755 9.9777 15.2941 54.0603 -34.4112 -22.4911 1.5124 0.0726 105.2523 -55.2383 7.8421 9.4442 15.1541 7.4943 -16.0788 49.6417 -3.5523 -5.0271 15.9935 -5.8153 15.3778 -0.1528 29.4712 -0.9926 -32.8395 -14.0723 18.8945 1.7153 -0.2240 -2.1549 -21.1589 -58.2314 -21.4640 0.2626 35.8417 0.5439 6.7188 14.9063 -10.1062 -1.4236 1.9509 0.7235
-64.4017 85.8927 45.1078 9.0292 4.7241 1.8838 2.5921 3.3440 -1.1858 0.1608 -2.3656 -1.0591 0.9413 18.8908 -4.1996 7.5471 -5.2121 0.0796 -7.4697 -4.5751 -21.2299 6.6182 -4.3834 -30.5809 -0.1016 -0.2450 0.3533 0.7537 -10.8897 -3.5186 -0.9383 -10.9704 4.2069 -0.8635 14.8162 -8.8265 -72.3620 8.2105 -36.8384 -2.0983 -0.3088 -17.7217 10.1758 -20.9625 -5.1219 -16.6525 9.6471 14.7356 -59.9735 1.4379 1.9246 12.3569 10.0451 15.3209 53.9458 -34.6073 -22.5854 1.4718 0.1425 105.3300 -55.1295 7.8787 9.1788 15.1388 7.4899 -16.0799 49.6624 -3.5890 -5.0154 16.0724 -5.6925 15.3159 -0.1398 29.0916 -0.9836 -32.7757 -13.7921 18.8925 1.7170 -0.2300 -2.1509 -20.9480 -58.4761 -21.7344 0.2693 36.4049 0.5407 6.6572 14.5457 -10.0076 -1.4269 1.9589 0.7349
-64.7008 85.8791 45.2913 9.0572 4.8035 1.9727 2.6422 3.2483 -1.1834 0.1792 -2.4000 -1.1039 0.9519 18.8942 -4.2450 7.3699 -5.2297 0.1278 -7.4049 -4.5748 -21.2253 6.5648 -4.4911 -30.5396 -0.1005 -0.2380 0.3506 0.7551 -10.8798 -3.5217 -0.9375 -10.9579 4.2042 -0.9162 14.7373 -8.7141 -72.3516 8.1881 -36.7020 -2.1225 -0.3555 -17.7141 10.3783 -20.8331 -5.2405 -16.7017 9.6628 14.7766 -59.9964 1.4501 1.9048 12.2502 10.1010 15.3412 53.7207 -34.8177 -22.6334 1.4194 0.2364 105.3592 -55.0500 7.8258 8.9744 15.1256 7.4962 -16.0942 49.6717 -3.5798 -5.0239 16.1820 -5.5729 15.2888 -0.1259 28.6816 -0.9747 -32.7106 -13.5079 18.8115 1.7199 -0.2154 -2.1479 -20.7338 -58.7659 -22.0121 0.2884 37.0825 0.5519 6.5973 14.1297 -9.9065 -1.4310 1.9466 0.7558
-65.0173 85.8566 45.4803 9.1007 4.8911 2.0627 2.6936 3.1411 -1.2004 0.1859 -2.4372 -1.1357 0.9808 18.9127 -4.2653 7.2123 -5.2401 0.1387 -7.3811 -4.5795 -21.2012 6.5252 -4.5736 -30.5420 -0.1009 -0.2339 0.3536 0.7526 -10.8571 -3.5154 -0.9362 -10.9369 4.2058 -0.9696 14.6754 -8.6118 -72.3630 8.2136 -36.7074 -2.1408 -0.3741 -17.6477 10.5020 -20.7949 -5.3056 -16.7553 9.6553 14.8175 -60.0207 1.4746 1.8946 12.1535 10.1247 15.3456 53.5109 -35.0326 -22.7089 1.4262 0.3404 105.4081 -55.0103 7.7559 8.7547 15.1326 7.4828 -16.0851 49.7234 -3.5909 -4.9975 16.3087 -5.4404 15.3235 -0.1213 28.2016 -0.9719 -32.6337 -13.2071 18.6562 1.7232 -0.2401 -2.1511 -20.4974 -59.0929 -22.3409 0.3116 37.7804 0.5713 6.5123 13.6837 -9.8227 -1.4313 1.9415 0.7668
-65.3688 85.8278 45.6847 9.1519 4.9956 2.1366 2.7416 3.0326 -1.2167 0.1847 -2.4687 -1.1474 1.0141 18.9108 -4.2797 7.0457 -5.2326 0.1637 -7.3729 -4.5768 -21.1799 6.5273 -4.6386 -30.5872 -0.1031 -0.2315 0.3649 0.7492 -10.8383 -3.5016 -0.9365 -10.9182 4.2136 -1.0177 14.6188 -8.5568 -72.4162 8.3128 -36.7856 -2.1207 -0.3558 -17.6105 10.5723 -20.9677 -5.3334 -16.7592 9.6252 14.8468 -59.9981 1.4701 1.8924 12.0464 10.1334 15.3501 53.3454 -35.1827 -22.8010 1.4448 0.3991 105.4744 -54.9432 7.6113 8.6324 15.1269 7.4664 -16.0773 49.7759 -3.5804 -5.0017 16.4394 -5.2774 15.3687 -0.1185 27.6474 -0.9602 -32.5485 -12.8940 18.5103 1.7264 -0.2542 -2.1468 -20.2943 -59.4399 -22.6074 0.3513 38.4894 0.6136 6.4450 13.2258 -9.7663 -1.4294 1.9613 0.7816
-65.6938 85.8074 45.8913 9.2128 5.1090 2.2394 2.7877 2.9310 -1.2341 0.1849 -2.4942 -1.1422 1.0363 18.8825 -4.3039 6.9337 -5.2231 0.2024 -7.3926 -4.5878 -21.1917 6.5387 -4.7110 -30.6678 -0.1042 -0.2311 0.3718 0.7460 -10.8202 -3.4912 -0.9358 -10.8986 4.2183 -1.0915 14.5692 -8.5125 -72.4465 8.4989 -36.9046 -2.0649 -0.3400 -17.6162 10.6339 -21.2607 -5.2943 -16.7327 9.6070 14.8293 -59.9557 1.4738 1.8748 11.9503 10.1194 15.3647 53.2254 -35.3082 -22.9564 1.4787 0.4528 105.5621 -54.8264 7.5039 8.5155 15.1194 7.4513 -16.1162 49.7767 -3.5902 -5.0435 16.5384 -5.0991 15.3899 -0.1188 27.0398 -0.9595 -32.4448 -12.5749 18.3679 1.7282 -0.2800 -2.1395 -20.1038 -59.7639 -22.8388 0.3713 39.1580 0.6325 6.3597 12.7627 -9.7211 -1.4274 1.9923 0.7849
-66.0622 85.7983 46.0791 9.2806 5.2477 2.3224 2.8273 2.8253 -1.2629 0.1863 -2.5211 -1.1262 1.0552 18.8571 -4.3175 6.8369 -5.2129 0.2276 -7.4085 -4.5958 -21.1948 6.5827 -4.7893 -30.7605 -0.1060 -0.2352 0.3787 0.7421 -10.8218 -3.4851 -0.9358 -10.8994 4.2283 -1.1687 14.5090 -8.4916 -72.4788 8.6979 -37.0679 -2.0113 -0.3248 -17.6279 10.6726 -21.4924 -5.1372 -16.7227 9.5630 14.7799 -59.8985 1.4721 1.8898 11.8303 10.0813 15.3523 53.1647 -35.3451 -23.0996 1.4672 0.4836 105.6657 -54.6195 7.3937 8.4392 15.1188 7.4147 -16.0871 49.7430 -3.5772 -5.0390 16.6233 -4.8995 15.4136 -0.1265 26.3564 -0.9650 -32.3926 -12.1722 18.2949 1.7283 -0.3076 -2.1256 -19.9017 -60.1148 -23.0561 0.3921 39.7901 0.6575 6.2697 12.3216 -9.7084 -1.4251 2.0545 0.7871
-66.3683 85.8032 46.2227 9.3413 5.3970 2.4133 2.8559 2.7154 -1.2667 0.1986 -2.5605 -1.1273 1.0575 18.8105 -4.3225 6.7886 -5.1706 0.2158 -7.4392 -4.5901 -21.1975 6.6564 -4.8670 -30.8338 -0.1079 -0.2401 0.3824 0.7337 -10.8181 -3.4806 -0.9306 -10.8947 4.2303 -1.2302 14.4574 -8.4955 -72.4877 8.8999 -37.2609 -1.9975 -0.2981 -17.5947 10.6888 -21.6090 -4.8963 -16.7153 9.4791 14.6886 -59.8360 1.4594 1.8913 11.7410 10.0302 15.3263 53.1904 -35.3326 -23.2972 1.5106 0.5551 105.7440 -54.4345 7.2747 8.3558 15.1034 7.4010 -16.0982 49.6928 -3.5491 -5.0451 16.6814 -4.6895 15.4359 -0.1363 25.5843 -0.9756 -32.3465 -11.7176 18.2906 1.7297 -0.3363 -2.1212 -19.6930 -60.4023 -23.2470 0.4076 40.3332 0.6686 6.1901 11.9069 -9.6834 -1.4256 2.1509 0.7795
-66.7080 85.8415 46.3699 9.4247 5.5317 2.4896 2.8746 2.6133 -1.3073 0.2187 -2.5813 -1.1356 1.0181 18.7567 -4.3090 6.8127 -5.1124 0.2030 -7.4800 -4.5930 -21.2169 6.7441 -4.9068 -30.8833 -0.1086 -0.2456 0.3768 0.7246 -10.8330 -3.4867 -0.9226 -10.9083 4.2260 -1.2865 14.4096 -8.4871 -72.4762 9.0777 -37.4667 -2.0452 -0.2697 -17.5448 10.7420 -21.7139 -4.6274 -16.7489 9.3933 14.5981 -59.8538 1.4432 1.8963 11.6530 9.9716 15.2636 53.3471 -35.3743 -23.6390 1.6689 0.5934 105.9019 -54.2449 7.1064 8.2894 15.1078 7.3929 -16.1290 49.6514 -3.5223 -5.0506 16.7255 -4.4219 15.4788 -0.1480 24.7059 -0.9921 -32.2790 -11.1964 18.2948 1.7296 -0.4034 -2.1098 -19.5341 -60.6670 -23.3996 0.4374 40.8002 0.7055 6.1063 11.5471 -9.7192 -1.4257 2.2483 0.7713
-67.0076 85.8852 46.4702 9.5114 5.6685 2.5746 2.8795 2.5000 -1.3140 0.2297 -2.6213 -1.1870 0.9477 18.7298 -4.2720 6.8990 -5.0540 0.1822 -7.5216 -4.5823 -21.2526 6.8185 -4.9091 -30.8470 -0.1072 -0.2497 0.3663 0.7201 -10.8409 -3.4975 -0.9147 -10.9184 4.2155 -1.3183 14.3749 -8.4665 -72.4352 9.2713 -37.6800 -2.0963 -0.2278 -17.5432 10.7804 -21.8489 -4.3810 -16.8094 9.3049 14.5427 -59.8851 1.4290 1.9257 11.6049 9.8941 15.1799 53.5740 -35.3983 -24.0685 1.8945 0.5698 106.1146 -54.1074 6.9083 8.2538 15.1463 7.3516 -16.1241 49.6756 -3.5108 -5.0350 16.7167 -4.1442 15.4762 -0.1613 23.8355 -1.0173 -32.1678 -10.6600 18.4096 1.7274 -0.4928 -2.1007 -19.3899 -60.8789 -23.5183 0.4357 41.1159 0.7094 6.0294 11.2916 -9.7368 -1.4279 2.3409 0.7501
-67.2641 85.9317 46.6296 9.5765 5.7813 2.7001 2.9001 2.3901 -1.3503 0.2193 -2.6386 -1.1989 0.8847 18.6771 -4.2588 7.0309 -4.9986 0.1540 -7.5186 -4.5775 -21.3166 6.8268 -4.8820 -30.7562 -0.1029 -0.2516 0.3475 0.7178 -10.8437 -3.5142 -0.9035 -10.9261 4.1932 -1.3315 14.3192 -8.4050 -72.3889 9.4220 -37.8056 -2.1946 -0.1876 -17.5601 10.7907 -21.8061 -4.1888 -16.8991 9.2436 14.4833 -59.9158 1.4338 1.9377 11.5483 9.8045 15.0546 53.8466 -35.3494 -24.5425 2.0820 0.6452 106.3923 -54.0158 6.5541 8.2077 15.1630 7.3219 -16.1813 49.6909 -3.5469 -5.0937 16.7330 -3.8851 15.4028 -0.1679 22.9774 -1.0411 -32.0573 -10.1443 18.5720 1.7257 -0.5883 -2.0846 -19.2757 -61.0009 -23.6278 0.4392 41.3208 0.7204 5.9979 11.0843 -9.8243 -1.4305 2.4203 0.7308
-67.4773 85.9540 46.7365 9.6041 5.8796 2.8850 2.9076 2.2855 -1.3764 0.2056 -2.6549 -1.2242 0.8281 18.5790 -4.2484 7.1423 -4.9204 0.0947 -7.4506 -4.5366 -21.3625 6.8126 -4.7803 -30.6893 -0.1007 -0.2502 0.3421 0.7199 -10.8351 -3.5162 -0.8999 -10.9178 4.1813 -1.3584 14.2975 -8.2979 -72.3061 9.5850 -37.9190 -2.2439 -0.1556 -17.5837 10.8099 -21.7435 -4.0780 -16.9234 9.2458 14.4425 -59.8617 1.4457 1.8956 11.5310 9.7438 14.9606 54.0840 -35.1248 -24.9163 2.0850 0.8339 106.7393 -53.9445 6.2071 8.0486 15.1896 7.2982 -16.2514 49.7796 -3.6318 -5.2048 16.7797 -3.6899 15.3043 -0.1779 22.2525 -1.0636 -31.9338 -9.7332 18.6830 1.7281 -0.6524 -2.0761 -19.2035 -61.0495 -23.6979 0.4360 41.5025 0.7103 5.9773 10.8949 -9.9393 -1.4362 2.4211 0.7210
-67.6523 85.9509 46.9149 9.5697 5.9684 3.0919 2.9167 2.1906 -1.4300 0.1778 -2.6718 -1.2670 0.8437 18.4970 -4.2373 7.2559 -4.8392 -0.0688 -7.3963 -4.5030 -21.2816 6.7900 -4.5699 -30.6364 -0.1045 -0.2467 0.3535 0.7200 -10.8371 -3.5028 -0.9070 -10.9118 4.1914 -1.4490 14.3135 -8.1539 -72.1749 9.6719 -37.8321 -2.2818 -0.1391 -17.6657 10.8496 -21.6099 -4.0199 -16.9048 9.3482 14.5167 -59.7728 1.4209 1.8997 11.4667 9.7957 14.8311 54.2864 -34.8751 -25.0439 1.9142 1.1062 107.0675 -53.8875 5.9469 7.8330 15.2436 7.2869 -16.2555 50.0066 -3.6483 -5.3250 16.8960 -3.5446 15.1705 -0.1916 21.6560 -1.0841 -31.8472 -9.4356 18.7649 1.7284 -0.6141 -2.0575 -19.0909 -61.0801 -23.7884 0.4219 41.7221 0.6776 5.8782 10.7058 -10.2307 -1.4406 2.2973 0.7339
