HIERARCHY
ROOT Hips
{
	OFFSET 0.0000 0.0000 0.0000
	CHANNELS 6 Xposition Yposition Zposition Zrotation Xrotation Yrotation
	JOINT Spine1
	{
		OFFSET -0.0137 5.0038 -0.0537
		CHANNELS 3 Zrotation Xrotation Yrotation
		JOINT Spine2
		{
			OFFSET -0.0000 7.1253 -0.0298
			CHANNELS 3 Zrotation Xrotation Yrotation
			JOINT Chest
			{
				OFFSET -0.0000 7.5501 -0.8160
				CHANNELS 3 Zrotation Xrotation Yrotation
				JOINT Neck1
				{
					OFFSET -0.1817 26.3113 -0.5533
					CHANNELS 3 Zrotation Xrotation Yrotation
					JOINT Neck2
					{
						OFFSET -0.0000 7.7094 2.3026
						CHANNELS 3 Zrotation Xrotation Yrotation
						JOINT Head
						{
							OFFSET -0.0000 6.1289 1.9537
							CHANNELS 3 Zrotation Xrotation Yrotation
							JOINT Jaw
							{
								OFFSET 0.0026 0.4756 3.0949
								CHANNELS 3 Zrotation Xrotation Yrotation
								End Site
								{
									OFFSET 0.0 1.0 0.0
								}
							}
							JOINT LeftEye
							{
								OFFSET 3.2064 5.3802 7.5869
								CHANNELS 3 Zrotation Xrotation Yrotation
								End Site
								{
									OFFSET 0.0 1.0 0.0
								}
							}
							JOINT RightEye
							{
								OFFSET -3.2224 5.3619 7.5582
								CHANNELS 3 Zrotation Xrotation Yrotation
								End Site
								{
									OFFSET 0.0 1.0 0.0
								}
							}
						}
					}
				}
				JOINT LeftShoulder
				{
					OFFSET 1.6217 23.2372 5.1134
					CHANNELS 3 Zrotation Xrotation Yrotation
					JOINT LeftArm
					{
						OFFSET 14.9198 0.0000 -5.5023
						CHANNELS 3 Zrotation Xrotation Yrotation
						JOINT LeftForeArm
						{
							OFFSET 28.7393 0.0000 -0.0026
							CHANNELS 3 Zrotation Xrotation Yrotation
							JOINT LeftHand
							{
								OFFSET 27.0940 -0.0000 0.0026
								CHANNELS 3 Zrotation Xrotation Yrotation
								JOINT LeftHandThumbEnd
								{
									OFFSET 12.2686 -3.2202 4.8331
									CHANNELS 3 Zrotation Xrotation Yrotation
									End Site
									{
										OFFSET 0.0 1.0 0.0
									}
								}
								JOINT LeftHandMiddleEnd
								{
									OFFSET 19.0120 -0.3129 -0.0340
									CHANNELS 3 Zrotation Xrotation Yrotation
									End Site
									{
										OFFSET 0.0 1.0 0.0
									}
								}
							}
						}
					}
				}
				JOINT RightShoulder
				{
					OFFSET -1.3801 23.1803 5.2142
					CHANNELS 3 Zrotation Xrotation Yrotation
					JOINT RightArm
					{
						OFFSET -15.0372 0.0000 -5.5456
						CHANNELS 3 Zrotation Xrotation Yrotation
						JOINT RightForeArm
						{
							OFFSET -28.7366 0.0000 -0.0026
							CHANNELS 3 Zrotation Xrotation Yrotation
							JOINT RightHand
							{
								OFFSET -27.1336 -0.0000 0.0026
								CHANNELS 3 Zrotation Xrotation Yrotation
								JOINT RightHandThumbEnd
								{
									OFFSET -12.2642 -3.2115 4.8040
									CHANNELS 3 Zrotation Xrotation Yrotation
									End Site
									{
										OFFSET 0.0 1.0 0.0
									}
								}
								JOINT RightHandMiddleEnd
								{
									OFFSET -19.0006 -0.3066 -0.0316
									CHANNELS 3 Zrotation Xrotation Yrotation
									End Site
									{
										OFFSET 0.0 1.0 0.0
									}
								}
							}
						}
					}
				}
			}
		}
	}
	JOINT LeftLeg
	{
		OFFSET 10.0432 -8.4345 2.5957
		CHANNELS 3 Zrotation Xrotation Yrotation
		JOINT LeftShin
		{
			OFFSET -0.0000 -43.2218 -0.8029
			CHANNELS 3 Zrotation Xrotation Yrotation
			JOINT LeftFoot
			{
				OFFSET 0.0000 -42.1551 -3.4815
				CHANNELS 3 Zrotation Xrotation Yrotation
				JOINT LeftToeBase
				{
					OFFSET 0.0000 -5.0595 13.2315
					CHANNELS 3 Zrotation Xrotation Yrotation
					End Site
					{
						OFFSET 0.0 1.0 0.0
					}
				}
			}
		}
	}
	JOINT RightLeg
	{
		OFFSET -10.0473 -8.2953 2.6203
		CHANNELS 3 Zrotation Xrotation Yrotation
		JOINT RightShin
		{
			OFFSET 0.0000 -43.3622 -0.8056
			CHANNELS 3 Zrotation Xrotation Yrotation
			JOINT RightFoot
			{
				OFFSET 0.0000 -42.1174 -3.4784
				CHANNELS 3 Zrotation Xrotation Yrotation
				JOINT RightToeBase
				{
					OFFSET -0.0000 -5.0796 13.2842
					CHANNELS 3 Zrotation Xrotation Yrotation
					End Site
					{
						OFFSET 0.0 1.0 0.0
					}
				}
			}
		}
	}
}
MOTION
Frames: 120
Frame Time: 0.033333
-4.5154 93.3688 -2.3923 3.1542 -1.4842 0.6768 -0.2913 2.4740 -0.1301 -0.3252 -4.0366 -1.0267 1.2982 14.7970 -2.6361 1.4891 24.1963 3.6466 2.5187 -3.8785 10.3488 3.0511 -9.2648 10.9111 -0.0438 -0.0425 0.0519 0.6729 -10.4905 -3.7699 -0.7553 -10.4577 3.9109 1.3846 14.0107 -10.5358 -47.8331 -12.4870 -37.2211 -0.2205 0.5324 -37.5134 -164.4943 65.9415 -127.3820 -13.9969 10.6824 13.9066 -60.1643 1.8246 1.8106 10.2461 14.2864 9.7250 53.9469 10.2285 4.3602 -0.4759 1.2019 65.7911 -35.9466 30.4447 -1.7254 16.8002 7.3384 -16.6988 50.7644 -3.5044 -5.8641 7.4750 -26.9547 22.6683 -0.2033 30.2710 -0.2855 -9.5146 1.7590 11.8139 1.6242 0.7649 -1.9231 -20.5352 -5.8971 -10.2582 0.0364 27.1767 0.5649 24.5464 -13.2933 -18.0297 -1.4058 0.0531 1.1235
-4.5153 93.4406 -2.3494 3.1211 -1.3953 0.7906 -0.3093 2.5370 -0.1329 -0.3069 -4.0292 -0.9655 1.2657 14.8013 -2.6503 1.6804 24.1377 3.4850 2.5018 -3.8845 10.5602 3.2831 -9.0464 10.8121 -0.0558 -0.0611 0.0710 0.6624 -10.5065 -3.7510 -0.7686 -10.4590 3.9336 1.4034 14.0538 -10.5143 -47.7602 -12.8178 -37.1948 -0.1960 0.4007 -37.0395 -164.9749 65.5501 -127.6327 -13.8991 10.8517 14.1274 -60.2595 1.7719 1.9022 10.4036 14.3586 9.7295 53.7041 10.1937 4.1107 -0.4014 1.1725 65.8456 -36.2275 30.0585 -1.5639 16.7592 7.3633 -16.7084 50.8498 -3.4710 -5.8567 7.5542 -27.0300 22.3405 -0.2332 30.1858 -0.3017 -9.6103 1.9806 11.8293 1.6310 0.6832 -1.9351 -20.3928 -5.8625 -10.3357 0.0188 27.0162 0.5701 24.3232 -13.3053 -18.1601 -1.4137 0.1398 1.1092
-4.5289 93.4797 -2.3036 3.0970 -1.2792 0.9270 -0.3237 2.5614 -0.1082 -0.3109 -4.0241 -0.9226 1.2621 14.8223 -2.6616 1.8772 24.0493 3.4314 2.4872 -3.8990 10.6028 3.4754 -8.7869 10.8128 -0.0610 -0.0667 0.0638 0.6569 -10.5168 -3.7535 -0.7735 -10.4615 3.9200 1.3706 14.0543 -10.5510 -47.7364 -13.0845 -37.2071 -0.1612 0.2984 -36.6216 -164.8910 65.4133 -127.5185 -13.8241 10.9093 14.2102 -60.3667 1.7434 1.9279 10.6075 14.4197 9.7999 53.4144 10.2324 3.7315 -0.3814 1.1366 65.9630 -36.5808 29.9597 -1.4884 16.7109 7.3450 -16.6636 50.8118 -3.4446 -5.8380 7.6180 -27.1136 21.9350 -0.2428 30.0937 -0.3038 -9.6344 2.1416 11.8455 1.6376 0.6903 -1.9523 -20.2824 -5.8595 -10.4084 0.0108 26.9027 0.5562 24.2108 -13.3884 -18.3255 -1.4164 0.2318 1.1104
-4.5582 93.5024 -2.2443 3.0539 -1.1718 1.0380 -0.3243 2.5845 -0.0851 -0.3160 -4.0145 -0.9067 1.2780 14.8523 -2.6191 2.0443 23.9085 3.4317 2.4712 -3.9064 10.6256 3.6427 -8.6262 10.8339 -0.0642 -0.0663 0.0551 0.6533 -10.5223 -3.7579 -0.7749 -10.4638 3.9070 1.2847 14.0507 -10.6076 -47.7313 -13.3648 -37.2162 -0.1579 0.2575 -36.1814 -164.8702 65.2055 -127.8188 -13.7855 10.8947 14.1868 -60.3757 1.7334 1.8971 10.8102 14.4945 9.9127 53.1387 10.2407 3.3248 -0.3863 1.1533 66.0104 -36.9262 30.0420 -1.4757 16.6838 7.3377 -16.6121 50.8139 -3.3989 -5.7670 7.7077 -27.1693 21.5186 -0.2352 29.9873 -0.2962 -9.6795 2.2653 11.9567 1.6388 0.6830 -1.9661 -20.1758 -5.8491 -10.4307 0.0010 26.7933 0.5466 24.1651 -13.4076 -18.5233 -1.4203 0.2621 1.1228
-4.5683 93.5300 -2.1755 3.0022 -1.0794 1.1117 -0.3103 2.5918 -0.0717 -0.3196 -3.9993 -0.8823 1.2964 14.8949 -2.5883 2.1622 23.6951 3.4592 2.4983 -3.8913 10.6630 3.7871 -8.5228 10.8593 -0.0689 -0.0657 0.0635 0.6469 -10.5151 -3.7430 -0.7772 -10.4520 3.9102 1.2125 14.0910 -10.6419 -47.6971 -13.6279 -37.3236 -0.1290 0.2654 -35.7503 -164.8592 64.9979 -128.2476 -13.7846 10.8761 14.1305 -60.4299 1.7254 1.8466 11.0022 14.5434 10.0511 52.9132 10.1618 2.8559 -0.3839 1.1966 66.0438 -37.1566 30.2815 -1.5557 16.6676 7.3263 -16.5726 50.8085 -3.3879 -5.7198 7.7756 -27.1917 21.1779 -0.2170 29.8639 -0.2889 -9.7093 2.3555 12.1205 1.6396 0.6779 -1.9826 -20.0633 -5.8233 -10.4146 -0.0033 26.6670 0.5385 24.1531 -13.3282 -18.7159 -1.4231 0.2574 1.1198
-4.5652 93.5628 -2.1134 2.9626 -1.0141 1.1452 -0.2986 2.6035 -0.0744 -0.3163 -3.9799 -0.8627 1.3189 14.9238 -2.5802 2.1816 23.4476 3.4746 2.5527 -3.8846 10.7085 3.9148 -8.3883 10.8979 -0.0738 -0.0655 0.0765 0.6408 -10.4987 -3.7218 -0.7814 -10.4312 3.9151 1.1689 14.1429 -10.6767 -47.6625 -13.8183 -37.4570 -0.0446 0.3114 -35.3842 -164.6084 64.9029 -128.3375 -13.8186 10.8705 14.0942 -60.4856 1.7171 1.8309 11.1398 14.5656 10.1791 52.7723 10.0651 2.4575 -0.4348 1.2221 66.0687 -37.1557 30.5409 -1.6287 16.6361 7.3397 -16.5582 50.8175 -3.3880 -5.6999 7.8226 -27.1812 20.9391 -0.2009 29.7632 -0.2746 -9.6917 2.4026 12.3012 1.6400 0.6550 -1.9847 -19.9842 -5.7838 -10.3796 0.0029 26.5386 0.5619 24.1502 -13.2222 -18.8603 -1.4250 0.2514 1.1104
-4.5660 93.5844 -2.0523 2.9453 -0.9716 1.1694 -0.2805 2.6390 -0.0601 -0.3116 -3.9755 -0.8810 1.3418 14.9300 -2.5799 2.1652 23.1883 3.4528 2.6009 -3.8833 10.7785 3.9997 -8.2623 10.9596 -0.0831 -0.0668 0.0941 0.6338 -10.4936 -3.6996 -0.7921 -10.4256 3.9320 1.1449 14.2141 -10.7630 -47.5678 -13.8873 -37.7009 0.0569 0.3739 -35.0852 -163.8954 65.1015 -127.8992 -13.8965 10.8719 14.1175 -60.5446 1.7161 1.8545 11.2643 14.5817 10.3165 52.7243 9.9717 2.0629 -0.4846 1.2061 66.1023 -37.0230 30.7775 -1.6836 16.6325 7.3532 -16.5727 50.8396 -3.3827 -5.7025 7.8406 -27.1637 20.7689 -0.1944 29.7035 -0.2746 -9.6580 2.4456 12.4565 1.6397 0.6174 -1.9779 -19.9378 -5.7042 -10.3057 0.0118 26.4204 0.5802 24.1508 -13.1436 -19.0142 -1.4250 0.2230 1.1050
-4.5498 93.6150 -1.9956 2.9590 -0.9262 1.2237 -0.2663 2.6571 -0.0612 -0.3071 -3.9673 -0.8800 1.3588 14.9177 -2.6271 2.1484 22.8645 3.3875 2.6258 -3.8844 10.8362 4.0723 -8.0663 10.9746 -0.0914 -0.0665 0.1063 0.6268 -10.4937 -3.6867 -0.8021 -10.4274 3.9469 1.1130 14.2923 -10.8694 -47.3876 -13.8572 -38.0649 0.1511 0.4374 -34.7432 -162.7470 65.6654 -127.1401 -13.9158 10.8709 14.1201 -60.5291 1.7419 1.8844 11.3812 14.5712 10.4169 52.7245 9.8427 1.6738 -0.4882 1.1596 66.1368 -36.7983 31.0228 -1.7303 16.6410 7.3378 -16.5738 50.8245 -3.4178 -5.7060 7.8107 -27.0975 20.6088 -0.1940 29.5721 -0.2756 -9.5912 2.5205 12.6385 1.6408 0.5772 -1.9667 -19.9279 -5.5685 -10.2028 0.0165 26.2290 0.6114 24.1149 -13.0322 -19.1975 -1.4241 0.1675 1.0979
-4.5177 93.6499 -1.9413 3.0025 -0.8801 1.3165 -0.2606 2.6770 -0.0739 -0.3063 -3.9643 -0.8926 1.3822 14.8950 -2.6896 2.1712 22.4882 3.3192 2.6400 -3.8763 10.8401 4.1004 -7.8375 10.9367 -0.0967 -0.0639 0.1136 0.6234 -10.4993 -3.6808 -0.8091 -10.4349 3.9571 1.1167 14.3712 -11.0171 -47.1200 -13.7806 -38.4995 0.2027 0.4637 -34.3652 -161.2021 66.6459 -126.1462 -13.9384 10.8188 14.0881 -60.4135 1.7713 1.9145 11.5013 14.5709 10.5110 52.7599 9.6714 1.3455 -0.4911 1.1211 66.0504 -36.4560 31.2579 -1.7910 16.6419 7.3180 -16.5951 50.7892 -3.4520 -5.7337 7.7287 -26.9943 20.4483 -0.1881 29.3713 -0.2669 -9.5196 2.5995 12.8067 1.6414 0.5540 -1.9591 -19.9428 -5.3997 -10.0838 0.0198 25.9978 0.6366 24.0579 -12.9437 -19.4243 -1.4237 0.1375 1.0945
-4.4911 93.6996 -1.9120 3.0543 -0.8096 1.4545 -0.2565 2.7057 -0.0877 -0.3118 -3.9603 -0.9170 1.4247 14.8556 -2.7624 2.2376 22.0524 3.2538 2.6453 -3.8580 10.7787 4.1120 -7.6185 10.8114 -0.0944 -0.0598 0.1103 0.6268 -10.5037 -3.6872 -0.8079 -10.4434 3.9558 1.1812 14.4215 -11.1917 -46.7639 -13.6524 -39.0085 0.2181 0.4543 -34.0116 -159.1004 68.0143 -124.7193 -13.9646 10.7542 14.0382 -60.2777 1.8003 1.9502 11.5635 14.5559 10.5776 52.8405 9.5374 1.2211 -0.5364 1.0833 65.8246 -36.0719 31.5862 -2.0397 16.6722 7.2858 -16.6083 50.7926 -3.4695 -5.7352 7.6051 -26.9210 20.2727 -0.1800 29.1375 -0.2523 -9.4272 2.6980 12.8741 1.6426 0.5171 -1.9468 -19.9353 -5.2514 -9.9629 0.0170 25.7606 0.6532 23.9811 -12.8583 -19.6763 -1.4236 0.1421 1.0990
-4.4907 93.7484 -1.9410 3.1015 -0.7061 1.6768 -0.2460 2.7552 -0.1031 -0.3237 -3.9470 -0.9644 1.4805 14.7962 -2.8238 2.3385 21.5350 3.1444 2.6516 -3.8400 10.6555 4.1357 -7.4145 10.6383 -0.0967 -0.0589 0.1116 0.6237 -10.5109 -3.6871 -0.8095 -10.4551 3.9584 1.3250 14.4566 -11.4107 -46.2423 -13.4150 -39.7036 0.2464 0.4656 -33.7007 -155.9504 69.8281 -122.3381 -14.0065 10.6764 13.9942 -60.1480 1.8104 2.0004 11.5547 14.5355 10.6366 52.9712 9.4062 1.2167 -0.5393 1.0401 65.5422 -35.6762 32.0751 -2.5934 16.6998 7.2519 -16.6273 50.8275 -3.4624 -5.7035 7.4723 -26.9155 20.0943 -0.1826 28.8697 -0.2451 -9.3187 2.8436 12.8491 1.6425 0.4524 -1.9434 -19.8982 -5.1236 -9.8473 0.0084 25.5245 0.6659 23.9446 -12.7847 -20.0258 -1.4233 0.1449 1.1119
-4.4956 93.7986 -2.0145 3.1403 -0.5628 1.9740 -0.2358 2.8276 -0.1207 -0.3353 -3.9217 -0.9941 1.5431 14.7050 -2.8895 2.5069 20.9680 3.0165 2.6455 -3.8141 10.4440 4.2198 -7.1712 10.4299 -0.1002 -0.0570 0.1155 0.6222 -10.5163 -3.6860 -0.8149 -10.4624 3.9657 1.5384 14.4654 -11.7081 -45.5307 -13.0267 -40.5975 0.3008 0.4771 -33.3883 -150.8928 72.1943 -118.0957 -14.0889 10.6015 13.9950 -60.1274 1.7735 2.0586 11.4990 14.4782 10.6967 53.1329 9.3217 1.3161 -0.5663 1.0022 65.2334 -35.2541 32.6849 -3.3294 16.7448 7.2184 -16.6417 50.8729 -3.4504 -5.6498 7.3176 -26.9761 19.9188 -0.1899 28.5460 -0.2461 -9.2321 3.0249 12.7213 1.6415 0.3601 -1.9447 -19.8209 -5.0567 -9.7388 -0.0058 25.3334 0.6544 23.9147 -12.6913 -20.4444 -1.4237 0.1017 1.1231
-4.5401 93.8532 -2.1018 3.1816 -0.3606 2.3514 -0.2294 2.9267 -0.1431 -0.3446 -3.8785 -1.0211 1.5967 14.5797 -2.9558 2.7251 20.3462 2.8655 2.6338 -3.7967 10.1800 4.3730 -6.9119 10.1437 -0.1035 -0.0590 0.1172 0.6196 -10.5223 -3.6865 -0.8190 -10.4715 3.9704 1.7805 14.4538 -12.0651 -44.5488 -12.4776 -41.7067 0.3598 0.4792 -33.0422 -141.8430 75.0405 -110.0254 -14.2552 10.4886 13.9928 -60.1251 1.7100 2.1227 11.3680 14.3799 10.7558 53.3150 9.2993 1.5933 -0.6525 0.9997 64.9678 -34.8043 33.2813 -4.1424 16.8468 7.1734 -16.6670 50.8907 -3.4652 -5.6023 7.1270 -27.1194 19.7997 -0.2104 28.1586 -0.2831 -9.1418 3.2397 12.4599 1.6396 0.2320 -1.9410 -19.7108 -5.1087 -9.6100 -0.0220 25.2479 0.6603 23.8941 -12.5972 -20.9202 -1.4225 0.0021 1.1317
-4.6397 93.8970 -2.3020 3.2111 -0.0981 2.7934 -0.2143 3.0833 -0.1614 -0.3503 -3.8208 -1.0845 1.6267 14.4272 -2.9818 2.9793 19.6225 2.6885 2.5940 -3.7726 9.8572 4.5515 -6.6101 9.7389 -0.1059 -0.0623 0.1184 0.6171 -10.5406 -3.6900 -0.8210 -10.4961 3.9773 2.0211 14.3978 -12.5145 -43.2359 -11.7776 -42.9903 0.3780 0.4439 -32.6479 -125.4583 77.8318 -94.8633 -14.4412 10.3853 13.9997 -60.1260 1.6350 2.1502 11.0990 14.2376 10.8254 53.5074 9.3444 1.9756 -0.7049 0.9683 64.8807 -34.3947 33.8436 -5.0674 16.9718 7.1393 -16.7019 50.9358 -3.4673 -5.5591 6.8976 -27.3792 19.7708 -0.2343 27.7050 -0.3311 -9.0480 3.4918 12.0145 1.6387 0.1007 -1.9360 -19.5466 -5.3280 -9.4409 -0.0437 25.3568 0.6603 23.8389 -12.5020 -21.4127 -1.4218 -0.1070 1.1397
-4.7636 93.9190 -2.5462 3.2260 0.2622 3.3096 -0.1805 3.3287 -0.2120 -0.3458 -3.7229 -1.1487 1.6204 14.1764 -2.9929 3.2063 18.7256 2.4532 2.5147 -3.7449 9.4815 4.7211 -6.2994 9.1952 -0.1031 -0.0637 0.1155 0.6177 -10.5621 -3.7023 -0.8158 -10.5296 3.9809 2.2575 14.2836 -13.0822 -41.6047 -10.8297 -44.5225 0.3871 0.4076 -32.1858 -98.4900 79.3711 -69.5173 -14.6772 10.2312 13.9583 -60.0672 1.5376 2.1990 10.5514 14.0296 10.8867 53.8285 9.4691 2.4574 -0.7139 0.9138 64.9886 -33.8806 34.4773 -6.0272 17.0951 7.0872 -16.7140 50.9439 -3.4687 -5.5264 6.6102 -27.8465 19.8712 -0.2754 27.2937 -0.4071 -8.9723 3.7539 11.3134 1.6383 -0.0040 -1.9217 -19.3374 -5.8237 -9.2418 -0.0570 25.7517 0.6794 23.7540 -12.4416 -21.9259 -1.4215 -0.1495 1.1509
-4.8624 93.8957 -2.8951 3.2271 0.7169 3.7615 -0.0973 3.7189 -0.2950 -0.3229 -3.5783 -1.2187 1.5579 13.8455 -3.0111 3.3520 17.5342 2.2452 2.4306 -3.7180 9.0490 4.8415 -6.0851 8.5525 -0.0958 -0.0630 0.1238 0.6229 -10.5830 -3.7067 -0.8058 -10.5668 3.9973 2.4359 14.1948 -13.7239 -39.6361 -9.5760 -46.3347 0.4638 0.3605 -31.8474 -68.4996 78.5550 -41.5964 -15.0277 10.0683 13.9227 -60.0667 1.4352 2.2676 9.6277 13.7618 10.9797 54.2342 9.7086 2.9193 -0.5790 0.7800 65.5241 -33.3281 35.2098 -6.8379 17.1661 7.0573 -16.7463 50.9582 -3.4816 -5.4785 6.2727 -28.5902 20.0672 -0.3200 27.1254 -0.4807 -8.9125 3.9381 10.4704 1.6406 -0.0807 -1.9185 -19.1297 -6.7316 -8.9118 -0.0664 26.6323 0.6897 23.7004 -12.4411 -22.3686 -1.4268 -0.1251 1.1623
-4.9001 93.8006 -3.3759 3.2362 1.3262 3.8730 0.0316 4.2653 -0.3883 -0.2742 -3.3770 -1.2928 1.4751 13.4899 -3.0121 3.3866 15.9033 2.1582 2.3173 -3.6937 8.5528 4.8601 -6.0288 7.8737 -0.0844 -0.0624 0.1280 0.6371 -10.6027 -3.7206 -0.7969 -10.6068 4.0142 2.5654 14.0887 -14.3779 -37.6177 -8.4112 -48.0192 0.4707 0.3446 -32.0615 -46.9691 76.3608 -22.4007 -15.4517 9.8814 13.8200 -60.1479 1.3648 2.3497 8.4843 13.4882 11.0935 54.4284 10.0453 3.3083 -0.3516 0.6224 66.6974 -32.6356 36.0177 -7.2849 17.2197 7.0338 -16.7516 50.9661 -3.4692 -5.4379 5.8548 -29.6803 20.4433 -0.3661 27.3692 -0.5488 -8.7937 3.9706 9.7641 1.6457 -0.1633 -1.9191 -19.0278 -8.2553 -8.3197 -0.0648 28.0783 0.6825 23.7424 -12.4725 -22.5848 -1.4361 -0.0352 1.1686
-4.7674 93.5931 -3.9834 3.2607 2.0891 3.4189 0.1771 4.9326 -0.4940 -0.2045 -3.1175 -1.3777 1.4268 13.2084 -3.0439 3.2686 13.8396 2.2161 2.1551 -3.6777 8.1280 4.7474 -6.1455 7.3075 -0.0743 -0.0659 0.1238 0.6530 -10.6334 -3.7476 -0.7935 -10.6526 4.0282 2.6495 14.0146 -14.9259 -35.8296 -7.6405 -49.3671 0.4507 0.4177 -33.2816 -33.7235 74.0694 -11.0874 -15.8341 9.7310 13.6821 -60.2691 1.3660 2.4216 7.4893 13.2724 11.2230 54.1188 10.3390 3.4743 -0.1316 0.4479 68.7564 -31.8966 37.1417 -7.5016 17.2528 7.0246 -16.6920 50.9706 -3.4438 -5.3428 5.3352 -31.1392 21.1110 -0.4112 28.2321 -0.5989 -8.5335 3.7357 9.3488 1.6519 -0.2739 -1.9231 -19.1488 -10.5243 -7.4117 -0.0560 30.1544 0.6635 23.9418 -12.4718 -22.2431 -1.4480 0.0677 1.1639
-4.3961 93.2382 -4.6026 3.3619 2.9077 1.9715 0.2538 5.7285 -0.5978 -0.1247 -2.8094 -1.5206 1.3923 13.0616 -3.1475 3.0131 11.5448 2.4201 2.0376 -3.6617 7.8625 4.4003 -6.4948 7.1208 -0.0675 -0.0658 0.1229 0.6763 -10.6671 -3.7744 -0.8039 -10.7000 4.0519 2.6599 13.9781 -15.2560 -34.5324 -7.0537 -50.4870 0.5290 0.6268 -35.6431 -25.4422 71.8839 -3.7468 -16.0784 9.7170 13.6295 -60.4805 1.4066 2.4503 6.8261 13.0549 11.4382 53.4069 10.2556 3.2510 0.1091 0.2050 71.8322 -31.6302 39.0354 -7.5677 17.2315 7.1177 -16.6301 51.0669 -3.3816 -5.3096 4.7022 -32.7646 22.3698 -0.4303 29.8110 -0.5951 -8.1913 3.0524 9.4230 1.6580 -0.3741 -1.9423 -19.7550 -13.5257 -6.1445 -0.0170 32.7672 0.6596 24.3433 -12.4492 -20.9750 -1.4575 0.0726 1.1724
-3.7714 92.7823 -5.1768 3.4905 3.6600 -0.6974 0.2309 6.6018 -0.7124 -0.0505 -2.4523 -1.7538 1.3731 13.1045 -3.3435 2.6555 9.3775 2.6579 2.0487 -3.6787 7.9450 3.6740 -7.1383 7.5626 -0.0653 -0.0641 0.1277 0.6934 -10.7062 -3.7864 -0.8187 -10.7516 4.0740 2.4654 13.9910 -15.3498 -33.7190 -6.2673 -51.8796 0.9071 0.8687 -38.4814 -20.0719 69.4338 1.7514 -16.3362 9.8240 13.7362 -60.9318 1.4236 2.4704 6.5123 12.7917 11.7215 52.6138 9.6032 3.1787 0.3025 -0.0140 75.7805 -31.6863 41.3783 -6.9322 17.0151 7.3240 -16.6057 51.1595 -3.3191 -5.3136 4.0837 -34.3312 24.4109 -0.4341 32.0587 -0.5594 -7.9843 1.9108 9.9494 1.6594 -0.3173 -1.9783 -20.8651 -17.0133 -4.5692 0.0896 35.5731 0.7507 24.6640 -12.3757 -18.5210 -1.4598 -0.0434 1.1845
-2.9953 92.2955 -5.6043 3.6557 4.2359 -4.6017 0.0732 7.4740 -0.8320 -0.0164 -2.1254 -2.0586 1.2674 13.3378 -3.5964 2.2956 7.7110 2.7971 2.2484 -3.7327 8.4466 2.6714 -7.9862 8.6408 -0.0655 -0.0694 0.1440 0.7070 -10.7567 -3.7749 -0.8333 -10.8061 4.0967 2.1004 14.1447 -15.4012 -33.3435 -5.1223 -53.9598 1.6603 1.0027 -40.6127 -16.9019 66.3354 5.3746 -16.3743 10.1536 14.0994 -61.4091 1.4486 2.5370 6.5038 12.3942 11.9820 52.0608 8.6795 4.2031 0.4212 -0.0059 80.0011 -30.8975 43.9621 -4.5203 16.6131 7.5667 -16.6107 51.1356 -3.2501 -5.3882 3.6078 -35.4324 27.0881 -0.4292 34.6160 -0.5099 -8.1711 0.3524 10.8902 1.6553 -0.0658 -2.0288 -22.3305 -20.4981 -2.6774 0.2617 37.9510 0.9219 24.6438 -12.2081 -15.1578 -1.4599 -0.2705 1.1936
-2.0658 91.8887 -5.7850 3.6934 4.6948 -9.7347 -0.1424 8.1695 -0.9935 -0.0200 -1.8442 -2.3683 1.0769 13.7611 -3.8516 1.9395 6.4971 2.8631 2.5075 -3.8342 9.2383 1.5806 -8.9918 10.2304 -0.0494 -0.0805 0.1408 0.7224 -10.7972 -3.7725 -0.8156 -10.8423 4.0802 1.4820 14.4992 -15.5569 -33.2327 -3.7910 -56.7404 2.5444 1.0107 -41.1947 -14.6052 62.8122 7.4548 -16.1012 10.5270 14.4668 -61.4255 1.5315 2.6443 6.9900 11.9451 12.2224 51.3914 7.7735 6.7788 0.4597 0.4685 83.8299 -27.6092 46.6814 0.3849 16.2420 7.6459 -16.6321 50.8834 -3.2298 -5.4918 3.6056 -35.8172 29.9236 -0.4017 36.8941 -0.4288 -8.8732 -1.3529 12.5736 1.6511 0.1812 -2.0489 -23.6299 -23.6680 -0.5041 0.4567 39.3312 1.1920 24.1825 -11.7196 -11.3342 -1.4644 -0.7423 1.2091
-1.0967 91.6671 -5.6016 3.3692 5.0763 -16.0063 -0.3471 8.5050 -1.0853 -0.0684 -1.6230 -2.6463 1.0531 14.4469 -4.0833 1.4482 5.3290 2.9792 2.7597 -3.8654 10.2989 0.5845 -10.4247 11.8122 -0.0358 -0.0711 0.1357 0.7158 -10.8443 -3.7719 -0.7817 -10.8529 4.0646 0.5577 14.9084 -15.9557 -33.4145 -2.3212 -60.0126 3.5087 1.1888 -40.5679 -12.6060 59.6334 7.9624 -15.7855 10.6465 14.7760 -60.8131 1.5652 2.6323 7.9657 11.4214 12.5799 50.6351 7.0120 10.1525 0.3575 0.9499 87.1614 -22.8001 49.8817 7.5386 16.1333 7.5830 -16.7396 50.7667 -3.3014 -5.6000 4.4144 -35.4718 32.5078 -0.3954 38.6174 -0.3482 -10.4070 -2.8183 15.2609 1.6412 0.3043 -2.0275 -24.1516 -26.5719 1.4611 0.6635 39.6646 1.6161 23.1761 -10.5771 -7.8890 -1.4781 -1.3284 1.1613
-0.2494 91.6483 -5.1196 2.8928 5.2010 -22.8176 -0.5491 8.6637 -1.1948 -0.1174 -1.6107 -3.0136 1.0996 15.1844 -4.1472 0.7461 4.1665 3.0707 2.9883 -3.9853 11.4501 -0.3354 -11.6465 13.5895 -0.0188 -0.0741 0.1123 0.6996 -10.8429 -3.7795 -0.7289 -10.8353 4.0180 -0.2026 15.5438 -16.3750 -33.8413 -1.7555 -63.1395 3.8981 1.0376 -39.8121 -11.4913 57.1305 6.6607 -15.7385 10.8477 15.3268 -60.5321 1.6085 2.7883 9.3663 11.2434 12.8735 49.8969 5.4451 12.6452 0.9487 1.3781 90.2780 -19.3346 53.4448 14.3606 15.6111 7.5407 -16.7888 50.5515 -3.2703 -5.5180 5.9448 -34.2610 34.1860 -0.3758 39.6402 -0.2837 -12.3087 -3.8494 18.5777 1.6397 0.5421 -2.0457 -23.4933 -29.2869 2.2117 0.7230 39.6960 1.6583 21.3734 -9.7271 -6.2950 -1.4769 -1.2864 1.0860
0.4683 91.7315 -4.2745 2.5153 5.0155 -29.9965 -0.7242 8.6523 -1.2950 -0.2513 -1.7479 -3.2345 1.2056 15.7977 -4.3932 -0.3339 2.9679 3.3154 3.3386 -4.0564 12.8333 -1.5091 -12.9548 16.0156 -0.0097 -0.0769 0.0606 0.6957 -10.8006 -3.8178 -0.7053 -10.7712 3.9459 -0.6776 16.4650 -16.5629 -34.3295 -2.0932 -66.0364 3.8825 0.8023 -39.5071 -10.6168 53.8019 2.6510 -16.2445 11.0478 15.8090 -60.6721 1.5599 2.9575 10.7120 11.4035 13.0174 49.1691 3.7668 14.8632 1.9428 1.6912 93.3626 -16.3308 56.1172 21.5142 15.0540 7.5940 -16.9613 50.4602 -3.2223 -5.3192 7.8040 -32.0342 35.0973 -0.4178 40.1447 -0.2946 -14.3112 -4.5200 22.5693 1.6524 0.6809 -2.1048 -22.0869 -31.5431 1.8548 0.6727 39.1520 1.5335 19.7414 -8.4873 -5.2591 -1.4850 -0.9888 0.8706
1.0335 91.8095 -3.0919 2.4492 4.5190 -37.5330 -0.8606 8.4962 -1.1671 -0.4805 -1.9222 -3.2778 1.5283 16.1116 -4.7790 -2.2614 1.8149 3.8418 3.7089 -4.0907 14.5271 -3.0095 -14.5620 18.7224 -0.0130 -0.1135 0.0171 0.6576 -10.7475 -3.8347 -0.6730 -10.7211 3.8736 -1.0128 17.0914 -16.5493 -34.7223 -2.9891 -68.8062 3.4298 0.6254 -39.5000 -9.9206 51.7733 -4.3844 -16.1800 11.1165 15.6380 -60.5688 1.4710 2.6530 11.6266 11.9335 13.0026 48.1838 2.8258 17.5568 2.9769 1.5836 96.5482 -13.4339 57.7337 28.9537 14.5507 7.5606 -16.9877 50.4291 -3.1813 -5.1568 9.4437 -28.5941 35.2775 -0.3406 40.3339 -0.1885 -16.1462 -4.8936 26.7638 1.7066 0.6928 -2.1527 -21.0410 -32.8495 1.8869 0.5164 37.7592 1.2025 18.8649 -6.9032 -2.3664 -1.4847 -0.4248 0.7586
1.4351 91.9983 -1.7819 2.8339 4.0172 -44.6024 -1.0107 7.9024 -1.0004 -0.6513 -2.2028 -3.4751 1.8082 16.3638 -5.0662 -4.4502 0.2869 4.5610 4.2800 -3.9604 16.2438 -4.7034 -15.3801 22.0149 -0.0144 -0.0989 0.0119 0.6738 -10.7004 -3.8429 -0.6927 -10.6610 3.8683 -0.7550 17.5955 -16.5781 -34.0693 -4.7103 -71.0205 2.5461 0.3467 -39.7800 -8.5048 51.4734 -12.1236 -16.0530 11.2265 15.5936 -60.6847 1.3877 2.6504 11.9801 12.4176 12.9479 47.5885 2.3717 20.2582 4.1627 1.2850 99.2219 -10.2521 59.3791 35.7114 14.3551 7.6591 -17.1644 50.2829 -3.2959 -5.1672 10.4206 -24.6236 35.8519 -0.4017 40.1309 -0.3121 -17.6884 -4.6430 29.6558 1.7355 0.2155 -2.2482 -21.3236 -33.3865 3.4023 0.4653 36.0583 1.1432 19.0420 -5.1197 1.3240 -1.4691 -0.4259 0.7456
1.7138 92.3941 -0.4448 3.4154 3.6995 -50.8872 -1.2336 7.0973 -0.8117 -0.7018 -2.5583 -3.7941 2.2844 16.4594 -5.1502 -6.6280 -1.4964 5.1988 4.8404 -3.9097 17.7727 -6.3094 -15.3672 25.3126 -0.0199 -0.0754 0.0520 0.7113 -10.7268 -3.8302 -0.7414 -10.6987 3.9343 0.1929 17.7624 -16.6768 -31.6308 -6.8207 -71.7865 0.9179 0.0826 -41.6345 -7.0855 54.2081 -19.9197 -16.0639 11.2318 15.7429 -60.8307 1.3856 2.8460 12.2234 12.7666 12.9682 47.4904 1.8705 22.8258 5.0996 1.1829 101.4403 -7.3861 60.6200 40.9825 14.1886 7.8469 -17.4006 50.0221 -3.4507 -5.2195 10.6344 -20.6855 37.1182 -0.4352 39.1433 -0.3526 -18.3320 -4.0967 31.8471 1.7382 -0.4620 -2.3261 -21.8893 -33.4228 4.8437 0.5160 33.6967 1.0903 19.6107 -3.3609 5.3148 -1.4511 -0.7348 0.6816
1.9865 92.8174 0.6929 4.0125 3.5540 -55.4509 -1.3988 6.2765 -0.6420 -0.6459 -2.8124 -4.0503 3.0411 16.1589 -5.2651 -8.3430 -3.0222 5.6761 5.1055 -3.8025 18.8557 -7.6545 -14.6349 28.0190 -0.0267 -0.0788 0.0550 0.7270 -10.7801 -3.8467 -0.7732 -10.7671 3.9548 1.7594 17.5365 -16.7667 -27.2007 -8.7310 -70.2820 -0.5510 0.3656 -47.0945 -3.1803 56.6578 -23.0486 -16.0579 11.3456 15.8388 -61.3896 1.3518 3.0525 12.7506 12.6499 13.0821 48.0600 0.9403 25.0699 5.5768 1.1786 103.3689 -5.2834 59.8682 43.9252 14.3182 8.0032 -17.2519 50.1370 -3.4130 -5.2614 10.0868 -17.2481 38.7525 -0.3290 37.3406 -0.2385 -18.4374 -3.6420 33.8420 1.7280 -0.6708 -2.3300 -22.5212 -32.9654 6.0738 0.5979 31.1208 1.1062 20.3705 -1.9489 8.0113 -1.4428 -0.9497 0.6646
2.3031 93.2914 1.6052 4.7004 3.5117 -58.2755 -1.5889 5.4137 -0.5321 -0.5570 -3.0893 -4.4020 4.0909 15.7373 -5.1611 -9.9471 -4.2082 6.0509 5.1321 -3.7106 19.4420 -8.5879 -13.1826 29.7481 -0.0241 -0.0535 0.0101 0.7334 -10.8000 -3.8917 -0.7755 -10.7907 3.9052 3.8489 17.1062 -17.0580 -20.9019 -11.3403 -65.9931 -0.9173 0.9989 -54.9680 6.2805 57.3388 -18.3823 -15.8996 11.3571 15.7436 -61.8529 1.3042 3.2768 13.8698 12.2113 13.4624 48.8123 -0.9431 27.2987 5.5369 1.4415 105.1535 -4.3160 57.2334 43.6214 14.5677 8.1383 -16.9601 50.3291 -3.2247 -5.2367 9.1270 -14.1106 39.9298 -0.2324 34.8045 -0.1250 -18.3858 -3.3258 35.5256 1.7048 -0.6365 -2.3097 -23.2683 -32.0968 6.7098 0.6902 28.1619 1.1805 21.1089 -0.7575 9.5435 -1.4427 -1.1988 0.6440
2.7122 93.8201 2.2812 5.5609 3.5564 -59.2857 -1.9605 4.4579 -0.4910 -0.4398 -3.3949 -4.6313 5.3687 15.1209 -4.8768 -11.4833 -4.9802 6.4435 4.9644 -3.6638 19.1432 -8.9842 -11.1524 30.3253 -0.0151 -0.0169 -0.0439 0.7205 -10.7485 -3.9306 -0.7450 -10.7532 3.8293 6.8402 15.9994 -17.6763 -13.9933 -15.7456 -59.4960 0.2424 0.7332 -61.7571 18.9744 55.9793 -6.8760 -15.7619 10.8295 15.2222 -62.2893 1.1262 3.3318 15.7265 11.1655 14.2041 49.1981 -3.5766 29.5738 4.8045 1.8166 106.7146 -4.6561 53.2424 40.1645 15.0502 8.1435 -16.5584 50.6328 -3.0668 -5.1618 7.8012 -11.2229 40.1007 -0.1358 31.6614 -0.0109 -17.9364 -2.9244 36.7948 1.7042 -0.7045 -2.2929 -24.2834 -30.7828 6.7226 0.7223 24.7989 1.1848 21.7213 0.3503 10.0134 -1.4465 -1.6304 0.5884
3.0712 94.4487 2.7169 6.3702 3.3834 -58.3135 -2.3907 3.5270 -0.6084 -0.3399 -3.6449 -4.6453 6.6551 14.3086 -4.4349 -12.4818 -5.3713 6.7935 4.8291 -3.6876 18.2599 -9.0516 -8.8583 29.9513 -0.0059 -0.0255 -0.0825 0.6976 -10.7049 -3.9586 -0.7051 -10.7409 3.7756 10.8915 14.7432 -18.2359 -8.0333 -21.4026 -52.2261 2.4286 -0.0435 -65.3731 26.8640 52.6252 4.3020 -15.4607 10.3393 14.8866 -62.6424 0.8971 3.0865 17.3628 9.6358 15.1250 49.1649 -6.4355 31.7812 3.2475 1.8223 107.8273 -5.9301 49.1461 36.5132 15.7949 8.1677 -16.1209 51.4438 -2.9902 -5.1617 6.6025 -8.6815 38.9404 -0.0819 28.1997 -0.0021 -16.9556 -2.4444 37.4302 1.7100 -0.7680 -2.2300 -25.2837 -28.6563 5.9723 0.6487 21.3144 1.0706 22.2496 1.3387 9.1221 -1.4439 -1.9659 0.6036
3.2605 95.0440 3.0462 6.9646 2.9107 -55.6613 -2.6348 2.6650 -0.7142 -0.2823 -3.8162 -4.5432 7.8413 13.3294 -3.7727 -12.9753 -5.9043 7.0454 4.7860 -3.6412 17.1782 -8.9300 -6.4011 29.0135 0.0079 -0.0581 -0.1123 0.7138 -10.7209 -3.9865 -0.6959 -10.7748 3.7403 15.2322 13.9152 -18.2876 -4.2316 -27.4503 -44.9306 4.3263 0.8822 -67.1813 27.1880 51.8791 10.6224 -15.4390 9.9836 14.2480 -62.0195 0.8594 2.5937 17.9669 7.9086 16.0269 48.9059 -9.1481 33.4562 1.7112 1.4360 108.8714 -6.8755 45.4317 35.9709 16.5421 8.3432 -15.8963 52.5492 -2.8802 -5.2543 5.7662 -6.6370 36.7069 -0.0658 24.9111 -0.0836 -15.8038 -2.0733 37.3275 1.7062 -0.5528 -2.1470 -26.1817 -25.5927 4.8539 0.5513 17.9744 0.9520 22.6054 2.1577 6.8760 -1.4436 -2.0597 0.6827
3.2595 95.4845 3.3266 7.4903 2.2769 -51.7205 -2.7037 1.8731 -0.6555 -0.2228 -3.9431 -4.3232 8.7890 12.2352 -2.9619 -13.5184 -6.5911 7.4081 4.7818 -3.5374 15.7656 -8.5134 -4.1848 27.4819 0.0259 -0.0777 -0.1167 0.7695 -10.8181 -4.0040 -0.7186 -10.8569 3.7439 18.6003 13.3754 -17.5175 -2.6811 -32.5168 -38.1034 4.8530 1.5745 -68.9626 25.8425 64.5211 15.4932 -15.1325 9.1064 12.2004 -59.5508 1.0167 1.9242 17.6132 6.2039 16.8206 48.1607 -11.0562 34.6681 0.9779 0.8885 110.2050 -6.9891 42.5825 38.5656 17.0494 8.3984 -16.0359 53.1083 -2.8563 -5.3282 5.1161 -5.0520 33.8040 -0.0367 22.0578 -0.1470 -15.1566 -1.8656 36.4663 1.7034 -0.1083 -2.1397 -27.1868 -22.1994 3.6231 0.4595 15.4842 0.8198 22.6272 2.5628 3.8163 -1.4470 -2.0892 0.7288
3.1037 95.7359 3.5789 7.9633 1.5427 -46.3719 -2.6428 1.1027 -0.4268 -0.1896 -4.1217 -3.9515 9.4064 11.1635 -2.1701 -14.1026 -7.1776 7.6120 4.6575 -3.5114 14.2974 -7.8745 -2.2173 25.2900 0.0395 -0.0813 -0.1177 0.8263 -10.9603 -4.0303 -0.7505 -10.9610 3.7680 20.5906 12.6012 -16.3774 -3.2444 -35.1964 -32.0944 4.4737 0.5501 -70.4117 43.6198 82.4580 35.5070 -13.2046 8.8534 11.6105 -57.5912 1.3015 1.7740 16.6541 4.8478 17.3421 46.8699 -12.0463 35.5242 0.7964 0.4056 111.0620 -6.8381 42.4862 41.2420 16.9567 8.1784 -16.2284 52.6091 -3.0968 -5.2940 4.6489 -4.1958 30.4170 -0.0165 19.9027 -0.2041 -14.9987 -1.7369 34.6204 1.6940 0.3690 -2.1876 -28.1779 -18.9432 1.7970 0.3477 14.2153 0.6557 22.3216 2.3737 0.1961 -1.4480 -2.0695 0.7244
2.7523 95.8300 3.7294 8.3587 0.6664 -39.4679 -2.5232 0.4602 -0.1304 -0.1887 -4.3332 -3.4188 9.4836 10.0085 -1.5731 -14.4307 -7.2459 7.7434 4.2719 -3.5553 12.6388 -7.0999 -0.6844 22.2545 0.0400 -0.0733 -0.1266 0.8668 -11.0699 -4.0652 -0.7924 -11.0474 3.7901 21.9825 11.4657 -15.2775 -5.2248 -34.8254 -26.8906 4.5917 -1.1024 -70.5237 157.0213 81.9629 149.5835 -12.3262 9.8168 13.5482 -57.8848 1.6532 2.3845 14.8853 3.8474 17.5145 45.6467 -12.2098 35.8948 0.3922 0.1903 110.5969 -7.5809 44.0064 41.8487 16.5156 7.8084 -16.2701 51.6080 -3.4133 -5.2982 4.3736 -4.2267 26.4270 -0.0362 18.6474 -0.2937 -14.8644 -1.6529 31.9315 1.6762 0.8066 -2.2555 -29.0709 -15.6309 -0.8658 0.2185 13.8746 0.5456 21.9369 1.5567 -4.1129 -1.4417 -1.9141 0.7294
2.2321 95.8370 3.7814 8.5408 -0.2855 -31.2559 -2.3601 0.0880 0.0429 -0.1959 -4.5398 -2.7593 8.9721 8.7655 -1.1118 -14.1749 -6.7374 7.8107 3.6066 -3.6311 10.7718 -6.2328 0.5386 18.2951 0.0305 -0.0632 -0.1336 0.8828 -11.1282 -4.0849 -0.8296 -11.0987 3.8048 23.1203 10.1371 -14.2135 -6.9489 -31.4033 -22.9620 5.5667 -2.1781 -69.2313 162.9524 76.0076 157.5060 -13.6718 10.4284 15.9894 -59.6794 1.8795 3.2573 12.1742 3.0553 17.3850 44.9174 -11.7517 35.2446 -0.3231 0.2592 108.6204 -9.8416 45.6052 40.2900 16.0376 7.4597 -16.2757 50.5425 -3.5527 -5.3662 4.2983 -5.1985 22.0269 -0.0994 18.2762 -0.4291 -14.5696 -1.5573 28.4118 1.6603 1.1479 -2.3065 -29.4903 -12.0451 -4.1969 0.0643 13.8917 0.4826 21.4775 0.4229 -9.2836 -1.4299 -1.5250 0.7436
1.6025 95.8190 3.7346 8.4138 -1.0246 -22.6527 -2.1546 0.0067 0.0741 -0.1991 -4.7071 -2.0390 8.1288 7.5806 -0.6198 -13.3606 -5.9380 7.7669 2.7898 -3.7288 8.8847 -5.2916 1.6812 13.9982 0.0236 -0.0624 -0.1242 0.8743 -11.1009 -4.0694 -0.8351 -11.0739 3.8179 23.7131 8.7077 -12.9978 -7.3009 -26.2036 -20.3054 6.4143 -1.3538 -67.2515 145.8221 77.3184 144.2459 -16.1413 9.9678 17.9061 -60.2203 1.8556 3.8713 8.8949 2.5970 17.1396 44.5266 -10.9178 33.1389 -0.7414 0.4723 105.5962 -13.8606 46.1353 37.1039 15.6975 7.2024 -16.3199 49.6979 -3.6076 -5.4499 4.4422 -6.9770 17.8365 -0.1956 18.4248 -0.5763 -14.1525 -1.2061 24.4570 1.6553 1.3332 -2.3372 -29.2480 -8.6458 -7.8599 -0.1010 13.9571 0.4460 21.0139 -0.6250 -14.6413 -1.4121 -0.9734 0.7659
0.9839 95.8120 3.6269 8.1129 -1.3039 -14.7626 -1.9435 0.1040 0.0571 -0.2145 -4.7701 -1.1686 7.2516 6.6947 -0.0991 -12.2527 -5.1280 7.6675 1.9705 -3.8317 7.0327 -4.2828 2.5875 10.0068 0.0187 -0.0676 -0.1243 0.8447 -11.0048 -4.0495 -0.8148 -10.9904 3.8041 23.7141 7.3716 -11.3394 -6.7341 -21.5863 -17.5067 6.1290 0.4618 -65.7064 101.7036 80.2323 105.2616 -18.4654 9.3301 18.9688 -58.8517 1.8712 4.0672 5.6794 2.7102 17.0535 44.1380 -9.7542 29.8168 -0.8142 0.7034 102.2289 -18.2744 44.8431 33.9857 15.5441 7.1095 -16.4364 49.4142 -3.6975 -5.5144 4.6262 -9.2330 14.3037 -0.2909 18.6554 -0.6565 -13.6473 -0.4840 20.6380 1.6647 1.3424 -2.3346 -28.5070 -6.1032 -11.3817 -0.2152 14.0414 0.4568 20.6634 -1.4015 -19.1357 -1.3924 -0.4144 0.7911
0.3953 95.8354 3.3690 7.8091 -1.0335 -8.3756 -1.7263 0.3411 0.1025 -0.2423 -4.7208 -0.1690 6.5900 6.1917 0.5426 -11.0968 -4.4489 7.4572 1.2348 -3.9182 5.2452 -3.2873 3.0818 6.6342 0.0149 -0.0829 -0.1399 0.8166 -10.9019 -4.0462 -0.7938 -10.8925 3.7737 23.1090 6.3558 -8.9500 -5.7325 -18.5702 -13.5446 4.7353 2.3080 -65.9010 40.4070 76.3051 50.7952 -19.9192 9.3927 18.5716 -58.7596 2.0352 3.7946 3.0330 3.3344 17.2249 43.7803 -8.4627 25.6191 -0.5811 0.9863 99.1610 -21.4590 42.5661 32.5773 15.4466 7.1652 -16.5700 49.4504 -3.7494 -5.5482 4.7248 -11.7385 11.6363 -0.3539 18.8664 -0.6648 -13.0057 0.4554 17.4915 1.6878 1.1575 -2.3309 -27.6112 -4.9576 -14.4191 -0.2422 14.3665 0.5007 20.5505 -1.8602 -22.0656 -1.3848 -0.0526 0.8137
-0.1552 95.8165 2.9209 7.5625 -0.2771 -3.7094 -1.4996 0.8034 0.2170 -0.2211 -4.5687 0.9033 6.2167 5.9078 1.4187 -9.9200 -3.9185 7.0630 0.5496 -3.9221 3.5726 -2.3239 3.0359 3.7086 0.0037 -0.1032 -0.1325 0.7970 -10.8478 -4.0218 -0.7964 -10.8342 3.7702 22.1178 5.5850 -5.8672 -5.2102 -17.9490 -7.6907 2.5352 4.0975 -68.8014 7.3125 61.5678 27.1866 -17.8147 10.1030 17.0733 -60.3223 2.0665 3.1884 0.7880 4.3008 17.5380 43.9550 -7.4067 21.0912 -0.1156 1.2461 96.6221 -22.4451 40.3812 33.4855 15.2325 7.2153 -16.7488 49.4145 -3.7158 -5.5696 4.7488 -14.4359 9.6421 -0.3778 19.2405 -0.6074 -12.3193 1.3418 15.2894 1.7069 0.9028 -2.3560 -26.7271 -5.3971 -16.7842 -0.1890 15.4182 0.5734 20.8340 -2.3396 -23.4455 -1.3877 0.1112 0.8469
-0.6578 95.7080 2.2378 7.2477 0.8952 -0.6424 -1.1908 1.5207 0.3918 -0.1881 -4.2486 2.0355 6.0731 5.6283 2.3887 -8.5893 -3.5043 6.4966 -0.1161 -3.8343 2.0740 -1.4206 2.4589 1.3174 -0.0133 -0.1137 -0.0864 0.7835 -10.7728 -3.9486 -0.8179 -10.7593 3.7956 21.1389 4.7176 -2.6561 -7.2843 -19.2546 0.7369 0.7114 5.2881 -73.1589 -4.3534 47.0956 24.3681 -16.9400 10.8229 16.0045 -64.6653 1.8772 2.7330 -1.1490 5.4812 17.9799 44.9537 -6.7586 16.6716 0.5586 1.4322 94.8195 -21.1040 38.9284 36.2232 14.8888 7.1569 -16.9148 49.1737 -3.6997 -5.4952 4.9015 -17.4343 8.1932 -0.3820 20.0277 -0.5517 -11.7776 2.0239 13.9294 1.7171 0.5635 -2.3937 -25.7226 -7.2869 -18.4686 -0.0834 17.3192 0.5925 21.3921 -3.0263 -23.3678 -1.3960 0.0617 0.9187
-1.1527 95.4809 1.3366 6.7160 2.4027 1.0436 -0.7477 2.5368 0.6245 -0.2006 -3.7650 3.0814 6.0282 5.3726 3.3455 -6.9179 -3.2433 5.8326 -0.7333 -3.7587 0.7836 -0.7491 1.4617 -0.5618 -0.0327 -0.1152 -0.0329 0.7605 -10.6787 -3.8635 -0.8339 -10.6841 3.8232 20.5658 3.8250 0.3772 -13.3034 -22.1868 12.6801 -0.5803 5.8254 -77.7484 -10.9237 43.9344 26.0646 -18.8999 10.9460 16.3348 -67.8047 1.6429 2.7042 -2.8551 6.6244 18.4491 46.9593 -6.2915 12.7986 1.1892 1.3516 94.0061 -17.6480 38.4999 40.1833 14.5547 7.0494 -16.9224 48.9241 -3.6287 -5.3377 5.4087 -20.8642 7.1132 -0.3719 21.3992 -0.5455 -11.4232 2.4308 13.2972 1.7249 0.0735 -2.4074 -24.3930 -10.4025 -19.7858 0.0265 19.9622 0.5966 21.8645 -4.0725 -22.2188 -1.4152 -0.1655 0.9808
-1.6251 95.1005 0.2394 5.8806 4.0799 1.6231 -0.2064 3.7876 0.8798 -0.2443 -3.1618 3.8427 6.0839 5.2888 4.2444 -4.8785 -2.9381 5.0487 -1.1871 -3.7272 -0.1126 -0.3595 0.1125 -1.8024 -0.0505 -0.1000 0.0140 0.7267 -10.6023 -3.7899 -0.8344 -10.6276 3.8498 20.5631 3.2578 3.1715 -23.1196 -24.8139 28.5914 -1.3723 5.2809 -81.3510 -16.2832 49.6476 28.8625 -18.7457 11.1377 17.1271 -68.2836 1.6210 2.9206 -4.4675 7.5970 18.7095 50.0041 -6.0435 9.6360 2.0987 1.1266 94.1046 -12.6877 38.4769 45.2312 14.4203 6.8868 -16.8346 48.8425 -3.6168 -5.2167 6.3322 -24.7501 6.5605 -0.3713 23.4735 -0.6351 -11.2844 2.5356 12.9839 1.7277 -0.5104 -2.4334 -22.6406 -14.3142 -20.9758 0.1231 23.1689 0.6238 22.1351 -5.4546 -20.4110 -1.4425 -0.3338 1.0023
-2.0070 94.5391 -0.9808 4.7796 5.6835 1.4017 0.3393 5.1046 1.1461 -0.2735 -2.5578 4.2587 6.2906 5.5369 4.9574 -2.6164 -2.3324 4.2216 -1.3662 -3.6932 -0.6440 -0.2741 -1.3986 -2.3119 -0.0610 -0.0627 0.0797 0.6850 -10.5697 -3.7102 -0.8113 -10.5989 3.8996 21.1877 3.0606 5.5147 -34.3522 -23.8770 45.6875 -0.4517 3.6923 -82.1706 -20.9682 63.7950 29.8968 -16.5717 12.0481 16.7493 -69.2680 1.8977 3.0386 -5.9116 8.2805 18.5899 53.6859 -5.5814 7.6568 3.2279 0.8454 94.5481 -6.1217 38.3937 51.8677 14.5344 6.6382 -16.6761 48.8179 -3.7048 -5.1978 7.6685 -28.8005 6.2867 -0.4076 26.1219 -0.7788 -11.4959 2.3670 12.9027 1.7223 -1.0120 -2.4707 -20.6096 -18.5199 -22.2660 0.2065 26.7168 0.7216 22.1294 -6.8596 -18.2143 -1.4704 -0.4397 0.9638
-2.2838 93.8631 -2.2133 3.6586 6.9574 0.6742 0.7801 6.3416 1.4644 -0.2286 -2.0720 4.2171 6.5706 6.2093 5.3544 -0.4305 -1.3057 3.4803 -1.3332 -3.6439 -0.8248 -0.5318 -2.9045 -2.3984 -0.0630 -0.0172 0.1271 0.6551 -10.5883 -3.6568 -0.7827 -10.6149 3.9378 21.6635 3.1821 7.0598 -43.6376 -20.3577 59.8306 2.3486 2.3446 -79.6713 -140.5176 87.3622 -87.2289 -16.4882 12.8534 15.4293 -72.0184 2.1803 3.2006 -6.8020 8.6695 18.0906 57.4749 -4.8324 7.1052 4.4001 0.6918 94.5539 2.4228 37.8627 60.4046 14.9964 6.2417 -16.3643 48.8884 -3.9185 -5.2477 9.1512 -32.5848 6.0530 -0.4862 29.1738 -0.9471 -12.1178 1.8787 13.1365 1.7121 -1.1998 -2.5036 -18.6998 -22.4881 -23.5201 0.2941 30.3336 0.8244 21.8250 -8.3331 -15.7519 -1.4956 -0.4000 0.8915
-2.3886 93.0607 -3.3534 2.7834 7.7658 -0.2158 1.1248 7.3461 1.6522 -0.1169 -1.7419 3.8470 6.9573 7.3490 5.2995 1.2376 -0.0381 2.9454 -1.1928 -3.5949 -0.7341 -1.2053 -4.4403 -2.1304 -0.0617 0.0169 0.1580 0.6330 -10.5847 -3.6160 -0.7563 -10.6127 3.9583 20.8780 3.6843 7.1926 -50.6550 -18.2539 70.6427 5.5026 1.7520 -73.9244 161.7865 50.1164 -138.8593 -16.5692 12.0985 15.1119 -67.4636 1.8035 2.9211 -6.3211 8.8574 17.1772 60.6802 -4.2627 7.4143 5.3712 1.0528 93.6585 12.3923 37.7574 70.5799 15.4217 5.8600 -16.0400 48.6976 -4.0856 -5.2852 10.5992 -35.7346 5.4219 -0.5363 32.4228 -1.0309 -13.3686 1.1872 13.4964 1.7037 -1.1826 -2.5095 -17.3358 -25.9667 -24.6890 0.4070 33.7796 0.8434 21.1558 -9.7508 -12.9813 -1.5178 -0.4434 0.8320
-2.2780 92.2494 -4.3041 2.2812 8.0904 -1.1176 1.4145 8.0031 1.6312 0.0369 -1.4811 3.2500 7.5097 8.7485 4.9438 2.2858 1.0724 2.4298 -1.0552 -3.5936 -0.4159 -2.4261 -6.2741 -1.3470 -0.0635 0.0163 0.2006 0.6277 -10.5867 -3.5770 -0.7551 -10.6156 4.0076 18.3324 4.8467 6.0780 -55.9201 -18.5405 78.3257 7.4174 1.8204 -66.3301 156.9332 21.2422 -133.6902 -14.1721 12.0238 15.3160 -58.6749 1.8801 2.3590 -3.8941 8.5620 16.0127 62.4204 -3.8851 7.2094 6.0229 1.7469 92.1982 21.7560 39.0643 82.1303 15.6399 5.7689 -16.0157 48.6608 -3.9121 -5.3510 11.9461 -38.0723 4.0117 -0.5311 35.8001 -1.0146 -15.0456 0.1627 14.4553 1.6863 -1.3198 -2.5280 -16.6644 -28.8437 -25.6748 0.5294 36.8231 0.8543 20.3705 -11.0562 -10.5598 -1.5280 -0.5829 0.8176
-1.9293 91.5768 -4.9749 2.1821 7.9498 -2.8123 1.6447 8.2724 1.5949 0.2127 -1.2666 2.4926 8.1585 10.1561 4.5983 2.2860 1.7105 2.0330 -0.9526 -3.6235 0.1717 -3.7176 -8.0540 -0.0609 -0.0654 -0.0199 0.2393 0.6280 -10.6096 -3.5325 -0.7594 -10.6448 4.0479 16.0443 6.4238 4.9462 -58.8143 -16.7028 79.3793 6.6785 1.3926 -57.8530 156.5451 13.8283 -130.3200 -13.6899 13.0884 15.2812 -55.4889 2.1526 2.3698 -0.7045 7.9153 15.6471 62.7704 -4.2570 5.7567 6.1880 1.8961 90.2805 27.9660 42.4010 94.0031 16.5181 6.1162 -16.0771 50.1322 -3.5333 -5.4826 12.7136 -39.2422 3.0305 -0.5236 38.8233 -0.9982 -16.4400 -1.0137 16.1095 1.6676 -1.4865 -2.5265 -16.7966 -31.0431 -25.6638 0.5903 38.9987 0.8647 19.7112 -11.9208 -8.5312 -1.5221 -0.6955 0.8075
-1.3366 91.2406 -5.2819 2.3872 7.2693 -5.6907 1.8258 8.1160 1.6384 0.3382 -1.1859 1.7823 8.7962 11.3363 4.3477 1.3604 2.2913 1.9475 -0.9122 -3.6572 0.8236 -4.9538 -9.1928 1.4447 -0.0455 -0.0553 0.2356 0.6365 -10.6372 -3.5236 -0.7259 -10.6979 4.0298 14.4586 8.0325 3.5535 -57.5819 -12.0044 70.8617 2.3135 0.7490 -50.7653 160.7612 27.0606 -130.6866 -13.6529 13.9759 14.8079 -54.3607 2.3705 2.5392 1.6721 7.0313 16.2944 62.2023 -6.3318 5.1159 5.5721 1.5857 86.8061 28.6927 46.9489 102.4498 17.0073 6.8039 -15.8331 52.0334 -3.0605 -5.2782 12.6089 -38.5972 3.6014 -0.4468 40.5374 -0.8401 -17.1632 -2.1202 18.0032 1.6565 -1.5096 -2.5298 -17.6922 -32.0273 -24.4072 0.6928 39.5354 0.9923 19.2744 -12.1306 -6.4206 -1.5146 -0.8055 0.7771
-0.6869 91.2017 -5.1851 2.7614 5.9847 -9.4233 1.8498 7.6635 1.7032 0.4339 -1.3178 1.1924 9.2827 12.1706 4.1200 0.1356 2.3928 2.1796 -0.8747 -3.6887 1.3994 -6.4155 -9.3995 3.0804 0.0056 -0.0559 0.1077 0.6837 -10.6224 -3.6520 -0.6677 -10.7133 3.8859 12.3763 9.3667 1.3835 -52.4801 -7.8824 57.1302 -3.9593 1.0821 -50.9817 166.4611 44.9291 -127.6333 -15.1893 12.9782 14.6011 -56.4524 2.1962 2.7939 3.2290 6.0442 17.5933 60.7908 -10.6689 6.2430 4.3120 0.9050 80.7106 25.0513 54.4915 107.3781 16.0670 7.6919 -15.4660 52.7788 -2.7209 -4.9709 12.1328 -36.2884 5.2218 -0.3630 41.2696 -0.6424 -17.4745 -3.0234 19.9755 1.6654 -1.5070 -2.5345 -19.1328 -31.7777 -21.9006 0.7769 39.0766 1.1646 19.3769 -11.9046 -4.6080 -1.5043 -0.9206 0.7292
-0.0689 91.3711 -4.7009 2.9596 3.9795 -12.8562 1.8414 7.0401 1.6572 0.4630 -1.5389 0.8348 9.7770 12.5742 3.6325 -0.9342 1.7029 2.6811 -0.6951 -3.6859 1.9075 -8.0884 -9.0126 5.0159 0.0448 -0.0458 -0.1031 0.7490 -10.6054 -3.8876 -0.6535 -10.7208 3.6851 11.1218 10.4443 -0.8436 -44.0223 -2.7089 41.3385 -7.0136 0.9974 -56.9435 179.3052 59.1755 -117.0289 -17.2916 11.2881 13.9885 -60.5805 1.7235 2.9740 3.7507 5.0589 19.1413 60.1146 -16.7343 7.3510 2.9550 0.3106 71.6708 14.6543 66.4107 104.7804 15.5283 8.6479 -15.5916 53.7163 -2.5060 -5.0311 11.9877 -32.9316 6.6990 -0.3582 41.7345 -0.5901 -17.9128 -4.0089 21.6894 1.6847 -1.4814 -2.5062 -20.6015 -29.9623 -19.3903 0.8325 38.0109 1.3247 19.9125 -11.4985 -3.6358 -1.4916 -0.9670 0.7090
0.5581 91.6646 -3.8887 3.0559 1.2993 -15.1169 1.7680 6.1994 1.3801 0.4068 -1.9277 0.6307 10.2814 12.7141 3.0486 -1.5481 0.5390 3.3694 -0.5191 -3.6072 2.2437 -9.6942 -8.6036 6.9054 0.0414 -0.0435 -0.2676 0.7830 -10.6168 -4.0782 -0.6934 -10.7428 3.5480 11.7688 11.4084 -2.5033 -33.2131 2.5736 27.0555 -8.3731 -0.8987 -63.2427 -156.6863 67.4451 -98.1671 -17.8822 10.4418 13.3358 -63.5945 1.3402 3.0261 3.4519 4.2587 21.1565 61.7387 -24.2963 5.8446 1.8933 0.3348 60.8661 -36.3161 76.8233 59.3866 16.0317 8.9261 -16.2213 54.5769 -2.4928 -5.4080 12.0107 -28.6966 7.6436 -0.4697 41.6069 -0.7405 -18.3708 -5.0914 22.6217 1.7029 -1.3711 -2.4482 -22.0225 -26.3951 -17.5378 0.7677 36.2049 1.3898 20.6295 -10.8611 -3.7624 -1.4769 -0.9263 0.6470
1.0940 92.0901 -2.8793 3.1530 -1.7577 -15.4291 1.5283 5.2994 0.9670 0.3133 -2.3940 0.6276 10.6969 12.4915 2.6553 -1.9722 -1.0197 3.7926 -0.3322 -3.5159 2.3957 -10.7272 -8.3711 8.1991 0.0020 -0.0307 -0.2870 0.7703 -10.6231 -4.1103 -0.7596 -10.7492 3.5537 14.5686 11.9828 -3.6191 -21.5229 6.2940 13.6385 -9.1636 -4.0391 -67.9732 -122.1059 69.7225 -70.3198 -16.2512 10.7074 13.7762 -63.0557 1.1636 2.9425 2.3953 4.0547 23.5339 66.6538 -32.3211 -0.0303 0.4831 0.7532 52.0533 -80.4574 62.5684 16.1193 16.6531 7.2828 -17.1144 52.9538 -3.1061 -5.7881 11.9134 -23.9252 7.5409 -0.5950 40.4808 -0.9589 -18.5071 -5.9223 22.7493 1.7012 -1.0844 -2.3951 -23.3900 -21.0180 -16.4562 0.5731 33.3682 1.2475 21.3652 -10.0873 -5.3463 -1.4626 -0.9011 0.5498
1.5176 92.5294 -1.8163 3.2185 -4.4852 -13.6869 1.2128 4.4549 0.6776 0.2787 -2.7625 0.9081 10.8438 11.6461 2.4614 -2.7832 -2.8088 3.9315 -0.2175 -3.4621 1.9947 -11.0084 -8.1166 8.4667 -0.0260 -0.0042 -0.2141 0.7445 -10.5980 -4.0415 -0.7918 -10.7019 3.6346 19.1394 11.0764 -4.7682 -12.5631 5.4475 -0.6114 -10.1206 -6.4372 -67.4971 -91.0326 67.2208 -45.8648 -14.7524 11.1888 13.9657 -60.3638 1.2007 2.5907 1.5421 4.1908 25.9291 71.3420 -38.7834 -7.2517 -0.9305 1.6888 48.8188 -76.4726 46.8994 17.5694 16.2913 6.0315 -17.0366 50.7478 -3.4356 -5.7745 11.4898 -19.5396 6.2370 -0.5746 38.5379 -1.0353 -18.3433 -6.5198 22.3916 1.6813 -0.7889 -2.4131 -24.4937 -14.9143 -16.5731 0.3707 29.6964 1.0889 21.7100 -9.2336 -8.0648 -1.4602 -1.0861 0.4723
1.8459 92.9364 -0.9500 3.1967 -6.1147 -10.2522 0.9357 3.7599 0.6426 0.2282 -2.9853 1.4150 10.5426 10.2476 2.5366 -4.1740 -4.6017 4.2440 -0.4171 -3.5576 1.0259 -10.6984 -7.7595 7.2601 -0.0182 0.0078 -0.1267 0.7239 -10.5910 -3.9648 -0.7601 -10.6642 3.7232 24.4013 8.2162 -6.1008 -8.1119 1.2676 -17.6862 -9.9624 -7.0389 -59.7387 -55.0625 62.9944 -17.0083 -13.7750 10.7078 12.9440 -54.8868 1.2472 2.0532 1.5003 4.2193 28.1241 71.9464 -43.6076 -10.9063 -1.9659 2.7179 50.4586 -70.5379 39.0753 17.6371 15.6132 5.9329 -17.0167 49.9029 -3.6114 -5.8141 10.7692 -17.0490 4.2259 -0.4753 36.7730 -0.9666 -17.8631 -6.9079 21.3625 1.6715 -0.8641 -2.4958 -25.1211 -9.9045 -17.8027 0.2086 26.3319 0.9778 21.4059 -8.3218 -11.4577 -1.4709 -1.3356 0.4730
2.0710 93.1600 -0.4607 2.9575 -6.4871 -6.0720 0.7618 3.4925 0.8447 0.1530 -2.9915 2.0940 9.7138 8.6262 2.9599 -6.0872 -6.5200 4.8888 -0.9140 -3.7685 -0.2655 -9.8031 -7.4281 4.8192 -0.0021 0.0193 -0.1092 0.7077 -10.6104 -3.9604 -0.7191 -10.6318 3.7476 29.8010 3.6707 -7.3688 -7.1057 -6.3447 -35.7160 -8.2489 -5.8985 -47.5032 -18.8688 43.4782 12.5047 -12.6310 9.7557 12.3959 -51.4239 1.6654 1.6591 1.6554 3.8741 30.1163 67.3506 -47.7798 -9.2481 -2.8813 3.4239 53.9582 -64.6940 35.7174 14.6319 15.5000 6.3670 -17.2922 50.3046 -3.8548 -5.8571 10.2651 -17.0643 2.1590 -0.3913 36.0093 -0.8457 -17.3721 -7.1312 19.6695 1.6664 -1.0373 -2.5527 -25.1393 -7.3716 -19.7266 0.1444 24.8202 0.9631 21.0067 -7.8227 -14.7952 -1.4815 -1.3558 0.5194
2.0735 93.1787 -0.3409 2.3994 -5.8158 -2.3273 0.7327 3.6880 1.1054 0.1034 -2.8540 2.8335 8.3721 7.3444 3.4470 -8.3859 -8.5982 5.6741 -1.3995 -3.9638 -1.4514 -8.5832 -7.2053 2.2373 0.0113 0.0279 -0.1452 0.7230 -10.6465 -3.9972 -0.7155 -10.6218 3.7108 33.7653 -0.9042 -7.8480 -6.7867 -19.4153 -50.6707 -5.2863 -3.8435 -37.4810 -5.1810 28.2646 19.0402 -13.3565 9.7746 12.9432 -54.2629 1.9662 1.4956 1.7855 3.3799 31.7322 56.6034 -51.0708 -1.1876 -2.8588 3.1431 57.9469 -57.2203 35.6907 12.7679 16.3489 6.8249 -17.3592 51.4411 -3.8413 -5.7939 10.4418 -19.0918 0.8304 -0.3528 36.3496 -0.7240 -17.0008 -7.1150 17.4632 1.6542 -1.0877 -2.5378 -24.4816 -7.3716 -22.1409 0.1663 25.1664 1.0238 21.2347 -7.8268 -16.8730 -1.4856 -1.1462 0.5751
1.7793 93.1868 -0.4124 1.6902 -4.3271 0.4976 0.6547 4.0046 1.2062 -0.0061 -2.7252 3.6145 6.5699 6.6416 3.5731 -10.5208 -10.3411 6.4057 -1.7123 -4.0883 -2.2436 -7.3587 -6.8229 0.3952 0.0228 0.0077 -0.1780 0.7753 -10.6980 -4.0214 -0.7495 -10.6497 3.6650 34.8637 -3.9877 -7.1051 -5.7194 -33.3468 -62.8427 -0.6107 -1.6570 -33.8987 2.8084 30.5309 20.8421 -14.2747 10.3968 13.4969 -56.9843 1.9587 1.2527 2.7102 3.0403 32.4545 40.2829 -51.7803 12.5547 -1.0099 1.9152 63.3963 -46.5950 39.0371 14.0453 17.2028 6.9451 -16.9839 51.8621 -3.6604 -5.7456 11.2039 -22.0632 0.5077 -0.3068 36.7979 -0.6007 -16.6294 -6.6711 15.0647 1.6316 -1.1300 -2.4975 -23.2793 -8.6909 -24.6622 0.2209 25.9186 1.0752 21.9005 -8.0040 -17.5026 -1.4868 -0.9575 0.6178
1.2382 93.3189 -0.5501 1.0257 -2.5657 2.0370 0.3728 4.3156 1.1091 -0.2036 -2.6354 4.2141 4.5273 6.4710 3.4370 -12.1395 -11.1748 6.9157 -1.6729 -4.2279 -2.4969 -6.1251 -6.0642 -0.6887 0.0349 -0.0325 -0.1951 0.8141 -10.8024 -4.0404 -0.7663 -10.7368 3.6425 32.9255 -5.1481 -5.7663 -5.2219 -43.0292 -72.5530 3.7690 0.5467 -35.5738 8.7356 44.7197 23.7855 -14.7671 10.6201 13.3151 -58.0103 1.8989 1.1464 3.5891 3.2778 32.1894 26.5343 -49.9889 25.0076 0.9826 0.9215 70.6525 -35.2447 41.7483 15.1613 17.1807 6.9427 -16.2886 51.1958 -3.4400 -5.6444 12.1524 -24.7129 0.9572 -0.2852 36.5761 -0.5555 -16.2524 -5.8876 13.0505 1.6099 -1.1776 -2.4714 -21.7309 -10.1229 -26.3408 0.2781 26.3391 1.0755 22.3792 -8.0111 -17.5804 -1.4724 -0.9842 0.6620
0.5924 93.4789 -0.7649 0.4365 -0.8171 2.5491 -0.1095 4.7592 0.9449 -0.4266 -2.5077 4.4321 2.2221 6.6859 3.1782 -13.2815 -11.4091 7.0600 -1.2186 -4.3615 -2.2068 -5.0071 -5.4551 -0.8407 0.0540 -0.0666 -0.2142 0.8398 -10.9590 -4.0886 -0.7538 -10.8667 3.6433 29.2529 -4.8965 -5.0914 -7.7288 -49.5830 -77.6625 6.4024 2.8162 -39.0209 17.5691 68.2297 32.5453 -14.8774 10.4043 12.7343 -57.8488 1.9928 1.3550 2.9861 3.5679 31.1604 18.9399 -47.9279 34.1063 1.6748 0.9802 77.0142 -26.2217 41.9602 13.9424 17.0806 6.8711 -15.6698 50.3399 -3.2541 -5.5640 13.0783 -27.0301 1.8571 -0.3015 36.0078 -0.5924 -15.7758 -4.8490 11.5175 1.6089 -1.2045 -2.4322 -19.9789 -11.5777 -26.8383 0.3228 26.8426 1.0972 22.4018 -7.9597 -17.7296 -1.4516 -1.0851 0.7427
-0.1196 93.6199 -1.1607 -0.1404 0.8294 2.3220 -0.7490 5.4335 0.7197 -0.7120 -2.2818 4.3732 -0.3587 7.1975 2.5963 -13.7805 -11.4059 6.8446 -0.5624 -4.4224 -1.2502 -3.9748 -5.4512 -0.2055 0.0748 -0.0815 -0.2547 0.8566 -11.0881 -4.1629 -0.7283 -10.9747 3.6264 24.8832 -3.4851 -5.7642 -14.5010 -55.5368 -75.5913 6.9594 4.5220 -42.6496 163.2239 76.5491 -179.0901 -15.5472 9.8480 12.5105 -58.1068 2.1387 1.9226 0.6653 3.7506 29.3842 15.9357 -47.6125 41.4314 1.8031 1.7225 80.7944 -20.0929 41.7051 11.0366 16.8983 6.6993 -15.3033 49.5143 -3.0645 -5.4513 13.9406 -29.1597 3.2576 -0.3078 35.2373 -0.6393 -15.3343 -3.4939 10.1983 1.6251 -1.1619 -2.3724 -18.0521 -13.1582 -26.1571 0.3420 27.6981 1.1004 22.0188 -7.9603 -17.9868 -1.4314 -1.2091 0.8168
-0.8934 93.6803 -1.7486 -0.8613 2.2916 1.7052 -1.4563 6.3906 0.4536 -1.1059 -1.9332 4.1151 -3.0765 7.8719 1.7557 -13.5611 -11.2368 6.4785 0.0481 -4.3612 0.0214 -3.0720 -6.0918 0.9332 0.0809 -0.0662 -0.3266 0.8570 -11.1231 -4.2623 -0.7150 -11.0073 3.5768 21.0173 -1.2206 -7.8177 -25.9503 -61.3293 -64.9241 6.0578 5.3624 -46.3940 176.9724 42.6114 -159.6011 -17.0147 9.1868 12.8459 -59.7077 2.0321 2.3683 -3.1369 3.7937 26.6917 15.7919 -49.3658 47.6474 1.7306 2.3826 82.5974 -16.4206 43.0626 7.0064 16.5813 6.5490 -15.2224 48.7856 -2.9614 -5.3849 14.9545 -31.2785 4.8020 -0.3305 34.5916 -0.6912 -15.1153 -2.0640 8.8852 1.6468 -1.1402 -2.3246 -15.9847 -14.9119 -25.0376 0.3449 28.9988 1.0911 21.4454 -8.3111 -18.1289 -1.4218 -1.2425 0.8777
-1.6327 93.6119 -2.5393 -1.9280 3.6119 0.7252 -2.1321 7.4810 0.2767 -1.6182 -1.4982 3.7209 -5.6679 8.6542 0.7871 -12.9141 -10.9475 6.1452 0.5331 -4.1992 1.1660 -2.3282 -7.0134 2.3184 0.0863 -0.0330 -0.3927 0.8523 -11.0474 -4.3384 -0.6979 -10.9482 3.5157 17.8239 1.2620 -10.3357 -40.6888 -65.4425 -47.7543 4.1453 5.1129 -50.3932 174.5383 15.7874 -153.6501 -17.5958 8.6608 12.9142 -60.7552 1.7453 2.4522 -6.9799 3.6571 23.5027 15.9580 -51.5522 53.6898 1.2549 2.5045 83.1747 -15.1612 45.7142 2.7643 16.3039 6.6288 -15.3878 48.3999 -2.9693 -5.4050 16.4435 -33.6035 6.0197 -0.3707 34.4917 -0.7416 -15.1018 -0.8288 7.9013 1.6642 -1.1012 -2.3109 -13.6817 -16.9636 -24.2671 0.3553 30.7108 1.0391 20.9162 -8.9279 -17.4299 -1.4215 -1.2094 0.9086
-2.3116 93.3862 -3.4160 -3.3928 4.8483 -0.7482 -2.7857 8.5002 0.2594 -2.1845 -1.0419 3.3852 -7.9677 9.5999 -0.2058 -12.2689 -10.6913 5.9937 0.7677 -4.0267 2.0578 -1.7263 -7.8396 3.4755 0.1060 -0.0043 -0.4235 0.8587 -10.9331 -4.3666 -0.6632 -10.8492 3.4749 15.2213 3.1868 -12.5916 -53.5776 -66.5602 -31.1200 2.1700 3.8444 -54.0487 170.0691 -2.7266 -149.7603 -17.4837 8.2675 12.7182 -61.3802 1.4885 2.4147 -9.1358 3.5595 20.8012 13.7850 -52.2766 60.4235 0.6884 2.2411 82.8245 -16.1495 47.9981 -0.7966 16.2593 6.9186 -15.6449 48.5574 -3.0383 -5.4684 18.6392 -36.1777 6.3901 -0.4346 35.1838 -0.7951 -15.2083 -0.0073 7.6280 1.6684 -1.0734 -2.2992 -11.1379 -19.3615 -24.3819 0.4230 32.6935 1.0300 20.6142 -9.4962 -15.5709 -1.4250 -1.3129 0.9377
-2.7742 92.9440 -4.3447 -5.0180 5.9156 -2.5989 -3.4237 9.4086 0.3857 -2.7030 -0.6058 3.1087 -9.9728 10.6474 -1.0756 -11.9690 -10.4035 6.1708 0.8617 -3.8939 2.7398 -1.5086 -8.4891 4.3970 0.1337 0.0120 -0.4186 0.8737 -10.8402 -4.3610 -0.6217 -10.7654 3.4715 13.0345 4.3906 -14.3913 -61.3606 -65.8339 -19.5247 0.5077 2.4251 -57.1448 166.8268 -15.4708 -147.2917 -17.1951 7.9017 12.4218 -62.0929 1.3402 2.3364 -10.0142 3.6607 18.8313 10.3531 -51.3254 66.8767 0.3240 1.8846 81.7713 -18.2291 50.0430 -4.1002 16.3885 7.2559 -15.8344 49.0472 -3.0443 -5.5096 21.3343 -38.8054 5.8609 -0.5408 36.7271 -0.9030 -15.3265 0.2336 8.0720 1.6631 -0.8689 -2.2654 -8.5613 -22.0209 -25.2824 0.5322 35.0570 1.0425 20.3279 -10.0103 -12.8718 -1.4293 -1.4262 0.9485
-3.0200 92.3068 -5.3274 -6.4478 6.8126 -4.5912 -4.0347 10.2776 0.5970 -3.1701 -0.1535 2.9268 -11.8102 11.7108 -1.7966 -12.2634 -10.0874 6.6977 0.8786 -3.8019 3.1627 -1.6613 -9.0176 4.9663 0.1466 0.0206 -0.3529 0.8775 -10.7702 -4.3010 -0.5994 -10.7151 3.5421 11.2946 4.9940 -15.7217 -64.7457 -64.6321 -12.9382 -0.6412 1.4868 -59.5136 165.2462 -23.6430 -145.9196 -17.2364 7.5673 12.1138 -62.8261 1.2414 2.1247 -10.3548 4.0302 17.3537 6.7344 -48.9499 72.4198 0.0332 1.7937 80.0023 -20.7619 51.8919 -7.7843 16.6490 7.5813 -15.8621 49.7950 -2.9051 -5.4981 24.0641 -41.4001 4.7219 -0.6280 38.9917 -1.0127 -15.4287 -0.0336 8.8929 1.6522 -0.5656 -2.2287 -6.1833 -24.9656 -26.7734 0.6606 37.8393 1.1096 19.7747 -10.4811 -10.0477 -1.4244 -1.4658 0.9430
-3.0381 91.5337 -6.3112 -7.4366 7.6358 -6.3191 -4.5673 11.1104 0.8259 -3.5586 0.3244 2.8190 -13.4518 12.7252 -2.3788 -13.0845 -9.6982 7.4633 0.8630 -3.7580 3.1765 -2.0434 -9.3116 4.9420 0.1237 0.0121 -0.2594 0.8552 -10.7271 -4.2073 -0.6231 -10.6937 3.6483 10.3060 5.2436 -16.5032 -66.0088 -63.7164 -9.5778 -1.0583 0.8560 -61.2222 163.6485 -28.9565 -144.9254 -17.3628 7.3745 11.9877 -63.1455 1.1436 2.0070 -10.4958 4.4828 16.2274 4.1841 -45.5635 75.8395 -0.4127 1.8022 78.2724 -23.0291 53.3238 -11.4881 17.0883 7.7299 -15.8842 50.8836 -2.7749 -5.4735 26.3412 -43.9603 3.3595 -0.7349 41.5917 -1.1474 -15.5689 -0.5385 9.8187 1.6490 -0.3547 -2.2125 -4.2064 -27.9972 -28.5671 0.7972 40.6925 1.2230 19.0004 -11.1365 -7.7732 -1.4178 -1.2152 0.9376
-2.9012 90.6689 -7.3357 -8.1229 8.4826 -7.6722 -4.9543 11.9290 0.9866 -3.8932 0.8226 2.7657 -14.8454 13.6770 -2.8665 -14.0867 -9.2202 8.2366 0.8493 -3.7457 2.8981 -2.4229 -9.3986 4.3991 0.0790 -0.0032 -0.1650 0.8140 -10.7004 -4.0973 -0.6738 -10.6828 3.7464 9.7550 5.3450 -16.8954 -66.2140 -62.9781 -8.1073 -1.0327 0.3460 -62.5230 162.1331 -32.4572 -144.1482 -17.3244 7.3223 11.9340 -63.2708 1.0724 1.9927 -10.3709 4.9872 15.3202 3.2601 -41.8328 76.7796 -0.8605 2.0002 77.3482 -24.5892 54.4698 -14.7102 17.6232 7.6571 -15.8979 51.8578 -2.7659 -5.4786 28.3063 -46.5520 1.7418 -0.8647 44.2559 -1.3035 -15.7602 -1.1180 10.6877 1.6497 -0.2141 -2.2095 -2.4199 -31.0491 -30.5203 0.9222 43.5147 1.3325 18.1807 -11.8536 -5.9581 -1.4161 -0.8895 0.9347
-2.7083 89.7457 -8.2926 -8.6182 9.3804 -8.6538 -5.2371 12.7311 1.0949 -4.1676 1.3473 2.6925 -15.9792 14.5144 -3.3100 -14.9866 -8.7598 8.7389 0.8799 -3.7346 2.5260 -2.6425 -9.4520 3.6079 0.0287 -0.0103 -0.0866 0.7700 -10.6602 -3.9953 -0.7320 -10.6609 3.8215 9.2765 5.4792 -17.1055 -65.6724 -62.2952 -7.7940 -0.8552 0.1459 -63.2433 161.1901 -34.1499 -143.6537 -17.0953 7.3453 11.8336 -63.2617 1.0242 1.9781 -9.9544 5.5293 14.4983 4.1830 -38.4088 75.4499 -1.0167 2.4362 77.4959 -24.7181 55.6782 -17.0639 18.1636 7.4903 -15.9729 52.6365 -2.7967 -5.5264 30.1261 -49.1585 -0.0641 -0.9855 46.8380 -1.4590 -16.0143 -1.6854 11.3734 1.6577 -0.1821 -2.2150 -0.7164 -34.0052 -32.5945 1.0296 46.2161 1.4375 17.2851 -12.5077 -4.5391 -1.4223 -0.6555 0.9142
-2.4509 88.8166 -9.1789 -9.0278 10.3600 -9.1943 -5.4171 13.5583 1.1400 -4.3554 1.8648 2.5358 -16.8754 15.2901 -3.7831 -15.5848 -8.4751 8.8893 0.9376 -3.7124 2.1788 -2.7224 -9.6757 2.7505 -0.0177 -0.0156 -0.0282 0.7458 -10.6425 -3.9194 -0.8023 -10.6551 3.8814 8.7581 5.7336 -17.2392 -65.3707 -61.7971 -7.3485 -0.8310 0.1999 -63.3871 160.4897 -34.7652 -143.2197 -16.6759 7.4636 11.7488 -62.9650 1.0054 1.8766 -9.2230 6.2060 13.6322 6.6060 -35.4791 72.2677 -0.7128 2.9183 78.8815 -23.0692 57.1557 -18.7688 18.5470 7.3534 -16.0705 53.0306 -2.8792 -5.5333 31.9506 -51.8245 -2.1275 -1.0820 49.2534 -1.5892 -16.2638 -2.1462 11.6977 1.6659 -0.2266 -2.2422 1.0229 -36.7731 -34.8190 1.0954 48.7715 1.4986 16.3750 -13.1966 -3.4764 -1.4306 -0.5223 0.8817
-2.2097 87.9096 -10.0060 -9.4587 11.3823 -9.4884 -5.4888 14.3532 1.1471 -4.5051 2.4103 2.3608 -17.5320 15.9726 -4.3624 -15.7143 -8.6355 8.7419 0.9592 -3.7022 1.9384 -2.7304 -10.0291 1.9727 -0.0443 -0.0245 0.0053 0.7460 -10.6285 -3.8780 -0.8567 -10.6399 3.9178 8.0742 6.1142 -17.3717 -65.4288 -61.3174 -6.5091 -0.6871 0.2897 -63.6971 159.2837 -35.7505 -142.4752 -16.0302 7.6262 11.7524 -62.2741 1.0084 1.8086 -8.2121 7.0086 12.7711 10.1816 -32.8752 67.7968 -0.2170 3.1378 81.2365 -19.8548 58.5524 -19.6384 18.4530 7.3600 -16.1292 53.0123 -2.9914 -5.5011 33.8997 -54.4851 -4.3540 -1.2012 51.4236 -1.7546 -16.4099 -2.4623 11.7087 1.6703 -0.3049 -2.2758 2.8835 -39.2412 -37.1298 1.1510 51.0474 1.5303 15.6063 -13.7938 -2.6101 -1.4381 -0.3977 0.8446
-1.9921 87.0357 -10.7522 -9.9651 12.4812 -9.5430 -5.4576 15.1214 1.1044 -4.6350 2.9658 2.1719 -17.9797 16.5529 -5.0391 -15.4877 -9.1504 8.3277 0.9808 -3.7148 1.8313 -2.6587 -10.6707 1.3696 -0.0564 -0.0287 0.0048 0.7637 -10.6067 -3.8682 -0.8980 -10.6073 3.9117 7.1230 6.5777 -17.5546 -66.1336 -60.8390 -4.9726 -0.4759 0.3776 -64.5299 157.1155 -37.7205 -140.7482 -15.3759 7.8373 11.8355 -61.4976 1.0256 1.7587 -6.8718 7.9143 11.9730 14.5213 -30.2535 62.6492 0.1808 3.0426 83.8178 -15.9366 59.2352 -19.9281 17.9747 7.5532 -16.1146 52.7507 -3.0626 -5.4793 36.1718 -57.1151 -6.8547 -1.3320 53.3060 -1.9344 -16.4636 -2.6635 11.4349 1.6728 -0.4030 -2.2982 4.9362 -41.3198 -39.5946 1.1851 52.9772 1.5204 15.0470 -14.3875 -1.8814 -1.4419 -0.3151 0.8025
-1.8201 86.2345 -11.4287 -10.5684 13.6061 -9.4958 -5.3889 15.8760 1.0595 -4.7280 3.5035 1.9130 -18.2294 17.0760 -5.7446 -15.1277 -9.8321 7.8275 1.0721 -3.7478 1.7743 -2.5851 -11.5156 0.9369 -0.0371 -0.0228 -0.0257 0.7993 -10.5244 -3.8817 -0.8931 -10.5106 3.8554 5.9969 7.0580 -17.8879 -67.6980 -60.2219 -2.5578 -0.0709 0.5577 -66.1944 153.6335 -41.1859 -137.6223 -14.9348 8.0170 12.0258 -60.7784 1.0773 1.7571 -5.3440 8.8152 11.2558 19.2082 -27.6596 57.3862 0.5025 2.8375 86.1517 -13.0225 58.6428 -20.0274 17.3835 7.8259 -16.0205 52.4408 -3.0874 -5.4275 38.9047 -59.5949 -9.7023 -1.5322 54.8701 -2.1657 -16.4786 -2.7586 11.0391 1.6707 -0.3682 -2.3024 7.1593 -43.0259 -42.1209 1.2169 54.5787 1.4900 14.7115 -14.8880 -1.3413 -1.4464 -0.2494 0.7805
-1.6762 85.5156 -12.0780 -11.1907 14.8281 -9.3943 -5.3208 16.6242 0.9940 -4.7628 3.9879 1.5838 -18.4242 17.5822 -6.4787 -14.8706 -10.3851 7.3084 1.2462 -3.7760 1.7572 -2.6354 -12.5330 0.7392 -0.0043 -0.0065 -0.0557 0.8413 -10.4563 -3.9074 -0.8667 -10.4365 3.8075 4.7419 7.5280 -18.4439 -70.0664 -59.5219 0.7871 0.3852 0.9139 -68.3228 148.6147 -45.4891 -132.9068 -14.7483 8.2905 12.3690 -60.3060 1.2074 1.7485 -3.6543 9.7320 10.4460 24.0173 -25.1022 52.3059 0.8551 2.8538 87.9611 -11.3074 55.8197 -19.4168 16.8754 8.1130 -15.9104 52.1885 -3.0132 -5.3353 41.9662 -61.9299 -12.8560 -1.6843 56.0431 -2.3182 -16.4905 -2.7682 10.5328 1.6593 -0.1552 -2.2683 9.5741 -44.5113 -44.5858 1.2426 55.9156 1.4643 14.4074 -15.3623 -1.2077 -1.4507 -0.1868 0.7863
-1.5670 85.0179 -12.7243 -11.7071 16.1359 -9.2636 -5.2672 17.3115 0.8978 -4.7648 4.4020 1.2249 -18.6350 18.0289 -7.2896 -14.8276 -10.6201 6.9413 1.4133 -3.8055 1.7640 -2.7285 -13.4817 0.6723 -0.0022 0.0032 -0.0617 0.8350 -10.4164 -3.9136 -0.8560 -10.4012 3.8001 3.3755 7.9656 -19.0708 -73.1324 -58.7335 4.9175 0.7527 1.5067 -70.5657 142.6179 -49.1581 -127.3532 -14.8693 8.6266 12.7208 -60.2915 1.3329 1.7424 -1.9757 10.6134 9.5711 28.8908 -22.6250 47.4562 1.4399 2.9356 89.0923 -10.5883 50.1869 -18.0623 16.4733 8.2756 -15.8796 51.9322 -2.9651 -5.2024 44.8114 -64.0000 -15.8404 -1.7524 56.6351 -2.3793 -16.3898 -2.5661 10.0269 1.6518 0.0987 -2.2219 11.9942 -45.7716 -46.8065 1.2734 56.7859 1.4575 14.0710 -15.6531 -1.4689 -1.4537 -0.1317 0.8147
-1.5301 84.8011 -13.3347 -12.0683 17.4669 -9.1949 -5.2191 17.9520 0.7786 -4.7551 4.7394 0.8238 -18.9197 18.4391 -8.1489 -14.9020 -10.5611 6.6956 1.5137 -3.8378 1.8709 -2.8302 -14.1091 0.7608 -0.0298 -0.0035 -0.0399 0.7989 -10.4277 -3.8964 -0.8749 -10.4114 3.8357 2.0080 8.2567 -19.6681 -76.4807 -57.7751 9.5462 0.8739 2.0858 -72.7404 137.2387 -51.4998 -122.7394 -15.1199 9.0384 13.1119 -60.5697 1.4133 1.7928 -0.4535 11.4205 8.7331 33.4269 -19.6595 42.9151 2.1833 2.7993 89.2708 -10.7382 42.8402 -16.3502 16.2873 8.0869 -15.9598 51.6385 -3.0168 -5.1462 47.1431 -65.6908 -18.3763 -1.6983 56.6169 -2.3059 -16.1518 -2.1194 9.6378 1.6466 0.2048 -2.1997 14.2805 -46.8521 -48.6278 1.2702 57.1341 1.4060 13.6793 -15.6562 -1.9824 -1.4577 -0.0749 0.8290
-1.5371 84.7779 -13.8954 -12.2356 18.7266 -9.1918 -5.1306 18.5572 0.6544 -4.7465 4.9552 0.4151 -19.2055 18.7867 -8.9559 -14.9392 -10.1876 6.5768 1.4918 -3.8478 2.0435 -2.9820 -14.5849 1.0345 -0.0676 -0.0150 -0.0306 0.7547 -10.4520 -3.8925 -0.9088 -10.4358 3.8638 0.7204 8.4006 -20.2306 -79.4239 -56.5241 13.8643 0.7848 2.5016 -74.8333 133.2906 -53.1281 -119.7611 -15.3928 9.3617 13.3914 -60.8492 1.4704 1.8387 0.7622 12.1032 7.9693 37.3843 -16.0523 38.7796 2.8596 2.3479 88.2390 -12.1074 35.8684 -14.9704 16.2863 7.6256 -16.0313 51.2048 -3.1800 -5.0627 48.6913 -67.0020 -20.2104 -1.5818 56.0900 -2.1756 -15.9100 -1.5791 9.3707 1.6412 0.2288 -2.1897 16.2960 -47.8165 -49.9865 1.1940 57.0745 1.2808 13.3376 -15.4635 -2.6709 -1.4630 -0.0042 0.8442
-1.5892 84.9272 -14.3787 -12.1967 19.8264 -9.2526 -4.9969 19.1051 0.5156 -4.7450 5.1004 0.1037 -19.4399 19.0584 -9.7099 -14.9719 -9.6971 6.5324 1.5036 -3.8647 2.3329 -3.1775 -14.9952 1.4741 -0.0994 -0.0324 -0.0302 0.7190 -10.4882 -3.8979 -0.9378 -10.4808 3.8814 -0.4866 8.3983 -20.7411 -81.1706 -55.0212 17.0047 0.7133 2.7895 -76.8843 130.5050 -54.6438 -117.8756 -15.6362 9.5440 13.5749 -61.1455 1.5028 1.9344 1.6065 12.6069 7.3478 40.8813 -12.4419 34.9392 3.3597 1.7306 85.8646 -14.7085 30.1839 -14.0891 16.5159 7.1212 -16.0127 50.9309 -3.3470 -4.9537 49.2096 -67.9604 -21.0140 -1.4660 55.1437 -2.0690 -15.7154 -0.9776 9.3103 1.6392 0.1589 -2.2061 17.8418 -48.6758 -50.8187 1.0890 56.6748 1.1193 13.0309 -15.1509 -3.3754 -1.4680 0.1013 0.8423
-1.6398 85.1691 -14.8377 -11.9658 20.6416 -9.3742 -4.8301 19.5652 0.4196 -4.7240 5.1838 -0.1337 -19.5595 19.3552 -10.3002 -14.8064 -9.2872 6.4426 1.5012 -3.8831 2.8295 -3.3998 -15.3934 2.1322 -0.1196 -0.0508 -0.0293 0.6946 -10.5354 -3.9034 -0.9550 -10.5330 3.8951 -1.6942 8.3599 -21.2665 -81.9101 -53.5209 19.1312 0.6513 3.0654 -78.7970 129.2867 -55.5958 -117.6103 -15.8941 9.5522 13.6444 -61.3610 1.4901 2.0554 2.0868 12.9704 6.9095 43.7822 -9.3978 31.4724 3.6571 1.1264 82.2411 -17.6389 24.9972 -12.9769 16.9383 6.7388 -16.0469 50.8045 -3.5027 -4.9036 48.5295 -68.5150 -20.6045 -1.3530 53.9093 -1.9735 -15.5379 -0.3173 9.3874 1.6387 0.0524 -2.2215 18.7941 -49.3754 -51.0216 0.9910 55.9746 0.9931 12.8178 -14.7911 -4.1561 -1.4701 0.1512 0.8463
-1.7410 85.5227 -15.2485 -11.5592 21.2338 -9.5468 -4.6413 19.8956 0.3408 -4.6563 5.2254 -0.2937 -19.5937 19.7205 -10.7237 -14.5276 -8.9956 6.4102 1.5216 -3.8906 3.4312 -3.6561 -15.8363 2.9322 -0.1263 -0.0616 -0.0305 0.6869 -10.5773 -3.9109 -0.9616 -10.5795 3.9027 -2.7353 8.4119 -21.6902 -82.3548 -52.1960 20.7166 0.5791 3.2306 -80.5908 129.3994 -55.9925 -118.5556 -16.1210 9.4804 13.6038 -61.6111 1.4672 2.1248 2.2724 13.2073 6.6414 45.9174 -7.0235 28.5738 3.7323 0.3593 78.0313 -20.1701 20.3818 -11.5867 17.3107 6.5325 -16.1817 50.7493 -3.6100 -4.9597 46.7285 -68.7726 -19.0278 -1.2462 52.3791 -1.8981 -15.3405 0.5050 9.6149 1.6396 -0.0419 -2.2114 19.2204 -49.9815 -50.6195 0.9176 55.0261 0.9070 12.6565 -14.3463 -4.9836 -1.4733 0.1283 0.8682
-1.8816 85.9605 -15.6229 -11.0381 21.5900 -9.7602 -4.4451 20.0824 0.2774 -4.5363 5.2099 -0.3961 -19.5183 20.1482 -10.9575 -14.1413 -8.7849 6.4285 1.5524 -3.8884 4.0931 -3.9014 -16.3475 3.8669 -0.1178 -0.0658 -0.0319 0.6971 -10.5896 -3.9128 -0.9544 -10.6031 3.8993 -3.5502 8.5760 -21.8191 -82.8473 -51.0632 21.9520 0.4609 3.2122 -82.1233 130.3887 -55.8390 -120.2791 -16.3473 9.3781 13.5425 -61.8635 1.4342 2.1426 2.1732 13.3155 6.5484 47.3301 -5.1875 26.4788 3.6489 -0.3286 73.9781 -22.0458 16.6551 -10.3771 17.4897 6.4721 -16.3381 50.6904 -3.6799 -5.0758 44.0432 -68.7545 -16.4430 -1.1473 50.6906 -1.8174 -15.1438 1.4280 9.8146 1.6408 -0.1483 -2.1929 19.1476 -50.4701 -49.7158 0.8635 53.9694 0.8467 12.5692 -13.8453 -5.7582 -1.4762 0.0518 0.8993
-2.0319 86.4510 -15.9048 -10.4265 21.6365 -10.0169 -4.2569 20.1382 0.2207 -4.3638 5.1311 -0.4559 -19.2967 20.6238 -10.9475 -13.5763 -8.5939 6.4749 1.5679 -3.8914 4.7899 -4.0742 -16.9437 4.9213 -0.0889 -0.0639 -0.0403 0.7185 -10.5917 -3.9208 -0.9154 -10.6098 3.8787 -4.1619 8.8817 -21.6520 -83.3847 -50.1373 22.8712 0.3007 3.0057 -83.2298 131.9738 -55.3741 -122.4567 -16.4871 9.3142 13.5065 -62.1166 1.4093 2.1447 1.8658 13.3616 6.6009 48.2363 -3.7091 25.0460 3.4176 -0.8531 70.4609 -23.3930 13.9865 -9.6822 17.5100 6.5155 -16.5046 50.6612 -3.7501 -5.2050 40.5798 -68.3431 -12.9132 -1.0384 48.8463 -1.7179 -14.9872 2.4059 9.9402 1.6410 -0.2071 -2.1769 18.4702 -50.7510 -48.2517 0.8080 52.8244 0.7803 12.5232 -13.2990 -6.4093 -1.4780 -0.0545 0.9232
-2.2253 86.9570 -16.1235 -9.7308 21.3487 -10.2127 -4.0705 20.0835 0.1658 -4.1662 5.0019 -0.4743 -18.8499 21.1283 -10.7377 -12.7482 -8.3910 6.4872 1.5645 -3.9110 5.5696 -4.2550 -17.5999 6.1269 -0.0437 -0.0641 -0.0538 0.7615 -10.6011 -3.9348 -0.8662 -10.6281 3.8504 -4.5595 9.3455 -21.2230 -83.6918 -49.4344 23.3457 0.2544 2.6038 -83.7964 134.1368 -54.6466 -125.0052 -16.5011 9.2917 13.4627 -62.1893 1.3796 2.1389 1.4092 13.3714 6.7273 48.8652 -2.4796 23.9513 3.1767 -1.2031 67.8794 -24.5329 12.4342 -9.5032 17.4187 6.5888 -16.5811 50.6261 -3.7627 -5.2859 36.7286 -67.4932 -8.8798 -0.9374 46.9467 -1.6150 -14.8557 3.3592 9.9667 1.6378 -0.2486 -2.1675 17.1753 -50.7590 -46.3395 0.7594 51.6767 0.7155 12.5712 -12.7859 -6.9709 -1.4782 -0.1851 0.9494
-2.4351 87.4567 -16.2453 -8.9936 20.7374 -10.4045 -3.8676 19.9092 0.1300 -3.9708 4.8291 -0.4734 -18.2059 21.6246 -10.3981 -11.5525 -8.2345 6.4387 1.6164 -3.9431 6.4242 -4.4906 -18.2931 7.5566 0.0186 -0.0622 -0.0820 0.8183 -10.6104 -3.9656 -0.7949 -10.6385 3.8030 -4.7740 9.9299 -20.7108 -83.8201 -48.9741 23.7846 0.1797 2.1981 -83.8108 137.0013 -53.4241 -128.0392 -16.3732 9.3058 13.4088 -62.0840 1.3542 2.1805 0.9177 13.3603 6.8859 49.3399 -1.4855 22.9704 2.9168 -1.4810 66.2897 -25.8253 11.9257 -9.5374 17.3666 6.6663 -16.6291 50.6779 -3.7666 -5.3396 32.9197 -66.1641 -4.8064 -0.8372 45.0470 -1.5032 -14.7595 4.2081 9.9097 1.6341 -0.2602 -2.1687 15.4104 -50.4353 -44.1236 0.7183 50.5464 0.6602 12.6971 -12.3285 -7.4319 -1.4709 -0.3068 0.9729
-2.6812 87.9468 -16.2624 -8.2415 19.8604 -10.5973 -3.6869 19.6248 0.1118 -3.7735 4.5954 -0.4712 -17.3690 22.0499 -9.9880 -9.9582 -8.1440 6.2762 1.6800 -3.9653 7.4726 -4.7689 -19.0053 9.2635 0.0793 -0.0640 -0.1139 0.8659 -10.6267 -3.9970 -0.7198 -10.6561 3.7527 -4.8681 10.5186 -20.2416 -83.2076 -48.6299 23.8479 0.2373 1.7613 -83.4694 140.0763 -51.8995 -130.8584 -16.2130 9.3666 13.3591 -61.9042 1.3671 2.1932 0.5110 13.3968 7.0794 49.8115 -0.8565 21.9489 2.7394 -1.6444 65.6648 -27.6887 12.3106 -9.5771 17.4231 6.7434 -16.6524 50.7848 -3.7640 -5.3662 29.4151 -64.4490 -0.9258 -0.7399 43.1886 -1.3648 -14.7086 4.9481 9.7586 1.6283 -0.2388 -2.1766 13.3268 -49.8220 -41.7871 0.6760 49.5004 0.6045 12.9319 -11.9027 -7.7778 -1.4636 -0.4175 0.9967
-2.9143 88.4753 -16.1824 -7.4691 18.7340 -10.7008 -3.5075 19.2169 0.0802 -3.5684 4.3103 -0.4780 -16.3799 22.3982 -9.5590 -7.9406 -8.1233 5.9631 1.8018 -3.9370 8.7151 -5.2269 -19.6784 11.3876 0.1387 -0.0662 -0.1684 0.9052 -10.6196 -4.0440 -0.6377 -10.6555 3.6741 -4.9298 11.1509 -19.9888 -81.7648 -48.5125 23.7498 0.3525 1.3556 -82.9021 143.0358 -50.2849 -133.0688 -15.9189 9.4625 13.2667 -61.6503 1.4273 2.1308 0.3501 13.4850 7.3244 50.3599 -0.5627 20.9507 2.5972 -1.6563 65.7933 -30.0003 13.5778 -9.3240 17.5310 6.8047 -16.6890 50.9243 -3.7350 -5.4447 26.1762 -62.2738 2.7691 -0.6491 41.2076 -1.2278 -14.6952 5.5943 9.5734 1.6232 -0.2024 -2.1757 11.0418 -48.7881 -39.5074 0.6390 48.3732 0.5731 13.2770 -11.4605 -8.0167 -1.4559 -0.4829 1.0152
-3.1345 89.0467 -15.9975 -6.7065 17.4111 -10.7428 -3.3179 18.7396 0.0440 -3.3627 3.9885 -0.5316 -15.2483 22.6126 -9.1067 -5.6201 -8.1947 5.4490 1.9981 -3.8866 10.1434 -5.7303 -20.2268 13.7696 0.1689 -0.0674 -0.2211 0.9082 -10.6190 -4.0908 -0.5799 -10.6532 3.6118 -4.9365 11.7372 -19.9634 -79.9076 -48.4486 23.8691 0.3049 0.9863 -82.5665 145.5305 -48.5653 -134.4161 -15.6050 9.5250 13.1992 -61.3375 1.5008 2.0774 0.5093 13.6392 7.5936 51.0738 -0.5289 19.9675 2.4688 -1.4012 66.4937 -32.6493 15.5419 -8.5320 17.5742 6.8955 -16.7934 51.0874 -3.7167 -5.5785 23.3754 -59.7202 6.0781 -0.5735 39.1688 -1.1025 -14.7055 6.1572 9.3454 1.6171 -0.2258 -2.1618 8.6028 -47.3785 -37.2506 0.6087 47.1480 0.5612 13.7839 -10.9596 -8.1983 -1.4498 -0.5703 1.0505
-3.3612 89.6884 -15.7061 -5.9594 15.9581 -10.7172 -3.0841 18.2213 -0.0310 -3.1674 3.6668 -0.5812 -14.0016 22.6380 -8.6725 -3.4083 -8.2863 4.7455 2.2785 -3.8398 11.6199 -6.1130 -20.5312 16.0786 0.1680 -0.0700 -0.2550 0.8754 -10.6279 -4.1177 -0.5475 -10.6510 3.5754 -4.9874 12.2028 -19.9617 -78.1220 -48.2534 24.2527 0.0455 0.6020 -82.8029 147.2167 -46.8116 -134.7219 -15.4118 9.5021 13.1318 -61.0829 1.5599 1.9852 0.8913 13.8084 7.8167 52.0476 -0.4511 19.1873 2.2203 -0.7605 67.4504 -35.1603 17.9265 -7.3645 17.4783 7.0181 -16.8412 51.2642 -3.6807 -5.6690 21.0363 -56.8196 8.9115 -0.4999 37.0039 -0.9929 -14.7409 6.6819 9.1188 1.6107 -0.3093 -2.1389 6.0882 -45.6009 -35.0144 0.5771 45.7474 0.5585 14.3458 -10.4170 -8.4443 -1.4437 -0.6449 1.0810
-3.5629 90.3979 -15.3162 -5.2115 14.4532 -10.6718 -2.8315 17.6467 -0.1027 -2.9397 3.3200 -0.6499 -12.7511 22.4299 -8.2305 -1.6316 -8.2660 4.0340 2.6399 -3.8211 12.8790 -6.2212 -20.4912 17.9174 0.1604 -0.0726 -0.2872 0.8400 -10.6347 -4.1434 -0.5259 -10.6358 3.5419 -5.0586 12.5873 -19.7557 -76.6214 -47.7318 24.4777 -0.2516 0.2773 -83.5570 148.3300 -44.7501 -134.4171 -15.3610 9.4346 13.0885 -60.9524 1.5927 1.9460 1.3785 13.9880 8.0192 53.1686 0.0534 18.7420 1.7838 -0.0603 68.2541 -36.8907 20.3651 -6.5655 17.2755 7.1350 -16.7676 51.3801 -3.6395 -5.6703 19.1970 -53.5771 11.1576 -0.4360 34.6720 -0.8962 -14.8058 7.2282 9.0190 1.6092 -0.3963 -2.1165 3.6298 -43.5038 -32.9370 0.5644 44.0746 0.5861 14.8708 -9.8506 -8.7202 -1.4418 -0.7057 1.0819
-3.7278 91.1582 -14.7478 -4.4290 12.9434 -10.6698 -2.5720 17.0619 -0.1480 -2.6782 2.9593 -0.7186 -11.5536 22.0083 -7.7812 -0.4623 -8.0308 3.4326 3.0667 -3.8506 13.8682 -6.1197 -20.1615 19.2332 0.1543 -0.0732 -0.3258 0.8187 -10.6429 -4.1765 -0.5158 -10.6198 3.5018 -5.0917 12.8576 -19.2425 -75.2125 -46.7591 23.9641 -0.3525 0.0832 -84.5383 149.1401 -42.1457 -133.7628 -15.4798 9.3724 13.0651 -61.0930 1.5992 2.0020 1.8275 14.2272 8.2633 54.2835 1.0541 18.5607 1.2386 0.4963 68.7731 -38.3410 22.5971 -6.5794 17.1054 7.2705 -16.7192 51.5019 -3.5909 -5.6432 17.7018 -50.0938 12.9954 -0.3761 32.2485 -0.8025 -14.8560 7.7098 9.0853 1.6101 -0.4922 -2.1102 1.2153 -41.2256 -30.9423 0.5341 42.2347 0.5798 15.3289 -9.3121 -9.0186 -1.4438 -0.7754 1.0508
-3.8797 91.9543 -14.0521 -3.5476 11.3954 -10.6183 -2.3140 16.4268 -0.1725 -2.4181 2.5842 -0.7638 -10.3741 21.4164 -7.3128 0.1905 -7.5883 3.0192 3.4673 -3.9090 14.5670 -5.8454 -19.6660 20.0836 0.1398 -0.0699 -0.3518 0.7988 -10.6756 -4.2080 -0.5230 -10.6317 3.4864 -5.0723 13.0837 -18.4531 -73.7852 -45.4058 22.6429 -0.3583 -0.0762 -85.3194 149.9968 -38.8315 -133.1407 -15.6311 9.3593 13.0570 -61.3372 1.5720 2.0582 2.2346 14.5157 8.4831 55.3298 2.4145 18.4700 0.7608 0.7951 68.8298 -39.5159 24.6594 -7.0715 16.9685 7.3565 -16.6989 51.4936 -3.5917 -5.6252 16.3387 -46.3122 14.5803 -0.3290 29.6130 -0.7102 -14.8609 8.2473 9.1806 1.6142 -0.6184 -2.1236 -1.2665 -38.6972 -29.0527 0.4979 40.1784 0.5822 15.8233 -8.8263 -9.4141 -1.4488 -0.8997 1.0157
-4.0242 92.7549 -13.1809 -2.6329 9.8663 -10.4625 -2.0390 15.7198 -0.1709 -2.1461 2.1827 -0.7901 -9.2243 20.7050 -6.8133 0.4137 -7.0549 2.7694 3.8325 -3.9677 15.0814 -5.4903 -19.0629 20.5651 0.1192 -0.0648 -0.3659 0.7851 -10.7109 -4.2299 -0.5494 -10.6555 3.4862 -4.8689 13.2851 -17.3586 -72.4133 -43.6956 20.5936 -0.2797 -0.2120 -85.8422 151.1062 -34.9226 -132.7521 -15.7494 9.3079 12.9711 -61.4972 1.5044 2.1071 2.5244 14.8146 8.6000 56.2856 4.0819 18.3779 0.4038 0.9416 68.5394 -40.2741 26.3978 -7.7390 16.8786 7.3964 -16.6753 51.4800 -3.6017 -5.6110 15.1640 -42.3629 15.8396 -0.2850 26.7980 -0.6185 -14.7737 8.8816 9.2823 1.6227 -0.7730 -2.1431 -3.6666 -35.9355 -27.4016 0.4492 37.9236 0.5899 16.3197 -8.3412 -9.8978 -1.4544 -0.9984 0.9711
-4.1731 93.5363 -12.1799 -1.7274 8.4166 -10.1536 -1.7414 14.9734 -0.1313 -1.8671 1.7125 -0.8551 -8.1069 19.8540 -6.2407 0.3553 -6.3833 2.6757 4.1489 -3.9999 15.4248 -5.1565 -18.3985 20.8185 0.0964 -0.0588 -0.3707 0.7781 -10.7483 -4.2475 -0.5871 -10.6886 3.5034 -4.3656 13.5169 -16.0496 -71.1036 -41.5917 17.9798 -0.1197 -0.3065 -86.1884 152.4892 -30.5301 -132.5934 -15.8406 9.2760 12.8442 -61.6485 1.4198 2.0907 2.6482 15.0789 8.5798 57.2176 6.0566 18.2251 0.1202 1.0693 68.1027 -40.4497 27.7397 -8.3035 16.8214 7.3657 -16.6246 51.3444 -3.6255 -5.6085 14.1739 -38.3901 16.7643 -0.2388 23.8739 -0.5211 -14.6245 9.5541 9.2811 1.6316 -0.9578 -2.1656 -5.9141 -33.0127 -26.0411 0.3954 35.5408 0.6089 16.8220 -7.8460 -10.4723 -1.4637 -1.1031 0.9425
-4.3254 94.2572 -11.1064 -0.8680 7.0741 -9.6409 -1.4169 14.1570 -0.1461 -1.6394 1.2138 -0.8514 -6.9838 18.8788 -5.6213 0.0809 -5.5710 2.7413 4.4151 -4.0101 15.5452 -4.8318 -17.6615 20.8619 0.0730 -0.0554 -0.3654 0.7750 -10.8008 -4.2589 -0.6297 -10.7407 3.5317 -3.4617 13.7605 -14.5721 -69.8952 -39.0765 14.9595 0.0501 -0.3963 -86.5458 153.8694 -25.9707 -132.5542 -15.8927 9.2088 12.6669 -61.7361 1.3286 2.0059 2.6235 15.3095 8.3627 58.1702 8.2233 17.9591 -0.1771 1.2334 67.7272 -40.0763 28.7702 -8.7567 16.8321 7.3026 -16.5457 51.2161 -3.6392 -5.5947 13.3460 -34.4862 17.3315 -0.1820 20.8513 -0.4167 -14.4177 10.2759 9.2105 1.6425 -1.1766 -2.1930 -7.9414 -29.9893 -24.9616 0.3369 33.0868 0.6301 17.3041 -7.3748 -11.2276 -1.4711 -1.1924 0.9260
-4.5070 94.8840 -9.9887 -0.1337 5.9321 -9.0273 -1.1319 13.3102 -0.1550 -1.4213 0.6587 -0.8742 -5.9128 17.8079 -4.9535 -0.3394 -4.6205 2.8583 4.5633 -4.0147 15.6048 -4.5279 -16.8247 20.7464 0.0506 -0.0592 -0.3418 0.7785 -10.8600 -4.2520 -0.6776 -10.8090 3.5806 -2.0967 13.9072 -13.0482 -68.9713 -36.0149 11.9752 0.1924 -0.5085 -87.1406 154.8264 -21.9185 -132.6224 -15.9221 9.1609 12.5517 -61.8119 1.2665 1.9327 2.3902 15.4782 7.9243 59.1401 10.4078 17.5414 -0.4169 1.3944 67.7004 -39.4390 29.6466 -9.2667 16.8407 7.2655 -16.4778 51.1145 -3.5996 -5.5686 12.7270 -30.9105 17.7043 -0.1490 17.9230 -0.3383 -14.1956 10.9871 9.0764 1.6508 -1.3829 -2.2124 -9.6724 -27.0388 -24.1060 0.2604 30.7119 0.6092 17.7741 -6.9667 -12.0867 -1.4759 -1.1932 0.9247
-4.7065 95.3822 -8.9137 0.4672 4.9989 -8.3706 -0.9293 12.3940 -0.2119 -1.2450 0.1165 -0.8583 -4.9220 16.6804 -4.3225 -0.8057 -3.5659 3.0012 4.6363 -4.0179 15.5573 -4.2285 -15.8347 20.5328 0.0357 -0.0569 -0.3247 0.7900 -10.8996 -4.2490 -0.7188 -10.8622 3.6165 -0.3721 13.9345 -11.6052 -68.3814 -32.4342 9.2996 0.3019 -0.6839 -88.0435 155.0761 -19.2003 -132.8842 -15.9689 9.1190 12.4739 -62.0332 1.2439 1.8800 1.9751 15.5737 7.2716 60.0902 12.4272 17.1003 -0.6398 1.5302 68.1423 -38.4236 30.3585 -9.6181 16.8233 7.2531 -16.4240 51.0365 -3.5416 -5.5265 12.2890 -27.7550 17.9077 -0.1214 15.2248 -0.2827 -13.9901 11.6275 8.9586 1.6531 -1.5591 -2.2239 -11.0837 -24.2793 -23.4219 0.1874 28.5131 0.5706 18.1721 -6.5739 -12.9644 -1.4791 -1.1388 0.9358
-4.9173 95.7556 -7.8707 0.9087 4.2682 -7.8710 -0.8353 11.4897 -0.2666 -1.1176 -0.3802 -0.8166 -4.0899 15.6342 -3.8157 -1.2339 -2.4637 3.1211 4.6310 -4.0120 15.5601 -3.9688 -14.8129 20.2408 0.0240 -0.0527 -0.3086 0.7996 -10.9037 -4.2343 -0.7518 -10.8786 3.6391 1.4431 13.8718 -10.3772 -68.0879 -28.6427 7.1248 0.4412 -0.8263 -89.1627 154.6851 -18.1018 -133.2686 -15.9770 9.1595 12.4993 -62.4440 1.2748 1.8943 1.4890 15.6457 6.5329 60.8070 14.0444 16.6049 -0.7872 1.6020 69.2466 -37.1586 30.8033 -9.3497 16.8286 7.2759 -16.4356 51.0328 -3.4893 -5.4995 12.0604 -25.2241 18.0136 -0.1048 13.1483 -0.2380 -13.8890 12.0540 8.8723 1.6504 -1.6688 -2.2143 -12.1334 -21.9793 -22.8699 0.1355 26.8008 0.5297 18.4892 -6.2581 -13.6830 -1.4785 -1.0852 0.9615
-5.0842 95.9912 -6.9827 1.2165 3.6877 -7.5354 -0.8445 10.7124 -0.3184 -1.0347 -0.8153 -0.7721 -3.4509 14.7810 -3.4440 -1.6131 -1.3853 3.1624 4.6000 -3.9996 15.6193 -3.8565 -13.8381 20.0244 0.0155 -0.0503 -0.3100 0.8053 -10.8940 -4.2317 -0.7750 -10.8778 3.6379 3.1423 13.7997 -9.4263 -68.1519 -25.1294 5.6879 0.4339 -0.8593 -90.2870 153.9577 -18.3605 -133.5623 -15.9459 9.2749 12.6392 -62.9063 1.3808 1.9721 0.9695 15.7320 5.7432 61.2365 15.1283 15.9934 -0.7752 1.5777 71.1168 -35.9319 31.1155 -8.5596 16.8424 7.3170 -16.4943 51.0877 -3.4612 -5.4735 11.9954 -23.3580 18.0694 -0.0961 11.8254 -0.2205 -13.9758 12.2318 8.8005 1.6436 -1.7277 -2.1980 -12.8963 -20.2600 -22.4671 0.1141 25.7603 0.5244 18.7078 -6.1014 -14.1295 -1.4736 -1.0448 0.9877
-5.1944 96.0866 -6.2770 1.3979 3.2034 -7.3462 -0.9244 10.1376 -0.3692 -0.9879 -1.1472 -0.7047 -3.0226 14.1894 -3.2217 -1.9372 -0.3865 3.1430 4.5798 -4.0135 15.7407 -3.9016 -12.9352 19.9300 0.0077 -0.0557 -0.3118 0.8048 -10.8847 -4.2258 -0.7909 -10.8715 3.6310 4.5115 13.7662 -8.7600 -68.3497 -22.2830 4.8856 0.3125 -0.7152 -91.0943 153.2088 -19.1989 -133.7165 -15.8684 9.4212 12.8625 -63.2608 1.4771 2.0462 0.4889 15.8175 4.9742 61.3915 15.6558 15.1711 -0.6242 1.5252 73.5887 -34.9351 31.3398 -7.4462 16.8734 7.3530 -16.6062 51.1353 -3.4657 -5.4952 12.0776 -22.1212 18.0457 -0.0861 11.2592 -0.2004 -14.1436 12.1742 8.7812 1.6369 -1.7171 -2.1912 -13.4509 -19.0771 -22.1138 0.1045 25.3608 0.5045 18.9069 -6.1003 -14.3029 -1.4655 -1.0171 1.0066
-5.2691 96.0566 -5.8125 1.4196 2.8082 -7.2184 -1.0207 9.7951 -0.4379 -0.9705 -1.3525 -0.6271 -2.7512 13.8465 -3.1228 -2.2808 0.5079 3.1358 4.5840 -4.0599 15.8280 -4.0720 -12.1278 19.9019 0.0063 -0.0602 -0.3035 0.7976 -10.8748 -4.2104 -0.7874 -10.8642 3.6297 5.4478 13.7777 -8.2981 -68.4978 -20.2305 4.4480 0.2630 -0.4362 -91.4227 152.6333 -20.2081 -133.6569 -15.8069 9.6013 13.1106 -63.5577 1.5547 2.0763 0.0397 15.8836 4.3121 61.3297 15.7148 14.1350 -0.3940 1.5155 76.4504 -34.1413 31.3891 -6.2863 16.9079 7.3556 -16.7302 51.2101 -3.4916 -5.5437 12.3048 -21.5224 17.9039 -0.0814 11.3968 -0.2009 -14.3010 11.9313 8.8152 1.6326 -1.6404 -2.1778 -13.7576 -18.3877 -21.8338 0.1122 25.5558 0.5008 19.0608 -6.2286 -14.3358 -1.4561 -0.9639 1.0145
-5.3372 95.9264 -5.5912 1.3335 2.5074 -7.1068 -1.1390 9.6964 -0.4808 -0.9781 -1.4429 -0.6056 -2.6368 13.7585 -3.1229 -2.5777 1.2726 3.2007 4.5805 -4.1036 15.8162 -4.3448 -11.5008 19.8868 0.0118 -0.0588 -0.3000 0.7917 -10.8642 -4.2013 -0.7712 -10.8570 3.6250 5.8833 13.8186 -8.0549 -68.6217 -19.1646 4.5016 0.3201 -0.1839 -91.1487 152.0837 -21.4861 -133.3623 -15.7529 9.7788 13.3572 -63.6756 1.6111 2.0843 -0.2647 15.9503 3.8230 61.0558 15.4076 13.0164 -0.1784 1.6131 79.2282 -33.7837 31.5383 -5.6047 16.9641 7.3775 -16.8254 51.3403 -3.4960 -5.5859 12.6023 -21.5077 17.7435 -0.0811 12.1035 -0.1978 -14.3612 11.5769 8.8764 1.6299 -1.5439 -2.1644 -13.8883 -18.1498 -21.5890 0.1324 26.2473 0.5045 19.1689 -6.4896 -14.2851 -1.4504 -0.8841 1.0143
-5.4021 95.7284 -5.5934 1.1709 2.3249 -6.9360 -1.2818 9.7990 -0.4972 -1.0088 -1.4494 -0.6337 -2.6828 13.9113 -3.2131 -2.8262 1.9575 3.3554 4.5549 -4.1262 15.6419 -4.6567 -11.0789 19.7922 0.0203 -0.0576 -0.2946 0.7844 -10.8559 -4.1911 -0.7476 -10.8543 3.6229 5.8070 13.8856 -8.0665 -68.7194 -19.1273 5.1719 0.4738 -0.1179 -90.3680 151.3059 -23.3937 -132.6437 -15.6193 9.9615 13.6299 -63.5400 1.6400 2.0793 -0.2883 16.0801 3.5028 60.5922 14.6632 11.7789 0.0925 1.7115 81.6310 -33.8048 31.8520 -5.2486 17.0286 7.3809 -16.8632 51.4453 -3.4814 -5.6243 12.8900 -22.0199 17.6080 -0.0831 13.1836 -0.1966 -14.3346 11.2381 8.8278 1.6327 -1.4155 -2.1553 -13.8565 -18.3185 -21.4192 0.1557 27.3130 0.5089 19.2333 -6.8311 -14.2249 -1.4486 -0.7939 1.0166
-5.4558 95.4931 -5.7876 0.9214 2.2926 -6.6618 -1.4341 10.0476 -0.5098 -1.0584 -1.3686 -0.6893 -2.8523 14.2475 -3.3988 -2.9760 2.5807 3.5191 4.4780 -4.1280 15.4159 -4.9914 -10.8159 19.6354 0.0317 -0.0544 -0.3017 0.7832 -10.8330 -4.1917 -0.7247 -10.8329 3.6046 5.2289 13.9257 -8.3646 -68.8451 -20.0048 6.6653 0.6206 -0.1549 -89.3646 150.2381 -26.2922 -131.4026 -15.4809 10.0806 13.9043 -63.0764 1.6555 2.0662 0.0218 16.2597 3.3298 59.9847 13.5109 10.4789 0.4370 1.8115 83.5404 -34.0631 32.3721 -5.0820 17.1071 7.3887 -16.8931 51.5579 -3.4682 -5.6616 13.1823 -22.9884 17.4944 -0.0946 14.4584 -0.1946 -14.2843 10.9399 8.6056 1.6363 -1.2836 -2.1512 -13.6216 -18.8014 -21.4571 0.1976 28.5460 0.5455 19.2361 -7.2420 -14.1504 -1.4476 -0.6824 1.0245
-5.5195 95.2378 -6.1159 0.6431 2.4410 -6.3041 -1.5959 10.3517 -0.5152 -1.1257 -1.2248 -0.7657 -3.1136 14.7243 -3.6300 -3.0242 3.0745 3.6143 4.3505 -4.1136 15.1935 -5.3242 -10.6316 19.4353 0.0479 -0.0535 -0.3214 0.7902 -10.8055 -4.2056 -0.7000 -10.8023 3.5724 4.2636 13.9350 -8.9322 -69.0396 -21.5333 8.8803 0.7044 -0.2262 -88.5365 148.7011 -30.1560 -129.5640 -15.2842 10.1169 14.1129 -62.2680 1.6596 2.0471 0.7101 16.4821 3.3113 59.2498 12.1329 9.2692 0.8280 1.9395 84.9289 -34.4083 33.0075 -5.0047 17.1828 7.3917 -16.8750 51.6530 -3.4198 -5.6535 13.3787 -24.2789 17.4824 -0.1099 15.6806 -0.1993 -14.2012 10.7376 8.2196 1.6414 -1.1626 -2.1501 -13.2441 -19.5074 -21.7071 0.2482 29.7188 0.6052 19.2257 -7.6757 -14.0603 -1.4467 -0.6014 1.0390
-5.5774 94.9859 -6.5370 0.3695 2.7928 -5.8723 -1.7417 10.6748 -0.5217 -1.1958 -1.0748 -0.8467 -3.4382 15.3010 -3.8796 -2.9812 3.4273 3.6518 4.1935 -4.0894 15.0137 -5.6547 -10.5440 19.2008 0.0646 -0.0575 -0.3363 0.8014 -10.7790 -4.2129 -0.6781 -10.7703 3.5433 3.2664 13.9804 -9.6105 -69.4649 -23.4102 11.3856 0.7146 -0.2948 -88.0647 146.5685 -34.4348 -127.0888 -15.1591 10.1100 14.2367 -61.4407 1.6517 2.0323 1.6234 16.7665 3.4662 58.5082 10.7285 8.2894 1.1874 2.0919 85.9402 -34.7164 33.7282 -4.9162 17.2321 7.3784 -16.8434 51.6670 -3.3770 -5.6488 13.4453 -25.8359 17.6065 -0.1319 16.7891 -0.2215 -14.1530 10.6269 7.6539 1.6442 -1.0811 -2.1434 -12.7384 -20.4305 -22.1673 0.2922 30.7903 0.6571 19.2614 -8.1156 -13.8917 -1.4442 -0.5728 1.0519
-5.6274 94.7774 -6.9843 0.1036 3.2999 -5.4435 -1.8705 10.9767 -0.5246 -1.2600 -0.9292 -0.9012 -3.7364 15.8653 -4.0876 -2.9458 3.6816 3.6452 4.0835 -4.0721 14.8658 -5.9550 -10.4858 18.9999 0.0797 -0.0616 -0.3426 0.8091 -10.7460 -4.2116 -0.6556 -10.7326 3.5223 2.4881 14.0958 -10.2002 -70.0551 -25.2065 13.5730 0.7684 -0.3370 -87.9132 144.2103 -38.0348 -124.5238 -15.1167 10.1066 14.2877 -60.9555 1.6439 2.0008 2.5634 17.0630 3.7440 57.8800 9.4862 7.6401 1.4559 2.1570 86.6273 -34.8032 34.3453 -4.7179 17.2559 7.3442 -16.7834 51.6339 -3.3615 -5.6526 13.3937 -27.4575 17.8410 -0.1521 17.6746 -0.2491 -14.1231 10.6272 7.0303 1.6465 -1.0258 -2.1304 -12.1751 -21.4499 -22.7288 0.3274 31.6497 0.7057 19.2914 -8.4605 -13.6620 -1.4415 -0.5869 1.0586
-5.6425 94.5992 -7.4186 -0.1457 3.8784 -5.0708 -1.9682 11.2419 -0.5209 -1.3114 -0.7991 -0.9069 -3.9652 16.3905 -4.2547 -2.9257 3.8828 3.6351 3.9893 -4.0522 14.7299 -6.2364 -10.4020 18.8189 0.0940 -0.0616 -0.3393 0.8159 -10.7313 -4.2064 -0.6335 -10.7171 3.5177 2.0047 14.2227 -10.6612 -70.7450 -26.6464 15.1973 0.9265 -0.3506 -87.9453 142.1230 -40.5955 -122.4585 -15.1120 10.1170 14.3226 -60.7763 1.6041 1.9873 3.4092 17.3607 4.0966 57.3570 8.4601 7.2322 1.6376 2.1696 87.0771 -34.9176 34.9046 -4.5496 17.2607 7.3126 -16.7286 51.5195 -3.3765 -5.6722 13.2500 -29.0535 18.1511 -0.1677 18.4238 -0.2636 -14.0959 10.6516 6.4591 1.6427 -0.9730 -2.1126 -11.6024 -22.4835 -23.3031 0.3523 32.3650 0.7125 19.3112 -8.7282 -13.3525 -1.4398 -0.6080 1.0668
-5.6364 94.4335 -7.7931 -0.3825 4.4334 -4.7270 -2.0187 11.4553 -0.5315 -1.3581 -0.6778 -0.8783 -4.1004 16.8280 -4.3884 -2.9365 4.1126 3.6816 3.9370 -4.0436 14.5462 -6.4987 -10.2962 18.6708 0.1082 -0.0589 -0.3334 0.8260 -10.7202 -4.1999 -0.6147 -10.7076 3.5161 1.7356 14.3453 -11.0144 -71.4794 -27.7633 16.4134 1.0704 -0.3186 -87.9899 140.6514 -42.2888 -121.2898 -15.0926 10.1220 14.3677 -60.7245 1.5697 1.9871 4.1342 17.6081 4.4495 56.9124 7.6692 7.0434 1.7334 2.2077 87.2164 -35.0425 35.3514 -4.3396 17.2421 7.2597 -16.6684 51.3461 -3.4148 -5.6702 13.0932 -30.5514 18.4491 -0.1817 19.1361 -0.2849 -14.0568 10.6706 5.9226 1.6414 -0.9532 -2.0911 -11.0646 -23.4296 -23.8847 0.3596 32.9625 0.6954 19.3081 -8.9554 -13.0705 -1.4395 -0.6231 1.0829
-5.6732 94.2746 -8.1192 -0.5901 4.8963 -4.4548 -2.0513 11.6068 -0.5087 -1.3868 -0.5902 -0.8718 -4.1598 17.2175 -4.4782 -2.9388 4.3615 3.7476 3.8856 -4.0349 14.3689 -6.7024 -10.1556 18.4962 0.1211 -0.0580 -0.3322 0.8361 -10.7247 -4.1992 -0.5987 -10.7126 3.5138 1.6003 14.4747 -11.2829 -72.2230 -28.6114 17.3594 1.1742 -0.2824 -87.9915 139.8273 -43.3694 -120.8835 -15.1078 10.1035 14.4042 -60.7777 1.5053 2.0364 4.7767 17.8139 4.8111 56.4983 7.0935 6.9602 1.7282 2.2446 87.0963 -35.2351 35.7592 -4.1158 17.2403 7.2326 -16.6463 51.2369 -3.4533 -5.6849 12.9478 -31.8751 18.7196 -0.1917 19.8679 -0.2917 -14.0496 10.5986 5.4185 1.6390 -0.9196 -2.0829 -10.6023 -24.2653 -24.4429 0.3564 33.5326 0.6539 19.2922 -9.1916 -12.7546 -1.4390 -0.6285 1.1006
-5.6558 94.0990 -8.3676 -0.7427 5.2040 -4.2102 -2.0644 11.6994 -0.4946 -1.4016 -0.5388 -0.8918 -4.1580 17.5335 -4.5049 -2.9392 4.6550 3.7771 3.8445 -4.0210 14.2369 -6.8501 -9.9930 18.3740 0.1344 -0.0607 -0.3432 0.8523 -10.7252 -4.2089 -0.5886 -10.7139 3.4966 1.5567 14.6093 -11.5195 -72.9627 -29.2174 18.1320 1.1736 -0.2111 -87.9101 139.6459 -43.8955 -121.0950 -15.1384 10.1181 14.4205 -60.9078 1.4769 2.0800 5.3392 17.9723 5.1036 56.0941 6.7750 7.0267 1.5800 2.2545 86.7600 -35.3954 35.9560 -3.8205 17.1808 7.2151 -16.6295 51.1305 -3.5035 -5.6750 12.8200 -32.9911 18.9902 -0.1986 20.6551 -0.2838 -14.0907 10.3888 4.8636 1.6361 -0.8880 -2.0895 -10.2770 -24.9466 -24.9983 0.3620 34.1135 0.6400 19.2955 -9.5149 -12.4412 -1.4354 -0.6125 1.1110
-5.6825 93.8922 -8.5277 -0.8198 5.3053 -4.0559 -2.0585 11.7116 -0.4900 -1.4129 -0.5402 -0.9135 -4.1184 17.7866 -4.5140 -2.9317 4.9751 3.7940 3.7999 -3.9921 14.1651 -6.9511 -9.8173 18.3464 0.1445 -0.0670 -0.3566 0.8688 -10.7199 -4.2220 -0.5848 -10.7085 3.4791 1.5270 14.7363 -11.7086 -73.6634 -29.6159 18.8076 1.0318 -0.1496 -87.6561 139.8635 -43.9728 -121.6668 -15.1129 10.1257 14.3792 -61.0291 1.4589 2.1511 5.8008 18.1024 5.3748 55.6878 6.6764 7.1638 1.3382 2.2348 86.2561 -35.6743 36.0737 -3.5698 17.1450 7.2382 -16.6494 51.0933 -3.5472 -5.6739 12.7362 -33.8202 19.3273 -0.2104 21.4906 -0.2925 -14.1834 10.0247 4.2941 1.6304 -0.8614 -2.1036 -10.1590 -25.4291 -25.4243 0.3715 34.7131 0.6499 19.3736 -9.9116 -12.1223 -1.4285 -0.5786 1.1072
-5.6785 93.7219 -8.6359 -0.8001 5.1691 -3.9925 -2.0452 11.6320 -0.4763 -1.4154 -0.5729 -0.9392 -4.0489 17.9756 -4.5294 -2.9625 5.2882 3.8040 3.7868 -3.9676 14.1078 -6.9697 -9.6564 18.3537 0.1423 -0.0791 -0.3521 0.8695 -10.7162 -4.2159 -0.5903 -10.7018 3.4850 1.4240 14.8361 -11.8793 -74.2390 -29.8777 19.2541 0.8907 -0.0779 -87.0077 140.4394 -43.8821 -122.3326 -15.0728 10.1681 14.3041 -61.2595 1.4775 2.2061 6.1732 18.2359 5.6082 55.2507 6.6973 7.3746 1.0548 2.2089 85.5697 -36.0113 35.9486 -3.3476 17.0653 7.2763 -16.6760 51.0487 -3.5862 -5.6633 12.6361 -34.2442 19.7649 -0.2263 22.2394 -0.3138 -14.2274 9.6152 3.7192 1.6227 -0.8738 -2.1066 -10.2951 -25.6687 -25.6278 0.3961 35.2823 0.6920 19.4501 -10.2601 -11.8050 -1.4235 -0.5664 1.1011
-5.6917 93.5848 -8.6720 -0.6617 4.8455 -4.0055 -2.0423 11.4705 -0.4915 -1.4108 -0.6361 -0.9700 -3.9703 18.0581 -4.5529 -2.9964 5.5411 3.8332 3.7985 -3.9302 14.0405 -6.9378 -9.5158 18.4292 0.1326 -0.0884 -0.3378 0.8583 -10.7096 -4.1992 -0.5987 -10.6867 3.5016 1.2193 14.9137 -11.9962 -74.6889 -30.0507 19.5659 0.6638 -0.0355 -85.8640 141.3798 -43.7622 -123.0934 -15.0386 10.2228 14.2303 -61.4136 1.5077 2.1919 6.4480 18.3336 5.7978 54.8400 6.8728 7.6841 0.7432 2.2403 84.6838 -36.2179 35.6449 -3.1072 16.9939 7.3169 -16.7061 51.0326 -3.6190 -5.6469 12.4987 -34.2111 20.2621 -0.2475 22.7269 -0.3446 -14.2032 9.3058 3.2101 1.6171 -0.8824 -2.1034 -10.6696 -25.6634 -25.6307 0.4186 35.7279 0.7195 19.4848 -10.5462 -11.4885 -1.4228 -0.5439 1.0882
-5.7426 93.5346 -8.5993 -0.4230 4.4191 -4.0967 -2.0235 11.2308 -0.5049 -1.3874 -0.7201 -1.0285 -3.8726 18.0025 -4.5719 -3.0238 5.7715 3.8741 3.7677 -3.8958 13.9549 -6.8184 -9.4355 18.4455 0.1206 -0.0922 -0.3246 0.8451 -10.7076 -4.1838 -0.6095 -10.6755 3.5173 0.9367 14.9556 -12.0680 -74.9843 -30.1197 19.6979 0.4686 -0.0202 -84.3447 142.4841 -43.8206 -123.6968 -14.9954 10.3068 14.1491 -61.4441 1.5696 2.1045 6.5943 18.3810 5.9158 54.4835 7.2104 8.0145 0.4578 2.2566 83.7377 -36.3125 35.3482 -2.9128 16.9748 7.3536 -16.7446 51.0369 -3.6289 -5.6679 12.3301 -33.7746 20.7689 -0.2665 22.9114 -0.3774 -14.1406 9.1199 2.7832 1.6148 -0.8947 -2.0949 -11.2108 -25.4477 -25.4720 0.4374 35.9795 0.7515 19.4875 -10.7284 -11.1669 -1.4277 -0.5342 1.0731
-5.8227 93.5517 -8.4751 -0.1344 3.9372 -4.2423 -1.9766 10.9388 -0.5358 -1.3407 -0.8415 -1.0850 -3.7580 17.8224 -4.5688 -3.0531 6.0646 3.9117 3.7414 -3.8743 13.8281 -6.6696 -9.4616 18.4654 0.1119 -0.0877 -0.3254 0.8377 -10.7003 -4.1830 -0.6186 -10.6591 3.5182 0.6076 15.0200 -12.0798 -75.0667 -30.0739 19.6678 0.3295 -0.0200 -82.7454 143.6052 -43.8738 -124.3083 -14.9891 10.3944 14.1428 -61.3597 1.6386 2.0454 6.5935 18.3417 5.9242 54.1950 7.6811 8.2949 0.2833 2.1959 82.9026 -36.4214 35.3254 -2.7825 17.0304 7.4027 -16.7811 51.1494 -3.6016 -5.6666 12.1872 -33.0208 21.2572 -0.2813 22.7765 -0.4010 -14.0821 9.0650 2.4206 1.6158 -0.9244 -2.0908 -11.8336 -25.0210 -25.2576 0.4497 35.9741 0.8005 19.5342 -10.8346 -10.8548 -1.4333 -0.5544 1.0639
-5.9068 93.6442 -8.2845 0.1586 3.4831 -4.4515 -1.8878 10.5735 -0.5735 -1.2880 -0.9964 -1.0975 -3.6364 17.5350 -4.5546 -3.0863 6.4572 3.9852 3.7293 -3.8771 13.6589 -6.4922 -9.5561 18.4378 0.1078 -0.0761 -0.3305 0.8318 -10.6801 -4.1873 -0.6200 -10.6297 3.5125 0.2724 15.0564 -11.9856 -74.8014 -29.8275 19.3569 0.3067 -0.0146 -81.2844 144.6556 -43.7459 -125.1916 -14.9972 10.4630 14.1980 -61.2849 1.6897 2.0014 6.5029 18.1800 5.8446 53.9585 8.2239 8.3851 0.3046 2.1241 82.2456 -36.5497 35.5275 -2.6524 17.1185 7.3840 -16.7648 51.1763 -3.5842 -5.6505 12.0973 -32.0374 21.6764 -0.2990 22.3218 -0.4348 -14.0627 9.1084 2.2462 1.6228 -0.9611 -2.0834 -12.4494 -24.4141 -25.0326 0.4501 35.6495 0.8331 19.5863 -10.8478 -10.5378 -1.4401 -0.5913 1.0451
-6.0135 93.7848 -8.0345 0.4303 3.0993 -4.7210 -1.7590 10.1647 -0.5773 -1.2125 -1.1910 -1.0980 -3.5289 17.1713 -4.5304 -3.1333 6.9257 4.1089 3.7459 -3.9041 13.4663 -6.3188 -9.6912 18.3299 0.1059 -0.0679 -0.3294 0.8288 -10.6606 -4.1840 -0.6197 -10.6086 3.5135 0.0251 15.0210 -11.7493 -74.1923 -29.2474 18.7331 0.4403 -0.0787 -80.1970 145.5833 -43.6638 -126.3226 -15.0136 10.5138 14.3737 -61.2622 1.7270 1.9870 6.2792 17.8695 5.7173 53.8021 8.8784 8.4043 0.4644 2.1203 81.7892 -36.8103 35.8268 -2.5532 17.1667 7.3563 -16.7272 51.1436 -3.5772 -5.6535 12.0834 -30.9161 21.9393 -0.3159 21.6281 -0.4720 -14.0740 9.2155 2.3493 1.6353 -1.0238 -2.0688 -12.9917 -23.6873 -24.7519 0.4302 35.0583 0.8310 19.6277 -10.8233 -10.2597 -1.4492 -0.6579 1.0394
-6.1673 93.9771 -7.6936 0.6650 2.7601 -5.0593 -1.6056 9.6930 -0.5839 -1.1188 -1.3842 -1.0382 -3.3934 16.7152 -4.4901 -3.2033 7.5086 4.1933 3.7885 -3.9838 13.3689 -6.1240 -9.7609 18.1681 0.1047 -0.0751 -0.3293 0.8256 -10.6570 -4.1881 -0.6178 -10.6061 3.5147 -0.1208 15.0124 -11.3846 -73.4354 -28.4032 17.9686 0.6807 -0.2234 -79.4028 146.6268 -43.6059 -127.9445 -15.0068 10.4676 14.6258 -61.3023 1.7706 2.0264 5.9062 17.4438 5.5621 53.7640 9.7015 8.5334 0.5992 2.0972 81.5328 -36.9371 36.0614 -2.4014 17.0622 7.3309 -16.6637 51.0091 -3.5825 -5.7026 12.1784 -29.6384 21.9138 -0.3249 20.7522 -0.4927 -14.1010 9.3388 2.7814 1.6483 -1.0711 -2.0333 -13.4595 -22.8453 -24.4297 0.4072 34.2232 0.7874 19.6615 -10.7592 -10.0181 -1.4566 -0.8375 1.0428
-6.2553 94.1300 -7.3179 0.8341 2.4684 -5.3337 -1.4088 9.1817 -0.5979 -1.0274 -1.5419 -0.9910 -3.2266 16.2546 -4.4189 -3.3756 7.9171 4.1525 3.7916 -4.0827 13.4631 -5.8454 -9.5630 17.9523 0.1098 -0.0915 -0.3532 0.8336 -10.6673 -4.2202 -0.6143 -10.6226 3.4962 -0.1258 15.0321 -10.9941 -73.0237 -27.4375 17.6103 0.7023 -0.4013 -78.8805 147.8155 -43.6609 -129.5933 -14.8522 10.3235 14.6817 -61.0666 1.8249 2.0962 5.4827 17.0596 5.3962 53.8468 10.4992 8.8047 0.7918 2.0506 81.3225 -36.9815 36.1034 -2.4124 16.9055 7.3793 -16.6659 50.9244 -3.5819 -5.7674 12.4241 -28.4038 21.6197 -0.3424 19.8793 -0.4956 -14.1579 9.3828 3.3767 1.6602 -1.1265 -1.9992 -13.8071 -21.9905 -24.1601 0.3705 33.3789 0.6922 19.6941 -10.7507 -10.0141 -1.4603 -1.1323 1.0499
