HIERARCHY
ROOT Hips
{
	OFFSET 0.0000 0.0000 0.0000
	CHANNELS 6 Xposition Yposition Zposition Zrotation Xrotation Yrotation
	JOINT Spine1
	{
		OFFSET -0.0137 5.0038 -0.0537
		CHANNELS 3 Zrotation Xrotation Yrotation
		JOINT Spine2
		{
			OFFSET -0.0000 7.1253 -0.0298
			CHANNELS 3 Zrotation Xrotation Yrotation
			JOINT Chest
			{
				OFFSET -0.0000 7.5501 -0.8160
				CHANNELS 3 Zrotation Xrotation Yrotation
				JOINT Neck1
				{
					OFFSET -0.1817 26.3113 -0.5533
					CHANNELS 3 Zrotation Xrotation Yrotation
					JOINT Neck2
					{
						OFFSET -0.0000 7.7094 2.3026
						CHANNELS 3 Zrotation Xrotation Yrotation
						JOINT Head
						{
							OFFSET -0.0000 6.1289 1.9537
							CHANNELS 3 Zrotation Xrotation Yrotation
							JOINT Jaw
							{
								OFFSET 0.0026 0.4756 3.0949
								CHANNELS 3 Zrotation Xrotation Yrotation
								End Site
								{
									OFFSET 0.0 1.0 0.0
								}
							}
							JOINT LeftEye
							{
								OFFSET 3.2064 5.3802 7.5869
								CHANNELS 3 Zrotation Xrotation Yrotation
								End Site
								{
									OFFSET 0.0 1.0 0.0
								}
							}
							JOINT RightEye
							{
								OFFSET -3.2224 5.3619 7.5582
								CHANNELS 3 Zrotation Xrotation Yrotation
								End Site
								{
									OFFSET 0.0 1.0 0.0
								}
							}
						}
					}
				}
				JOINT LeftShoulder
				{
					OFFSET 1.6217 23.2372 5.1134
					CHANNELS 3 Zrotation Xrotation Yrotation
					JOINT LeftArm
					{
						OFFSET 14.9198 0.0000 -5.5023
						CHANNELS 3 Zrotation Xrotation Yrotation
						JOINT LeftForeArm
						{
							OFFSET 28.7393 0.0000 -0.0026
							CHANNELS 3 Zrotation Xrotation Yrotation
							JOINT LeftHand
							{
								OFFSET 27.0940 -0.0000 0.0026
								CHANNELS 3 Zrotation Xrotation Yrotation
								JOINT LeftHandThumbEnd
								{
									OFFSET 12.2686 -3.2202 4.8331
									CHANNELS 3 Zrotation Xrotation Yrotation
									End Site
									{
										OFFSET 0.0 1.0 0.0
									}
								}
								JOINT LeftHandMiddleEnd
								{
									OFFSET 19.0120 -0.3129 -0.0340
									CHANNELS 3 Zrotation Xrotation Yrotation
									End Site
									{
										OFFSET 0.0 1.0 0.0
									}
								}
							}
						}
					}
				}
				JOINT RightShoulder
				{
					OFFSET -1.3801 23.1803 5.2142
					CHANNELS 3 Zrotation Xrotation Yrotation
					JOINT RightArm
					{
						OFFSET -15.0372 0.0000 -5.5456
						CHANNELS 3 Zrotation Xrotation Yrotation
						JOINT RightForeArm
						{
							OFFSET -28.7366 0.0000 -0.0026
							CHANNELS 3 Zrotation Xrotation Yrotation
							JOINT RightHand
							{
								OFFSET -27.1336 -0.0000 0.0026
								CHANNELS 3 Zrotation Xrotation Yrotation
								JOINT RightHandThumbEnd
								{
									OFFSET -12.2642 -3.2115 4.8040
									CHANNELS 3 Zrotation Xrotation Yrotation
									End Site
									{
										OFFSET 0.0 1.0 0.0
									}
								}
								JOINT RightHandMiddleEnd
								{
									OFFSET -19.0006 -0.3066 -0.0316
									CHANNELS 3 Zrotation Xrotation Yrotation
									End Site
									{
										OFFSET 0.0 1.0 0.0
									}
								}
							}
						}
					}
				}
			}
		}
	}
	JOINT LeftLeg
	{
		OFFSET 10.0432 -8.4345 2.5957
		CHANNELS 3 Zrotation Xrotation Yrotation
		JOINT LeftShin
		{
			OFFSET -0.0000 -43.2218 -0.8029
			CHANNELS 3 Zrotation Xrotation Yrotation
			JOINT LeftFoot
			{
				OFFSET 0.0000 -42.1551 -3.4815
				CHANNELS 3 Zrotation Xrotation Yrotation
				JOINT LeftToeBase
				{
					OFFSET 0.0000 -5.0595 13.2315
					CHANNELS 3 Zrotation Xrotation Yrotation
					End Site
					{
						OFFSET 0.0 1.0 0.0
					}
				}
			}
		}
	}
	JOINT RightLeg
	{
		OFFSET -10.0473 -8.2953 2.6203
		CHANNELS 3 Zrotation Xrotation Yrotation
		JOINT RightShin
		{
			OFFSET 0.0000 -43.3622 -0.8056
			CHANNELS 3 Zrotation Xrotation Yrotation
			JOINT RightFoot
			{
				OFFSET 0.0000 -42.1174 -3.4784
				CHANNELS 3 Zrotation Xrotation Yrotation
				JOINT RightToeBase
				{
					OFFSET -0.0000 -5.0796 13.2842
					CHANNELS 3 Zrotation Xrotation Yrotation
					End Site
					{
						OFFSET 0.0 1.0 0.0
					}
				}
			}
		}
	}
}
MOTION
Frames: 120
Frame Time: 0.033333
-1.6119 94.1770 2.5013 0.5773 2.6665 0.2618 -1.2519 2.7564 0.3700 -0.8500 -3.7417 0.8976 -1.2038 22.6165 -1.1372 -10.2551 13.9400 5.8708 1.5637 -3.8288 6.3283 -1.5953 -12.5702 8.1351 0.0624 -0.0324 -0.1085 0.7718 -10.3586 -3.9016 -0.6601 -10.3470 3.6823 -5.1160 14.5196 -7.7866 -29.7446 -28.3342 2.9210 0.9494 0.0591 -89.4633 12.1371 -8.7139 -6.9821 -15.3388 11.1359 15.9911 -60.5411 1.9588 2.0167 9.6187 17.2995 20.9499 43.3925 -18.3560 7.3074 0.0830 0.0831 105.4042 -24.7751 -14.5432 11.0266 14.8293 7.8860 -15.9922 50.0330 -3.4070 -4.7811 13.0736 -30.4182 11.4559 -0.3504 23.6345 -0.9146 -15.6157 3.5680 -7.5932 1.5939 0.1420 -1.7102 -20.7355 0.3396 -1.3475 -0.1398 11.0822 0.6101 23.7729 -9.1405 -10.3461 -1.4301 -0.1628 1.1971
-1.1638 94.3359 2.5787 1.2021 3.3049 0.4569 -1.5190 2.6584 0.3343 -0.8507 -3.7677 1.0459 -1.6059 22.4286 -1.1561 -10.4676 13.8062 5.9287 1.4617 -3.8569 6.2511 -1.5864 -12.4181 7.8411 0.0410 -0.0459 -0.0652 0.7404 -10.3570 -3.8614 -0.6723 -10.3450 3.7347 -5.0922 14.4384 -7.8268 -28.4330 -28.2906 2.0313 1.0946 -0.0535 -89.2097 11.9484 -8.7832 -7.1212 -15.2934 11.0753 15.9075 -60.8022 1.9500 1.9335 9.2860 17.3404 21.0051 43.4823 -18.5242 7.2385 -0.0376 0.1791 104.9433 -24.8721 -14.5564 10.9659 14.9393 7.8538 -16.1184 50.0830 -3.3935 -4.7959 11.8496 -30.6740 11.7665 -0.3834 23.3459 -0.9343 -15.4241 3.3860 -7.5251 1.5952 0.0981 -1.7399 -21.6468 -0.0379 -1.7379 -0.1716 10.3034 0.6137 23.8821 -8.3104 -10.4362 -1.4389 -0.3065 1.1390
-0.7156 94.4011 2.6872 1.8662 3.9404 0.7048 -1.8221 2.5750 0.3449 -0.8671 -3.7882 1.1297 -1.9374 22.3191 -1.1138 -10.6394 13.6830 6.0194 1.3736 -3.8771 6.0877 -1.6938 -12.3364 7.6195 0.0388 -0.0426 -0.0592 0.7293 -10.3597 -3.8561 -0.6652 -10.3459 3.7386 -5.0611 14.3480 -7.9090 -27.1208 -28.1145 1.1873 1.2572 -0.1492 -89.2455 11.7716 -9.2407 -7.3342 -15.2594 11.0310 15.8286 -61.0393 1.9606 1.8571 9.0372 17.3322 21.1067 43.4155 -18.5372 7.1794 -0.1583 0.1554 104.6575 -25.0355 -14.3305 10.8609 15.0431 7.8200 -16.1856 50.1014 -3.3818 -4.8268 10.6099 -31.0385 11.8451 -0.3871 23.3299 -0.9289 -15.1401 3.1233 -7.3141 1.6017 0.1463 -1.7686 -22.6550 -0.5364 -2.2149 -0.1844 9.8075 0.6093 24.1364 -7.7808 -10.3938 -1.4432 -0.3600 1.0983
-0.2138 94.3852 2.8075 2.4467 4.5123 0.9157 -2.0944 2.5271 0.3701 -0.8834 -3.8183 1.2134 -2.1800 22.3078 -1.0292 -10.7896 13.5740 6.0960 1.2693 -3.8879 5.9470 -1.8078 -12.4081 7.4416 0.0407 -0.0361 -0.0577 0.7288 -10.3670 -3.8563 -0.6614 -10.3510 3.7399 -5.0283 14.3014 -7.9658 -25.8755 -27.9331 0.3659 1.3838 -0.2697 -89.4309 11.6494 -9.7023 -7.6173 -15.2114 10.9940 15.7545 -61.1801 1.9524 1.8123 8.8868 17.3293 21.2412 43.1683 -18.4663 7.2335 -0.2553 0.1012 104.4692 -25.0902 -14.0234 10.6733 15.1183 7.7778 -16.2080 50.1262 -3.4098 -4.8516 9.5075 -31.5251 11.8097 -0.3748 23.6899 -0.9018 -14.8721 2.7974 -7.0455 1.6008 0.2146 -1.7878 -23.6023 -1.0288 -2.6358 -0.1967 9.4323 0.6064 24.5148 -7.4408 -10.3157 -1.4447 -0.4013 1.0859
0.2815 94.3039 2.9493 2.9752 5.0057 1.0825 -2.3559 2.5578 0.4187 -0.8989 -3.8349 1.2675 -2.3840 22.3572 -0.8963 -10.8565 13.4262 6.1546 1.1800 -3.8773 5.8146 -1.8666 -12.5694 7.3114 0.0366 -0.0275 -0.0457 0.7245 -10.3616 -3.8389 -0.6660 -10.3400 3.7482 -4.8696 14.2470 -7.9332 -24.7685 -27.8655 -0.3957 1.4826 -0.3873 -89.7271 11.6303 -10.3929 -7.9312 -15.2029 10.9585 15.6731 -61.2441 1.9496 1.7511 8.7235 17.3357 21.3876 42.9829 -18.3681 7.3688 -0.3595 0.0446 104.3388 -25.0320 -13.7941 10.4476 15.1331 7.7493 -16.1943 50.1155 -3.4121 -4.8749 8.4814 -32.1225 11.7630 -0.3716 24.4152 -0.8888 -14.5547 2.3715 -6.6989 1.6008 0.3303 -1.8126 -24.5298 -1.5269 -2.9646 -0.2006 9.2457 0.6062 24.9950 -7.2427 -10.2254 -1.4444 -0.3838 1.0858
0.7761 94.1642 3.0978 3.4004 5.4530 1.1965 -2.5865 2.6302 0.4500 -0.9282 -3.8189 1.3561 -2.5185 22.4338 -0.7621 -10.8226 13.2769 6.1739 1.0785 -3.8551 5.7027 -1.8917 -12.7619 7.2209 0.0298 -0.0177 -0.0322 0.7214 -10.3579 -3.8218 -0.6773 -10.3352 3.7607 -4.5273 14.1833 -7.8133 -23.9771 -27.9995 -1.0028 1.5427 -0.4056 -90.0884 11.6596 -11.2267 -8.2264 -15.1339 10.9415 15.6244 -61.2368 1.9636 1.7094 8.5498 17.3648 21.5286 42.9171 -18.2667 7.5739 -0.4295 0.0204 104.1816 -24.9754 -13.5165 10.1992 15.1527 7.7001 -16.1669 50.1075 -3.4365 -4.9022 7.5945 -32.8788 11.7146 -0.3604 25.4717 -0.8594 -14.1690 1.8119 -6.3273 1.6003 0.4825 -1.8342 -25.3657 -2.0323 -3.1964 -0.1907 9.1985 0.6173 25.5054 -7.1311 -10.1158 -1.4429 -0.3672 1.0911
1.2291 94.0171 3.2594 3.6966 5.8605 1.2329 -2.7921 2.7462 0.4869 -0.9589 -3.7758 1.4526 -2.5880 22.4867 -0.6051 -10.7261 13.1743 6.1737 0.9901 -3.8433 5.5989 -1.8601 -12.9481 7.1659 0.0216 -0.0158 -0.0156 0.7138 -10.3592 -3.8024 -0.6875 -10.3343 3.7804 -4.0124 14.1239 -7.6411 -23.4935 -28.2081 -1.4427 1.5825 -0.3724 -90.4908 11.7708 -12.0242 -8.4601 -15.0804 10.9205 15.5570 -61.2191 1.9674 1.6653 8.3635 17.4346 21.6777 43.0438 -18.0727 7.7945 -0.3874 0.0244 103.9734 -24.9728 -13.1855 9.9850 15.1484 7.6465 -16.1019 50.1188 -3.4319 -4.9120 6.8825 -33.6952 11.7072 -0.3694 26.6976 -0.8538 -13.7594 1.1981 -5.9122 1.6000 0.5880 -1.8559 -26.0481 -2.4946 -3.3063 -0.1822 9.2161 0.6399 25.9265 -7.0436 -9.9773 -1.4412 -0.4373 1.0908
1.6720 93.8712 3.4013 3.8846 6.2286 1.2371 -2.9886 2.9129 0.4967 -0.9976 -3.7007 1.5670 -2.6058 22.5285 -0.4274 -10.5186 13.1497 6.1293 0.9089 -3.8266 5.5121 -1.8258 -13.1310 7.1482 0.0119 -0.0101 -0.0006 0.7019 -10.3632 -3.7882 -0.6948 -10.3366 3.7981 -3.3064 14.0786 -7.4468 -23.2954 -28.4122 -1.7706 1.6934 -0.3120 -90.9210 11.9960 -12.9561 -8.7129 -15.0085 10.9168 15.4976 -61.1764 1.9651 1.6724 8.1140 17.5245 21.7952 43.4134 -17.7437 8.1352 -0.3355 0.0486 103.7073 -24.8941 -12.8175 9.7215 15.1439 7.5871 -16.0460 50.1423 -3.4321 -4.9033 6.3299 -34.5018 11.6907 -0.3931 27.9143 -0.8665 -13.4053 0.6253 -5.4691 1.5985 0.7117 -1.8645 -26.5930 -2.9266 -3.3991 -0.1799 9.2789 0.6943 26.2477 -6.9421 -9.8068 -1.4373 -0.5369 1.0792
2.1056 93.7637 3.5316 3.9502 6.5684 1.1901 -3.1739 3.1253 0.4972 -1.0343 -3.6069 1.6771 -2.5940 22.5507 -0.2439 -10.2082 13.2037 6.0387 0.8327 -3.8114 5.4832 -1.7916 -13.2794 7.1031 0.0030 -0.0046 0.0135 0.6871 -10.3622 -3.7713 -0.6976 -10.3335 3.8123 -2.4611 14.0473 -7.2223 -23.3657 -28.6307 -1.9733 1.8169 -0.3091 -91.3718 12.3460 -13.8390 -8.9913 -14.9560 10.9228 15.4811 -61.1004 1.9648 1.7271 7.8461 17.6175 21.8745 43.9308 -17.2036 8.6960 -0.2995 0.0981 103.3964 -24.7104 -12.4922 9.4149 15.1586 7.5572 -16.0341 50.1844 -3.4245 -4.9273 5.9651 -35.2480 11.6271 -0.4130 29.0461 -0.8783 -13.1241 0.0979 -4.9878 1.5963 0.8718 -1.8601 -26.9684 -3.3460 -3.3744 -0.1819 9.4485 0.7366 26.4673 -6.8527 -9.6825 -1.4343 -0.6250 1.0711
2.5009 93.6789 3.6752 3.9501 6.8874 1.1108 -3.3750 3.3885 0.5064 -1.0624 -3.5049 1.7459 -2.5780 22.5595 -0.0464 -9.8585 13.3421 5.8985 0.7800 -3.8104 5.4973 -1.7554 -13.4475 7.0405 -0.0005 -0.0023 0.0176 0.6769 -10.3611 -3.7651 -0.6940 -10.3357 3.8143 -1.4520 14.0591 -7.0076 -23.8391 -28.9562 -1.9626 1.9524 -0.3690 -91.8558 12.7353 -14.6238 -9.2451 -14.9299 10.9112 15.4545 -61.0661 1.9608 1.7773 7.5020 17.6634 21.8854 44.6713 -16.4383 9.4085 -0.2719 0.1328 103.1231 -24.3893 -12.0916 8.9674 15.1768 7.5286 -16.0245 50.2627 -3.4219 -4.9434 5.7132 -35.9314 11.5000 -0.4453 30.0652 -0.9071 -12.8974 -0.3683 -4.4738 1.5943 1.0094 -1.8395 -27.2168 -3.7637 -3.1906 -0.1817 9.7717 0.7857 26.6050 -6.7999 -9.6206 -1.4331 -0.7198 1.0781
2.8370 93.6312 3.7782 3.9053 7.1516 0.9985 -3.5756 3.6802 0.4962 -1.0952 -3.3670 1.8094 -2.5831 22.5796 0.1114 -9.4899 13.5052 5.7244 0.7183 -3.8224 5.5283 -1.7219 -13.5706 6.9998 -0.0022 0.0023 0.0205 0.6667 -10.3521 -3.7606 -0.6864 -10.3279 3.8140 -0.4170 14.0636 -6.8191 -24.5826 -29.4799 -1.7596 1.9991 -0.4700 -92.2985 13.1434 -15.3758 -9.4725 -14.9703 10.8706 15.4124 -60.9916 1.9427 1.7808 7.1786 17.6959 21.8502 45.5135 -15.6508 10.2730 -0.2678 0.2167 102.8182 -24.0337 -11.6993 8.4988 15.2390 7.4841 -16.0278 50.2998 -3.4379 -4.9831 5.5922 -36.4750 11.2357 -0.4681 30.8895 -0.9129 -12.7292 -0.7021 -3.8849 1.5977 1.1608 -1.8289 -27.3991 -4.2210 -2.8214 -0.1786 10.3765 0.8453 26.6635 -6.7181 -9.5853 -1.4366 -0.8843 1.0941
3.1118 93.6371 3.8808 3.8097 7.3595 0.7255 -3.7581 3.9922 0.5321 -1.1015 -3.2728 1.7892 -2.6197 22.7236 0.3225 -9.1426 13.5756 5.6309 0.6452 -3.7256 5.4929 -1.7317 -13.7091 6.9700 -0.0201 0.0060 0.0574 0.6506 -10.3534 -3.7285 -0.7061 -10.3369 3.8605 0.4949 14.1309 -6.7675 -25.4597 -30.1787 -1.3707 1.9448 -0.2395 -92.7284 13.7401 -16.0482 -9.7408 -15.1021 10.7238 15.3320 -60.9558 1.8421 1.7950 6.9597 17.7642 21.8194 46.2913 -15.0606 11.0993 -0.1229 0.2988 102.4643 -23.8544 -11.3455 8.1166 15.3830 7.4731 -16.1188 50.3620 -3.4278 -5.0290 5.6446 -36.9657 10.9072 -0.4947 31.6717 -0.9237 -12.5654 -0.8823 -3.3019 1.6044 1.1833 -1.8154 -27.5001 -5.0221 -2.2539 -0.1696 11.6665 0.8593 26.5632 -6.5676 -9.4673 -1.4569 -1.1506 1.0816
3.3197 93.5443 3.8597 3.6425 7.4712 0.3865 -3.9344 4.3325 0.5460 -1.1513 -3.1371 1.7735 -2.6353 22.8797 0.4010 -8.8314 13.5445 5.6286 0.5911 -3.7256 5.4594 -1.7099 -13.6898 6.9671 -0.0155 0.0067 0.0513 0.6521 -10.3435 -3.7344 -0.6978 -10.3271 3.8507 1.2105 14.1601 -6.7622 -26.3197 -30.8454 -0.9482 1.9471 -0.0937 -93.2630 14.2732 -16.6215 -9.8275 -15.1677 10.7339 15.2833 -61.0567 1.8369 1.7564 6.7860 17.8756 21.8085 47.0781 -14.6553 12.0817 -0.0286 0.3912 102.0739 -23.5671 -10.7802 7.6664 15.4163 7.4392 -16.0971 50.3475 -3.3977 -5.0401 5.9197 -37.3566 10.3796 -0.4748 32.4336 -0.8867 -12.4914 -1.1415 -2.6728 1.6031 1.2298 -1.7957 -27.5349 -5.9255 -1.5865 -0.1515 13.2875 0.9322 26.4818 -6.8704 -9.2790 -1.4650 -1.2985 1.0935
3.4101 93.3619 3.8078 3.3922 7.4370 -0.0048 -4.0512 4.6963 0.5065 -1.2351 -2.9502 1.7657 -2.6706 23.0416 0.3374 -8.5826 13.4397 5.6823 0.5657 -3.8108 5.5262 -1.7681 -13.4783 7.0770 0.0127 0.0057 -0.0016 0.6729 -10.3327 -3.7771 -0.6626 -10.3148 3.7807 1.7037 14.0756 -6.8154 -26.9279 -31.1553 -0.7158 2.2359 -0.2583 -93.9678 14.7716 -17.5405 -9.9997 -15.1959 10.8858 15.2812 -61.2993 1.9361 1.7139 6.5855 18.0471 21.7681 47.8940 -14.5331 13.1752 0.1229 0.4108 101.8396 -23.0441 -10.2239 7.0792 15.3818 7.3568 -15.9744 50.2018 -3.3909 -5.0563 6.4611 -37.6440 9.7074 -0.4523 33.2383 -0.8616 -12.5560 -1.5345 -1.9303 1.6015 1.3785 -1.8205 -27.4415 -6.8177 -0.5908 -0.1485 15.3868 1.0211 26.4397 -7.7276 -9.1666 -1.4545 -1.3629 1.1247
3.3322 93.1510 3.6592 3.0232 7.2412 -0.5073 -4.1134 5.0856 0.4688 -1.3152 -2.7877 1.7224 -2.6999 23.2806 0.2763 -8.4421 13.2948 5.6831 0.5876 -3.7683 5.6771 -1.9045 -13.3337 7.4360 0.0103 0.0070 -0.0013 0.6800 -10.3361 -3.7754 -0.6737 -10.3185 3.7787 2.1609 14.0508 -7.0064 -27.5011 -31.5562 -0.4730 2.4216 -0.3319 -94.7939 15.5980 -18.6829 -10.5037 -15.3065 10.8938 15.2970 -61.3435 1.8707 1.7786 6.2313 18.2162 21.5869 48.9801 -14.5613 14.3090 0.3441 0.3716 101.8222 -22.6358 -10.0881 6.6621 15.4124 7.3027 -15.9243 50.1979 -3.4099 -5.0645 7.3389 -37.9415 9.0250 -0.4689 34.2091 -0.8752 -12.7578 -1.7978 -1.3424 1.6058 1.4750 -1.8634 -27.1751 -7.9899 0.5795 -0.1355 18.3203 1.1077 26.3207 -8.5550 -9.0618 -1.4535 -1.4468 1.1239
3.0770 92.9042 3.4609 2.5259 6.8777 -1.0549 -4.1533 5.5047 0.4347 -1.3851 -2.6144 1.6217 -2.7221 23.4875 0.1535 -8.3258 13.1894 5.6988 0.6155 -3.7276 6.0018 -2.1021 -13.1825 7.9205 0.0067 0.0059 0.0013 0.6826 -10.3442 -3.7728 -0.6838 -10.3321 3.7833 2.6116 14.0229 -7.3023 -28.1171 -31.8693 -0.1598 2.5186 -0.4399 -95.7712 16.6055 -19.7569 -11.1396 -15.4616 10.8773 15.3105 -61.3567 1.8181 1.8115 5.8151 18.3560 21.3605 50.4757 -14.6740 15.3904 0.5241 0.3559 102.0726 -22.3058 -10.1915 6.2357 15.4962 7.2215 -15.9056 50.1855 -3.4847 -5.0823 8.5014 -38.1453 8.3850 -0.5112 35.1550 -0.9414 -13.0773 -2.0100 -0.9213 1.6102 1.6648 -1.8762 -26.7280 -9.1455 1.7678 -0.0827 21.4641 1.2135 26.3079 -9.4831 -8.6617 -1.4586 -1.5397 1.1474
2.6231 92.6393 3.1934 1.9273 6.3456 -1.6428 -4.1585 5.9071 0.4013 -1.4371 -2.4548 1.4744 -2.7278 23.6886 -0.0004 -8.3279 13.1106 5.7534 0.7011 -3.7087 6.4438 -2.2862 -12.9583 8.5189 0.0002 0.0049 0.0092 0.6802 -10.3567 -3.7675 -0.6951 -10.3487 3.7984 2.9324 14.0979 -7.6815 -28.6498 -32.0371 0.0922 2.6198 -0.4995 -96.8543 17.6032 -20.5193 -11.7581 -15.5926 10.8221 15.2973 -61.2665 1.7555 1.8534 5.5069 18.5042 21.1117 52.1737 -14.7810 16.3192 0.6937 0.3366 102.6223 -21.9556 -10.1577 5.6868 15.5887 7.1421 -15.8908 50.1701 -3.5376 -5.0856 9.9484 -38.1926 7.7062 -0.5676 36.0126 -1.0311 -13.4698 -2.1514 -0.5536 1.6150 1.8236 -1.8712 -26.0886 -10.2744 2.8875 -0.0150 24.7081 1.3144 26.2108 -10.3726 -8.0256 -1.4691 -1.7122 1.1707
1.9978 92.3255 2.8449 1.3098 5.6287 -2.2695 -4.1362 6.2636 0.3390 -1.4764 -2.2867 1.3323 -2.7270 23.8467 -0.1790 -8.5006 13.0950 5.7954 0.8848 -3.7302 7.0079 -2.4704 -12.6484 9.2351 -0.0038 0.0056 0.0103 0.6812 -10.3616 -3.7680 -0.7031 -10.3603 3.8016 3.1090 14.2354 -8.1208 -29.1147 -32.0287 0.2532 2.6295 -0.5282 -97.9568 18.5053 -20.8036 -12.2064 -15.7171 10.7898 15.3342 -61.1136 1.7075 1.9464 5.3495 18.6503 20.7579 53.9203 -14.6970 17.1248 0.8229 0.3442 103.4855 -21.3622 -9.8285 4.8620 15.6520 7.1029 -15.9132 50.1503 -3.5681 -5.0953 11.5976 -38.0060 6.9718 -0.6044 36.7381 -1.0990 -13.9575 -2.2143 -0.2157 1.6177 1.9659 -1.8451 -25.3197 -11.3113 3.9116 0.0575 27.9491 1.4250 25.9897 -11.2334 -7.3393 -1.4785 -1.8918 1.1846
1.2442 91.9737 2.4682 0.7816 4.6954 -2.8893 -4.0722 6.5817 0.3011 -1.5001 -2.1344 1.1199 -2.7418 23.9769 -0.4188 -8.9212 13.1777 5.8437 1.1604 -3.7806 7.6867 -2.6968 -12.2324 10.0798 0.0008 0.0108 -0.0010 0.6897 -10.3763 -3.7824 -0.7021 -10.3816 3.7929 3.0318 14.4030 -8.6175 -29.5963 -31.8403 0.4059 2.6127 -0.6018 -99.0372 19.3338 -20.7816 -12.5307 -15.7998 10.7879 15.3851 -60.9816 1.6706 2.0253 5.2572 18.8150 20.3689 55.5975 -14.3770 17.6444 1.0218 0.3043 104.6999 -20.6575 -9.2881 3.8815 15.7423 7.0606 -15.9776 50.1119 -3.5963 -5.1014 13.2804 -37.5359 6.2711 -0.6437 37.3736 -1.1727 -14.5341 -2.2660 0.0495 1.6175 2.0717 -1.8077 -24.5409 -12.1974 4.9486 0.1329 31.3120 1.5411 25.7218 -12.1383 -6.5670 -1.4918 -2.1765 1.2102
0.3481 91.6125 2.1113 0.4764 3.4917 -3.4565 -3.9730 6.8335 0.2654 -1.5024 -2.0750 0.8640 -2.8244 24.1902 -0.6454 -9.4449 13.3313 5.9375 1.4179 -3.7292 8.3890 -2.9747 -11.8279 10.9927 -0.0118 0.0147 0.0121 0.6914 -10.4119 -3.7820 -0.7290 -10.4291 3.8235 2.6604 14.6561 -9.1730 -30.1981 -31.6904 0.5026 2.4026 -0.4563 -99.8756 20.2490 -20.6314 -12.8579 -15.8581 10.7551 15.4384 -60.7817 1.5962 2.1421 5.2171 18.9951 19.9145 57.0333 -13.6306 17.8003 1.1973 0.2340 106.2859 -20.0295 -8.7902 2.9931 15.8170 7.0533 -16.1124 50.1503 -3.5646 -5.1313 14.8195 -36.6885 5.6905 -0.6693 37.9103 -1.2278 -15.1888 -2.2608 0.1193 1.6181 2.0254 -1.7806 -23.9266 -12.8580 5.9956 0.2359 34.9020 1.6465 25.4149 -12.9254 -5.8203 -1.5240 -2.5112 1.2158
-0.6599 91.1543 1.8145 0.4701 1.9474 -3.8383 -3.8193 6.9892 0.2343 -1.5052 -2.0164 0.5988 -2.9158 24.4161 -0.9736 -10.2179 13.6848 6.1122 1.7030 -3.7669 9.1176 -3.2721 -11.3847 11.8901 -0.0122 0.0157 0.0073 0.6912 -10.4294 -3.7912 -0.7302 -10.4566 3.8264 1.9270 14.7926 -9.6944 -30.9850 -31.2868 0.3951 2.2147 -0.3060 -100.4091 21.0765 -20.6186 -13.2068 -15.8128 10.8312 15.4949 -60.7148 1.5881 2.1604 5.1995 19.2818 19.4592 58.0030 -12.5108 17.4935 1.3510 0.1919 108.2377 -19.3259 -8.3517 2.1025 15.8470 7.0452 -16.1427 50.2147 -3.5476 -5.1193 16.0184 -35.3832 5.3180 -0.7005 38.3259 -1.3093 -15.8933 -2.4226 0.0123 1.6142 2.0552 -1.7462 -23.5556 -13.0317 6.9737 0.3584 38.5182 1.8164 25.1801 -14.2414 -4.8664 -1.5386 -2.8741 1.2537
-1.7867 90.6270 1.6404 0.7749 0.0417 -3.9742 -3.5893 7.0395 0.2020 -1.4695 -2.0097 0.3568 -3.0222 24.6182 -1.3235 -11.2035 14.2139 6.4114 2.0190 -3.8054 9.8026 -3.5342 -10.8181 12.8085 -0.0146 0.0124 0.0080 0.6856 -10.4463 -3.7908 -0.7299 -10.4782 3.8299 0.9174 14.9073 -10.1079 -31.8550 -30.5806 -0.1856 2.0258 -0.1099 -100.4539 21.8376 -20.8699 -13.7327 -15.7565 10.9118 15.6013 -60.6363 1.5734 2.1872 5.2210 19.7355 18.9764 58.2664 -10.9166 16.5948 1.5152 0.1668 110.4593 -18.3991 -8.4062 1.4342 15.8911 7.0704 -16.1897 50.3004 -3.5334 -5.1292 16.8328 -33.6186 5.2727 -0.7458 38.6605 -1.4126 -16.6094 -2.7340 -0.4077 1.6194 2.0489 -1.7484 -23.4273 -12.5894 7.7327 0.4973 42.0147 2.0266 24.9418 -15.6448 -3.8262 -1.5479 -3.3630 1.2700
-3.0241 89.9933 1.6573 1.3748 -2.1862 -3.7028 -3.2882 7.0065 0.1422 -1.3813 -2.0539 0.1288 -3.0605 24.6360 -1.6566 -12.4152 14.8696 6.7132 2.4344 -3.8751 10.5116 -3.6936 -10.1083 13.7155 -0.0190 0.0071 0.0096 0.6793 -10.4706 -3.7890 -0.7336 -10.4947 3.8355 -0.2304 15.0317 -10.4165 -32.6759 -29.2743 -1.3278 1.9346 0.0495 -100.0119 22.4386 -21.4523 -14.4469 -15.6803 11.0063 15.7332 -60.6679 1.5300 2.2176 5.1847 20.3386 18.4508 57.6539 -8.5905 15.0424 1.6130 0.2542 113.0214 -17.0064 -8.9477 1.0510 15.9724 7.1266 -16.2507 50.4822 -3.5175 -5.0969 17.2672 -31.5698 5.5056 -0.8059 39.0576 -1.5217 -17.2909 -3.2759 -1.2493 1.6200 2.0684 -1.7398 -23.4597 -11.3017 8.1215 0.6237 45.1216 2.2149 24.7862 -17.3739 -2.8482 -1.5529 -3.8628 1.2774
-4.3581 89.2698 1.8230 2.2124 -4.4671 -2.8104 -2.9325 6.8376 0.0914 -1.2692 -2.1884 -0.0922 -2.9922 24.3861 -1.9705 -13.6001 15.4295 6.9157 2.9338 -3.9500 11.1294 -3.7438 -9.3737 14.5537 -0.0174 0.0019 -0.0003 0.6829 -10.4989 -3.8011 -0.7356 -10.5081 3.8305 -1.3625 15.1444 -10.7155 -33.0284 -27.5612 -2.9399 1.7349 0.2085 -99.0123 22.8274 -22.6941 -15.3210 -15.6608 11.0576 15.8172 -60.8100 1.5378 2.2398 5.2107 21.0149 17.8873 55.6431 -5.4144 12.7126 1.7041 0.4693 116.0011 -15.1146 -10.0217 1.1495 15.9895 7.2234 -16.3079 50.6845 -3.5422 -5.0489 17.3798 -29.6661 5.7828 -0.8513 39.5559 -1.5910 -17.8951 -3.8516 -2.6399 1.6174 2.0346 -1.6965 -23.5957 -9.2622 7.9718 0.6873 47.6190 2.2900 24.7364 -19.7159 -2.4423 -1.5576 -4.0455 1.2888
-5.7466 88.5074 2.1291 3.1042 -6.5742 -1.1329 -2.4892 6.4198 0.0529 -1.1269 -2.4371 -0.2518 -2.7965 23.9306 -2.3155 -14.5962 15.6677 7.0766 3.4190 -3.9862 11.5415 -3.6515 -8.6714 15.2765 -0.0106 -0.0045 -0.0170 0.6920 -10.5293 -3.8241 -0.7335 -10.5274 3.8247 -2.4919 15.2187 -11.1421 -32.6440 -25.6715 -5.0426 1.5356 0.2822 -97.2715 23.2085 -24.9038 -16.4545 -15.6837 11.0948 15.8359 -61.0365 1.5983 2.2644 5.5292 21.6151 17.3636 51.6252 -1.4934 9.1497 1.8771 1.0416 119.4013 -12.4291 -11.9152 2.2171 15.9088 7.3476 -16.4009 50.8110 -3.5891 -4.9786 17.2986 -28.1738 5.8525 -0.8616 39.9989 -1.6056 -18.4250 -4.2743 -4.5122 1.6135 1.8538 -1.6254 -23.5788 -6.6681 7.2011 0.6463 49.3122 2.1952 24.7546 -22.5915 -3.1106 -1.5604 -3.7081 1.3039
-7.1024 87.7847 2.4545 3.9193 -8.4861 1.1854 -1.9710 5.7457 0.0130 -0.9676 -2.7300 -0.3460 -2.5435 23.3649 -2.6896 -15.2375 15.4254 7.2014 3.6795 -3.9557 11.8510 -3.3426 -7.9956 15.6842 -0.0005 -0.0102 -0.0411 0.6994 -10.5536 -3.8594 -0.7212 -10.5504 3.8112 -3.5293 15.1711 -11.7578 -31.6553 -23.8705 -7.5255 1.4921 0.2784 -94.6266 23.8267 -27.7701 -17.8060 -15.7238 11.1163 15.8308 -61.2635 1.6505 2.3034 6.1008 22.1734 16.9757 45.2871 2.3686 4.1112 2.3108 1.7896 123.0495 -9.5296 -14.8819 4.6963 15.8374 7.4261 -16.4218 50.7705 -3.6362 -4.8491 17.1212 -27.0784 5.6276 -0.8910 40.2873 -1.6165 -18.8235 -4.4295 -6.6508 1.6114 1.5048 -1.5680 -23.3241 -3.6360 6.0227 0.5388 50.0812 1.9935 25.0085 -25.6824 -4.8185 -1.5536 -2.8603 1.3167
-8.3534 87.0757 2.7879 4.6039 -10.2569 3.5937 -1.4542 4.9977 -0.0426 -0.8054 -3.0320 -0.4412 -2.2790 22.6459 -2.8277 -15.4893 14.7214 7.3351 3.6219 -3.8436 12.1485 -2.8729 -7.3547 15.6497 0.0042 -0.0171 -0.0509 0.7065 -10.5589 -3.8808 -0.7191 -10.5629 3.8151 -4.2820 15.0458 -12.4974 -30.6950 -22.4056 -10.0742 1.5543 0.2801 -91.2099 24.6118 -30.4889 -18.9057 -15.7329 11.1062 15.7573 -61.3700 1.6757 2.3503 6.5232 22.7267 16.7047 37.2674 5.1547 -1.4696 3.0393 2.5779 126.5240 -7.6096 -18.7493 8.1538 15.7398 7.4365 -16.4517 50.5253 -3.6578 -4.7786 16.9422 -26.2393 5.3722 -0.9454 40.5512 -1.6291 -19.1538 -4.4417 -8.7042 1.6120 1.0291 -1.5477 -22.9095 -0.4819 4.7761 0.3812 50.1874 1.7097 25.5240 -28.6753 -6.9762 -1.5385 -1.7621 1.3206
-9.4542 86.4096 3.0394 5.1158 -11.8964 5.5230 -0.9949 4.3353 -0.0634 -0.6464 -3.2820 -0.5312 -1.9889 21.7523 -2.7028 -15.5787 13.5944 7.4334 3.4256 -3.7936 12.4608 -2.3115 -6.6960 15.2806 0.0050 -0.0154 -0.0417 0.7219 -10.5509 -3.8755 -0.7334 -10.5638 3.8360 -4.6650 14.7358 -13.1410 -30.3441 -21.5216 -12.3144 1.5866 0.1849 -87.3290 25.5437 -32.7995 -19.7817 -15.7501 11.1319 15.6605 -61.3427 1.7729 2.3939 6.3388 23.1681 16.5451 29.0512 6.5497 -6.0328 3.7342 3.3222 129.4593 -6.9977 -23.0389 12.0479 15.5427 7.4369 -16.2969 50.1310 -3.5191 -4.7551 16.9575 -25.4634 5.1882 -0.9971 40.8697 -1.6450 -19.5673 -4.4619 -10.2872 1.5995 0.6610 -1.5273 -22.3915 2.4075 3.8372 0.2472 50.1117 1.5659 26.0430 -31.7483 -8.8546 -1.5038 -0.7767 1.3567
-10.3985 85.8103 3.1875 5.4887 -13.3205 6.4768 -0.5963 3.8457 -0.1002 -0.5145 -3.4400 -0.5633 -1.7444 20.8536 -2.4355 -15.4433 11.9702 7.4978 3.2196 -3.7004 12.6119 -1.9544 -6.0303 14.9472 0.0132 -0.0004 -0.0527 0.7616 -10.5244 -3.9014 -0.7551 -10.5493 3.8368 -4.7041 14.4649 -13.7202 -30.7273 -21.7802 -13.6882 1.5400 0.3720 -83.3663 26.6491 -34.7366 -20.6007 -15.8053 11.1425 15.7408 -61.2335 1.7549 2.5118 5.5738 23.4225 16.7868 21.8097 6.5850 -8.5253 3.9933 3.8733 131.3793 -7.1372 -26.6155 15.5445 15.3267 7.4136 -16.2414 49.5774 -3.5336 -4.8152 17.2831 -24.6550 5.1643 -1.0316 41.1947 -1.6443 -20.1059 -4.4678 -11.2335 1.5925 0.4148 -1.5514 -22.0277 4.0822 3.4310 0.2306 51.0528 1.4737 26.1862 -33.7390 -9.6406 -1.4780 -0.3718 1.3540
-11.2221 85.2774 3.1767 5.8254 -14.3775 6.3456 -0.2944 3.5488 -0.1402 -0.4295 -3.5047 -0.5304 -1.6182 19.9882 -2.2125 -15.0164 10.1086 7.5152 3.0990 -3.6301 12.4113 -1.8415 -5.2506 14.5804 0.0251 0.0129 -0.0773 0.7996 -10.4917 -3.9364 -0.7678 -10.5214 3.8155 -4.6320 14.1243 -14.3136 -31.7288 -23.1291 -13.8576 1.3695 0.5143 -79.4892 28.1350 -36.3610 -21.5518 -15.8565 11.1668 15.8116 -61.3246 1.7588 2.5784 4.3417 23.2900 17.2616 15.8110 5.8164 -8.7269 3.6521 4.0786 132.0920 -7.3100 -28.6975 18.3664 15.0902 7.4799 -16.1784 49.0893 -3.5413 -4.9361 17.8394 -23.8131 5.1964 -1.0069 41.4449 -1.5937 -20.7017 -4.6144 -11.5132 1.5804 0.2672 -1.5734 -21.8585 4.7900 3.5650 0.2831 52.2663 1.4775 25.9577 -35.4783 -9.4935 -1.4591 -0.1908 1.3446
-11.9315 84.8325 3.0369 6.2029 -14.9740 5.1854 -0.0657 3.4324 -0.1456 -0.4026 -3.5039 -0.5497 -1.6584 19.3304 -2.1686 -14.4122 8.2267 7.4660 3.0017 -3.5751 11.9105 -2.0187 -4.5140 14.2385 0.0346 0.0132 -0.1031 0.8236 -10.4630 -3.9699 -0.7718 -10.4984 3.7918 -4.7856 13.7564 -15.0260 -32.8316 -25.2116 -12.7916 1.2040 0.5888 -75.8873 30.1756 -37.9056 -22.9624 -15.7633 11.1245 15.7629 -61.2837 1.7736 2.5254 2.8032 22.7982 17.8340 10.8282 4.0178 -7.3847 3.0772 3.9389 131.8408 -7.4870 -29.2294 20.6251 14.9357 7.5899 -16.0818 48.7042 -3.5257 -5.0523 18.5186 -22.9767 5.3834 -0.9705 41.4807 -1.5545 -21.3554 -4.7798 -11.1720 1.5696 0.0852 -1.6138 -21.9072 4.4440 4.2615 0.3802 53.7947 1.5463 25.2731 -36.9072 -8.4976 -1.4435 -0.1175 1.3205
-12.5065 84.4662 2.7416 6.6588 -15.0648 3.0875 0.0389 3.5072 -0.1886 -0.4049 -3.4316 -0.6197 -1.8903 18.8615 -2.3950 -13.5783 6.5108 7.2263 2.8682 -3.5199 11.2079 -2.5137 -3.9279 13.8853 0.0416 0.0059 -0.1186 0.8300 -10.4067 -3.9818 -0.7641 -10.4470 3.7692 -5.0824 13.5303 -15.7934 -33.8623 -27.4760 -10.6423 1.1462 0.6841 -72.7747 32.4859 -39.2050 -24.6825 -15.6096 11.0303 15.6370 -61.0690 1.7814 2.4065 0.8336 22.0758 18.2802 6.7411 1.3426 -5.1704 2.3450 3.6810 130.9397 -7.7996 -28.2868 22.5118 14.8829 7.7310 -15.9772 48.5316 -3.4464 -5.1369 19.2254 -22.1697 5.7287 -0.9460 41.2639 -1.5579 -22.1512 -4.9325 -10.3337 1.5576 -0.0567 -1.6643 -22.1759 3.1062 5.5624 0.5163 55.5318 1.6760 24.3545 -37.9770 -6.9392 -1.4347 -0.0905 1.2923
-12.8993 84.2068 2.2813 7.0920 -14.7254 0.1513 0.0560 3.7983 -0.2795 -0.4144 -3.3078 -0.7722 -2.2590 18.5570 -2.8857 -12.4302 5.1713 6.7546 2.6659 -3.4783 10.2440 -3.3681 -3.5708 13.2574 0.0476 -0.0056 -0.1032 0.8298 -10.3802 -3.9624 -0.7523 -10.4195 3.7770 -5.3805 13.6026 -16.4947 -34.7555 -29.4867 -7.6497 1.1435 0.7615 -70.2490 34.5285 -40.2386 -26.2677 -15.3868 10.9091 15.4301 -60.7352 1.7651 2.2514 -1.6171 21.1593 18.4626 3.1295 -2.1882 -2.7916 1.3839 3.2142 129.5944 -8.4867 -25.4714 24.4533 15.0320 7.7978 -15.8763 48.5990 -3.3460 -5.2208 19.9827 -21.3724 6.1617 -0.9423 40.9014 -1.6069 -23.1112 -5.1533 -8.9772 1.5446 -0.1637 -1.7114 -22.5706 0.9302 7.3549 0.6953 57.3293 1.8706 23.2921 -38.6360 -4.8462 -1.4310 -0.0535 1.2497
-13.1096 84.0369 1.7822 7.4275 -14.0260 -3.3458 -0.0021 4.2593 -0.4218 -0.4310 -3.1570 -0.9857 -2.7002 18.3713 -3.6051 -10.9962 4.4210 6.1461 2.4040 -3.4548 9.1076 -4.4765 -3.4738 12.3719 0.0495 -0.0152 -0.0640 0.8169 -10.3847 -3.9187 -0.7364 -10.4164 3.8072 -5.4959 13.9179 -17.0176 -35.7584 -30.5593 -4.1282 1.0883 0.7863 -68.4621 35.8169 -40.8250 -27.2984 -15.2680 10.8834 15.2380 -60.5736 1.7720 2.1394 -4.4580 20.0629 18.1874 -0.1347 -6.6143 -0.9671 0.5296 2.6999 127.9576 -9.9894 -21.0036 26.4314 15.4925 7.8580 -15.9078 49.2148 -3.2063 -5.3466 20.7962 -20.5423 6.5882 -0.9280 40.4214 -1.6562 -24.1826 -5.4265 -7.1432 1.5360 -0.1742 -1.7615 -23.0342 -1.7688 9.4816 0.8691 58.9185 2.0575 22.3562 -38.9077 -2.4869 -1.4303 0.0527 1.1814
-13.1098 83.9638 1.3044 7.6068 -13.0229 -7.1584 -0.1460 4.8049 -0.5829 -0.4774 -3.0118 -1.2818 -3.1505 18.3028 -4.4073 -9.4432 4.2088 5.4749 2.1329 -3.4753 8.0641 -5.5621 -3.6328 11.6066 0.0456 -0.0249 -0.0141 0.7928 -10.4265 -3.8609 -0.7212 -10.4470 3.8451 -5.4196 14.2612 -17.2147 -36.9833 -30.0060 -0.5872 1.0301 0.6603 -67.7681 36.2904 -40.8220 -27.6902 -15.2520 10.9391 15.1434 -60.6447 1.8463 2.1167 -7.2678 18.9093 17.3588 -3.0595 -11.6025 -0.2997 -0.1969 2.1486 126.1136 -12.4371 -15.2147 27.8198 16.0489 7.9794 -16.1074 50.2460 -3.0637 -5.5104 21.5778 -19.7811 7.0600 -0.9136 39.9939 -1.6945 -25.1972 -5.7467 -4.9636 1.5261 -0.0911 -1.7869 -23.4426 -4.6977 11.8223 0.9995 60.1191 2.1664 21.5745 -38.7719 -0.2239 -1.4290 0.1574 1.0973
-12.9420 84.0102 0.9286 7.6377 -11.8051 -10.9825 -0.3731 5.3768 -0.7394 -0.5617 -2.8734 -1.6781 -3.6477 18.2770 -5.2606 -7.8373 4.3668 4.8788 1.8430 -3.5447 7.2507 -6.4057 -4.0450 11.0466 0.0380 -0.0391 0.0152 0.7735 -10.4552 -3.8163 -0.7183 -10.4715 3.8586 -5.2502 14.4717 -17.0931 -38.5246 -27.7666 2.5853 0.9742 0.5637 -68.2710 36.1535 -40.0993 -27.4877 -15.3806 11.0156 15.1504 -60.8317 1.9696 2.1885 -9.8236 17.7043 16.0189 -5.0568 -16.6868 -1.2135 -0.6122 1.6354 124.2993 -15.8907 -8.6154 27.9305 16.3052 8.0648 -16.2713 50.9714 -3.0332 -5.6462 22.2776 -19.0760 7.5353 -0.8814 39.5463 -1.7197 -26.1887 -6.1285 -2.6850 1.5154 0.0503 -1.7865 -23.8039 -7.5492 14.2877 1.0885 60.8493 2.2383 21.0834 -38.3478 1.6213 -1.4275 0.2541 1.0523
-12.6373 84.1924 0.7302 7.5242 -10.4616 -14.5987 -0.7223 5.8968 -0.9598 -0.6818 -2.7051 -2.0736 -4.1746 18.2531 -6.1771 -6.2293 4.7549 4.4324 1.5915 -3.6547 6.5691 -6.9883 -4.6111 10.7326 0.0314 -0.0594 0.0171 0.7675 -10.4746 -3.8006 -0.7258 -10.4863 3.8414 -5.1299 14.5394 -16.7510 -40.1943 -24.2485 4.9938 0.9150 0.4868 -69.8165 35.3904 -38.3124 -26.4975 -15.6603 11.0406 15.1688 -61.1846 2.0879 2.2655 -11.7457 16.5201 14.3248 -5.7143 -21.3440 -3.5881 -0.8012 1.0963 122.5394 -20.1455 -1.7135 26.8002 16.0813 7.9415 -16.2870 50.7882 -3.1323 -5.7328 22.8227 -18.4504 8.0592 -0.8223 39.0530 -1.6971 -27.0461 -6.4953 -0.5358 1.5085 0.2456 -1.7840 -24.0777 -10.1611 16.6823 1.1603 61.0657 2.3221 20.8001 -37.6152 3.0079 -1.4220 0.3419 1.0259
-12.2680 84.4584 0.6673 7.2093 -9.0837 -17.8738 -1.1367 6.3226 -1.1886 -0.8411 -2.5761 -2.5405 -4.6517 18.2536 -7.0999 -4.7043 5.3817 4.0367 1.4183 -3.7877 6.1616 -7.3075 -5.1778 10.5925 0.0249 -0.0794 0.0170 0.7687 -10.4746 -3.7857 -0.7396 -10.4789 3.8228 -4.9467 14.5062 -16.3649 -41.8912 -19.8756 6.4147 0.7715 0.5399 -72.1013 33.9577 -35.4518 -24.7068 -15.9147 10.8408 15.0535 -61.4735 2.0968 2.2783 -12.9704 15.4035 12.5195 -4.8267 -25.0198 -6.8511 -0.8165 0.8989 120.7275 -24.9033 4.3512 24.8069 15.7123 7.7143 -16.3399 50.1102 -3.3627 -5.8355 23.3226 -17.8561 8.4912 -0.7509 38.4640 -1.6767 -27.8926 -6.8369 1.5168 1.5059 0.4381 -1.7894 -24.2196 -12.3954 18.9327 1.1700 60.7838 2.3325 20.6611 -36.7399 3.9801 -1.4171 0.4307 1.0099
-11.7952 84.7915 0.7608 6.6928 -7.7833 -20.7547 -1.5669 6.6597 -1.4245 -0.9887 -2.4878 -3.0005 -4.9966 18.2702 -7.9160 -3.4873 6.2654 3.6383 1.3567 -3.8672 6.0641 -7.3702 -5.7288 10.6226 0.0133 -0.0961 0.0262 0.7531 -10.4663 -3.7598 -0.7454 -10.4644 3.8134 -4.4813 14.5416 -15.9989 -43.5070 -15.5656 6.6032 0.5994 0.7804 -74.8932 32.3309 -32.0086 -22.7483 -15.9918 10.5396 14.9671 -61.7398 2.0894 2.2292 -13.5967 14.4382 10.8307 -2.7346 -28.0845 -10.0869 -0.3749 1.1782 118.9336 -29.1727 7.8173 23.0105 15.6551 7.4494 -16.4140 49.6539 -3.5391 -5.9814 23.7741 -17.2909 8.7816 -0.6491 37.8502 -1.6175 -28.6320 -7.0501 3.3372 1.5120 0.5686 -1.8116 -24.2043 -14.2357 20.8377 1.1206 60.0015 2.3021 20.6316 -35.6587 4.7059 -1.4082 0.5187 0.9668
-11.2787 85.1830 0.9850 6.0900 -6.7684 -23.2576 -1.9501 6.9560 -1.6234 -1.0727 -2.4132 -3.3655 -5.2362 18.2522 -8.5287 -2.7146 7.4649 3.3388 1.3654 -3.8902 6.2471 -7.2849 -6.1786 10.6963 0.0043 -0.0995 0.0301 0.7319 -10.4549 -3.7451 -0.7398 -10.4543 3.8046 -3.5894 14.6073 -15.5537 -45.2245 -12.4162 6.1023 0.6593 1.0066 -78.4099 31.7963 -29.7133 -22.4096 -15.9450 10.3087 14.9830 -61.6400 2.0710 2.1752 -13.7494 13.6854 9.6435 -0.1866 -30.6852 -12.8581 0.4195 1.6292 117.6635 -31.9475 8.5843 22.4175 15.7222 7.2397 -16.4833 49.5465 -3.6236 -6.0756 24.1635 -16.5884 9.0697 -0.5723 37.1985 -1.5523 -29.2227 -7.2089 4.8590 1.5191 0.7257 -1.8302 -24.1199 -15.4920 22.2895 1.0663 58.7247 2.2829 20.8762 -34.3618 5.3765 -1.4072 0.6138 0.9373
-10.7291 85.5456 1.3175 5.5208 -6.1178 -25.4577 -2.2465 7.2093 -1.7635 -1.1313 -2.3471 -3.6160 -5.3445 18.2145 -8.9142 -2.4284 8.8735 3.2396 1.4001 -3.9047 6.5986 -7.2315 -6.4062 10.8727 -0.0005 -0.0955 0.0358 0.7185 -10.4402 -3.7300 -0.7337 -10.4410 3.7993 -2.4528 14.6388 -15.0473 -46.8297 -10.4918 5.5506 0.9066 1.0563 -82.4379 32.0093 -28.6166 -23.2352 -15.8910 10.2280 15.0377 -61.3411 2.0039 2.1573 -13.6537 13.1630 8.9300 1.8630 -32.5911 -14.7567 1.0690 2.1129 116.9005 -33.3539 8.4309 22.6244 15.7682 7.1451 -16.4837 49.4930 -3.6940 -6.0848 24.4555 -15.8152 9.5451 -0.5482 36.7460 -1.5272 -29.6773 -7.4888 6.0960 1.5234 1.0012 -1.8230 -24.0516 -16.1677 23.4083 1.0220 57.2682 2.2779 21.4352 -33.1720 5.9873 -1.4126 0.7011 0.9314
-10.1256 85.8830 1.7495 5.0354 -5.7682 -27.4412 -2.4097 7.3696 -1.8415 -1.1819 -2.2759 -3.7272 -5.3285 18.2062 -9.1059 -2.6046 10.1506 3.2711 1.4777 -3.8994 6.9855 -7.2164 -6.4430 11.1043 -0.0059 -0.0855 0.0461 0.7119 -10.4518 -3.7227 -0.7361 -10.4541 3.8111 -1.4912 14.6545 -14.6331 -47.8032 -9.3346 5.1035 1.2227 0.9618 -85.9583 32.2744 -28.0200 -23.9693 -15.8549 10.2032 15.1138 -61.0893 1.9507 2.1559 -13.3817 12.9108 8.5568 2.9205 -34.1217 -15.6125 1.6663 2.2984 116.5624 -33.9275 8.2309 22.8969 15.7814 7.0507 -16.3912 49.3212 -3.7633 -6.0492 24.6384 -15.0189 10.1467 -0.5184 36.5878 -1.4843 -29.9903 -7.9047 7.0396 1.5279 1.2509 -1.7996 -23.9957 -16.3640 24.3140 0.9680 55.7626 2.2203 22.0204 -32.1383 6.5751 -1.4178 0.7072 0.9289
-9.5332 86.1491 2.2939 4.7173 -5.6610 -29.2373 -2.4471 7.4404 -1.8468 -1.2218 -2.2399 -3.7441 -5.2792 18.2610 -9.1608 -3.1056 11.1338 3.4008 1.5385 -3.8731 7.3489 -7.1948 -6.4275 11.3940 -0.0113 -0.0736 0.0553 0.7119 -10.4538 -3.7194 -0.7458 -10.4584 3.8259 -0.8824 14.6836 -14.3690 -48.1915 -8.6234 4.8862 1.4578 0.9174 -88.4904 32.5889 -27.5893 -24.2608 -15.8642 10.1770 15.1646 -60.9430 1.9193 2.1784 -13.0804 12.8929 8.3805 3.2127 -35.3189 -15.6276 2.2368 2.4558 116.4558 -34.1818 7.7812 23.0647 15.7889 6.9718 -16.2688 49.0737 -3.8342 -5.9913 24.6538 -14.1775 10.8767 -0.4907 36.6822 -1.4720 -30.2035 -8.4604 7.8187 1.5283 1.4298 -1.7788 -24.0460 -16.1014 25.2009 0.9324 54.3150 2.1736 22.6056 -31.2836 6.9611 -1.4234 0.6150 0.9386
-8.9268 86.3404 2.8882 4.5720 -5.7004 -30.7772 -2.3945 7.4364 -1.8249 -1.2335 -2.2250 -3.7136 -5.2547 18.3687 -9.1311 -3.7626 11.7539 3.5854 1.6055 -3.8440 7.6410 -7.1504 -6.4265 11.6591 -0.0141 -0.0668 0.0561 0.7163 -10.4690 -3.7260 -0.7557 -10.4748 3.8352 -0.5981 14.6931 -14.2193 -48.1728 -8.2150 4.9395 1.5893 0.8968 -89.9970 32.9350 -27.4302 -24.3515 -15.8540 10.1645 15.2255 -60.9193 1.9064 2.2019 -12.7756 12.9640 8.3253 3.0632 -36.1447 -15.1560 2.6002 2.4213 116.4470 -34.3275 6.9843 23.1417 15.7726 6.9334 -16.1945 48.8232 -3.8853 -5.9757 24.4676 -13.3544 11.5516 -0.4675 36.9845 -1.4520 -30.2764 -9.0574 8.4706 1.5298 1.4699 -1.7765 -24.2257 -15.5286 26.0773 0.8764 53.0461 2.1124 23.1175 -30.5888 7.1249 -1.4279 0.5051 0.9376
-8.2835 86.4483 3.5441 4.6077 -5.8645 -32.0170 -2.3019 7.3892 -1.7798 -1.2248 -2.2356 -3.6712 -5.2872 18.5365 -9.0920 -4.4931 12.1375 3.7956 1.6750 -3.8076 7.8400 -7.1235 -6.4735 11.9238 -0.0212 -0.0619 0.0722 0.7144 -10.4644 -3.7132 -0.7681 -10.4741 3.8573 -0.6119 14.7346 -14.1866 -47.9653 -8.1304 5.2120 1.6478 0.9794 -90.7014 33.2958 -27.6257 -24.3645 -15.9047 10.1620 15.2682 -60.9795 1.9032 2.2198 -12.4350 13.1695 8.3764 2.7265 -36.6918 -14.5152 2.8138 2.3286 116.5058 -34.3535 5.8171 23.2973 15.7814 6.9605 -16.1564 48.6793 -3.9029 -5.9334 24.0946 -12.5712 12.1376 -0.4479 37.4797 -1.4379 -30.3571 -9.7379 8.9967 1.5314 1.4478 -1.7859 -24.5221 -14.6326 26.9743 0.8350 51.9133 2.0863 23.6038 -30.0712 7.0356 -1.4307 0.3789 0.9324
-7.6114 86.4671 4.2344 4.7378 -6.0799 -32.9358 -2.1749 7.3343 -1.7387 -1.1903 -2.2392 -3.6390 -5.3263 18.7304 -9.0205 -5.1910 12.3956 3.9893 1.7413 -3.7698 7.9660 -7.1569 -6.5553 12.1223 -0.0290 -0.0572 0.0899 0.7094 -10.4659 -3.6998 -0.7790 -10.4783 3.8823 -0.7819 14.8120 -14.2757 -47.7450 -8.4902 5.7151 1.5363 1.0351 -90.8643 33.7136 -28.0406 -24.4422 -15.9548 10.1949 15.3217 -61.0733 1.9133 2.2385 -11.9706 13.4213 8.5021 2.1309 -36.9583 -13.7648 2.7865 2.0310 116.6412 -34.2968 4.2006 23.5811 15.7576 7.0279 -16.1039 48.5960 -3.8651 -5.8584 23.6064 -11.9789 12.5781 -0.4242 38.2633 -1.4042 -30.3441 -10.5136 9.3655 1.5330 1.4040 -1.8095 -24.9004 -13.5510 27.8085 0.7799 50.9013 2.0495 24.0751 -29.6835 6.8320 -1.4334 0.3210 0.9262
-6.9190 86.4095 4.9204 4.8944 -6.3443 -33.4875 -2.0279 7.2995 -1.6859 -1.1257 -2.2469 -3.6153 -5.3506 18.9894 -8.9858 -5.8645 12.6066 4.1358 1.7716 -3.7487 8.0564 -7.2142 -6.6314 12.2282 -0.0350 -0.0530 0.1037 0.7058 -10.4701 -3.6882 -0.7876 -10.4826 3.8998 -1.0183 14.9336 -14.4907 -47.5598 -9.1894 6.3038 1.3940 1.0525 -90.8154 34.3039 -28.6374 -24.7247 -15.9769 10.2423 15.3650 -61.1523 1.9218 2.2517 -11.3980 13.7596 8.6104 1.2757 -37.1868 -12.7858 2.6237 1.6285 116.6806 -34.2949 2.0283 24.1408 15.6453 7.1458 -16.1057 48.5853 -3.8115 -5.7954 23.1138 -11.6581 12.9204 -0.4187 39.3180 -1.3856 -30.2627 -11.3929 9.4924 1.5335 1.3389 -1.8263 -25.2850 -12.2892 28.5041 0.7326 49.9366 2.0384 24.6317 -29.4408 6.4260 -1.4345 0.2916 0.9413
-6.2113 86.2962 5.6175 5.0438 -6.6039 -33.6702 -1.8704 7.2735 -1.6483 -1.0468 -2.2714 -3.5607 -5.3564 19.2931 -8.9813 -6.4516 12.8496 4.2561 1.7501 -3.7464 8.0215 -7.2912 -6.7606 12.2745 -0.0344 -0.0514 0.1008 0.7044 -10.4662 -3.6913 -0.7852 -10.4816 3.8973 -1.2506 15.1306 -14.7822 -47.4483 -10.2033 6.8784 1.1739 1.0432 -90.7315 35.0706 -29.3244 -25.2002 -15.9558 10.2962 15.3751 -61.1871 1.9348 2.2510 -10.7962 14.1294 8.7485 0.3595 -37.3363 -11.6543 2.5358 1.3541 116.6261 -34.4143 -0.6367 24.9520 15.4965 7.2770 -16.1957 48.6931 -3.7590 -5.7942 22.6287 -11.7046 13.2184 -0.4241 40.6458 -1.3843 -30.0987 -12.3777 9.3492 1.5329 1.2626 -1.8502 -25.6758 -11.0018 29.0074 0.6642 49.1032 1.9998 25.2593 -29.3202 5.8801 -1.4353 0.3160 0.9549
-5.4769 86.1048 6.2694 5.1789 -6.8958 -33.4978 -1.7235 7.2698 -1.6021 -0.9607 -2.2943 -3.4979 -5.3489 19.6434 -8.9672 -6.9388 13.1833 4.3635 1.7042 -3.7572 7.8561 -7.3754 -6.8974 12.1802 -0.0270 -0.0525 0.0823 0.7106 -10.4678 -3.7093 -0.7772 -10.4875 3.8772 -1.4381 15.3721 -15.0908 -47.3256 -11.3434 7.2961 0.9444 0.9807 -90.8141 35.8107 -29.9432 -25.7300 -15.9475 10.3297 15.3876 -61.1814 1.9356 2.2555 -10.2515 14.5373 8.9581 -0.4880 -37.3750 -10.3713 2.4642 1.2025 116.3195 -34.5222 -3.4486 25.8236 15.2952 7.4162 -16.3520 48.9214 -3.7102 -5.8384 22.1939 -12.1030 13.5218 -0.4576 42.2676 -1.3973 -29.7317 -13.4295 8.9041 1.5353 1.1770 -1.8590 -26.0759 -9.7133 29.2606 0.6095 48.4288 2.0013 25.9673 -29.2681 5.2387 -1.4345 0.3425 0.9597
-4.7074 85.8455 6.8682 5.2918 -7.2322 -32.9889 -1.5928 7.2624 -1.5384 -0.8803 -2.3049 -3.4152 -5.3238 20.0075 -8.9393 -7.3576 13.5855 4.4472 1.6273 -3.7791 7.6349 -7.4272 -6.9836 11.9588 -0.0183 -0.0585 0.0623 0.7184 -10.4647 -3.7273 -0.7674 -10.4872 3.8515 -1.5766 15.6630 -15.3291 -47.1465 -12.4358 7.3162 0.7814 0.9350 -91.0972 36.4285 -30.5141 -26.1008 -15.8745 10.3554 15.4256 -61.0623 1.9179 2.2758 -9.7830 15.0181 9.2705 -1.1730 -37.0220 -8.8580 2.3195 1.0506 115.7925 -34.3587 -6.1620 26.7635 15.0701 7.4912 -16.4803 49.1843 -3.6692 -5.8960 21.8267 -12.7790 13.7979 -0.5160 44.1505 -1.4199 -29.1859 -14.5549 8.2049 1.5417 1.1404 -1.8546 -26.4443 -8.3460 29.3437 0.5586 47.8774 2.0149 26.7750 -29.2696 4.4659 -1.4341 0.3288 0.9598
-3.9552 85.5287 7.3922 5.3338 -7.6129 -32.0697 -1.4746 7.2546 -1.4461 -0.8109 -2.3079 -3.3512 -5.2697 20.3757 -8.8644 -7.7120 14.0577 4.5155 1.5602 -3.7960 7.3812 -7.4386 -7.0215 11.6619 -0.0115 -0.0618 0.0459 0.7220 -10.4639 -3.7411 -0.7584 -10.4893 3.8318 -1.6565 16.0325 -15.4644 -46.8445 -13.2757 6.8503 0.6570 0.8654 -91.7059 36.7425 -30.9939 -26.2540 -15.8057 10.3740 15.4806 -60.8866 1.8944 2.2889 -9.4351 15.5524 9.6659 -1.5307 -36.1997 -7.1832 2.2198 1.0536 115.1404 -33.7478 -8.8526 27.8142 14.8461 7.4813 -16.5208 49.3865 -3.6201 -5.9033 21.5685 -13.6801 13.8343 -0.5846 46.2226 -1.4547 -28.5833 -15.6973 7.3536 1.5469 1.1683 -1.8347 -26.7579 -6.9775 29.2038 0.5049 47.5412 2.0084 27.6404 -29.3658 3.6417 -1.4341 0.2811 0.9559
-3.1721 85.1672 7.8422 5.2893 -8.0570 -30.7379 -1.3914 7.2524 -1.3218 -0.7629 -2.3310 -3.2990 -5.1841 20.7758 -8.7030 -7.9818 14.5577 4.5355 1.4759 -3.8047 7.1245 -7.3508 -7.1081 11.3247 -0.0049 -0.0598 0.0326 0.7318 -10.4486 -3.7484 -0.7557 -10.4798 3.8117 -1.6588 16.5142 -15.4679 -46.2737 -13.7478 5.7557 0.5779 0.8221 -92.6590 36.6582 -31.4351 -26.1440 -15.7011 10.3752 15.5225 -60.6631 1.8688 2.2939 -9.1584 16.1578 10.0899 -1.2875 -34.7935 -5.4202 2.0866 1.2832 114.4265 -32.3431 -11.6121 28.4742 14.5772 7.3678 -16.4845 49.4490 -3.6085 -5.8788 21.3770 -14.7678 13.6190 -0.6770 48.4597 -1.5275 -27.9039 -16.8773 6.4164 1.5537 1.2338 -1.8178 -26.9699 -5.6107 28.7806 0.4745 47.4204 2.0058 28.5093 -29.4923 2.7090 -1.4348 0.1746 0.9491
-2.4142 84.7556 8.2064 5.1424 -8.5444 -28.7846 -1.3696 7.2408 -1.1905 -0.7436 -2.3872 -3.2469 -5.0568 21.1875 -8.4723 -8.1024 15.1437 4.5430 1.4154 -3.8285 6.8395 -7.0961 -7.2605 10.9114 0.0003 -0.0561 0.0230 0.7485 -10.4282 -3.7475 -0.7626 -10.4638 3.7911 -1.5182 17.1004 -15.3265 -45.3006 -13.7647 3.9155 0.4791 0.8112 -93.9103 35.9242 -31.9230 -25.6624 -15.6400 10.4000 15.6448 -60.5351 1.8473 2.3097 -8.8149 16.8544 10.5288 -0.2545 -32.8741 -3.8698 1.9293 1.6199 113.7880 -30.0399 -14.2489 28.2925 14.3072 7.2547 -16.4021 49.5055 -3.5854 -5.8223 21.2471 -16.1431 13.0745 -0.7910 50.8389 -1.6161 -27.0929 -18.0591 5.2871 1.5611 1.3796 -1.7949 -27.0493 -4.1761 27.8974 0.4541 47.4378 2.0398 29.4018 -29.7139 1.4977 -1.4347 0.0068 0.9317
-1.7156 84.3382 8.4593 4.8441 -8.9696 -26.0697 -1.4423 7.2354 -1.0984 -0.7561 -2.4345 -3.1246 -4.8725 21.5732 -8.1982 -7.9972 15.7133 4.5200 1.3961 -3.8389 6.5568 -6.6542 -7.5505 10.4537 -0.0039 -0.0555 0.0278 0.7482 -10.4109 -3.7319 -0.7712 -10.4446 3.7884 -1.1590 17.7978 -15.0679 -43.7954 -13.3905 1.5146 0.2927 0.8501 -95.4332 34.5642 -32.3144 -24.7307 -15.5966 10.4335 15.8062 -60.3929 1.8394 2.3431 -8.1447 17.5854 10.9154 1.8079 -30.4707 -2.8450 1.7523 1.9037 113.6366 -26.9011 -16.5055 27.3118 14.0994 7.1427 -16.3103 49.5144 -3.5396 -5.7542 21.1903 -17.8647 12.1143 -0.9218 53.1468 -1.7035 -26.1374 -19.1760 3.7799 1.5693 1.5681 -1.7651 -26.9642 -2.7417 26.4792 0.4006 47.4729 2.0652 30.2755 -29.8601 -0.0363 -1.4350 -0.1748 0.8944
-1.1357 83.9740 8.5580 4.4072 -9.2065 -22.6480 -1.6203 7.3043 -0.9967 -0.7917 -2.4876 -2.9688 -4.6429 21.9712 -7.8349 -7.6687 16.1958 4.4521 1.3555 -3.8628 6.4110 -6.0219 -7.9850 9.9674 -0.0120 -0.0586 0.0336 0.7428 -10.4003 -3.7164 -0.7824 -10.4361 3.7905 -0.5554 18.6002 -14.7421 -41.6996 -12.9302 -0.9015 -0.0494 0.8226 -97.1696 33.0529 -32.6047 -23.7464 -15.5438 10.4505 15.9269 -60.2556 1.8204 2.3657 -7.0729 18.3112 11.2075 4.8938 -27.6050 -2.3866 1.4441 2.1161 114.3149 -23.1841 -18.6423 25.6601 14.0340 7.0829 -16.2382 49.5670 -3.4607 -5.6824 21.1440 -19.9492 10.7438 -1.0836 55.2226 -1.8403 -24.9914 -20.1862 1.9439 1.5732 1.7744 -1.7190 -26.7078 -1.4425 24.5798 0.3322 47.5145 2.0990 31.0168 -29.9170 -1.7831 -1.4410 -0.4590 0.8868
-0.6539 83.7355 8.4690 3.8368 -9.1398 -18.7070 -1.8491 7.5359 -0.8798 -0.8572 -2.5235 -2.8255 -4.2837 22.4686 -7.2699 -7.1824 16.3758 4.4088 1.3486 -3.8282 6.3418 -5.3479 -8.7643 9.5081 -0.0354 -0.0458 0.0765 0.7294 -10.4152 -3.6811 -0.8159 -10.4468 3.8512 0.2036 19.4892 -14.3857 -39.0730 -12.8043 -2.7009 -0.4634 0.8693 -99.1688 31.7188 -32.8684 -22.8680 -15.4628 10.4283 15.9865 -60.1090 1.6950 2.3830 -5.6137 19.0041 11.6432 8.2355 -24.3940 -2.1131 1.2551 2.2099 115.6303 -19.2227 -20.9251 23.2973 14.1423 7.0321 -16.2741 49.4716 -3.4880 -5.6465 21.0191 -22.4292 8.9818 -1.2082 56.9304 -1.9132 -23.6172 -20.7066 -0.0796 1.5697 1.8695 -1.6693 -26.3745 -0.6059 22.4491 0.3115 47.7182 2.0716 31.5670 -29.3359 -3.4344 -1.4632 -1.0237 0.8923
-0.3014 83.6543 8.1242 3.2918 -8.5804 -14.6513 -2.1262 7.9443 -0.7385 -0.9124 -2.4314 -2.5033 -3.8338 22.8795 -6.5945 -6.7734 16.3001 4.3867 1.3390 -3.8462 6.2431 -4.5397 -9.8701 8.9857 -0.0489 -0.0446 0.0905 0.7144 -10.4243 -3.6723 -0.8282 -10.4583 3.8787 1.1364 20.0947 -13.9560 -35.9601 -12.8202 -3.6854 -0.8673 0.8270 -101.5103 30.9795 -33.2381 -22.3434 -15.4111 10.4266 16.0238 -60.0182 1.7338 2.4086 -4.1781 19.4160 12.2192 11.0822 -20.6065 -1.1861 1.3181 2.4528 116.7123 -15.7284 -23.5018 20.6279 14.3335 7.1150 -16.3260 49.3892 -3.4661 -5.6169 20.7101 -25.2266 7.0585 -1.3003 58.0116 -2.0007 -22.3176 -20.7271 -1.9215 1.5609 2.0055 -1.5894 -26.2176 -0.4317 20.2279 0.2705 47.8209 2.0933 32.0338 -28.7680 -4.9149 -1.4777 -1.4809 0.9451
-0.0193 83.8016 7.5137 2.8541 -7.6342 -10.8810 -2.3697 8.6009 -0.5606 -0.9356 -2.2875 -2.0422 -3.3571 23.4003 -5.7419 -6.5451 15.8760 4.3258 1.3070 -3.8528 6.1250 -3.7411 -11.0963 8.4508 -0.0718 -0.0422 0.1327 0.6882 -10.4331 -3.6320 -0.8486 -10.4553 3.9354 2.0441 20.6723 -13.4652 -32.4584 -13.3864 -3.7545 -1.0144 0.5770 -104.0848 30.6683 -33.6356 -22.1123 -15.3973 10.4171 15.9550 -60.0562 1.7283 2.3895 -3.0664 19.7503 13.1514 12.2820 -16.8296 0.7733 1.7763 2.7921 116.6547 -13.2282 -26.4755 18.3027 14.5397 7.2945 -16.4353 49.3499 -3.4409 -5.5318 20.2112 -28.1493 5.4592 -1.4070 58.3559 -2.1279 -21.1315 -20.1257 -3.6088 1.5577 2.0917 -1.5574 -26.2829 -1.0580 18.2361 0.2643 48.1254 2.1103 32.2553 -27.7676 -5.9167 -1.4907 -2.0429 0.9995
0.2194 84.2039 6.6539 2.5812 -6.2144 -7.4604 -2.5322 9.4425 -0.4239 -0.9044 -1.9975 -1.4359 -2.8413 23.9516 -4.7717 -6.5305 15.2011 4.2173 1.2372 -3.8520 5.9286 -3.0794 -12.3636 7.8947 -0.0835 -0.0290 0.1495 0.6609 -10.4297 -3.6213 -0.8440 -10.4361 3.9626 2.8903 20.9868 -12.8953 -28.9534 -14.4724 -2.9856 -0.8482 0.2637 -106.7226 30.6753 -33.9568 -22.1189 -15.4003 10.4480 15.8860 -60.3036 1.6998 2.3742 -2.6082 19.8853 14.5642 10.6841 -12.9079 3.8559 2.3318 3.2480 114.8447 -11.8167 -31.0849 17.3665 14.8651 7.4289 -16.4137 49.3538 -3.4246 -5.4256 19.4273 -31.2139 4.2378 -1.4485 57.8139 -2.1862 -19.9679 -18.8000 -5.1189 1.5554 2.2353 -1.5089 -26.6743 -2.6115 16.5585 0.3164 48.6233 2.1363 32.1703 -26.1883 -6.1446 -1.5015 -2.7967 1.0409
0.3976 84.8445 5.5497 2.5728 -4.3692 -4.6091 -2.5860 10.3883 -0.3099 -0.8137 -1.5998 -0.7657 -2.3631 24.5484 -3.7216 -6.7190 14.4235 4.1774 1.0143 -3.8247 5.5317 -2.4966 -13.5630 7.2492 -0.0790 -0.0098 0.1356 0.6473 -10.3833 -3.6358 -0.8203 -10.3790 3.9477 3.6083 20.8705 -12.1569 -25.8589 -15.9817 -1.7038 -0.3667 0.0407 -109.0793 30.6927 -34.1867 -22.2339 -15.4083 10.5143 15.7883 -60.6497 1.6503 2.3350 -2.7761 20.0626 16.5039 5.2899 -7.9370 7.3150 2.1963 3.6727 111.5458 -11.4987 -37.5094 18.8568 15.1245 7.3438 -16.1795 49.1468 -3.5093 -5.3447 18.2305 -34.1473 3.6022 -1.3963 56.2031 -2.1577 -18.9112 -16.7872 -6.3455 1.5476 2.4449 -1.4722 -27.5082 -5.0390 15.4040 0.4203 49.3410 2.1803 31.7866 -23.9113 -5.2866 -1.5057 -3.8942 1.0661
0.4743 85.7232 4.3794 2.8800 -2.2501 -2.2717 -2.5210 11.2994 -0.2725 -0.7001 -1.1696 -0.0482 -1.9600 25.2319 -2.6860 -7.0677 13.7553 4.1615 0.6124 -3.7813 4.9363 -1.8665 -14.5389 6.4055 -0.0654 -0.0039 0.1023 0.6317 -10.3282 -3.6623 -0.7754 -10.3155 3.9000 4.0970 20.2620 -11.2888 -23.4610 -17.7155 -0.4538 0.2697 -0.1621 -110.8018 30.5581 -34.3168 -22.2768 -15.4672 10.6075 15.6453 -61.0764 1.6246 2.2652 -3.5191 20.4803 18.8276 -2.8934 -1.3953 9.1796 1.0521 4.0936 107.9197 -12.2870 -44.3149 22.7241 15.0741 7.0871 -15.8146 48.4007 -3.6865 -5.2511 16.6236 -36.6935 3.5197 -1.2973 53.5674 -2.0553 -18.1278 -14.3292 -7.4508 1.5336 2.6085 -1.4881 -28.6864 -7.7778 14.6889 0.5568 49.7438 2.2567 31.1262 -21.2631 -4.0174 -1.4977 -5.1944 1.0613
0.4156 86.8013 3.2527 3.5267 0.1351 -0.2150 -2.3672 12.0684 -0.2471 -0.5531 -0.7461 0.6375 -1.5956 25.9425 -1.6674 -7.4611 13.2740 4.0974 0.0641 -3.7187 4.2062 -1.1256 -15.1405 5.3414 -0.0656 -0.0079 0.0881 0.5966 -10.2688 -3.6669 -0.7381 -10.2601 3.8724 4.4189 19.2770 -10.3608 -22.1162 -19.6604 0.2836 0.8073 -0.2655 -111.6291 30.1587 -34.0212 -21.9921 -15.5237 10.6372 15.4273 -61.3030 1.5925 2.1297 -5.0370 21.0644 21.2487 -11.1241 5.0959 8.0401 -0.3081 4.0755 104.9069 -13.9821 -49.2127 27.3725 15.1916 7.1681 -15.8135 48.2667 -3.8372 -5.3760 14.5951 -38.8407 3.8704 -1.2136 49.9736 -1.9352 -17.6113 -11.4795 -8.5490 1.5238 2.6353 -1.5706 -30.0708 -10.4122 14.2124 0.6911 49.3798 2.3749 30.2459 -18.5813 -2.7866 -1.4856 -6.5463 1.0683
0.2155 88.0285 2.2389 4.4607 2.9185 1.9310 -2.1898 12.5788 -0.2431 -0.3483 -0.3434 1.2334 -1.2188 26.5021 -0.5964 -7.6966 12.8730 3.9551 -0.4447 -3.6427 3.3814 -0.3881 -15.3894 4.2791 -0.0649 -0.0033 0.0663 0.5621 -10.2035 -3.6865 -0.6985 -10.2176 3.8428 4.7394 18.2206 -9.3784 -22.0409 -22.1055 0.3429 1.1118 -0.1072 -111.4904 29.3748 -32.9505 -21.1333 -15.5174 10.5993 15.2338 -61.3034 1.5985 2.0009 -6.9042 21.4229 23.5031 -17.2046 9.5220 5.0461 -0.9628 3.0147 102.6008 -16.1837 -51.4543 31.7442 15.5761 7.3858 -16.1185 49.0013 -3.9611 -5.6986 12.0772 -40.8560 4.6805 -1.1231 45.5181 -1.8154 -17.1226 -8.0737 -9.6953 1.5320 2.6501 -1.6680 -31.5131 -12.7273 13.9004 0.7154 48.0522 2.3872 29.3622 -16.1903 -1.9665 -1.4793 -7.4258 1.0879
-0.1605 89.1442 1.5262 5.3099 5.7862 4.2225 -1.9830 12.8523 -0.1623 -0.1194 -0.0206 1.6519 -0.6676 26.8087 0.4453 -7.5588 12.2766 3.9288 -0.6995 -3.5654 2.6245 0.0790 -15.5039 3.3518 -0.0642 0.0115 0.0606 0.5379 -10.1694 -3.6916 -0.6712 -10.1984 3.8345 5.3704 17.3243 -8.2966 -23.3677 -24.9913 0.1826 1.0853 0.2621 -110.8158 28.1766 -30.9376 -19.5742 -15.4322 10.5998 15.2618 -61.0876 1.7375 2.0150 -7.9260 21.3614 25.1844 -19.0491 10.2685 2.8852 -1.3759 1.7845 100.7587 -20.5600 -52.9904 36.2160 15.6327 7.3666 -16.1679 49.1763 -4.0966 -5.8614 9.6225 -42.8414 5.7730 -1.0448 41.1262 -1.7021 -16.6088 -4.5734 -11.0164 1.5579 2.6154 -1.7083 -32.5567 -14.4005 13.3860 0.6029 45.7673 2.2837 29.0141 -14.9506 -1.5649 -1.4955 -7.6227 1.1521
-0.5747 89.8660 1.1366 5.6588 8.2807 6.3862 -1.7322 12.9792 -0.0122 0.0668 0.1990 1.9402 0.2350 26.9704 1.3704 -7.1066 11.3099 4.1076 -0.7656 -3.5264 2.0794 0.2023 -15.7443 2.6674 -0.0407 0.0154 0.0436 0.5556 -10.1547 -3.7055 -0.6411 -10.1844 3.8041 6.2137 16.5550 -7.1846 -25.6293 -27.5736 0.6035 1.0011 0.5954 -110.8144 27.0212 -28.6569 -17.8962 -15.3041 10.6752 15.4084 -60.7042 1.9108 2.0955 -7.4991 21.0248 26.2241 -16.9553 7.9724 2.5964 -2.1522 0.7448 99.6868 -24.1655 -53.0222 38.3460 15.4059 7.0836 -15.9503 48.3852 -4.1967 -5.7491 7.9916 -44.9082 6.6014 -1.0273 38.0114 -1.6493 -16.1439 -1.6658 -12.1900 1.5835 2.4720 -1.6980 -32.8145 -15.6023 12.2987 0.4282 43.1588 2.0776 29.3423 -14.9262 -1.5056 -1.5227 -7.3074 1.2415
-0.9896 90.1719 0.9587 5.5296 10.2009 8.2227 -1.4653 13.0260 0.1254 0.1590 0.3415 2.0356 1.3383 27.0537 2.1298 -6.5184 10.1483 4.3314 -0.7719 -3.5302 2.0065 0.0323 -16.1678 2.3006 -0.0103 0.0115 0.0201 0.5970 -10.1143 -3.7216 -0.6209 -10.1278 3.7597 7.1105 16.0697 -6.3250 -28.1585 -29.2536 2.1727 0.9528 0.6328 -112.0141 25.9662 -26.4983 -16.4895 -15.1985 10.7244 15.5059 -60.4031 2.0100 2.1372 -6.0115 20.5248 26.6216 -12.9684 4.2503 3.3549 -2.8402 0.1725 99.7524 -21.7180 -49.7830 34.2539 15.2496 6.8388 -15.7779 47.6646 -4.1269 -5.5850 7.2856 -47.0346 6.9917 -1.0635 36.4837 -1.6500 -15.7380 0.4654 -13.1132 1.5947 2.3609 -1.6670 -32.3496 -16.4550 10.8519 0.2758 40.7976 1.8187 30.0556 -15.5989 -1.9940 -1.5401 -6.6692 1.3126
-1.3821 90.1765 0.8582 5.2143 11.4740 9.6429 -1.2567 13.0778 0.1621 0.1950 0.4405 1.9348 2.2982 27.1222 2.6379 -5.9068 9.0865 4.4745 -0.7947 -3.5144 2.3115 -0.4456 -16.8182 2.3299 0.0029 0.0116 0.0046 0.6250 -10.0402 -3.7237 -0.6244 -10.0355 3.7291 7.9146 16.0050 -5.8791 -30.4625 -29.9918 4.5460 0.9597 0.5613 -113.9139 24.9580 -24.8339 -15.4554 -15.1169 10.7695 15.5706 -60.5032 2.0042 2.1038 -4.1300 19.8554 26.2869 -8.2023 0.0263 4.5627 -2.8344 0.0627 100.2616 -15.9951 -44.7240 27.3788 15.2267 6.8329 -15.9106 47.6225 -3.9994 -5.5340 7.2134 -48.8565 6.9880 -1.1188 36.0407 -1.6851 -15.4097 1.7978 -13.7903 1.5944 2.3298 -1.6492 -31.5292 -16.9266 9.2081 0.1427 38.7477 1.5133 30.8341 -16.7763 -3.0336 -1.5340 -5.5302 1.3398
-1.7624 90.0557 0.8036 5.1168 12.1527 10.7772 -1.1892 13.1049 0.0046 0.1429 0.5751 1.7924 2.9109 27.2097 2.5820 -5.1815 8.6267 4.3729 -0.9236 -3.5878 2.6787 -1.1350 -17.5604 2.8219 0.0082 0.0043 -0.0117 0.6324 -9.9634 -3.7134 -0.6227 -9.9539 3.6852 8.5167 16.2572 -5.8470 -32.3917 -30.2535 6.8888 1.0442 0.3776 -115.4805 24.0838 -23.6018 -14.8452 -14.9554 10.9578 15.6431 -60.9028 1.9807 1.9772 -2.6503 19.1763 25.1255 -3.1888 -3.9577 5.9776 -2.2963 0.0947 100.5927 -10.8156 -38.9709 21.0575 15.3688 7.0103 -16.1893 48.2854 -3.8372 -5.5542 7.0230 -50.0176 7.0675 -1.1086 35.9119 -1.6977 -15.0707 2.5114 -14.1246 1.5852 2.4872 -1.6616 -30.7626 -16.9760 7.3526 0.0182 36.8876 1.3262 31.1892 -18.6378 -4.6293 -1.4950 -3.9631 1.3216
-2.1336 90.1171 0.7126 4.9753 12.3913 11.2552 -1.0378 13.1146 -0.0995 0.0741 0.6504 1.5818 3.3081 27.4616 2.2864 -4.5407 8.5795 4.1741 -0.9330 -3.5967 2.9112 -1.9502 -17.9955 3.4288 -0.0101 -0.0023 0.0054 0.6087 -9.9649 -3.6953 -0.6362 -9.9472 3.7081 8.5426 16.6937 -6.2067 -34.1203 -30.5971 8.8514 0.9352 0.3588 -116.1415 23.8679 -23.3419 -14.8046 -14.9225 11.0040 15.6872 -60.9540 1.8663 1.9949 -1.3659 18.7077 23.8778 1.7456 -7.5120 6.9363 -1.7712 0.5960 100.5495 -7.6233 -34.2246 16.0613 15.3349 7.2453 -16.4334 48.9862 -3.7253 -5.5431 7.2049 -50.3306 6.9698 -1.1390 35.4498 -1.7751 -15.0521 3.2336 -14.0598 1.5888 2.5244 -1.6835 -30.0615 -17.1565 6.0511 -0.0306 35.8795 1.1831 30.9093 -19.4460 -5.4711 -1.4687 -2.9069 1.2960
-2.5456 90.3557 0.5283 4.7413 12.4675 11.1525 -0.8790 13.1712 -0.2026 0.0009 0.7270 1.3590 3.6476 27.6254 1.9438 -3.8801 8.9040 3.8516 -0.9224 -3.6065 3.0603 -2.6871 -18.0591 3.9318 -0.0147 -0.0086 0.0256 0.5938 -9.9911 -3.6829 -0.6289 -9.9714 3.7345 8.4397 17.0296 -6.6035 -36.0856 -30.7606 10.1897 0.8485 0.4198 -116.0327 24.1361 -23.5878 -15.0526 -14.9679 11.0033 15.6523 -60.9311 1.8193 2.0260 -0.3468 18.2232 22.7561 6.3529 -10.0401 7.4751 -1.4760 1.3317 100.7280 -6.4058 -30.6583 12.6427 15.3330 7.4198 -16.5271 49.5616 -3.6084 -5.4764 7.7034 -50.0340 6.7509 -1.1403 34.3984 -1.8203 -15.2511 4.0969 -13.6305 1.5926 2.5314 -1.6618 -29.3494 -17.2767 5.1901 -0.0011 34.7322 1.1605 30.4312 -19.7304 -5.6987 -1.4536 -2.2798 1.2919
-3.0215 90.7211 0.2899 4.4184 12.5009 10.5498 -0.7265 13.2697 -0.2488 -0.0318 0.7882 1.0784 3.9093 27.6836 1.6248 -3.2025 9.3899 3.5659 -0.9519 -3.6196 3.1723 -3.2921 -17.9172 4.2510 -0.0217 -0.0164 0.0498 0.5814 -10.0312 -3.6675 -0.6296 -10.0081 3.7685 8.2863 17.3439 -6.9014 -38.0885 -30.7151 11.0496 0.8688 0.4163 -115.6920 24.5630 -23.9028 -15.3537 -15.0372 10.9510 15.5837 -60.8867 1.8353 2.0451 0.5626 17.7524 21.8378 10.2190 -11.4143 7.6761 -1.1922 2.0150 101.3250 -6.1459 -27.8465 10.4283 15.4324 7.4982 -16.5367 49.9593 -3.5375 -5.4057 8.4296 -49.3776 6.5967 -1.1092 32.8870 -1.8134 -15.6140 5.1711 -12.9793 1.5945 2.4385 -1.6514 -28.5871 -17.4961 4.6114 0.0109 33.4685 1.1391 29.8554 -19.7155 -5.5669 -1.4466 -1.7924 1.2874
-3.5506 91.1461 -0.0460 3.9970 12.4879 9.5949 -0.5758 13.3677 -0.2700 -0.0355 0.8476 0.7815 4.1090 27.7060 1.3047 -2.5854 9.8363 3.3541 -1.0048 -3.6415 3.2764 -3.8259 -17.6657 4.4820 -0.0172 -0.0229 0.0552 0.5781 -10.0777 -3.6725 -0.6161 -10.0618 3.7818 8.0540 17.7164 -7.0294 -39.9100 -30.6661 11.5716 1.0087 0.3357 -115.5729 25.1716 -24.1898 -15.6253 -15.1294 10.8910 15.4900 -60.8038 1.8961 2.0584 1.4449 17.4039 21.0348 13.2698 -11.9785 7.8009 -0.7735 2.5106 102.1197 -6.2124 -25.3193 9.0662 15.5351 7.4880 -16.5144 50.0797 -3.4877 -5.3843 9.3541 -48.4578 6.5234 -1.0566 31.0687 -1.7734 -16.0608 6.4117 -12.2688 1.5960 2.2455 -1.6457 -27.7295 -17.8719 4.1877 0.0058 32.2738 1.0853 29.2136 -19.4568 -5.0988 -1.4446 -1.4196 1.2768
-4.1588 91.5353 -0.3912 3.5677 12.3874 8.4197 -0.4153 13.4768 -0.3001 -0.0236 0.8912 0.4858 4.2335 27.7486 0.9746 -2.1022 10.1601 3.2397 -1.0565 -3.6621 3.3638 -4.3153 -17.5377 4.6646 -0.0070 -0.0299 0.0480 0.5837 -10.1153 -3.6892 -0.5998 -10.1073 3.7792 7.8183 18.1498 -7.0578 -41.5098 -30.7472 12.1391 1.1408 0.2243 -115.8726 25.8617 -24.4437 -15.8394 -15.2696 10.8051 15.4030 -60.7397 1.9506 2.0760 2.2854 17.2112 20.2564 15.6865 -12.1341 7.7223 -0.1964 2.8002 103.1301 -6.4699 -22.7975 8.2275 15.6140 7.4504 -16.4942 50.0837 -3.4959 -5.3894 10.3387 -47.3924 6.5428 -0.9956 29.2385 -1.7242 -16.4365 7.5912 -11.4972 1.5959 2.0104 -1.6437 -26.9032 -18.4029 3.8623 0.0051 31.3763 1.0411 28.5685 -19.1707 -4.4048 -1.4473 -1.0820 1.2597
-4.7617 91.8500 -0.7067 3.1637 12.1568 7.1871 -0.2225 13.5862 -0.3541 -0.0288 0.9164 0.2094 4.3395 27.8108 0.6096 -1.8324 10.3576 3.1657 -1.0431 -3.6815 3.4266 -4.7967 -17.5980 4.8961 -0.0005 -0.0354 0.0380 0.5862 -10.1316 -3.7034 -0.5893 -10.1281 3.7723 7.5440 18.5781 -7.0554 -42.8020 -30.9273 12.8539 1.1597 0.1627 -116.5069 26.5912 -24.7671 -15.8842 -15.4421 10.7281 15.3585 -60.6790 1.9955 2.1273 3.0758 17.1568 19.4975 17.6145 -12.1704 7.3586 0.4897 2.9041 104.2269 -6.8942 -20.6228 7.8007 15.6677 7.4166 -16.4535 50.1184 -3.4718 -5.3783 11.2921 -46.2255 6.6878 -0.9526 27.5174 -1.6996 -16.7542 8.6597 -10.7535 1.5942 1.7860 -1.6471 -26.1668 -18.9709 3.5713 0.0123 30.8533 1.0027 27.9433 -18.9748 -3.5273 -1.4507 -0.7824 1.2514
-5.3741 92.0957 -1.0573 2.8343 11.8457 5.9540 -0.0125 13.6880 -0.4307 -0.0401 0.9363 -0.0550 4.4708 27.9232 0.2187 -1.7426 10.4393 3.1074 -1.0394 -3.6815 3.4442 -5.2757 -17.8349 5.1346 -0.0023 -0.0397 0.0308 0.5770 -10.1457 -3.7145 -0.5844 -10.1481 3.7715 7.2662 18.9527 -7.0674 -43.8231 -31.1468 13.6625 1.1929 0.1818 -117.3414 27.3398 -25.1057 -15.7053 -15.5431 10.6378 15.2815 -60.6736 2.0161 2.1445 3.6957 17.1779 18.7067 19.2958 -12.2164 6.6773 1.1356 2.8022 105.3581 -7.4895 -18.5331 7.5995 15.7298 7.4036 -16.4302 50.2376 -3.4608 -5.3786 12.0901 -45.0890 7.0114 -0.8989 25.9581 -1.6523 -17.0186 9.6672 -10.0848 1.5937 1.5873 -1.6727 -25.5149 -19.6755 3.2301 0.0335 30.7396 0.9915 27.2945 -18.8223 -2.4984 -1.4478 -0.5655 1.2292
-5.9203 92.2890 -1.4145 2.6333 11.4951 4.7810 0.1869 13.7831 -0.4915 -0.0276 0.9460 -0.3325 4.5784 28.0294 -0.1893 -1.8163 10.4205 3.0933 -1.0572 -3.6780 3.4184 -5.7671 -18.1578 5.4065 -0.0163 -0.0504 0.0387 0.5597 -10.1774 -3.7156 -0.5973 -10.1840 3.7964 7.0271 19.2613 -7.0814 -44.6797 -31.4897 14.6224 1.1572 0.2159 -118.1997 28.0142 -25.3786 -15.2106 -15.5515 10.5490 15.2007 -60.5937 2.0241 2.1369 4.0928 17.1952 17.9271 20.6679 -12.2608 5.7556 1.6107 2.6050 106.4185 -8.3461 -16.8765 7.5845 15.8148 7.3799 -16.3821 50.3916 -3.4413 -5.3695 12.5671 -44.0613 7.6776 -0.8610 24.6323 -1.6202 -17.2314 10.5901 -9.6406 1.5954 1.4002 -1.7036 -25.0393 -20.3667 2.9471 0.0616 30.8519 1.0195 26.7142 -18.7193 -1.4446 -1.4383 -0.4180 1.2086
-6.3935 92.4465 -1.7450 2.5349 11.1278 3.5828 0.3763 13.8464 -0.5704 -0.0100 0.9513 -0.5393 4.6544 28.0301 -0.5765 -2.0796 10.3000 3.1160 -1.0908 -3.6830 3.4183 -6.2368 -18.5580 5.6834 -0.0378 -0.0629 0.0614 0.5330 -10.1966 -3.6981 -0.6151 -10.2051 3.8346 6.7691 19.4879 -7.1053 -45.2154 -31.7170 15.4087 1.1685 0.2588 -118.8808 28.5162 -25.5976 -14.5025 -15.4701 10.4657 15.0975 -60.4422 1.9927 2.1134 4.2675 17.1548 17.2072 21.6639 -12.3140 4.7714 1.8703 2.3557 107.2472 -9.3472 -15.9989 7.7522 15.8912 7.3736 -16.3712 50.5353 -3.4349 -5.3647 12.7774 -43.1283 8.6391 -0.8325 23.5451 -1.5999 -17.3276 11.3862 -9.2898 1.5963 1.2457 -1.7247 -24.7691 -21.0030 2.7785 0.1099 30.9954 1.0651 26.1754 -18.5283 -0.3775 -1.4291 -0.3294 1.1907
-6.7323 92.5222 -2.0162 2.5045 10.7329 2.3725 0.5721 13.8935 -0.6410 0.0170 0.9441 -0.6874 4.7305 27.9059 -0.9198 -2.5095 10.1298 3.1914 -1.1165 -3.6938 3.3917 -6.6998 -18.9801 5.9334 -0.0515 -0.0703 0.0835 0.5233 -10.2094 -3.6821 -0.6335 -10.2179 3.8696 6.4840 19.6693 -7.1586 -45.5533 -31.7740 16.0888 1.1533 0.2840 -119.3666 28.7086 -25.7988 -13.5661 -15.3870 10.3832 15.0222 -60.2594 1.9595 2.1092 4.1781 17.0675 16.5425 22.2607 -12.3782 3.8753 1.8642 2.1099 107.9379 -10.5631 -16.0665 8.0222 15.9494 7.3849 -16.3565 50.6331 -3.4065 -5.3544 12.8266 -42.2926 9.7039 -0.8134 22.8111 -1.5840 -17.3454 11.8779 -8.8988 1.5988 1.1809 -1.7354 -24.6713 -21.5436 2.7693 0.1537 31.2175 1.0970 25.7484 -18.3688 0.6472 -1.4230 -0.2634 1.1697
-6.9541 92.4995 -2.2236 2.5111 10.2810 1.2242 0.7847 13.9610 -0.6718 0.0593 0.9200 -0.8037 4.8295 27.7017 -1.2152 -2.9979 9.9746 3.2959 -1.1249 -3.7096 3.3289 -7.2559 -19.4000 6.2325 -0.0540 -0.0742 0.0949 0.5255 -10.2127 -3.6729 -0.6414 -10.2252 3.8862 6.1287 19.8730 -7.2922 -45.6839 -31.6791 16.6881 1.1637 0.2724 -119.7487 28.5656 -25.8815 -12.3549 -15.3235 10.3338 14.9495 -60.1772 1.9437 2.0901 3.9016 16.9624 15.9348 22.5426 -12.5204 3.0729 1.6246 1.8919 108.5998 -12.0824 -16.9776 8.5590 15.9885 7.4544 -16.3713 50.7952 -3.3467 -5.3523 12.8175 -41.6058 10.7780 -0.7962 22.5118 -1.5603 -17.3794 12.0242 -8.5646 1.6026 1.1131 -1.7516 -24.6764 -22.0105 2.7871 0.1897 31.5670 1.1189 25.4034 -18.3482 1.6253 -1.4196 -0.1878 1.1440
-7.0431 92.4227 -2.4169 2.5641 9.7488 0.1738 0.9696 14.0381 -0.6874 0.1181 0.8818 -0.8890 4.8967 27.4970 -1.4533 -3.4726 9.8290 3.3847 -1.1257 -3.7219 3.3239 -7.7917 -19.7167 6.5097 -0.0464 -0.0775 0.0916 0.5398 -10.2285 -3.6796 -0.6413 -10.2446 3.8850 5.6659 20.0413 -7.4522 -45.6519 -31.5600 17.1036 1.1788 0.2959 -119.9803 28.1167 -25.9449 -11.0498 -15.2665 10.3049 14.9241 -60.1496 1.9087 2.0717 3.5357 16.8096 15.4512 22.6386 -12.8202 2.4301 1.3030 1.7401 109.2613 -13.7718 -18.5202 9.3238 15.9924 7.5211 -16.3668 50.9058 -3.3510 -5.3505 12.7113 -41.0718 11.8813 -0.7952 22.6683 -1.5511 -17.3408 11.9090 -8.2747 1.6073 1.0498 -1.7685 -24.8014 -22.3595 2.9302 0.2172 32.0919 1.1254 25.1371 -18.4646 2.4243 -1.4182 -0.1214 1.1239
-7.0358 92.2816 -2.5742 2.6799 9.1325 -0.7571 1.1082 14.1015 -0.6765 0.1963 0.8445 -0.9606 4.9183 27.3236 -1.6208 -3.8755 9.6878 3.4821 -1.1109 -3.7308 3.3389 -8.2810 -19.8708 6.8013 -0.0292 -0.0739 0.0764 0.5615 -10.2336 -3.7000 -0.6291 -10.2491 3.8705 5.0986 20.1464 -7.6300 -45.5133 -31.4761 17.1845 1.1347 0.3238 -120.0026 27.4346 -25.8167 -9.8030 -15.2818 10.2944 14.9659 -60.1950 1.8937 2.0829 3.1897 16.6485 15.1441 22.6463 -13.2070 2.0952 0.9266 1.5647 109.7322 -15.4067 -19.9052 10.2349 15.9848 7.6066 -16.3638 50.9824 -3.3302 -5.3576 12.5489 -40.6175 12.9393 -0.8033 23.1705 -1.5410 -17.2988 11.6198 -8.0373 1.6149 0.9973 -1.7817 -25.0659 -22.5713 3.1821 0.2457 32.7463 1.1514 24.9518 -18.6464 3.0394 -1.4180 -0.0902 1.1055
-6.9449 92.0811 -2.7406 2.8186 8.4557 -1.5162 1.2082 14.1521 -0.6960 0.2681 0.8136 -0.9883 4.9061 27.2270 -1.7200 -4.2153 9.5448 3.5708 -1.0848 -3.7334 3.3785 -8.6777 -19.8874 7.0426 -0.0130 -0.0670 0.0571 0.5801 -10.2396 -3.7205 -0.6150 -10.2511 3.8454 4.4590 20.1863 -7.7938 -45.2926 -31.4509 16.8895 1.1561 0.3569 -119.9419 26.5891 -25.4855 -8.6584 -15.3021 10.3131 15.0541 -60.3228 1.8897 2.1033 2.8847 16.5060 14.9779 22.7368 -13.6331 2.1444 0.5658 1.3684 109.9887 -16.9079 -20.7060 11.1106 15.9369 7.6648 -16.3349 50.9825 -3.3462 -5.3180 12.3257 -40.2821 13.9215 -0.8102 23.9575 -1.5235 -17.2650 11.1942 -7.9543 1.6192 0.9631 -1.7891 -25.3648 -22.7044 3.4387 0.2757 33.5658 1.1811 24.7591 -18.8445 3.4958 -1.4204 -0.0724 1.0848
-6.7797 91.8253 -2.9174 2.9798 7.7076 -2.0587 1.2677 14.2226 -0.6910 0.3516 0.7923 -1.0404 4.8593 27.1933 -1.7285 -4.5006 9.3910 3.6674 -1.0452 -3.7291 3.4035 -8.9558 -19.7992 7.2384 -0.0042 -0.0606 0.0451 0.5919 -10.2493 -3.7330 -0.6104 -10.2590 3.8327 3.7878 20.1487 -7.9748 -45.0667 -31.5724 16.3914 1.1530 0.3104 -119.7474 25.7852 -25.0585 -7.7315 -15.3558 10.3530 15.1324 -60.4056 1.9114 2.1491 2.6069 16.3538 14.9940 23.1844 -14.1093 2.4880 0.2860 1.2088 109.9849 -18.3455 -20.9864 12.0350 15.8489 7.7459 -16.3622 50.9746 -3.3274 -5.3238 12.1002 -40.0290 14.8214 -0.8349 24.9408 -1.5220 -17.3465 10.6679 -8.0334 1.6245 0.9392 -1.8035 -25.7305 -22.7332 3.6877 0.3040 34.5240 1.2256 24.6014 -19.1218 3.8063 -1.4246 -0.0536 1.0608
-6.5861 91.5412 -3.1219 3.1564 6.9395 -2.3313 1.3031 14.2774 -0.7009 0.4109 0.7950 -1.0523 4.8185 27.2342 -1.7042 -4.7151 9.1815 3.8016 -1.0085 -3.7174 3.3723 -9.0884 -19.6713 7.3627 -0.0014 -0.0537 0.0397 0.5998 -10.2677 -3.7409 -0.6130 -10.2736 3.8286 3.1504 20.0626 -8.1603 -44.8308 -31.8244 15.6477 1.1979 0.2630 -119.3854 25.1671 -24.6358 -7.0877 -15.4065 10.4201 15.2084 -60.5149 1.9240 2.1609 2.3917 16.2049 15.1293 24.1222 -14.7040 3.2230 0.0515 1.0543 109.7774 -19.7668 -20.8850 13.0357 15.7526 7.7685 -16.3618 50.9536 -3.3586 -5.3120 11.7986 -39.9026 15.6001 -0.8574 26.0479 -1.5223 -17.4355 10.0742 -8.2421 1.6286 0.9377 -1.8251 -26.1176 -22.6807 3.8463 0.3257 35.5527 1.2690 24.5020 -19.4646 3.9680 -1.4273 -0.0452 1.0319
-6.3619 91.2259 -3.3294 3.3433 6.1805 -2.3509 1.2863 14.2939 -0.7183 0.4466 0.8061 -1.0189 4.7651 27.3142 -1.6573 -4.7999 8.9360 3.9300 -1.0041 -3.7104 3.3660 -9.0884 -19.5304 7.4327 -0.0001 -0.0502 0.0405 0.6045 -10.2869 -3.7423 -0.6155 -10.2846 3.8316 2.5473 19.9537 -8.3453 -44.4661 -32.1438 14.6313 1.1932 0.2024 -118.7724 24.8923 -24.3889 -6.8550 -15.5290 10.4875 15.2671 -60.6200 1.9339 2.1968 2.3087 15.9997 15.4112 25.5984 -15.4163 4.4381 -0.1152 0.9317 109.2820 -21.2026 -20.6323 14.1208 15.6682 7.7289 -16.3459 50.8996 -3.4267 -5.3206 11.4711 -39.8265 16.1860 -0.8830 27.1351 -1.5256 -17.5132 9.4983 -8.5549 1.6337 0.9219 -1.8460 -26.5204 -22.5515 3.8764 0.3603 36.5544 1.3390 24.4768 -19.7795 3.9570 -1.4314 -0.0639 1.0124
-6.1601 90.9428 -3.5235 3.5156 5.4732 -2.1863 1.2248 14.2900 -0.6953 0.4675 0.7859 -0.9726 4.7099 27.4323 -1.5800 -4.8160 8.6907 4.0381 -0.9754 -3.7012 3.3658 -8.9768 -19.3822 7.4653 -0.0012 -0.0461 0.0437 0.6135 -10.3110 -3.7422 -0.6275 -10.3077 3.8395 2.0479 19.8611 -8.4914 -43.8823 -32.2917 13.3308 1.2264 0.1045 -117.9727 24.7609 -24.1757 -6.8894 -15.6008 10.5290 15.2916 -60.7189 1.9199 2.1837 2.2889 15.8263 15.7963 27.6606 -16.2350 6.0813 -0.2955 0.7564 108.6375 -22.5686 -20.0960 15.2124 15.6051 7.6448 -16.2931 50.7760 -3.5306 -5.3048 11.1215 -39.8062 16.6545 -0.9075 28.1534 -1.5321 -17.5744 8.9714 -8.8823 1.6384 0.9171 -1.8735 -26.8958 -22.3912 3.7880 0.3970 37.4890 1.3833 24.4677 -20.0839 3.9440 -1.4333 -0.1073 0.9826
-5.9700 90.6599 -3.6992 3.6916 4.8152 -1.8876 1.1162 14.2423 -0.6722 0.4643 0.7685 -0.8831 4.6465 27.5034 -1.4647 -4.7568 8.4825 4.0605 -0.9437 -3.6910 3.4026 -8.7647 -19.2515 7.4744 -0.0049 -0.0430 0.0478 0.6209 -10.3385 -3.7429 -0.6427 -10.3305 3.8499 1.6338 19.7611 -8.6308 -43.0856 -32.1701 11.8716 1.1703 0.0235 -116.9916 24.7554 -23.9295 -7.1672 -15.6365 10.5832 15.3517 -60.7725 1.8764 2.1841 2.3120 15.6748 16.2371 30.1993 -17.1751 8.1512 -0.3505 0.5705 107.8082 -23.6810 -19.1461 16.0496 15.5365 7.5364 -16.2389 50.5948 -3.5877 -5.2882 10.7303 -39.8092 17.0904 -0.9474 29.0835 -1.5489 -17.6020 8.4702 -9.2586 1.6410 0.9443 -1.8972 -27.2751 -22.1742 3.6046 0.4446 38.2822 1.4514 24.5099 -20.3921 3.8266 -1.4333 -0.1308 0.9559
-5.7739 90.4133 -3.8717 3.8656 4.2269 -1.5181 0.9719 14.1561 -0.6363 0.4466 0.7399 -0.7672 4.5461 27.5051 -1.3104 -4.7074 8.3354 4.0200 -0.8905 -3.6859 3.4426 -8.4588 -19.1164 7.4300 -0.0086 -0.0409 0.0528 0.6284 -10.3665 -3.7440 -0.6577 -10.3553 3.8627 1.2282 19.6824 -8.7501 -42.0994 -31.8155 10.3636 0.9833 0.0169 -115.8749 24.7892 -23.7180 -7.6000 -15.6218 10.6303 15.3962 -60.7525 1.8233 2.1577 2.3814 15.5600 16.7449 32.9934 -18.1060 10.7017 -0.3722 0.3460 106.6819 -24.4801 -17.7970 16.7096 15.4316 7.4356 -16.1507 50.3613 -3.5670 -5.2488 10.2940 -39.8087 17.5107 -0.9735 29.9163 -1.5555 -17.5573 7.9410 -9.5925 1.6424 0.9734 -1.9139 -27.6485 -21.9093 3.4004 0.4875 38.9299 1.5124 24.5628 -20.6797 3.6260 -1.4336 -0.1487 0.9268
-5.6027 90.1888 -4.0086 4.0026 3.7490 -1.1408 0.8158 14.0109 -0.5831 0.4220 0.6806 -0.6442 4.3804 27.4339 -1.1017 -4.6968 8.2327 3.9178 -0.8128 -3.6845 3.4773 -8.0237 -18.9144 7.2597 -0.0094 -0.0345 0.0510 0.6340 -10.3882 -3.7503 -0.6644 -10.3722 3.8642 0.8055 19.6391 -8.8615 -40.8920 -31.1315 8.8069 0.7934 0.0483 -114.6793 24.8569 -23.5115 -8.1296 -15.5718 10.7125 15.4167 -60.7009 1.7974 2.1195 2.5397 15.5004 17.3148 35.6476 -18.8356 13.7224 -0.3845 0.1267 105.1238 -24.7550 -16.4789 17.3456 15.3583 7.3370 -16.0797 50.0858 -3.5049 -5.1958 9.8442 -39.8162 17.9086 -0.9817 30.6157 -1.5439 -17.4464 7.3779 -9.9102 1.6382 1.0268 -1.9127 -27.9379 -21.6342 3.2036 0.5233 39.3899 1.5711 24.5992 -20.8784 3.3234 -1.4346 -0.1561 0.9147
-5.4333 90.0236 -4.1186 4.0990 3.3681 -0.7335 0.6590 13.8035 -0.5150 0.3825 0.5902 -0.5148 4.1787 27.2889 -0.8633 -4.7550 8.1734 3.8014 -0.6858 -3.6788 3.4443 -7.5029 -18.6537 6.9902 -0.0038 -0.0274 0.0393 0.6413 -10.4011 -3.7666 -0.6600 -10.3819 3.8546 0.3548 19.5770 -8.9469 -39.5840 -30.1210 7.2621 0.5596 0.1732 -113.3778 24.8195 -23.3490 -8.6834 -15.4421 10.7823 15.4366 -60.5733 1.8091 2.1199 2.7731 15.4924 17.9390 37.7804 -19.1752 16.9958 -0.3405 -0.0283 103.0765 -24.5346 -15.7108 18.1270 15.3299 7.2392 -16.0218 49.7868 -3.4715 -5.1308 9.4359 -39.7829 18.2219 -0.9712 31.1108 -1.5100 -17.3483 6.8211 -10.2314 1.6321 1.0791 -1.9017 -28.1565 -21.3195 2.9949 0.5540 39.6446 1.6251 24.6561 -20.9598 2.8840 -1.4361 -0.1803 0.9187
-5.2750 89.8827 -4.1628 4.1384 3.0490 -0.2674 0.5006 13.5465 -0.4718 0.3244 0.4775 -0.3489 3.9153 27.1125 -0.6562 -4.8899 8.2432 3.6819 -0.5457 -3.6929 3.3637 -6.9474 -18.3727 6.6665 0.0040 -0.0284 0.0203 0.6470 -10.4252 -3.7895 -0.6495 -10.4070 3.8328 -0.0354 19.4930 -8.9958 -38.3582 -28.8446 5.8659 0.3458 0.2661 -112.1192 24.7487 -22.9556 -9.2047 -15.3203 10.8514 15.4470 -60.4959 1.8278 2.1349 3.0111 15.5999 18.4861 39.2049 -18.9797 20.1745 -0.3134 -0.1329 100.7518 -24.0224 -15.7723 19.1807 15.3159 7.1552 -15.9601 49.6682 -3.4204 -5.0566 9.1222 -39.7622 18.3901 -0.9590 31.5013 -1.4735 -17.2626 6.2802 -10.5846 1.6250 1.1184 -1.8810 -28.2472 -20.9160 2.7445 0.5683 39.7110 1.6521 24.7171 -20.9993 2.2959 -1.4348 -0.2104 0.9196
-5.1239 89.7981 -4.1660 4.1019 2.7500 0.1864 0.3366 13.2546 -0.4078 0.2633 0.3445 -0.2113 3.5770 26.9232 -0.4996 -5.1296 8.4675 3.6566 -0.4255 -3.7056 3.2681 -6.3731 -18.0607 6.3174 0.0129 -0.0317 -0.0031 0.6545 -10.4310 -3.8136 -0.6386 -10.4128 3.8066 -0.4470 19.4125 -9.0300 -37.2579 -27.4063 4.6591 0.1906 0.2714 -110.9689 24.6263 -22.3457 -9.7007 -15.2048 10.9130 15.4545 -60.4397 1.8403 2.1459 3.2604 15.8388 18.9161 39.8859 -18.1751 22.8588 -0.2613 -0.1047 98.3298 -23.4886 -16.5785 20.2521 15.3208 7.1033 -15.9132 49.6948 -3.3510 -5.0187 8.9332 -39.6896 18.5403 -0.9717 31.7549 -1.4660 -17.1839 5.8220 -10.9875 1.6167 1.1383 -1.8668 -28.2288 -20.3796 2.4910 0.5347 39.5979 1.6004 24.7866 -20.9827 1.6758 -1.4359 -0.2343 0.9384
-5.0157 89.7811 -4.1069 4.0075 2.4177 0.6677 0.1726 12.9239 -0.3807 0.1927 0.1835 -0.0621 3.1423 26.7347 -0.4178 -5.4428 8.8987 3.7284 -0.3098 -3.7276 3.1821 -5.8659 -17.6675 6.0123 0.0213 -0.0318 -0.0262 0.6611 -10.4423 -3.8382 -0.6285 -10.4235 3.7791 -0.8682 19.3948 -9.0430 -36.2339 -25.9143 3.5181 0.1619 0.2135 -109.8700 24.4042 -21.6971 -10.2360 -15.1292 10.9704 15.4897 -60.4248 1.8499 2.1436 3.4604 16.2002 19.1439 40.0449 -16.8228 24.8538 -0.2231 -0.0032 95.9823 -23.0452 -17.8551 20.9997 15.3329 7.0767 -15.8522 49.7723 -3.2371 -4.9872 8.8427 -39.5040 18.6362 -0.9884 31.8489 -1.4713 -17.0928 5.4312 -11.3726 1.6094 1.1771 -1.8409 -28.0688 -19.6708 2.1345 0.4805 39.2927 1.5248 24.8065 -20.9805 1.0645 -1.4387 -0.2362 0.9542
-4.9409 89.8286 -3.9719 3.8703 2.0665 1.1379 0.0081 12.5552 -0.3521 0.1062 0.0015 0.0667 2.6470 26.4974 -0.4177 -5.8747 9.5522 3.8693 -0.1677 -3.7536 3.1413 -5.4667 -17.2137 5.7897 0.0329 -0.0313 -0.0527 0.6729 -10.4361 -3.8610 -0.6173 -10.4174 3.7441 -1.3376 19.3791 -9.0509 -35.2648 -24.4121 2.4263 0.1501 0.1845 -108.6919 24.0626 -21.1176 -10.7029 -15.1048 11.0101 15.5497 -60.4030 1.9068 2.1515 3.6324 16.5873 19.1847 39.7181 -14.8540 26.2104 -0.1708 0.1333 93.7523 -22.4350 -19.4252 20.9723 15.2841 7.0932 -15.7726 49.8184 -3.1420 -4.9302 8.8368 -39.2141 18.6844 -0.9832 31.8246 -1.4701 -16.9806 5.1328 -11.7441 1.6021 1.1593 -1.8009 -27.8112 -18.8715 1.6845 0.4200 38.8467 1.4423 24.7530 -20.9215 0.5351 -1.4453 -0.2494 0.9745
-4.9187 89.9198 -3.8488 3.6856 1.6951 1.6140 -0.1412 12.1528 -0.2945 0.0143 -0.2498 0.1322 2.0815 26.2374 -0.4815 -6.4589 10.4685 4.0875 0.0010 -3.7709 3.1507 -5.1487 -16.6888 5.6173 0.0397 -0.0299 -0.0652 0.6801 -10.4210 -3.8684 -0.6123 -10.4087 3.7255 -1.8657 19.3371 -9.0608 -34.2950 -22.8405 1.3738 0.2461 0.2047 -107.3520 23.6141 -20.6226 -11.0076 -15.0950 11.0321 15.5600 -60.4533 2.0004 2.1450 3.7262 17.0483 19.0509 38.9601 -12.2208 27.0733 -0.1853 0.3657 91.7693 -21.3391 -21.2751 20.0546 15.2458 7.1182 -15.6781 49.8981 -3.0722 -4.8453 8.9754 -38.8586 18.6612 -0.9381 31.7243 -1.4169 -16.8841 4.8794 -12.2195 1.5956 1.0884 -1.7689 -27.4584 -18.0210 1.1052 0.3691 38.3013 1.3714 24.6633 -20.8174 0.1236 -1.4529 -0.3015 0.9833
-4.9603 90.0544 -3.6508 3.4589 1.2879 2.0434 -0.2636 11.7069 -0.2395 -0.0826 -0.5400 0.1520 1.4807 25.9671 -0.6036 -7.1856 11.5359 4.3040 0.1393 -3.7964 3.2711 -4.9081 -16.1564 5.5890 0.0408 -0.0357 -0.0675 0.6833 -10.4033 -3.8651 -0.6151 -10.3984 3.7194 -2.4182 19.3049 -9.1036 -33.4942 -21.3522 0.6188 0.4311 0.3120 -105.9406 23.2470 -20.5067 -11.2916 -15.1499 11.0406 15.5637 -60.5149 2.0727 2.1956 3.7164 17.5822 18.6986 38.0063 -9.2839 27.3838 -0.3157 0.7546 90.5100 -20.0493 -23.0196 18.6579 15.2145 7.1397 -15.6270 50.0875 -3.0748 -4.8080 9.2322 -38.3739 18.6315 -0.8816 31.4978 -1.3564 -16.8356 4.6746 -12.7535 1.5908 1.0000 -1.7387 -27.0371 -17.0796 0.4142 0.3258 37.6059 1.3220 24.6302 -20.6508 -0.2508 -1.4552 -0.3327 1.0030
-5.0594 90.1997 -3.4636 3.2213 0.8413 2.3404 -0.3539 11.2474 -0.1874 -0.1732 -0.8282 0.1523 0.8656 25.7122 -0.7900 -8.0141 12.6328 4.5772 0.2578 -3.8056 3.4311 -4.7303 -15.6406 5.6933 0.0350 -0.0398 -0.0584 0.6815 -10.4019 -3.8523 -0.6263 -10.4027 3.7291 -2.9698 19.2837 -9.1504 -32.8863 -20.1708 0.4006 0.6102 0.3775 -104.7128 22.9996 -20.8842 -11.6963 -15.1948 11.0560 15.5296 -60.5412 2.1017 2.2007 3.5634 18.0942 18.2137 37.4237 -6.8632 26.7142 -0.2294 1.0911 90.4243 -19.5183 -24.5414 17.6776 15.2894 7.1436 -15.6398 50.2955 -3.0918 -4.8292 9.6023 -37.7790 18.5879 -0.8631 31.1979 -1.3310 -16.8500 4.4790 -13.1593 1.5904 0.9267 -1.7325 -26.6089 -16.1317 -0.3022 0.2945 36.8988 1.2621 24.5699 -20.5101 -0.4166 -1.4514 -0.3589 1.0265
-5.1925 90.3998 -3.2090 2.9741 0.3915 2.5057 -0.4246 10.7517 -0.1635 -0.2554 -1.1037 0.1581 0.2770 25.4051 -1.0025 -8.8418 13.7347 4.8950 0.3801 -3.8056 3.6436 -4.5905 -15.1206 5.8915 0.0267 -0.0392 -0.0441 0.6775 -10.4105 -3.8376 -0.6408 -10.4134 3.7488 -3.5813 19.2180 -9.1647 -32.3476 -19.2758 0.5764 0.6845 0.3738 -103.6480 22.7925 -21.6819 -12.2607 -15.2608 11.0453 15.4777 -60.4727 2.1041 2.1729 3.3372 18.5370 17.6881 37.2167 -5.0048 25.1797 0.0088 1.2317 91.2162 -19.7874 -25.8546 17.0016 15.3831 7.2007 -15.7152 50.5728 -3.0800 -4.9050 10.0721 -37.0534 18.4813 -0.8476 30.7839 -1.3147 -16.9197 4.3186 -13.3805 1.5982 0.8505 -1.7224 -26.1844 -15.1996 -1.0987 0.2744 36.0667 1.2145 24.4272 -20.3308 -0.2928 -1.4467 -0.3790 1.0479
-5.3474 90.6101 -2.8916 2.7518 -0.0842 2.5214 -0.5081 10.2174 -0.1452 -0.3320 -1.3671 0.1976 -0.2696 25.0399 -1.2226 -9.5836 14.8342 5.1773 0.4976 -3.8106 3.9519 -4.4951 -14.6461 6.1954 0.0231 -0.0378 -0.0400 0.6806 -10.4179 -3.8336 -0.6529 -10.4209 3.7571 -4.1271 19.1724 -9.1245 -31.8575 -18.5483 0.9355 0.7157 0.4104 -102.7424 22.6078 -22.5627 -12.7817 -15.3448 11.0246 15.4359 -60.3889 2.0918 2.1328 3.0400 18.9215 17.1321 37.2523 -3.5242 23.1912 0.2722 1.2512 92.3695 -20.4301 -27.0806 16.3593 15.5070 7.2759 -15.7845 50.8003 -3.0973 -4.9843 10.5933 -36.1577 18.4463 -0.8387 30.2249 -1.3188 -17.0302 4.1885 -13.5258 1.6066 0.7696 -1.7130 -25.8187 -14.2181 -1.9755 0.2698 35.0373 1.1767 24.2453 -20.0799 0.0974 -1.4418 -0.4412 1.0608
-5.5092 90.8512 -2.5318 2.5552 -0.5581 2.4021 -0.5999 9.6790 -0.1170 -0.3863 -1.6389 0.1955 -0.7719 24.6174 -1.4092 -10.1325 15.8737 5.4222 0.6072 -3.8062 4.3187 -4.4524 -14.1889 6.5533 0.0233 -0.0356 -0.0433 0.6898 -10.4299 -3.8364 -0.6632 -10.4323 3.7556 -4.5463 19.1430 -8.9927 -31.3614 -17.8315 1.3415 0.8288 0.4257 -102.0689 22.3794 -23.4259 -13.1967 -15.3881 10.9911 15.3847 -60.3398 2.0846 2.1036 2.7573 19.2190 16.5732 37.3329 -2.1991 21.1654 0.4739 1.1816 93.5986 -20.7982 -28.1947 15.5631 15.6098 7.3484 -15.8422 50.8837 -3.1212 -5.0403 11.1470 -35.1231 18.3837 -0.8167 29.5531 -1.3138 -17.1582 4.0682 -13.5475 1.6117 0.6771 -1.7037 -25.4911 -13.2547 -2.8818 0.2623 33.9234 1.1392 23.9925 -19.7253 0.7812 -1.4374 -0.5217 1.0617
-5.6736 91.1210 -2.1271 2.3675 -1.0408 2.1661 -0.6892 9.1150 -0.0990 -0.4430 -1.8917 0.2189 -1.1813 24.1129 -1.5808 -10.5252 16.8049 5.6200 0.7541 -3.8126 4.7492 -4.4469 -13.7452 6.9767 0.0242 -0.0330 -0.0458 0.6997 -10.4341 -3.8404 -0.6722 -10.4377 3.7557 -4.8230 19.1440 -8.8336 -30.9125 -17.1111 1.8759 1.0010 0.4857 -101.6046 22.2363 -24.3564 -13.5849 -15.4195 10.9481 15.3170 -60.3260 2.0853 2.1035 2.5218 19.4309 16.0398 37.4442 -0.8731 19.3648 0.5311 1.2433 94.7387 -20.6646 -29.1227 14.5075 15.6874 7.4271 -15.9043 50.9343 -3.1337 -5.0808 11.7861 -33.9468 18.2843 -0.7945 28.7594 -1.3053 -17.3405 3.9285 -13.4445 1.6120 0.5729 -1.7004 -25.1989 -12.2709 -3.7656 0.2689 32.7428 1.1228 23.7552 -19.3181 1.5924 -1.4340 -0.6419 1.0489
-5.8938 91.3807 -1.6851 2.1906 -1.5185 1.8289 -0.7751 8.5305 -0.0775 -0.5098 -2.1544 0.2028 -1.4870 23.5436 -1.7151 -10.6713 17.5718 5.7900 0.9098 -3.8107 5.1973 -4.4907 -13.2858 7.4605 0.0268 -0.0294 -0.0512 0.7092 -10.4329 -3.8480 -0.6770 -10.4360 3.7538 -4.9615 19.1610 -8.6625 -30.5969 -16.3971 2.5713 1.2767 0.5013 -101.3002 22.0940 -25.3828 -13.9128 -15.4610 10.9344 15.2326 -60.3643 2.1244 2.1076 2.4219 19.5476 15.5639 37.4742 0.5156 17.8550 0.4931 1.3701 95.8181 -20.0075 -29.6362 13.1906 15.6974 7.5091 -15.9866 50.9449 -3.1245 -5.1243 12.4840 -32.6727 18.1239 -0.7641 27.9152 -1.2815 -17.5438 3.7678 -13.2020 1.6114 0.5049 -1.7016 -24.9052 -11.2935 -4.5819 0.2766 31.5933 1.1267 23.4858 -18.9104 2.4301 -1.4324 -0.7258 1.0385
-6.1500 91.6343 -1.2323 2.0134 -2.0065 1.4562 -0.8567 7.9408 -0.0528 -0.5832 -2.4077 0.1573 -1.6840 22.9722 -1.8551 -10.6309 18.1693 5.9083 1.0667 -3.8160 5.6865 -4.5496 -12.8609 7.9502 0.0287 -0.0249 -0.0541 0.7165 -10.4426 -3.8545 -0.6811 -10.4440 3.7567 -5.0150 19.1594 -8.5183 -30.3582 -15.7874 3.4367 1.6225 0.4578 -101.1581 21.9871 -26.4967 -14.2310 -15.4939 10.9084 15.1108 -60.3790 2.1530 2.1000 2.5013 19.5964 15.1510 37.3586 1.7752 16.5299 0.4509 1.5184 96.9616 -19.0403 -29.7089 11.7901 15.6688 7.5818 -16.0683 50.9413 -3.1250 -5.1535 13.2454 -31.3733 17.9037 -0.7391 27.0804 -1.2601 -17.7723 3.6352 -12.9066 1.6101 0.4530 -1.6973 -24.5929 -10.2596 -5.2633 0.2777 30.5163 1.1347 23.2156 -18.5815 3.1870 -1.4325 -0.7874 1.0359
-6.4377 91.8578 -0.7385 1.8684 -2.5173 1.0838 -0.9506 7.3551 -0.0678 -0.6627 -2.6434 0.1093 -1.7926 22.3717 -2.0121 -10.4079 18.6265 5.9369 1.2075 -3.8141 6.1749 -4.6435 -12.4717 8.4797 0.0302 -0.0154 -0.0602 0.7206 -10.4459 -3.8657 -0.6809 -10.4476 3.7539 -5.0570 19.1385 -8.3981 -30.1577 -15.3090 4.3574 1.9699 0.3763 -101.0846 21.9246 -27.5882 -14.6060 -15.5347 10.8704 15.0079 -60.3549 2.1516 2.1132 2.7794 19.5353 14.7559 37.2439 2.8015 15.3414 0.3881 1.6878 98.3298 -17.8045 -29.2966 10.3869 15.6071 7.6283 -16.1433 50.8979 -3.1301 -5.1748 14.0106 -29.9891 17.6417 -0.7083 26.1727 -1.2398 -18.0315 3.5673 -12.5735 1.6089 0.4188 -1.6852 -24.2875 -9.1379 -5.7892 0.2808 29.4828 1.1361 22.9436 -18.3017 3.7764 -1.4323 -0.8346 1.0399
-6.7858 92.0738 -0.2204 1.7454 -3.0320 0.7226 -1.0224 6.7968 -0.0491 -0.7312 -2.8726 0.0108 -1.8291 21.7838 -2.1924 -10.0673 18.9370 5.8751 1.3112 -3.8059 6.6750 -4.7376 -12.1099 8.9340 0.0262 -0.0075 -0.0534 0.7180 -10.4348 -3.8594 -0.6866 -10.4333 3.7652 -5.1280 19.0843 -8.3193 -30.0234 -14.9493 5.3043 2.2042 0.2500 -101.0407 21.9142 -28.5117 -14.9799 -15.5453 10.8445 14.9258 -60.2666 2.1433 2.1116 3.2276 19.3622 14.3488 37.2305 3.4518 14.1636 0.4664 1.8044 100.0264 -16.7643 -28.3996 9.3421 15.5276 7.6872 -16.2245 50.8693 -3.1396 -5.1874 14.7835 -28.5699 17.3924 -0.6856 25.2148 -1.2245 -18.3420 3.5598 -12.2526 1.6090 0.3713 -1.6803 -24.0057 -7.9565 -6.1577 0.2707 28.5173 1.1265 22.7897 -18.1352 4.1803 -1.4361 -0.8368 1.0509
-7.1839 92.2632 0.2935 1.6493 -3.4960 0.4027 -1.0691 6.2673 -0.0695 -0.7881 -3.0831 -0.1013 -1.8012 21.1963 -2.3923 -9.6104 19.0799 5.7314 1.4171 -3.7908 7.1021 -4.8744 -11.7719 9.3424 0.0217 -0.0003 -0.0442 0.7132 -10.4269 -3.8510 -0.6905 -10.4206 3.7788 -5.2378 18.9716 -8.2610 -29.9540 -14.6350 6.1505 2.3256 0.1575 -100.9547 21.9296 -29.2719 -15.3586 -15.5453 10.8571 14.9140 -60.1955 2.1320 2.1154 3.8605 19.0793 13.9404 37.4014 3.7309 12.9582 0.5728 1.8002 102.1272 -15.9840 -26.9238 8.7058 15.4782 7.7415 -16.2966 50.8595 -3.1670 -5.1897 15.5033 -27.1580 17.1037 -0.6504 24.2009 -1.2080 -18.7020 3.6051 -11.8486 1.6118 0.3055 -1.6760 -23.7127 -6.8255 -6.4297 0.2487 27.6415 1.1084 22.6575 -18.0126 4.4680 -1.4414 -0.8538 1.0628
-7.5673 92.4147 0.7973 1.5835 -3.9005 0.1814 -1.0981 5.7651 -0.1021 -0.8172 -3.2711 -0.2095 -1.7048 20.6656 -2.6359 -9.1099 19.0859 5.5235 1.4970 -3.7798 7.4192 -5.0344 -11.4994 9.6776 0.0208 0.0061 -0.0412 0.7076 -10.4210 -3.8522 -0.6850 -10.4108 3.7837 -5.3892 18.8462 -8.2158 -29.9440 -14.4324 6.8571 2.3569 0.0802 -100.8154 22.0356 -29.9191 -15.8135 -15.5574 10.8715 14.9695 -60.1412 2.1007 2.1305 4.6467 18.7505 13.5226 37.8540 3.6415 11.6721 0.6714 1.7195 104.6191 -15.4889 -25.1574 8.6689 15.4534 7.7636 -16.3547 50.8682 -3.1986 -5.1886 16.1419 -25.8631 16.8469 -0.6084 23.1881 -1.1773 -19.1242 3.7367 -11.4932 1.6147 0.2401 -1.6751 -23.4434 -5.7720 -6.5892 0.2313 26.9432 1.0806 22.5532 -17.9703 4.6122 -1.4457 -0.8485 1.0649
-7.9939 92.5249 1.2643 1.5491 -4.2193 0.0536 -1.0787 5.3154 -0.1076 -0.8291 -3.4528 -0.3833 -1.5559 20.2249 -2.8738 -8.5417 18.9639 5.2901 1.5172 -3.7803 7.5787 -5.2243 -11.3140 9.8869 0.0239 0.0083 -0.0450 0.7067 -10.4302 -3.8639 -0.6776 -10.4162 3.7892 -5.5765 18.6838 -8.1944 -30.0014 -14.2539 7.3738 2.3849 0.0317 -100.6662 22.1408 -30.4621 -16.2661 -15.5576 10.8875 15.0186 -60.1456 2.0721 2.1431 5.6090 18.4310 13.1887 38.5305 3.3500 10.3120 0.7457 1.5509 107.3335 -15.2838 -23.4571 9.2989 15.4233 7.7599 -16.3921 50.8471 -3.2340 -5.1808 16.6929 -24.7395 16.5921 -0.5766 22.2566 -1.1530 -19.5719 3.9340 -11.1785 1.6138 0.2146 -1.6755 -23.1764 -4.8955 -6.6209 0.2027 26.5444 1.0227 22.4672 -18.0412 4.6226 -1.4520 -0.8426 1.0779
-8.3843 92.5574 1.6488 1.5439 -4.4710 0.0803 -1.0276 4.9270 -0.1436 -0.8223 -3.5797 -0.5236 -1.3539 19.8961 -3.1184 -7.9771 18.8147 5.0823 1.4995 -3.7940 7.5221 -5.4376 -11.2748 9.9617 0.0285 0.0134 -0.0558 0.7067 -10.4382 -3.8813 -0.6668 -10.4223 3.7810 -5.7332 18.4630 -8.1661 -30.1372 -14.1681 7.5539 2.4114 0.0262 -100.4790 22.2650 -30.8452 -16.7306 -15.6002 10.8969 15.0766 -60.2259 2.0397 2.1602 6.6437 18.1999 12.9336 39.3963 2.9605 9.0955 0.7557 1.3824 109.7595 -15.2945 -22.0205 10.3656 15.3749 7.7158 -16.3964 50.7493 -3.2746 -5.1582 17.1252 -23.8755 16.3195 -0.5459 21.5163 -1.1177 -20.0250 4.1567 -11.0111 1.6145 0.1856 -1.6717 -22.9609 -4.2776 -6.6734 0.1752 26.5012 0.9706 22.4473 -18.2432 4.5039 -1.4556 -0.7914 1.0786
-8.7608 92.5169 1.9711 1.5733 -4.7228 0.2363 -0.9642 4.6332 -0.1719 -0.8046 -3.6802 -0.6877 -1.1139 19.7287 -3.3155 -7.3878 18.6505 4.9250 1.4283 -3.7975 7.2568 -5.6168 -11.3832 9.8333 0.0334 0.0212 -0.0705 0.7090 -10.4579 -3.9035 -0.6582 -10.4399 3.7710 -5.8355 18.2298 -8.1538 -30.3488 -14.2438 7.4589 2.4218 -0.0251 -100.3143 22.3305 -30.8602 -17.0444 -15.6338 10.8970 15.0821 -60.3806 2.0110 2.1619 7.7115 18.0509 12.7946 40.4049 2.5560 8.0572 0.7502 1.2521 111.6408 -15.3598 -20.6616 11.4960 15.2836 7.6390 -16.3902 50.5652 -3.3214 -5.1421 17.4812 -23.2559 15.9970 -0.5204 21.1100 -1.0738 -20.4443 4.2948 -10.9892 1.6139 0.1953 -1.6827 -22.8163 -3.8672 -6.7768 0.1586 26.8421 0.9448 22.4581 -18.6162 4.3558 -1.4591 -0.6888 1.0825
-9.1156 92.4130 2.2363 1.6135 -5.0204 0.4782 -0.8919 4.4332 -0.1788 -0.7852 -3.7433 -0.8587 -0.8382 19.7345 -3.4745 -6.8190 18.5384 4.7804 1.3160 -3.7928 6.8962 -5.7808 -11.6092 9.5900 0.0354 0.0279 -0.0792 0.7093 -10.4776 -3.9165 -0.6543 -10.4629 3.7668 -5.8686 18.0685 -8.1203 -30.6763 -14.5500 7.1108 2.3730 -0.0241 -100.1984 22.3654 -30.6112 -17.2108 -15.6347 10.8720 15.0487 -60.4848 1.9738 2.1455 8.6930 18.0121 12.7924 41.5215 2.1038 7.3887 0.7583 1.1394 112.6663 -15.3776 -19.4052 12.4057 15.1553 7.5618 -16.3542 50.3846 -3.3473 -5.1249 17.8175 -22.8220 15.6075 -0.5075 21.0371 -1.0421 -20.7803 4.3425 -11.0456 1.6110 0.2280 -1.7155 -22.7461 -3.5587 -6.9097 0.1550 27.4570 0.9335 22.5142 -19.1049 4.2627 -1.4598 -0.5731 1.0851
-9.4442 92.2682 2.4633 1.6124 -5.3914 0.7610 -0.8182 4.3102 -0.2010 -0.7667 -3.7557 -0.9549 -0.5332 19.8390 -3.5717 -6.2922 18.5564 4.6491 1.1829 -3.7862 6.4963 -5.8574 -11.8585 9.2918 0.0339 0.0287 -0.0820 0.7060 -10.4927 -3.9211 -0.6535 -10.4821 3.7660 -5.8115 17.9806 -8.0410 -31.1118 -14.9953 6.4729 2.1815 -0.0121 -100.0712 22.4312 -30.1124 -17.2702 -15.6685 10.8546 15.0398 -60.5274 1.9256 2.1190 9.5764 18.0482 12.9139 42.7997 1.6214 7.1898 0.7582 1.0572 112.7082 -15.3116 -18.4277 12.9841 15.0602 7.4923 -16.3415 50.2652 -3.3978 -5.1082 18.1963 -22.5082 15.2149 -0.4989 21.2566 -1.0212 -20.9906 4.2486 -11.2122 1.6099 0.2296 -1.7518 -22.6732 -3.1738 -7.0551 0.1591 28.0962 0.9540 22.5765 -19.6059 4.1299 -1.4551 -0.4604 1.0707
-9.6953 92.1096 2.6731 1.5795 -5.8360 1.0739 -0.7623 4.2846 -0.1814 -0.7544 -3.7540 -1.0331 -0.2627 20.0596 -3.6058 -5.7899 18.6964 4.4810 1.0533 -3.7765 6.1708 -5.8539 -12.1341 8.9653 0.0289 0.0243 -0.0694 0.6988 -10.5231 -3.9099 -0.6560 -10.5120 3.7825 -5.6631 17.9831 -7.9654 -31.5461 -15.3636 5.6142 1.9806 -0.0207 -100.0248 22.4347 -29.4963 -17.1869 -15.6635 10.8218 15.0013 -60.4501 1.8976 2.0852 10.3903 18.1770 13.1391 44.1493 1.0682 7.4335 0.6636 0.9281 111.9744 -15.3044 -17.6892 13.3699 15.0449 7.4271 -16.2835 50.2042 -3.4238 -5.0824 18.5730 -22.3095 14.8547 -0.5063 21.7858 -1.0268 -21.0198 4.0058 -11.4685 1.6078 0.2199 -1.7747 -22.5751 -2.6343 -7.1585 0.1618 28.6645 0.9753 22.6119 -20.1333 3.9750 -1.4488 -0.3986 1.0627
-9.8729 91.9294 2.8741 1.5224 -6.2608 1.4392 -0.7359 4.3019 -0.1690 -0.7499 -3.7046 -1.0504 -0.0225 20.3046 -3.5992 -5.3027 18.8680 4.3164 0.9378 -3.7724 5.9160 -5.7836 -12.4661 8.6258 0.0259 0.0239 -0.0623 0.6881 -10.5389 -3.9032 -0.6507 -10.5267 3.7912 -5.5044 18.0064 -7.8786 -31.9003 -15.6369 4.5546 1.7459 0.0780 -100.0485 22.3946 -28.9450 -17.0567 -15.6237 10.8171 15.0094 -60.2941 1.9127 2.0673 11.1513 18.2932 13.4145 45.5454 0.4429 8.0215 0.4633 0.8088 110.7487 -15.3283 -17.0605 13.6249 15.0994 7.3818 -16.2468 50.1766 -3.4360 -5.0813 18.9271 -22.2258 14.4902 -0.5284 22.4983 -1.0576 -20.9723 3.6570 -11.8093 1.6073 0.2069 -1.7800 -22.4772 -2.0373 -7.2180 0.1615 29.1608 0.9874 22.6888 -20.6324 3.6974 -1.4431 -0.3215 1.0531
-9.9601 91.7554 3.0386 1.4888 -6.5650 1.7632 -0.7409 4.3638 -0.1212 -0.7550 -3.6427 -1.0680 0.1579 20.5431 -3.5125 -4.8479 19.0295 4.1476 0.8297 -3.7863 5.7485 -5.6784 -12.8514 8.2954 0.0261 0.0267 -0.0668 0.6822 -10.5614 -3.9079 -0.6437 -10.5442 3.7864 -5.4058 18.0432 -7.8201 -32.1064 -15.7503 3.5059 1.6436 0.1337 -100.2295 22.3054 -28.4466 -16.9113 -15.5830 10.8451 15.0411 -60.1959 1.9242 2.0433 11.7926 18.3647 13.7327 46.8189 -0.1961 8.7215 0.2409 0.5863 109.4406 -15.3811 -16.3814 13.8438 15.1968 7.3293 -16.1856 50.1381 -3.4409 -5.0641 19.1705 -22.3178 14.1956 -0.5556 23.3382 -1.1015 -20.8869 3.2340 -12.1050 1.6080 0.2234 -1.7767 -22.4449 -1.5886 -7.2256 0.1616 29.6432 1.0047 22.7939 -21.0540 3.4222 -1.4396 -0.2546 1.0428
-9.9070 91.5709 3.1862 1.4959 -6.7161 2.0363 -0.7877 4.4677 -0.0706 -0.7637 -3.5605 -1.0661 0.2658 20.7491 -3.3612 -4.4507 19.1170 4.0045 0.7450 -3.8036 5.6374 -5.5732 -13.2853 8.0288 0.0277 0.0347 -0.0766 0.6747 -10.5690 -3.9162 -0.6320 -10.5440 3.7736 -5.3826 18.0947 -7.7966 -32.2935 -15.8274 2.6342 1.5846 0.1839 -100.5397 22.2898 -27.9870 -16.8787 -15.5369 10.8859 15.0889 -60.1615 1.9251 2.0197 12.2639 18.3962 14.0436 47.8950 -0.9064 9.3992 0.1308 0.3413 108.1891 -15.4292 -15.7060 14.0343 15.3318 7.2883 -16.1677 50.1363 -3.4555 -5.0613 19.2535 -22.5721 13.9744 -0.5780 24.2481 -1.1361 -20.7282 2.7644 -12.3406 1.6057 0.2450 -1.7667 -22.5039 -1.3280 -7.1736 0.1555 30.0909 1.0254 22.9565 -21.3447 3.0912 -1.4393 -0.1983 1.0398
-9.7610 91.4225 3.3434 1.5461 -6.7118 2.2624 -0.8662 4.6181 -0.0155 -0.7728 -3.4853 -1.0219 0.2894 20.9375 -3.1852 -4.0916 19.1176 3.9047 0.6761 -3.8164 5.5157 -5.4453 -13.7483 7.8384 0.0283 0.0426 -0.0809 0.6659 -10.5769 -3.9205 -0.6214 -10.5440 3.7684 -5.3700 18.1716 -7.8010 -32.4852 -15.9013 1.9922 1.5869 0.2241 -100.9808 22.3942 -27.6131 -16.9820 -15.5029 10.9256 15.1341 -60.2068 1.9095 1.9995 12.5285 18.4044 14.3252 48.7180 -1.6248 10.0133 0.0944 0.1562 107.0793 -15.5090 -15.1408 14.1993 15.4351 7.2748 -16.1824 50.1832 -3.4785 -5.0608 19.1555 -22.9444 13.8371 -0.6065 25.1598 -1.1847 -20.4931 2.2761 -12.4332 1.6029 0.2683 -1.7630 -22.6520 -1.2198 -7.0315 0.1475 30.4682 1.0495 23.1430 -21.5080 2.6821 -1.4396 -0.2110 1.0346
-9.5423 91.2984 3.5238 1.6512 -6.5388 2.4074 -0.9929 4.7881 0.0464 -0.7758 -3.4101 -0.9630 0.2195 21.0670 -2.9999 -3.7678 19.0393 3.8661 0.6390 -3.8162 5.4153 -5.3322 -14.2341 7.7072 0.0303 0.0473 -0.0855 0.6565 -10.5685 -3.9238 -0.6075 -10.5324 3.7616 -5.3328 18.2488 -7.7768 -32.7536 -15.9102 1.5495 1.6444 0.2665 -101.4424 22.5410 -27.2776 -17.2164 -15.4365 10.9880 15.1859 -60.3223 1.9080 1.9873 12.6371 18.3914 14.5929 49.3175 -2.2883 10.5274 0.1433 0.0035 106.0642 -15.6691 -14.6240 14.4631 15.4874 7.2698 -16.2262 50.2382 -3.4929 -5.0859 18.8701 -23.4038 13.7880 -0.6277 26.0178 -1.2249 -20.2148 1.7860 -12.3767 1.6065 0.2602 -1.7666 -22.8842 -1.2872 -6.8092 0.1335 30.7300 1.0618 23.3429 -21.5386 2.2701 -1.4457 -0.2955 1.0363
-9.2339 91.2037 3.7398 1.7584 -6.1960 2.5027 -1.1585 4.9561 0.0909 -0.7648 -3.3353 -0.8766 0.0996 21.1460 -2.8075 -3.5035 18.9194 3.8617 0.6141 -3.8262 5.2968 -5.1818 -14.6953 7.5793 0.0337 0.0447 -0.0936 0.6579 -10.5531 -3.9305 -0.6017 -10.5225 3.7504 -5.2896 18.4089 -7.7491 -33.1594 -16.0600 1.3999 1.6246 0.2471 -101.9766 22.5329 -26.7779 -17.3667 -15.3522 11.0345 15.2394 -60.4035 1.8978 2.0026 12.5936 18.3231 14.8331 49.7749 -2.8304 11.0468 0.1971 0.0277 105.0855 -15.8920 -14.2044 14.7563 15.5529 7.2813 -16.3044 50.3141 -3.5017 -5.1177 18.4813 -23.9300 13.6969 -0.6349 26.8265 -1.2577 -19.9547 1.3057 -12.1386 1.6175 0.2662 -1.7540 -23.1426 -1.4829 -6.4712 0.1203 30.8581 1.0753 23.5200 -21.4478 1.7881 -1.4557 -0.5033 1.0596
-8.7900 91.1397 3.9644 1.8616 -5.7407 2.6318 -1.3361 5.1072 0.1157 -0.7473 -3.2890 -0.7957 -0.0626 21.2452 -2.6245 -3.3241 18.7119 3.8083 0.5183 -3.8309 5.2270 -4.9265 -14.9581 7.3465 0.0408 0.0361 -0.1217 0.6653 -10.5395 -3.9575 -0.5940 -10.5200 3.7169 -5.1799 18.5677 -7.7439 -33.6911 -16.2527 1.5175 1.5280 0.1803 -102.6151 22.4102 -25.9390 -17.4074 -15.2494 11.0302 15.2990 -60.4020 1.8700 2.0509 12.4533 18.2130 15.0148 50.1886 -3.2694 11.5313 0.2699 0.1152 104.2399 -16.1710 -13.8974 15.0012 15.6213 7.3171 -16.3089 50.4406 -3.4313 -5.1073 18.0484 -24.5279 13.5985 -0.6411 27.5900 -1.2657 -19.6962 0.7967 -11.9045 1.6279 0.3425 -1.7225 -23.4137 -1.7187 -6.0557 0.0910 30.9135 1.0386 23.6499 -21.2222 1.2421 -1.4618 -0.9517 1.0875
