HIERARCHY
ROOT Hips
{
	OFFSET 0.0000 0.0000 0.0000
	CHANNELS 6 Xposition Yposition Zposition Zrotation Xrotation Yrotation
	JOINT Spine1
	{
		OFFSET -0.0137 5.0038 -0.0537
		CHANNELS 3 Zrotation Xrotation Yrotation
		JOINT Spine2
		{
			OFFSET -0.0000 7.1253 -0.0298
			CHANNELS 3 Zrotation Xrotation Yrotation
			JOINT Chest
			{
				OFFSET -0.0000 7.5501 -0.8160
				CHANNELS 3 Zrotation Xrotation Yrotation
				JOINT Neck1
				{
					OFFSET -0.1817 26.3113 -0.5533
					CHANNELS 3 Zrotation Xrotation Yrotation
					JOINT Neck2
					{
						OFFSET -0.0000 7.7094 2.3026
						CHANNELS 3 Zrotation Xrotation Yrotation
						JOINT Head
						{
							OFFSET -0.0000 6.1289 1.9537
							CHANNELS 3 Zrotation Xrotation Yrotation
							JOINT Jaw
							{
								OFFSET 0.0026 0.4756 3.0949
								CHANNELS 3 Zrotation Xrotation Yrotation
								End Site
								{
									OFFSET 0.0 1.0 0.0
								}
							}
							JOINT LeftEye
							{
								OFFSET 3.2064 5.3802 7.5869
								CHANNELS 3 Zrotation Xrotation Yrotation
								End Site
								{
									OFFSET 0.0 1.0 0.0
								}
							}
							JOINT RightEye
							{
								OFFSET -3.2224 5.3619 7.5582
								CHANNELS 3 Zrotation Xrotation Yrotation
								End Site
								{
									OFFSET 0.0 1.0 0.0
								}
							}
						}
					}
				}
				JOINT LeftShoulder
				{
					OFFSET 1.6217 23.2372 5.1134
					CHANNELS 3 Zrotation Xrotation Yrotation
					JOINT LeftArm
					{
						OFFSET 14.9198 0.0000 -5.5023
						CHANNELS 3 Zrotation Xrotation Yrotation
						JOINT LeftForeArm
						{
							OFFSET 28.7393 0.0000 -0.0026
							CHANNELS 3 Zrotation Xrotation Yrotation
							JOINT LeftHand
							{
								OFFSET 27.0940 -0.0000 0.0026
								CHANNELS 3 Zrotation Xrotation Yrotation
								JOINT LeftHandThumbEnd
								{
									OFFSET 12.2686 -3.2202 4.8331
									CHANNELS 3 Zrotation Xrotation Yrotation
									End Site
									{
										OFFSET 0.0 1.0 0.0
									}
								}
								JOINT LeftHandMiddleEnd
								{
									OFFSET 19.0120 -0.3129 -0.0340
									CHANNELS 3 Zrotation Xrotation Yrotation
									End Site
									{
										OFFSET 0.0 1.0 0.0
									}
								}
							}
						}
					}
				}
				JOINT RightShoulder
				{
					OFFSET -1.3801 23.1803 5.2142
					CHANNELS 3 Zrotation Xrotation Yrotation
					JOINT RightArm
					{
						OFFSET -15.0372 0.0000 -5.5456
						CHANNELS 3 Zrotation Xrotation Yrotation
						JOINT RightForeArm
						{
							OFFSET -28.7366 0.0000 -0.0026
							CHANNELS 3 Zrotation Xrotation Yrotation
							JOINT RightHand
							{
								OFFSET -27.1336 -0.0000 0.0026
								CHANNELS 3 Zrotation Xrotation Yrotation
								JOINT RightHandThumbEnd
								{
									OFFSET -12.2642 -3.2115 4.8040
									CHANNELS 3 Zrotation Xrotation Yrotation
									End Site
									{
										OFFSET 0.0 1.0 0.0
									}
								}
								JOINT RightHandMiddleEnd
								{
									OFFSET -19.0006 -0.3066 -0.0316
									CHANNELS 3 Zrotation Xrotation Yrotation
									End Site
									{
										OFFSET 0.0 1.0 0.0
									}
								}
							}
						}
					}
				}
			}
		}
	}
	JOINT LeftLeg
	{
		OFFSET 10.0432 -8.4345 2.5957
		CHANNELS 3 Zrotation Xrotation Yrotation
		JOINT LeftShin
		{
			OFFSET -0.0000 -43.2218 -0.8029
			CHANNELS 3 Zrotation Xrotation Yrotation
			JOINT LeftFoot
			{
				OFFSET 0.0000 -42.1551 -3.4815
				CHANNELS 3 Zrotation Xrotation Yrotation
				JOINT LeftToeBase
				{
					OFFSET 0.0000 -5.0595 13.2315
					CHANNELS 3 Zrotation Xrotation Yrotation
					End Site
					{
						OFFSET 0.0 1.0 0.0
					}
				}
			}
		}
	}
	JOINT RightLeg
	{
		OFFSET -10.0473 -8.2953 2.6203
		CHANNELS 3 Zrotation Xrotation Yrotation
		JOINT RightShin
		{
			OFFSET 0.0000 -43.3622 -0.8056
			CHANNELS 3 Zrotation Xrotation Yrotation
			JOINT RightFoot
			{
				OFFSET 0.0000 -42.1174 -3.4784
				CHANNELS 3 Zrotation Xrotation Yrotation
				JOINT RightToeBase
				{
					OFFSET -0.0000 -5.0796 13.2842
					CHANNELS 3 Zrotation Xrotation Yrotation
					End Site
					{
						OFFSET 0.0 1.0 0.0
					}
				}
			}
		}
	}
}
MOTION
Frames: 120
Frame Time: 0.033333
-1.0170 96.0356 -2.0128 1.4596 5.7419 0.2697 -1.5328 4.3309 -0.4119 -0.8162 -3.3948 -0.6185 -1.8964 13.2169 -2.9052 6.9379 8.2482 1.0505 -1.1194 -3.6159 0.1432 -0.8516 -17.0218 -0.2729 0.0346 0.0177 -0.0202 0.7507 -10.5386 -3.8761 -0.6803 -10.4743 3.8265 -5.6490 11.8540 -18.0475 -49.7939 3.7351 -36.5672 0.9544 -0.7171 -91.5861 39.8275 -63.3931 -37.9761 -14.5048 10.7762 15.9473 -59.8903 1.3320 2.1781 2.9673 9.1328 14.9674 36.4558 -6.7935 22.0024 -0.2302 0.2894 118.3065 18.8906 13.2975 -0.1919 16.0523 7.8421 -16.5910 51.2307 -2.9222 -5.5111 8.9648 -24.8939 14.7250 -0.2725 25.4699 -0.3921 -12.9751 -7.0772 -9.3676 1.6242 -0.1856 -1.9454 -10.4213 -25.1129 -14.4381 0.2709 33.2700 0.3374 10.5925 -13.0604 -2.1664 -1.4205 0.3299 1.0001
-1.2069 95.9307 -2.0464 1.5162 5.6066 0.6192 -1.2871 4.4414 -0.3132 -0.7302 -3.4445 -0.4706 -1.5786 13.2659 -2.6805 6.5111 8.3654 1.1463 -1.1620 -3.6401 -0.1870 -0.7867 -16.9812 -0.6314 0.0248 0.0152 -0.0044 0.7317 -10.5253 -3.8557 -0.6806 -10.4592 3.8399 -6.0732 11.9619 -17.5719 -50.8306 5.1333 -37.1762 0.7270 -0.5889 -93.4916 32.9160 -57.6919 -29.8846 -14.5571 10.9724 16.1186 -59.7072 1.4418 2.0952 2.7861 9.1765 15.8095 37.4398 -9.5947 21.5772 -0.7056 0.1423 115.1708 16.9895 3.3060 -0.2393 15.8851 7.9709 -16.2569 51.0669 -2.8624 -5.2673 9.0653 -25.0637 14.5156 -0.2958 25.8006 -0.4143 -13.2145 -7.2401 -9.3942 1.6221 -0.0443 -1.9396 -10.4220 -25.2039 -14.5050 0.2703 33.8786 0.3136 10.6399 -13.3815 -2.4952 -1.4307 0.4753 1.0196
-1.3819 95.7969 -2.0948 1.6208 5.4356 0.9744 -1.0270 4.4764 -0.2980 -0.6558 -3.4764 -0.2708 -1.2205 13.4407 -2.3977 5.9972 8.5433 1.3816 -1.2677 -3.6911 -0.7618 -0.7537 -16.8631 -1.1003 0.0207 0.0144 -0.0059 0.7112 -10.5299 -3.8545 -0.6682 -10.4697 3.8333 -6.6357 12.1557 -16.8896 -51.4124 6.3288 -37.3985 0.5322 -0.5438 -96.0850 26.2135 -49.1886 -22.0182 -14.6696 11.0980 16.3476 -59.4137 1.5423 2.1610 2.8615 9.3523 17.0695 39.0461 -12.4701 20.6769 -1.2649 0.1797 110.7285 15.1301 -13.8797 -0.4198 15.2952 7.8558 -15.8106 50.6471 -2.9812 -5.0192 9.0836 -25.1546 14.4261 -0.2963 26.0896 -0.4325 -13.2742 -7.3876 -9.5164 1.6346 -0.0033 -1.9100 -10.5216 -25.3047 -14.6746 0.2878 34.4606 0.3241 10.7267 -13.6536 -2.5775 -1.4315 0.6520 1.0445
-1.5510 95.6878 -2.1416 1.7051 5.2118 1.2367 -0.7592 4.4737 -0.3032 -0.5818 -3.4769 -0.0218 -0.7868 13.6735 -2.0577 5.3617 8.7756 1.5935 -1.4024 -3.7575 -1.2765 -0.7300 -16.7194 -1.5964 0.0199 0.0102 -0.0059 0.6928 -10.5340 -3.8533 -0.6511 -10.4788 3.8300 -7.1960 12.4115 -16.0428 -51.5775 7.2862 -37.4038 0.3461 -0.6650 -99.1569 21.4753 -38.1410 -16.3156 -14.8630 11.0639 16.4470 -59.1723 1.6748 2.2285 3.3394 9.6775 18.4240 40.6424 -15.3332 19.7544 -1.4816 0.2540 105.4797 14.7103 -33.3118 -0.7289 14.5334 7.3611 -15.3201 49.5130 -3.3978 -4.8544 9.1232 -25.1190 14.3684 -0.2855 26.3047 -0.4394 -13.2127 -7.4951 -9.6424 1.6461 -0.0232 -1.8690 -10.6269 -25.2652 -14.8677 0.2910 34.8433 0.3338 10.8249 -13.8502 -2.5737 -1.4309 0.8342 1.0691
-1.6803 95.6256 -2.1852 1.7556 5.0123 1.3859 -0.4846 4.4228 -0.2642 -0.4894 -3.4734 0.1786 -0.2680 13.9352 -1.6772 4.6021 9.0561 1.7721 -1.4397 -3.8011 -1.6917 -0.7609 -16.7118 -2.0084 0.0200 0.0169 0.0043 0.6816 -10.5218 -3.8393 -0.6392 -10.4707 3.8350 -7.6057 12.6049 -15.1342 -51.3788 8.1380 -37.4587 0.3335 -0.7576 -102.5192 18.9739 -25.8075 -12.8059 -15.0677 10.7966 16.2897 -59.0640 1.7737 2.2358 4.0265 10.0024 19.6424 42.0640 -18.0951 19.0678 -1.4574 0.1871 100.4600 15.9431 -47.3226 -2.6431 14.4652 6.9400 -14.9553 48.5065 -3.7201 -4.7428 9.1772 -25.1065 14.3510 -0.2772 26.5539 -0.4296 -13.0829 -7.5416 -9.6908 1.6515 -0.0059 -1.8426 -10.6809 -25.2036 -15.0146 0.2832 35.1260 0.3439 10.8876 -13.9936 -2.5148 -1.4290 0.9873 1.0812
-1.7809 95.5539 -2.2295 1.7840 4.8571 1.4276 -0.2218 4.3548 -0.2205 -0.3903 -3.4702 0.3213 0.2585 14.1671 -1.3191 3.8556 9.3470 1.9060 -1.4214 -3.8199 -2.0087 -0.8332 -16.7884 -2.2935 0.0217 0.0329 0.0033 0.6765 -10.5059 -3.8388 -0.6312 -10.4618 3.8304 -7.7431 12.7437 -14.2218 -50.7117 8.7645 -37.5767 0.4380 -0.7639 -105.8789 17.7015 -13.2553 -10.5519 -15.1265 10.3648 15.8028 -58.9694 1.8004 2.1936 4.7190 10.2373 20.7016 43.6823 -20.6361 18.3578 -1.2849 0.0488 95.8807 17.4111 -56.2569 -5.2412 14.8890 6.8975 -15.0183 48.3378 -3.8200 -4.7068 9.2163 -25.1500 14.3613 -0.2692 26.8852 -0.4123 -12.9399 -7.6373 -9.6693 1.6556 0.0802 -1.8420 -10.7092 -25.1969 -15.1042 0.2877 35.3870 0.3865 10.8919 -14.1039 -2.4118 -1.4251 1.1164 1.0818
-1.8241 95.4906 -2.2932 1.8050 4.7378 1.3719 0.0132 4.2855 -0.1699 -0.2941 -3.4505 0.4248 0.7378 14.3458 -1.0173 3.1843 9.6152 1.9956 -1.4006 -3.8166 -2.1879 -0.9244 -16.8800 -2.5129 0.0224 0.0479 0.0169 0.6729 -10.4945 -3.8248 -0.6263 -10.4587 3.8428 -7.6608 12.8303 -13.3463 -49.4225 9.2243 -37.7855 0.6224 -0.6823 -109.0640 16.8445 -0.5567 -8.6535 -14.9988 10.0688 15.2694 -59.0888 1.7675 2.1789 5.4254 10.4173 21.6389 45.6491 -22.8744 17.4136 -0.9697 -0.1488 91.8587 17.8913 -62.4900 -7.2814 15.3325 7.1008 -15.2431 48.7073 -3.7639 -4.7053 9.2417 -25.2219 14.3794 -0.2739 27.2721 -0.4017 -12.8259 -7.8023 -9.5345 1.6586 0.1493 -1.8431 -10.7558 -25.2468 -15.0377 0.2949 35.6553 0.4327 10.8838 -14.1569 -2.2962 -1.4195 1.1671 1.0908
-1.8041 95.4325 -2.3454 1.8338 4.6230 1.2718 0.2053 4.2119 -0.1263 -0.2217 -3.4304 0.4945 1.1727 14.5154 -0.7571 2.6267 9.7830 2.0923 -1.3842 -3.7944 -2.3695 -1.0081 -16.9427 -2.6505 0.0227 0.0621 0.0278 0.6711 -10.4828 -3.8158 -0.6246 -10.4546 3.8562 -7.4580 12.8296 -12.6203 -47.5449 9.5036 -37.9697 0.7496 -0.4862 -111.9091 15.9882 10.7115 -6.7925 -14.9172 10.1132 15.1455 -59.5583 1.7223 2.2393 6.1509 10.6279 22.4109 48.0235 -24.6806 16.1993 -0.6169 -0.2883 88.6263 16.7922 -67.7223 -8.1216 15.6901 7.4502 -15.4502 49.3565 -3.6267 -4.7300 9.2446 -25.2648 14.3749 -0.2827 27.6581 -0.4031 -12.7277 -7.9962 -9.3732 1.6599 0.2177 -1.8354 -10.8540 -25.2810 -14.8891 0.2997 35.8590 0.4638 10.8625 -14.1889 -2.1568 -1.4138 1.1466 1.0903
-1.7580 95.3704 -2.4028 1.8730 4.5229 1.1373 0.3540 4.1451 -0.1000 -0.1802 -3.4123 0.5456 1.5486 14.6711 -0.5828 2.2014 9.8694 2.2175 -1.3803 -3.7688 -2.5657 -1.0819 -16.9788 -2.7642 0.0232 0.0759 0.0337 0.6712 -10.4698 -3.8096 -0.6242 -10.4470 3.8621 -7.1791 12.7066 -12.0714 -45.2343 9.5618 -37.9921 0.7583 -0.2095 -114.3618 14.9901 19.5010 -5.0530 -15.0936 10.3153 15.2972 -60.1331 1.6683 2.3231 6.8678 10.8929 23.0101 50.6092 -25.8549 14.8425 -0.2349 -0.4373 86.3467 12.9880 -72.6492 -6.6882 15.8212 7.8153 -15.5456 49.8831 -3.4791 -4.7432 9.2173 -25.3288 14.3829 -0.2995 28.0884 -0.4083 -12.6238 -8.2311 -9.2200 1.6616 0.2729 -1.8315 -10.9942 -25.3299 -14.7059 0.3024 36.0492 0.4834 10.8469 -14.2620 -1.9979 -1.4095 1.1216 1.0827
-1.6614 95.3135 -2.4320 1.9118 4.4260 0.9589 0.4480 4.0956 -0.0716 -0.1570 -3.4096 0.5244 1.8514 14.8417 -0.4575 1.8547 9.8891 2.3296 -1.3768 -3.7349 -2.7155 -1.1179 -16.9856 -2.8818 0.0238 0.0889 0.0376 0.6729 -10.4651 -3.8072 -0.6254 -10.4453 3.8698 -6.8563 12.5307 -11.6971 -42.5951 9.2894 -37.7771 0.6730 0.1069 -116.3950 13.6191 25.6539 -3.4792 -15.4018 10.5188 15.4442 -60.6183 1.6251 2.3887 7.5197 11.1589 23.3963 53.0453 -26.1531 13.7301 0.1598 -0.6224 84.9356 4.5044 -77.2837 -0.7696 15.6542 8.0643 -15.4825 50.0165 -3.3383 -4.7167 9.1727 -25.3873 14.3982 -0.3190 28.5407 -0.4145 -12.4750 -8.4861 -9.1065 1.6645 0.3255 -1.8341 -11.1586 -25.3728 -14.5128 0.3004 36.2218 0.4976 10.8193 -14.3581 -1.8532 -1.4075 1.1263 1.0793
-1.5129 95.2487 -2.4623 1.9397 4.3307 0.7253 0.5088 4.0512 -0.0788 -0.1587 -3.4107 0.4895 2.0990 14.9978 -0.3827 1.5224 9.9043 2.3880 -1.3631 -3.7005 -2.8353 -1.0928 -16.9994 -2.9921 0.0243 0.0967 0.0408 0.6772 -10.4486 -3.8024 -0.6293 -10.4283 3.8708 -6.5017 12.3162 -11.4282 -39.7015 8.6797 -37.3645 0.5087 0.4688 -118.0240 11.8018 29.7029 -2.1948 -15.6768 10.6667 15.4963 -60.9181 1.6005 2.4286 8.0968 11.4216 23.5576 55.1443 -25.4916 13.1011 0.5467 -0.7153 84.1974 -12.1917 -81.4229 13.4169 15.3620 8.1627 -15.3421 49.8070 -3.2760 -4.6184 9.1245 -25.4211 14.4243 -0.3266 28.9876 -0.4076 -12.3035 -8.7274 -9.0387 1.6658 0.3596 -1.8475 -11.3193 -25.4061 -14.3687 0.3085 36.3280 0.5376 10.7921 -14.4098 -1.7063 -1.4055 1.1068 1.0691
-1.3099 95.1946 -2.4650 1.9506 4.2587 0.3784 0.5345 4.0197 -0.0695 -0.1635 -3.4185 0.3962 2.2558 15.1309 -0.3665 1.2475 9.9054 2.4339 -1.3672 -3.6681 -2.9037 -1.0404 -17.0167 -3.0585 0.0241 0.0998 0.0497 0.6791 -10.4271 -3.7911 -0.6324 -10.4083 3.8789 -6.0944 12.0621 -11.2726 -36.8313 7.7578 -36.6936 0.3284 0.7935 -119.2150 9.6200 31.6222 -1.3676 -15.7917 10.7546 15.4608 -61.0324 1.5977 2.4342 8.5658 11.6581 23.5723 56.6709 -23.8715 13.1426 0.8666 -0.7759 83.9622 -42.9551 -83.9119 41.9873 15.0439 8.1604 -15.1675 49.3955 -3.2184 -4.5161 9.0639 -25.4131 14.4714 -0.3308 29.3982 -0.3985 -12.1208 -8.9875 -8.9377 1.6647 0.3793 -1.8706 -11.4794 -25.4463 -14.2067 0.3106 36.3677 0.5507 10.7957 -14.4149 -1.4958 -1.4054 1.0600 1.0554
-1.1038 95.1642 -2.4538 1.9430 4.2229 -0.0494 0.5231 4.0022 -0.0668 -0.1695 -3.4242 0.3085 2.3349 15.2253 -0.4295 1.0150 9.9449 2.4842 -1.3721 -3.6525 -2.9346 -0.9182 -17.0651 -3.0973 0.0234 0.0964 0.0607 0.6799 -10.4109 -3.7752 -0.6352 -10.3927 3.8862 -5.6499 11.7539 -11.1897 -34.0149 6.6235 -35.7938 0.1533 1.0839 -120.0367 7.2098 31.9004 -0.9648 -15.7634 10.8567 15.4426 -61.0173 1.6174 2.4018 8.9111 11.9057 23.4404 57.7280 -21.5307 13.8130 1.0966 -0.8227 84.2289 -82.5092 -83.8486 79.6050 14.7745 8.0905 -14.9796 48.9857 -3.1735 -4.3734 9.0035 -25.3701 14.5350 -0.3308 29.7345 -0.3964 -11.9216 -9.2449 -8.7562 1.6638 0.3447 -1.8947 -11.6259 -25.4877 -14.0410 0.3160 36.3131 0.5690 10.8290 -14.3167 -1.2209 -1.4059 0.9829 1.0334
-0.8910 95.1507 -2.4126 1.9261 4.2099 -0.5249 0.4787 4.0020 -0.0726 -0.1837 -3.4255 0.2152 2.3386 15.2836 -0.5353 0.8647 9.9970 2.5167 -1.3906 -3.6429 -2.9148 -0.7592 -17.0765 -3.0895 0.0238 0.0903 0.0626 0.6825 -10.3951 -3.7719 -0.6372 -10.3748 3.8880 -5.1831 11.4021 -11.2119 -31.2849 5.3178 -34.6677 -0.0532 1.3514 -120.5096 4.6342 30.8471 -0.9939 -15.6893 10.9432 15.4112 -60.9224 1.6460 2.3587 9.1255 12.1540 23.1947 58.4951 -18.6675 14.8875 1.3339 -0.9017 84.9546 -107.1078 -81.8210 102.4622 14.5671 7.9765 -14.8097 48.6675 -3.1288 -4.2336 8.9301 -25.2798 14.6003 -0.3251 29.9896 -0.3836 -11.7320 -9.4925 -8.5041 1.6633 0.3192 -1.9088 -11.7604 -25.5143 -13.8394 0.3134 36.1608 0.5772 10.8896 -14.1505 -0.9915 -1.4058 0.9033 1.0169
-0.6576 95.1669 -2.3582 1.8987 4.2345 -1.0160 0.3958 4.0038 -0.0729 -0.2010 -3.4439 0.0988 2.2723 15.3146 -0.6798 0.7977 10.0507 2.5397 -1.3953 -3.6153 -2.8497 -0.6036 -17.0678 -3.0299 0.0238 0.0830 0.0641 0.6819 -10.3793 -3.7674 -0.6368 -10.3586 3.8882 -4.7159 11.0594 -11.3501 -28.6648 3.7930 -33.3803 -0.3002 1.5234 -120.5909 2.0128 28.7607 -1.3683 -15.5384 11.0396 15.4043 -60.8052 1.6874 2.2986 9.2644 12.4371 22.8680 59.0598 -15.4238 16.2289 1.5934 -1.0386 86.0845 -119.4137 -79.0882 113.0614 14.4320 7.7994 -14.6308 48.4727 -3.0950 -4.1028 8.8397 -25.1822 14.6901 -0.3275 30.1762 -0.3870 -11.5287 -9.7197 -8.2397 1.6611 0.3094 -1.9285 -11.8837 -25.5379 -13.7060 0.3114 35.9303 0.5795 10.9725 -13.9432 -0.6705 -1.4079 0.8406 1.0010
-0.4103 95.1993 -2.2765 1.8483 4.2737 -1.4536 0.2909 4.0118 -0.1002 -0.2269 -3.4542 -0.0243 2.1674 15.3256 -0.8483 0.8318 10.0944 2.5648 -1.3877 -3.5943 -2.7652 -0.4873 -17.0974 -2.8894 0.0241 0.0754 0.0532 0.6812 -10.3730 -3.7776 -0.6359 -10.3534 3.8777 -4.2571 10.7225 -11.6266 -26.2668 2.1877 -32.0823 -0.5087 1.6164 -120.2656 -0.3591 25.8477 -2.0242 -15.4208 11.1116 15.4030 -60.7404 1.7158 2.2676 9.3754 12.7645 22.4074 59.3934 -12.0214 17.7987 1.7510 -1.2166 87.5097 -125.4512 -76.5072 117.5673 14.4075 7.5857 -14.4542 48.4309 -3.0793 -4.0042 8.7580 -25.0850 14.7139 -0.3279 30.3196 -0.3876 -11.3482 -9.9359 -7.9680 1.6587 0.3194 -1.9385 -11.9576 -25.5411 -13.7095 0.3205 35.6081 0.5979 11.0508 -13.7032 -0.2948 -1.4076 0.8030 0.9775
-0.1614 95.2407 -2.1986 1.7756 4.3377 -1.8945 0.1659 4.0207 -0.1074 -0.2573 -3.4743 -0.1688 2.0168 15.3231 -1.0323 0.9661 10.1083 2.6018 -1.3606 -3.5693 -2.6908 -0.3730 -17.1425 -2.7097 0.0256 0.0712 0.0364 0.6834 -10.3623 -3.7928 -0.6352 -10.3444 3.8609 -3.8516 10.4210 -12.0358 -24.1625 0.7119 -30.9142 -0.5811 1.6486 -119.4477 -2.3796 22.1236 -2.9168 -15.2794 11.2015 15.4103 -60.7394 1.7391 2.2396 9.5287 13.1267 21.9040 59.4620 -8.6199 19.3798 1.8692 -1.4080 89.1383 -127.0835 -74.6782 118.0766 14.4524 7.3826 -14.3167 48.5717 -3.1012 -3.9514 8.6875 -25.0025 14.7576 -0.3287 30.4212 -0.3964 -11.1971 -10.1422 -7.7008 1.6562 0.3072 -1.9556 -11.9985 -25.5336 -13.7756 0.3216 35.2154 0.5986 11.1322 -13.4526 0.1429 -1.4066 0.7733 0.9458
0.0865 95.2872 -2.1203 1.6778 4.4182 -2.2758 0.0219 4.0146 -0.1297 -0.2982 -3.4864 -0.3125 1.8406 15.3052 -1.2221 1.1792 10.0491 2.6182 -1.3307 -3.5482 -2.5561 -0.2506 -17.1163 -2.5022 0.0280 0.0697 0.0164 0.6895 -10.3482 -3.8127 -0.6361 -10.3344 3.8415 -3.5323 10.1646 -12.5438 -22.4727 -0.5509 -29.9692 -0.5477 1.6042 -118.2167 -4.0558 17.5939 -3.9442 -15.1838 11.2388 15.4314 -60.7244 1.7743 2.2561 9.7434 13.4199 21.3355 59.3019 -5.2580 20.8510 1.9264 -1.5518 90.9245 -124.3404 -74.1760 114.5414 14.5175 7.2136 -14.1761 48.7021 -3.1474 -3.9306 8.6281 -24.9371 14.8394 -0.3242 30.4782 -0.4114 -11.0838 -10.3320 -7.4996 1.6539 0.2881 -1.9656 -12.0114 -25.4888 -13.8577 0.3255 34.7581 0.5953 11.2374 -13.1723 0.5152 -1.4078 0.7490 0.9309
0.3557 95.3327 -2.0463 1.5670 4.5038 -2.5862 -0.1426 3.9934 -0.1981 -0.3452 -3.4781 -0.4135 1.6379 15.2774 -1.4255 1.4548 9.9566 2.6056 -1.2865 -3.5429 -2.3792 -0.1486 -17.0459 -2.2244 0.0318 0.0674 -0.0099 0.6951 -10.3430 -3.8399 -0.6339 -10.3302 3.8143 -3.3026 9.9812 -13.1135 -21.1717 -1.6239 -29.2632 -0.3774 1.4898 -116.6384 -5.3783 12.2096 -5.1494 -15.1559 11.2389 15.4709 -60.7222 1.7866 2.3368 9.9761 13.6725 20.7069 58.9366 -1.9823 22.1886 1.8636 -1.5999 93.0090 -115.2228 -75.0226 104.8620 14.5422 7.0339 -14.0254 48.6460 -3.2047 -3.9278 8.5897 -24.8897 14.9380 -0.3219 30.4932 -0.4286 -10.9770 -10.4860 -7.3835 1.6539 0.2505 -1.9489 -12.0156 -25.3980 -13.9047 0.3299 34.2502 0.5975 11.3687 -12.8494 0.7727 -1.4069 0.7208 0.9248
0.5933 95.4053 -1.9805 1.4454 4.5848 -2.8554 -0.3276 3.9879 -0.2666 -0.3761 -3.4952 -0.5295 1.3913 15.2440 -1.5883 1.7965 9.8786 2.5400 -1.2360 -3.5425 -2.1544 -0.0802 -16.9545 -1.9048 0.0339 0.0646 -0.0283 0.7003 -10.3441 -3.8580 -0.6340 -10.3367 3.7952 -3.1370 9.8675 -13.7561 -20.4419 -2.5576 -28.7272 -0.1692 1.2440 -114.5928 -6.2960 5.9829 -6.5137 -15.1197 11.1962 15.5085 -60.6333 1.8042 2.4479 10.1798 13.8685 20.0192 58.3780 1.2106 23.3403 1.7921 -1.6077 95.3642 -93.3194 -76.1109 82.5093 14.3634 6.8670 -13.8824 48.3351 -3.2967 -3.9842 8.5674 -24.8132 15.0309 -0.3229 30.4235 -0.4624 -10.8867 -10.6098 -7.2827 1.6526 0.2411 -1.9230 -12.0028 -25.2321 -13.8912 0.3214 33.6551 0.5828 11.5121 -12.5060 0.9192 -1.4069 0.6815 0.9282
0.7915 95.4985 -1.9306 1.3242 4.6611 -3.0663 -0.5098 3.9877 -0.3345 -0.4073 -3.5250 -0.6047 1.1065 15.2208 -1.7693 2.2177 9.8082 2.4367 -1.1897 -3.5610 -1.9041 -0.0421 -16.8593 -1.5649 0.0335 0.0613 -0.0347 0.7017 -10.3562 -3.8628 -0.6357 -10.3555 3.7877 -3.0039 9.8261 -14.4361 -20.3608 -3.4778 -28.3081 0.0223 0.9314 -112.0672 -6.7495 -1.2445 -8.0378 -15.0660 11.1135 15.5189 -60.3742 1.8471 2.5373 10.3010 13.9744 19.2034 57.5575 4.2433 24.2986 1.7096 -1.5001 98.0153 -55.8399 -72.8262 44.6160 13.9046 6.7450 -13.8180 47.6957 -3.4372 -4.1190 8.5550 -24.7105 15.0820 -0.3253 30.2479 -0.4887 -10.8245 -10.6714 -7.2145 1.6511 0.2646 -1.8749 -11.9611 -25.0307 -13.8544 0.3089 33.0316 0.5638 11.6361 -12.1384 0.9541 -1.4076 0.6041 0.9438
0.9903 95.5947 -1.8807 1.2176 4.7304 -3.2546 -0.7086 3.9953 -0.4117 -0.4565 -3.5478 -0.6513 0.7954 15.1623 -1.9480 2.7040 9.7846 2.2585 -1.1156 -3.5766 -1.6195 -0.0650 -16.7528 -1.1401 0.0319 0.0621 -0.0313 0.7007 -10.3730 -3.8595 -0.6367 -10.3769 3.7896 -2.8681 9.8752 -15.1613 -21.0551 -4.4920 -27.8897 0.1524 0.6054 -109.0244 -6.6918 -9.6380 -9.7532 -14.9086 10.9282 15.4412 -59.7152 1.8476 2.5823 10.3135 13.9498 18.1880 56.3108 7.0391 24.9946 1.5839 -1.2164 100.8874 -27.6400 -58.7302 16.5184 13.6419 6.7130 -14.0337 47.1953 -3.6366 -4.4107 8.5448 -24.5580 15.1221 -0.3272 29.9681 -0.5069 -10.8188 -10.6246 -7.1858 1.6517 0.2485 -1.8211 -11.9515 -24.7917 -13.7436 0.3068 32.3721 0.5541 11.7817 -11.7597 0.9039 -1.4105 0.4830 0.9851
1.1935 95.7158 -1.8570 1.1523 4.8251 -3.4107 -0.9366 4.0049 -0.4709 -0.5271 -3.5945 -0.7416 0.4704 15.0685 -2.1108 3.2460 9.8080 2.0426 -1.0501 -3.5891 -1.2517 -0.2024 -16.5377 -0.6458 0.0291 0.0685 -0.0258 0.6953 -10.4012 -3.8549 -0.6361 -10.4049 3.7956 -2.6986 9.9868 -15.8503 -22.6195 -5.4366 -27.4517 0.3012 0.2230 -105.7034 -6.1083 -18.7982 -11.5878 -14.7595 10.5948 15.2068 -58.8928 1.7725 2.4677 10.1236 13.7466 16.9778 54.4565 9.3896 25.5394 1.2993 -0.8935 103.9934 -14.5350 -37.3597 4.7421 13.9247 6.5388 -14.0852 47.3288 -3.7304 -4.5283 8.4814 -24.4060 15.1661 -0.3289 29.6356 -0.5101 -10.8720 -10.4915 -7.1410 1.6553 0.2079 -1.7811 -11.9764 -24.6152 -13.5415 0.2971 31.8065 0.5343 11.9407 -11.4600 0.8467 -1.4151 0.3763 1.0306
1.3491 95.8083 -1.8361 1.1245 4.8968 -3.5488 -1.1769 4.0120 -0.5035 -0.6054 -3.6212 -0.8326 0.1288 14.9187 -2.2816 3.7801 9.8260 1.8571 -1.0158 -3.6078 -0.8591 -0.4446 -16.1440 -0.1640 0.0255 0.0696 -0.0223 0.6901 -10.4416 -3.8593 -0.6377 -10.4433 3.8071 -2.5676 10.1516 -16.4460 -24.7691 -6.1280 -27.0845 0.4943 -0.0534 -102.4432 -5.2233 -27.6472 -13.2654 -15.0015 10.3056 15.0088 -58.5105 1.6871 2.3253 9.7421 13.4468 15.8543 52.2083 11.2135 26.1548 0.9376 -0.5862 107.1458 -7.6779 -17.7223 -0.6033 13.9824 6.6376 -14.2102 48.6896 -3.5275 -4.4994 8.3966 -24.2275 15.1771 -0.3065 29.3014 -0.4726 -10.9452 -10.3013 -7.0667 1.6589 0.1858 -1.7754 -12.0485 -24.4721 -13.2736 0.2855 31.3719 0.5155 12.0606 -11.2590 0.7695 -1.4209 0.3204 1.0571
1.4742 95.8876 -1.8208 1.1056 4.9299 -3.6501 -1.4053 4.0130 -0.4949 -0.6840 -3.6303 -0.9335 -0.2268 14.7476 -2.4721 4.2699 9.8670 1.6898 -0.9829 -3.6239 -0.4599 -0.7008 -15.6881 0.2701 0.0217 0.0701 -0.0266 0.6957 -10.4775 -3.8683 -0.6507 -10.4737 3.8083 -2.5795 10.3687 -17.0733 -27.2353 -6.5456 -26.7707 0.7009 -0.2828 -99.2850 -4.4369 -36.5866 -14.3936 -15.6619 10.2953 15.1236 -58.7659 1.6653 2.2620 9.2077 13.0887 14.7667 49.4859 12.5057 26.6788 0.8271 -0.4612 110.3819 -1.3904 0.2615 -5.0757 14.1350 7.0142 -15.0706 49.8405 -3.2797 -4.7677 8.3439 -24.0648 15.1081 -0.2680 29.0211 -0.3938 -11.0186 -10.0755 -6.9611 1.6540 0.2413 -1.8014 -12.1082 -24.3121 -12.9421 0.2741 31.0448 0.5229 12.0735 -11.0975 0.5738 -1.4232 0.2759 1.0446
1.5408 95.9525 -1.8312 1.0647 4.9392 -3.6324 -1.5761 4.0073 -0.4892 -0.7508 -3.6183 -1.0176 -0.5887 14.5917 -2.6734 4.7076 9.8900 1.5302 -0.9301 -3.6368 -0.0743 -0.9052 -15.2723 0.6130 0.0168 0.0634 -0.0219 0.7022 -10.5054 -3.8647 -0.6672 -10.4989 3.8176 -2.7377 10.5773 -17.7521 -29.9006 -6.7143 -26.5281 0.9322 -0.4206 -96.3967 -3.8169 -45.6963 -14.6464 -16.2935 10.6047 15.5436 -59.3645 1.6930 2.2354 8.5215 12.8193 13.8218 46.4997 13.2357 27.0299 1.1686 -0.4070 113.4816 4.8126 15.4614 -8.4519 14.5702 7.3549 -15.9956 49.8892 -3.1599 -5.1863 8.3494 -23.9725 14.9653 -0.2296 28.8260 -0.3297 -11.0385 -9.8651 -6.9037 1.6439 0.3185 -1.8545 -12.0833 -24.1173 -12.6649 0.2686 30.7681 0.5517 12.0001 -10.9853 0.2375 -1.4233 0.2421 1.0108
1.5430 95.9980 -1.8316 0.9679 4.9129 -3.5488 -1.6472 4.0290 -0.5088 -0.8010 -3.5831 -1.0600 -0.9719 14.4531 -2.8897 5.0921 9.8628 1.4394 -0.8637 -3.6357 0.2242 -1.0324 -14.9400 0.8914 0.0172 0.0541 -0.0240 0.7064 -10.5130 -3.8647 -0.6703 -10.5067 3.8142 -3.0106 10.7138 -18.2537 -32.7738 -6.8513 -26.3468 1.0108 -0.4386 -93.9669 -2.8906 -54.2303 -14.5204 -16.4780 10.9395 15.8691 -59.6841 1.7259 2.1498 7.7761 12.6651 13.3299 43.7900 13.6433 27.1008 1.4880 -0.1512 116.1830 9.4868 24.0176 -9.3726 14.7176 7.5399 -16.2831 50.0278 -3.0151 -5.2610 8.4786 -23.9157 14.8249 -0.2224 28.6502 -0.3356 -11.0753 -9.6817 -6.9314 1.6396 0.3432 -1.8859 -11.9650 -23.8761 -12.4592 0.2737 30.5256 0.5655 11.9341 -10.9218 -0.1582 -1.4229 0.2697 1.0063
1.4717 96.0464 -1.8766 0.8068 4.8800 -3.4065 -1.6337 4.0696 -0.5178 -0.8272 -3.5527 -1.0696 -1.3207 14.3660 -3.1022 5.4240 9.8579 1.3658 -0.8402 -3.6453 0.5131 -1.0436 -14.6853 1.0474 0.0192 0.0429 -0.0258 0.7132 -10.5256 -3.8623 -0.6723 -10.5181 3.8066 -3.3780 10.8707 -18.5383 -35.6978 -6.7702 -26.3861 1.1701 -0.4694 -92.1081 -0.8901 -61.4449 -14.7765 -16.3557 11.0647 15.9240 -59.6821 1.6994 2.0367 7.0258 12.5130 13.1677 41.4777 13.6632 26.8832 1.6255 0.2464 118.7711 13.0441 27.7097 -9.4118 14.6684 7.6309 -16.3566 50.2055 -2.9489 -5.1638 8.7076 -23.8950 14.6840 -0.2424 28.4684 -0.3796 -11.1262 -9.5259 -7.0252 1.6389 0.3422 -1.8797 -11.7327 -23.6044 -12.3331 0.2762 30.2937 0.5594 11.8940 -10.8592 -0.5626 -1.4213 0.3267 1.0271
1.3513 96.1106 -1.9230 0.6520 4.8698 -3.2137 -1.5793 4.1157 -0.5261 -0.8369 -3.5293 -1.0498 -1.6201 14.2776 -3.2598 5.7198 9.9027 1.3154 -0.8182 -3.6554 0.7179 -0.9806 -14.4274 1.1338 0.0211 0.0355 -0.0260 0.7184 -10.5423 -3.8617 -0.6733 -10.5341 3.8049 -3.7881 11.0971 -18.6956 -38.7157 -6.5423 -26.6487 1.1621 -0.5052 -90.7123 3.6447 -66.8189 -16.6311 -16.0593 11.0519 15.8852 -59.5449 1.6434 2.0022 6.2413 12.2427 13.1667 39.5395 13.1925 26.5769 1.7233 0.6904 121.0641 15.9823 29.2302 -9.4590 14.6669 7.7019 -16.4115 50.3216 -2.9570 -5.1309 8.9482 -23.8642 14.5220 -0.2548 28.1804 -0.4101 -11.2051 -9.3511 -7.1154 1.6375 0.3299 -1.8628 -11.4709 -23.3351 -12.3082 0.2803 30.0281 0.5411 11.8725 -10.7966 -0.8881 -1.4200 0.3732 1.0447
1.1817 96.1833 -1.9437 0.5218 4.8990 -2.9799 -1.5000 4.1395 -0.5194 -0.8356 -3.4963 -0.9980 -1.8453 14.1753 -3.3789 5.9842 10.0037 1.2840 -0.7916 -3.6775 0.8883 -0.9088 -14.1426 1.1910 0.0227 0.0220 -0.0236 0.7184 -10.5610 -3.8634 -0.6693 -10.5549 3.8098 -4.2237 11.4135 -18.7531 -41.7334 -6.1249 -27.2005 0.9779 -0.5735 -89.7466 11.7777 -70.3013 -21.4654 -15.6180 11.0115 15.7967 -59.4663 1.5681 2.0242 5.4558 11.9115 13.2910 37.8296 12.3336 26.3901 1.6872 1.0632 122.8455 18.5203 29.7572 -9.5009 14.6674 7.7429 -16.4581 50.3444 -3.0258 -5.1504 9.1719 -23.8537 14.3464 -0.2676 27.8370 -0.4362 -11.2904 -9.1307 -7.1909 1.6388 0.2588 -1.8474 -11.2024 -23.1270 -12.3838 0.2862 29.7767 0.5210 11.8245 -10.7341 -1.1053 -1.4194 0.4042 1.0534
0.9748 96.2533 -2.0241 0.4412 4.9276 -2.7077 -1.3923 4.1792 -0.4845 -0.8235 -3.4754 -0.9564 -2.0180 14.0730 -3.4085 6.2192 10.1374 1.2770 -0.7595 -3.6952 0.9868 -0.8430 -13.8988 1.1923 0.0250 0.0125 -0.0313 0.7167 -10.5730 -3.8722 -0.6623 -10.5680 3.8014 -4.6805 11.7714 -18.7100 -44.6200 -5.4301 -28.1244 0.6937 -0.6076 -89.1690 22.0648 -71.7224 -28.5406 -15.2756 10.9676 15.6591 -59.5559 1.4727 2.0561 4.6246 11.5561 13.5543 36.2692 11.1407 26.3348 1.4813 1.3152 124.0753 20.6537 29.3651 -9.4970 14.6974 7.7983 -16.5280 50.3708 -3.0703 -5.2537 9.3562 -23.8330 14.1642 -0.2767 27.4780 -0.4600 -11.3985 -8.8969 -7.2165 1.6381 0.1939 -1.8470 -10.9507 -22.9983 -12.5798 0.2842 29.6301 0.4869 11.7302 -10.7228 -1.1647 -1.4199 0.4480 1.0526
0.7423 96.2907 -2.0865 0.4324 4.9504 -2.3787 -1.2624 4.2194 -0.4427 -0.8103 -3.4561 -0.8669 -2.1248 13.9869 -3.3952 6.3901 10.2867 1.2784 -0.7204 -3.7118 0.9929 -0.7941 -13.7183 1.1437 0.0286 0.0075 -0.0475 0.7177 -10.5714 -3.8887 -0.6556 -10.5664 3.7832 -5.1521 12.1090 -18.5926 -47.1101 -4.4071 -29.3492 0.4272 -0.6160 -89.0452 29.4790 -70.9390 -33.4299 -15.0364 10.9535 15.6070 -59.6930 1.4076 2.1126 3.7410 11.2111 13.9206 34.8629 9.5887 26.4159 1.1225 1.4298 124.6462 22.4301 28.1888 -9.3627 14.7349 7.8602 -16.6084 50.3753 -3.1193 -5.3263 9.4725 -23.8399 14.0193 -0.2741 27.1469 -0.4667 -11.5130 -8.6396 -7.2906 1.6349 0.1382 -1.8518 -10.7658 -22.9856 -12.8837 0.2908 29.6577 0.4780 11.6236 -10.7916 -1.1478 -1.4198 0.4831 1.0454
0.4707 96.2901 -2.1967 0.4647 4.9686 -2.0044 -1.0931 4.2698 -0.3713 -0.7796 -3.4593 -0.7670 -2.1468 13.9494 -3.3204 6.4955 10.4626 1.3334 -0.7305 -3.7226 0.9140 -0.7591 -13.6043 0.9712 0.0327 0.0080 -0.0643 0.7203 -10.5718 -3.9054 -0.6493 -10.5656 3.7640 -5.6111 12.4438 -18.3957 -49.1508 -3.1118 -30.8492 0.2028 -0.6566 -89.5142 32.3917 -68.3904 -34.2029 -14.8551 10.9791 15.6063 -59.8099 1.3811 2.1742 2.8902 10.9002 14.4042 33.5209 7.6717 26.5272 0.6155 1.4233 124.5922 23.7588 26.0493 -8.9891 14.8596 7.9281 -16.6744 50.4462 -3.1222 -5.3778 9.5640 -23.9179 13.8605 -0.2812 26.9281 -0.4894 -11.6254 -8.3977 -7.3661 1.6317 0.0974 -1.8656 -10.6119 -23.0979 -13.2824 0.3020 29.9048 0.4765 11.5252 -10.9526 -1.0651 -1.4193 0.5482 1.0353
0.2201 96.2521 -2.3046 0.5313 4.9539 -1.5721 -0.8895 4.3405 -0.2900 -0.7302 -3.4644 -0.6546 -2.0568 13.9276 -3.1929 6.5073 10.6356 1.4187 -0.7838 -3.7198 0.7240 -0.7621 -13.5366 0.7170 0.0349 0.0106 -0.0801 0.7216 -10.5609 -3.9193 -0.6456 -10.5498 3.7453 -6.0198 12.7459 -18.1088 -50.8624 -1.6961 -32.4388 -0.0268 -0.6841 -90.5631 32.1296 -64.7184 -31.9690 -14.6904 11.0678 15.6410 -59.8830 1.3838 2.2358 2.1231 10.5672 14.9649 32.4043 5.4069 26.6294 0.0665 1.2674 123.7577 24.3974 22.6423 -8.5127 15.0201 8.0118 -16.7379 50.5732 -3.1099 -5.4171 9.6477 -24.0064 13.6413 -0.2883 26.7666 -0.5042 -11.7451 -8.1546 -7.4627 1.6298 0.1244 -1.8843 -10.4932 -23.2667 -13.7623 0.3082 30.2924 0.4707 11.4374 -11.1954 -0.9753 -1.4191 0.6387 1.0228
-0.0489 96.2014 -2.4359 0.6348 4.9318 -1.1020 -0.6697 4.4136 -0.2086 -0.6678 -3.4691 -0.5291 -1.8647 13.9264 -3.0110 6.4248 10.8130 1.4890 -0.8621 -3.7068 0.4261 -0.8280 -13.5145 0.4312 0.0345 0.0191 -0.0940 0.7165 -10.5464 -3.9305 -0.6414 -10.5313 3.7284 -6.3342 13.0398 -17.7367 -52.2092 -0.1793 -34.0201 -0.1662 -0.7117 -92.2262 29.7302 -59.8261 -27.7094 -14.5918 11.1546 15.7192 -59.8525 1.3886 2.2777 1.5522 10.2951 15.5918 31.6053 2.6778 26.6848 -0.4469 0.9989 122.0045 24.2382 17.5455 -8.0058 15.2433 8.0930 -16.7841 50.7484 -3.1256 -5.4502 9.6906 -24.1157 13.4062 -0.2922 26.6594 -0.4957 -11.8958 -7.8934 -7.5504 1.6273 0.1780 -1.9008 -10.4225 -23.4620 -14.2548 0.3132 30.7160 0.4732 11.3498 -11.4684 -0.9382 -1.4173 0.7438 1.0103
-0.3138 96.1593 -2.5568 0.7566 4.9042 -0.6726 -0.4482 4.4853 -0.1284 -0.5932 -3.4712 -0.3959 -1.5693 13.9456 -2.7953 6.2313 10.9583 1.5630 -0.9739 -3.7001 0.0843 -0.9380 -13.5259 0.0956 0.0331 0.0201 -0.1024 0.7116 -10.5365 -3.9379 -0.6395 -10.5161 3.7197 -6.6112 13.2514 -17.2841 -53.1287 1.4599 -35.4045 -0.1881 -0.7468 -94.4472 26.4969 -53.7901 -22.8149 -14.5661 11.2332 15.8203 -59.6927 1.4144 2.2985 1.2866 10.0870 16.3126 31.2752 -0.4417 26.6561 -0.8426 0.7349 119.1976 23.2606 10.2148 -7.4584 15.4279 8.1222 -16.7530 50.8720 -3.1517 -5.4751 9.6936 -24.2099 13.2214 -0.2973 26.5511 -0.4867 -12.0630 -7.6234 -7.5958 1.6260 0.2465 -1.9057 -10.3918 -23.6459 -14.6458 0.3105 31.0901 0.4604 11.2905 -11.6872 -0.9497 -1.4165 0.8272 1.0168
-0.5598 96.0973 -2.6770 0.8939 4.8661 -0.3568 -0.2317 4.5526 -0.0687 -0.5184 -3.4910 -0.2684 -1.1766 14.0012 -2.5266 5.9049 11.0278 1.6811 -1.1371 -3.7025 -0.3120 -1.0388 -13.5524 -0.3256 0.0318 0.0178 -0.1048 0.7088 -10.5350 -3.9403 -0.6399 -10.5099 3.7182 -6.9021 13.3785 -16.7015 -53.4782 3.2213 -36.4666 -0.0787 -0.7258 -97.2576 22.8479 -46.0998 -17.6209 -14.6520 11.2863 15.9751 -59.5637 1.5048 2.3281 1.3761 9.9719 17.1859 31.5236 -3.8861 26.4105 -1.0714 0.5570 115.2472 21.6467 -0.0799 -6.6758 15.5247 7.9891 -16.6231 50.7966 -3.2289 -5.4828 9.6735 -24.2559 13.1045 -0.2966 26.4327 -0.4581 -12.2349 -7.3793 -7.5925 1.6260 0.2889 -1.9055 -10.4072 -23.8363 -14.8826 0.2995 31.4648 0.4354 11.2607 -11.8513 -0.9709 -1.4178 0.8697 1.0246
-0.7503 96.0119 -2.8045 1.0559 4.8041 -0.1637 -0.0249 4.6125 -0.0438 -0.4450 -3.5145 -0.1158 -0.7193 14.0824 -2.2146 5.4663 11.0389 1.7968 -1.3323 -3.7257 -0.7532 -1.1253 -13.6052 -0.8152 0.0298 0.0107 -0.1012 0.7042 -10.5395 -3.9350 -0.6394 -10.5084 3.7199 -7.1882 13.4185 -16.0489 -53.2511 4.8894 -36.9533 -0.0281 -0.7205 -100.6829 19.6661 -37.4485 -13.3314 -14.9070 11.2243 16.1674 -59.5347 1.6246 2.3503 1.7516 9.9699 18.1113 32.4465 -7.4941 25.9902 -1.1766 0.5990 110.2483 19.8131 -12.6543 -5.3966 15.3656 7.6736 -16.4052 50.5583 -3.3282 -5.3924 9.6268 -24.2551 13.0977 -0.3000 26.3460 -0.4326 -12.3876 -7.2019 -7.5939 1.6286 0.3025 -1.9054 -10.4697 -24.0309 -14.9873 0.2859 31.8566 0.4230 11.2519 -12.0510 -1.0341 -1.4182 0.9192 1.0351
-0.9303 95.9294 -2.9221 1.2198 4.7146 -0.0725 0.1605 4.6559 -0.0516 -0.3787 -3.5151 0.0424 -0.2221 14.1751 -1.9100 4.9631 11.0294 1.8964 -1.4846 -3.7609 -1.2098 -1.2688 -13.6796 -1.2620 0.0260 0.0036 -0.0843 0.6946 -10.5509 -3.9186 -0.6380 -10.5192 3.7383 -7.4508 13.4113 -15.3724 -52.4902 6.1603 -36.8240 0.0129 -0.7055 -104.3533 17.3198 -28.7452 -10.2506 -15.1136 11.0103 16.2414 -59.4520 1.7134 2.3438 2.3357 10.0800 19.0202 33.9525 -11.0695 25.4902 -1.2550 0.7239 104.8167 18.1242 -24.2368 -3.9433 14.9368 7.3774 -16.0744 50.2689 -3.4246 -5.1971 9.5603 -24.2276 13.1252 -0.3026 26.3360 -0.4087 -12.4644 -7.0880 -7.6086 1.6354 0.3089 -1.9035 -10.5788 -24.2010 -14.9965 0.2875 32.2590 0.4240 11.2151 -12.2714 -1.1005 -1.4185 0.9586 1.0445
-1.0551 95.8503 -3.0051 1.3737 4.5923 -0.0615 0.3193 4.6822 -0.0776 -0.3120 -3.4858 0.2054 0.2890 14.2896 -1.6445 4.4447 10.9987 1.9450 -1.5885 -3.7896 -1.6262 -1.4834 -13.7827 -1.6159 0.0210 0.0027 -0.0609 0.6845 -10.5510 -3.8972 -0.6388 -10.5231 3.7654 -7.6017 13.3903 -14.6900 -51.3645 6.8005 -36.1870 0.0697 -0.6170 -108.0256 15.5310 -19.7719 -7.9879 -15.2382 10.6710 16.0568 -59.2708 1.7718 2.3118 3.0093 10.2772 19.8330 36.0860 -14.6895 24.8168 -1.2756 0.6810 99.4499 16.9728 -33.9688 -3.3054 14.4706 7.1153 -15.6024 49.7856 -3.5273 -4.9935 9.4963 -24.1821 13.1426 -0.2963 26.4323 -0.3754 -12.4503 -7.0482 -7.5967 1.6447 0.3241 -1.9102 -10.7132 -24.3450 -14.9915 0.2963 32.6628 0.4458 11.1638 -12.5008 -1.0943 -1.4168 1.0049 1.0407
-1.1088 95.7886 -3.0918 1.4994 4.4659 -0.1211 0.4491 4.6838 -0.0797 -0.2411 -3.4499 0.2946 0.7953 14.4320 -1.4111 3.9359 10.9616 1.9660 -1.6584 -3.8077 -1.9591 -1.7605 -13.9197 -1.8683 0.0186 0.0096 -0.0415 0.6801 -10.5414 -3.8792 -0.6399 -10.5206 3.7862 -7.6034 13.3641 -14.0489 -50.0047 6.6955 -35.2478 0.2072 -0.4597 -111.4151 14.0590 -10.6149 -6.1952 -15.2328 10.3353 15.6642 -59.2034 1.7810 2.2596 3.7277 10.4611 20.5551 38.7903 -18.2969 23.8649 -1.1422 0.4318 94.4953 16.5677 -41.9416 -4.0018 14.3658 6.9102 -15.1378 49.2802 -3.6028 -4.8225 9.4535 -24.1637 13.1149 -0.2936 26.6555 -0.3453 -12.3589 -7.0909 -7.5436 1.6506 0.3623 -1.9129 -10.8396 -24.5041 -15.0089 0.3096 33.0725 0.4838 11.1199 -12.6873 -1.0119 -1.4138 1.0604 1.0351
-1.1560 95.7176 -3.1756 1.5938 4.3503 -0.2853 0.5520 4.6728 -0.0713 -0.1742 -3.3982 0.3655 1.2964 14.5565 -1.2029 3.4318 10.9028 1.9806 -1.7017 -3.8119 -2.2483 -2.0323 -14.0991 -2.0498 0.0162 0.0266 -0.0200 0.6755 -10.5127 -3.8577 -0.6406 -10.4945 3.8071 -7.4498 13.2581 -13.4842 -48.5465 5.8801 -34.2054 0.3660 -0.2520 -114.3817 12.6438 -1.2974 -4.5344 -15.1154 10.1820 15.3093 -59.3596 1.7513 2.2271 4.4959 10.6308 21.1763 42.0906 -21.7358 22.5632 -0.8710 0.1140 90.1352 16.3078 -48.9751 -5.7287 14.7322 6.8454 -14.9251 49.0114 -3.6011 -4.7438 9.4307 -24.1593 13.0707 -0.2903 26.9598 -0.3198 -12.2380 -7.2495 -7.4462 1.6526 0.4343 -1.9102 -10.9539 -24.7050 -15.0518 0.3287 33.4713 0.5360 11.0805 -12.8158 -0.8584 -1.4102 1.1191 1.0323
-1.1198 95.6445 -3.2316 1.6509 4.2570 -0.4735 0.6435 4.6413 -0.0604 -0.1148 -3.3536 0.3867 1.7615 14.6808 -1.0222 2.9031 10.7926 2.0374 -1.7004 -3.7910 -2.4969 -2.2830 -14.3247 -2.1547 0.0140 0.0444 0.0034 0.6724 -10.4771 -3.8336 -0.6430 -10.4640 3.8308 -7.2044 13.0885 -13.0395 -47.0200 4.4829 -33.2138 0.4715 0.0012 -116.7228 11.1738 7.5831 -3.0575 -15.0986 10.2364 15.2505 -59.8021 1.6778 2.2497 5.2965 10.7503 21.6687 45.8638 -24.6227 20.9969 -0.5742 -0.1355 86.6045 14.6563 -54.9015 -7.1236 15.3436 7.0348 -15.0876 49.2593 -3.5738 -4.8131 9.4097 -24.2184 13.0201 -0.2915 27.3906 -0.3056 -12.0490 -7.5093 -7.3566 1.6518 0.5207 -1.9057 -11.0560 -24.9176 -15.1010 0.3458 33.8344 0.5778 11.0499 -12.9002 -0.6429 -1.4090 1.1370 1.0271
-1.0224 95.5831 -3.2855 1.6709 4.1885 -0.7370 0.7178 4.6038 -0.0529 -0.0644 -3.3224 0.3809 2.1630 14.8218 -0.8776 2.3833 10.5548 2.1176 -1.6669 -3.7482 -2.6848 -2.4789 -14.5855 -2.2122 0.0131 0.0597 0.0269 0.6726 -10.4456 -3.8107 -0.6461 -10.4355 3.8562 -6.8674 12.8639 -12.7139 -45.4493 2.5913 -32.2221 0.4115 0.2803 -118.4708 9.5082 15.1817 -1.9665 -15.3600 10.4135 15.4473 -60.4540 1.6055 2.3244 6.0712 10.8573 22.0340 49.9594 -26.6952 19.2495 -0.2097 -0.3715 84.1433 9.4135 -60.2839 -5.8272 15.8386 7.4093 -15.3744 49.8617 -3.5043 -4.9081 9.3930 -24.3211 13.0224 -0.3017 27.8927 -0.3223 -11.8237 -7.8090 -7.2420 1.6507 0.5616 -1.9079 -11.1498 -25.1237 -15.1396 0.3603 34.1063 0.6149 11.0062 -12.9271 -0.3648 -1.4083 1.0848 1.0196
-0.8647 95.5060 -3.2814 1.6915 4.1701 -1.0860 0.7638 4.5606 -0.0511 -0.0307 -3.2985 0.3348 2.4646 14.9359 -0.7626 1.9356 10.2513 2.2263 -1.6333 -3.7049 -2.7935 -2.6277 -14.8737 -2.1858 0.0148 0.0687 0.0338 0.6747 -10.4268 -3.8043 -0.6457 -10.4178 3.8630 -6.4699 12.6086 -12.5158 -43.9446 0.4413 -31.1701 0.2853 0.5562 -119.6960 7.7420 20.4736 -1.4066 -15.7496 10.5635 15.6627 -61.0820 1.5603 2.4159 6.7747 10.9889 22.2457 53.8690 -27.6027 17.7179 0.1783 -0.6026 82.7316 0.0288 -64.5611 -0.3527 15.9549 7.7192 -15.4871 50.2435 -3.4017 -4.9486 9.3336 -24.4481 13.0884 -0.3148 28.4009 -0.3436 -11.5786 -8.1404 -7.1348 1.6478 0.5754 -1.9137 -11.2561 -25.3638 -15.1327 0.3789 34.3214 0.6544 10.9407 -12.9458 -0.0252 -1.4066 1.0139 1.0033
-0.6761 95.4442 -3.2722 1.7157 4.1918 -1.4886 0.7636 4.5206 -0.0411 -0.0105 -3.2939 0.2253 2.6591 15.0268 -0.6759 1.6102 9.9388 2.3036 -1.6085 -3.6591 -2.7933 -2.7239 -15.1734 -2.0788 0.0151 0.0781 0.0328 0.6725 -10.4054 -3.8027 -0.6438 -10.3978 3.8601 -6.0289 12.3315 -12.4430 -42.5661 -1.6777 -30.0953 0.1716 0.7052 -120.5037 6.0757 23.3338 -1.2261 -16.0443 10.6435 15.7669 -61.4481 1.5728 2.4956 7.3852 11.1937 22.2718 56.9393 -27.3183 16.8309 0.5590 -0.8171 81.9755 -10.7561 -66.9993 7.5088 15.8233 7.7943 -15.4403 50.2040 -3.3406 -4.9257 9.2420 -24.5575 13.1736 -0.3241 28.8705 -0.3469 -11.3946 -8.4683 -7.0523 1.6463 0.5916 -1.9217 -11.3948 -25.5911 -15.0513 0.3921 34.4260 0.7004 10.8989 -12.9506 0.2845 -1.4072 0.9531 0.9930
-0.4441 95.4002 -3.2456 1.7296 4.2586 -1.9438 0.7266 4.4809 -0.0316 -0.0042 -3.3067 0.0972 2.7496 15.0780 -0.6609 1.3924 9.6816 2.3686 -1.5835 -3.6236 -2.7102 -2.7340 -15.4547 -1.8861 0.0147 0.0876 0.0269 0.6702 -10.3830 -3.8069 -0.6430 -10.3740 3.8530 -5.5641 12.0655 -12.4775 -41.2759 -3.6534 -29.0166 0.1064 0.7555 -120.8970 4.6485 24.3359 -1.2825 -16.2008 10.6922 15.8074 -61.6275 1.6054 2.5694 7.8644 11.4300 22.1221 58.9671 -25.9496 16.7394 0.9492 -0.9675 81.5646 -19.9912 -67.7482 14.7937 15.6225 7.7157 -15.3315 49.9825 -3.2940 -4.8943 9.1332 -24.6612 13.3136 -0.3313 29.2747 -0.3492 -11.2869 -8.7916 -6.9685 1.6425 0.5966 -1.9391 -11.5225 -25.8038 -14.9102 0.3978 34.4262 0.7300 10.8600 -12.9021 0.5848 -1.4106 0.8861 0.9905
-0.1814 95.3807 -3.1868 1.7155 4.3538 -2.4054 0.6469 4.4298 -0.0538 -0.0200 -3.3327 0.0040 2.7449 15.1023 -0.7378 1.2620 9.4766 2.4088 -1.5164 -3.5880 -2.5583 -2.6810 -15.7098 -1.5743 0.0145 0.0903 0.0228 0.6704 -10.3614 -3.8077 -0.6442 -10.3524 3.8472 -5.0760 11.8169 -12.5865 -39.9831 -5.4937 -27.9489 0.0355 0.7638 -120.9392 3.4132 23.9282 -1.4711 -16.2574 10.7461 15.8304 -61.7329 1.6245 2.6249 8.2794 11.7566 21.8477 59.9460 -23.7291 17.4203 1.3322 -1.0390 81.3905 -26.4504 -67.5590 20.0366 15.4443 7.5807 -15.1772 49.8191 -3.2645 -4.8270 9.0266 -24.7578 13.5067 -0.3366 29.6140 -0.3503 -11.1874 -9.0943 -6.9214 1.6409 0.5446 -1.9519 -11.6155 -25.9711 -14.7665 0.4024 34.2983 0.7422 10.8288 -12.7867 0.9079 -1.4141 0.7960 0.9836
0.0960 95.3713 -3.1171 1.6509 4.4584 -2.8765 0.5301 4.3699 -0.0688 -0.0540 -3.3629 -0.1072 2.6726 15.1162 -0.8793 1.2246 9.3254 2.4384 -1.4412 -3.5690 -2.3142 -2.5594 -15.8870 -1.2152 0.0140 0.0882 0.0283 0.6762 -10.3527 -3.7991 -0.6514 -10.3420 3.8513 -4.6011 11.5599 -12.8044 -38.6347 -7.0762 -26.9452 -0.0005 0.7415 -120.6180 2.3606 22.3536 -1.7415 -16.2130 10.8121 15.8337 -61.7444 1.6634 2.6540 8.6349 12.1307 21.5130 59.9622 -20.7457 18.7588 1.7316 -1.0885 81.5822 -30.1520 -67.0828 23.2069 15.3094 7.4648 -15.0611 49.7493 -3.2702 -4.7863 8.9561 -24.8594 13.7419 -0.3490 29.9335 -0.3641 -11.1107 -9.4083 -6.8923 1.6380 0.5048 -1.9604 -11.6582 -26.0675 -14.6308 0.4027 34.0640 0.7491 10.8751 -12.6070 1.2043 -1.4186 0.7165 0.9776
0.3489 95.3710 -3.0277 1.5363 4.5818 -3.3061 0.3766 4.2899 -0.1109 -0.1070 -3.3838 -0.2271 2.5256 15.0911 -1.0620 1.2858 9.2460 2.4281 -1.3269 -3.5639 -2.0140 -2.3856 -15.9554 -0.8436 0.0145 0.0826 0.0311 0.6832 -10.3464 -3.7916 -0.6580 -10.3337 3.8509 -4.1508 11.3090 -13.1684 -37.2218 -8.3832 -26.0489 0.0104 0.6936 -119.9178 1.4987 19.6134 -2.0721 -16.1306 10.9039 15.8514 -61.7470 1.7454 2.6496 8.9482 12.5193 21.0987 59.1922 -17.1119 20.5652 2.1199 -1.1288 82.2882 -30.4535 -66.3092 23.6523 15.2039 7.3726 -15.0103 49.7216 -3.3171 -4.7959 8.9364 -24.9928 13.9752 -0.3498 30.2290 -0.3699 -11.0380 -9.7262 -6.9363 1.6356 0.4812 -1.9607 -11.6295 -26.1264 -14.5661 0.4021 33.7700 0.7376 10.9746 -12.4107 1.4718 -1.4234 0.6601 0.9623
0.5736 95.3573 -2.9349 1.3662 4.6999 -3.5889 0.1949 4.2074 -0.1719 -0.1776 -3.4309 -0.3496 2.3063 15.0587 -1.3167 1.4899 9.2460 2.3922 -1.2160 -3.5768 -1.7220 -2.1787 -15.9303 -0.5048 0.0172 0.0747 0.0238 0.6922 -10.3562 -3.7983 -0.6611 -10.3442 3.8421 -3.7262 11.1133 -13.6729 -35.8106 -9.4338 -25.3087 0.0093 0.6443 -118.8086 0.7939 15.6459 -2.4465 -16.0158 10.9652 15.8751 -61.6587 1.8272 2.6426 9.2472 12.8705 20.5614 57.7707 -12.8457 22.6502 2.3652 -1.1052 83.7594 -26.7093 -64.4783 20.7074 15.0685 7.3163 -15.0504 49.6020 -3.4182 -4.8571 9.0046 -25.1780 14.0878 -0.3370 30.5361 -0.3666 -10.9815 -10.0275 -7.0602 1.6327 0.5015 -1.9460 -11.5211 -26.1454 -14.6121 0.3971 33.5064 0.7030 11.1224 -12.2512 1.6642 -1.4277 0.6247 0.9505
0.7487 95.3508 -2.8468 1.1497 4.7908 -3.6767 -0.0257 4.1118 -0.2516 -0.2692 -3.4844 -0.4724 2.0113 15.0197 -1.6632 1.8479 9.3551 2.3260 -1.1144 -3.6108 -1.4532 -1.9516 -15.8405 -0.1796 0.0238 0.0653 0.0002 0.7072 -10.3655 -3.8200 -0.6626 -10.3555 3.8151 -3.3500 11.0188 -14.3038 -34.3668 -10.1627 -24.7749 0.0707 0.5973 -117.2840 0.1747 10.4712 -2.9663 -15.8628 10.9640 15.8813 -61.4428 1.8487 2.6295 9.5321 13.1375 19.8351 55.9752 -8.0927 24.7297 2.3389 -0.9446 86.1787 -20.0362 -60.2869 15.4914 14.8244 7.2368 -15.0664 49.1063 -3.5498 -4.9122 9.1583 -25.3995 14.0772 -0.3194 30.8356 -0.3727 -10.9163 -10.2708 -7.2993 1.6297 0.5747 -1.9105 -11.3604 -26.1010 -14.8017 0.3963 33.3127 0.6727 11.2943 -12.1764 1.7782 -1.4304 0.6146 0.9452
0.8812 95.3270 -2.7267 0.9429 4.8326 -3.4285 -0.3057 4.0071 -0.3302 -0.3751 -3.5525 -0.6369 1.6476 14.9656 -2.0642 2.3229 9.5721 2.1940 -1.0122 -3.6539 -1.1728 -1.7410 -15.6380 0.1021 0.0311 0.0590 -0.0272 0.7227 -10.3891 -3.8489 -0.6627 -10.3793 3.7866 -3.0246 11.0660 -15.0012 -32.9840 -10.6962 -24.3993 0.0744 0.5004 -115.4150 -0.5377 4.3799 -3.5223 -15.6678 10.8491 15.8284 -61.0399 1.8421 2.6106 9.8160 13.3357 18.8737 53.9475 -3.2333 26.3302 2.1244 -0.6916 89.4697 -12.7349 -51.6258 10.2002 14.4856 7.0046 -14.8002 47.9435 -3.6949 -4.8514 9.3482 -25.6475 13.9090 -0.3138 31.1292 -0.3933 -10.8726 -10.4083 -7.6777 1.6295 0.6450 -1.8629 -11.2077 -25.9681 -15.1635 0.3912 33.2076 0.6423 11.4589 -12.2105 1.7567 -1.4326 0.6111 0.9610
0.9561 95.3142 -2.5931 0.7597 4.8444 -2.7581 -0.6068 3.8979 -0.4076 -0.4896 -3.6597 -0.8130 1.2323 14.8851 -2.4887 2.8487 9.9120 2.0228 -0.9029 -3.6737 -0.9371 -1.5497 -15.3142 0.2795 0.0324 0.0643 -0.0496 0.7312 -10.4253 -3.8768 -0.6680 -10.4138 3.7701 -2.7361 11.1898 -15.6292 -31.8435 -11.0036 -24.2884 0.0359 0.2853 -113.2101 -1.4517 -1.9677 -3.9166 -15.4749 10.6275 15.7008 -60.5352 1.7999 2.4841 10.0284 13.4379 17.6494 51.6807 1.2515 26.9607 1.8103 -0.4153 93.6246 -6.6932 -34.8105 6.5282 13.9337 6.6554 -14.0223 46.7487 -3.7834 -4.5180 9.5562 -25.9028 13.5154 -0.3115 31.3398 -0.4147 -10.8900 -10.4225 -8.2305 1.6299 0.6817 -1.8446 -11.0552 -25.7475 -15.7706 0.3813 33.2071 0.6124 11.5894 -12.4204 1.5855 -1.4330 0.5873 0.9721
0.9566 95.3064 -2.4162 0.5905 4.8242 -1.5950 -0.8942 3.7350 -0.4667 -0.6022 -3.7680 -0.9668 0.7981 14.7442 -2.8809 3.3867 10.3546 1.8610 -0.8157 -3.6379 -0.8231 -1.3607 -14.9089 0.2967 0.0282 0.0748 -0.0579 0.7291 -10.4488 -3.8923 -0.6741 -10.4327 3.7709 -2.5620 11.2899 -16.0539 -31.1921 -11.0469 -24.4841 -0.0279 0.0896 -110.8984 -2.5373 -7.8010 -3.8735 -15.4018 10.4255 15.6167 -60.0188 1.7975 2.3979 10.1380 13.4860 16.2299 48.9360 5.2468 26.6153 1.2341 -0.0871 98.6469 -2.0737 -8.2935 4.6680 13.6111 6.7850 -14.1571 47.7736 -3.5468 -4.4781 9.8211 -26.1375 12.8224 -0.3087 31.4435 -0.4145 -11.0018 -10.3226 -8.9693 1.6321 0.6634 -1.8760 -10.9079 -25.3482 -16.6154 0.3642 33.2085 0.5737 11.6940 -12.7208 1.0995 -1.4326 0.4947 0.9634
0.9041 95.3200 -2.1831 0.4119 4.6891 -0.0525 -1.1204 3.5213 -0.4905 -0.6877 -3.8369 -1.0021 0.3758 14.5360 -3.1059 3.8857 10.9872 1.7071 -0.8566 -3.6179 -0.8338 -1.0579 -14.4292 -0.1129 0.0187 0.0644 -0.0343 0.7201 -10.4702 -3.8700 -0.6844 -10.4558 3.8006 -2.4793 11.3942 -16.0761 -31.6409 -11.0025 -24.8849 -0.0118 0.0197 -108.9793 -3.4286 -12.0723 -3.5529 -15.3054 10.3004 15.5897 -59.6338 1.8159 2.4781 10.0453 13.6626 15.1183 45.9444 8.3112 25.1646 1.2316 0.1843 103.3211 1.9727 11.1218 3.9843 14.2472 7.0856 -15.3466 48.8813 -3.3487 -5.0021 10.1533 -26.1880 11.7996 -0.3072 31.3846 -0.4320 -11.1497 -10.2175 -9.7127 1.6274 0.7216 -1.9171 -10.7500 -24.5783 -17.5358 0.3449 33.0720 0.5662 11.8733 -12.9657 0.1665 -1.4301 0.4841 0.9484
0.7409 95.3910 -1.8458 0.2604 4.4535 1.8951 -1.2845 3.3075 -0.5035 -0.7643 -3.8816 -0.8780 0.0041 14.2520 -3.1329 4.3447 11.7216 1.6052 -0.9898 -3.6056 -1.0683 -0.6579 -13.7874 -0.9023 0.0140 0.0476 -0.0258 0.7129 -10.4918 -3.8623 -0.6863 -10.4878 3.8111 -2.3203 11.4638 -15.5832 -33.5498 -10.9437 -25.3305 0.0656 -0.0417 -107.6666 -4.1367 -15.3207 -3.3008 -15.1535 10.1658 15.5563 -59.3222 1.8392 2.5823 9.9212 13.8309 14.5408 42.7820 10.8993 22.8914 1.4072 0.6586 107.0080 5.3644 22.2694 4.2867 14.9875 7.3382 -16.1121 49.5579 -3.2274 -5.3011 10.5079 -26.0098 10.4521 -0.3220 31.0393 -0.5008 -11.2952 -10.0420 -10.4782 1.6233 0.7484 -1.9293 -10.6484 -23.4320 -18.5149 0.3250 32.7460 0.5462 12.1433 -13.1689 -1.1039 -1.4317 0.4981 0.9595
0.5171 95.4896 -1.4401 0.1490 4.2024 4.2806 -1.4085 3.0782 -0.4995 -0.8231 -3.9301 -0.6481 -0.3176 13.8650 -2.9263 4.7820 12.5701 1.5327 -1.1536 -3.6010 -1.5276 -0.1616 -13.0488 -1.9742 0.0154 0.0390 -0.0416 0.7121 -10.5082 -3.8814 -0.6825 -10.5190 3.7981 -2.0621 11.5508 -14.6870 -36.6775 -10.6135 -25.6880 0.1273 -0.1951 -106.9858 -4.8622 -17.3782 -3.0809 -15.0115 10.1033 15.5507 -59.1746 1.8598 2.6185 9.9085 13.9111 14.4072 39.3787 13.2331 19.9052 1.5501 1.3448 109.9772 8.1849 28.9783 5.2508 15.4853 7.5217 -16.4923 50.1207 -3.2035 -5.3838 10.8569 -25.7081 8.8071 -0.3453 30.4497 -0.5821 -11.4256 -9.7543 -11.3463 1.6234 0.7031 -1.9194 -10.5901 -22.0336 -19.6052 0.3006 32.2836 0.5041 12.4477 -13.3790 -2.5875 -1.4401 0.5236 0.9807
0.2391 95.6254 -0.9747 0.0617 3.9751 7.0572 -1.4869 2.7899 -0.4596 -0.8667 -4.0191 -0.2913 -0.5629 13.4779 -2.5250 5.1564 13.4095 1.4854 -1.3683 -3.6040 -2.1388 0.4550 -12.2217 -3.2757 0.0197 0.0380 -0.0637 0.7154 -10.5078 -3.9080 -0.6767 -10.5304 3.7779 -1.8291 11.6607 -13.4065 -40.3129 -9.5637 -26.0409 0.0136 -0.3607 -106.7402 -5.7444 -17.2857 -2.9138 -14.9209 10.1537 15.6278 -59.2913 1.8664 2.6297 10.1284 13.9677 14.6467 35.6021 15.0114 16.1149 1.5622 2.0779 112.3974 9.8548 32.1130 6.3870 15.7469 7.5911 -16.6872 50.3981 -3.2604 -5.4374 11.2145 -25.3445 6.8721 -0.3640 29.6890 -0.6507 -11.5786 -9.3749 -12.2638 1.6242 0.6574 -1.9072 -10.5220 -20.4602 -20.8740 0.2734 31.6969 0.4524 12.7909 -13.5929 -4.2049 -1.4505 0.5435 1.0109
-0.0668 95.7509 -0.4573 0.0251 3.7982 10.0607 -1.5295 2.4630 -0.3960 -0.8836 -4.1422 0.1584 -0.7143 13.0977 -1.9251 5.4812 14.1622 1.4089 -1.6319 -3.6347 -2.8520 1.1262 -11.3715 -4.7188 0.0253 0.0368 -0.0905 0.7219 -10.4973 -3.9373 -0.6717 -10.5275 3.7515 -1.5172 11.7741 -11.7959 -44.2182 -7.6372 -26.3624 -0.1444 -0.5171 -106.6791 -6.7939 -15.1937 -2.9235 -14.7875 10.2868 15.7298 -59.5584 1.8461 2.6251 10.5668 14.0380 15.1521 31.4053 15.8807 11.6830 1.2689 2.6359 114.2147 9.9706 33.1155 7.2173 15.9594 7.6379 -16.7834 50.5426 -3.3415 -5.5016 11.5207 -24.9962 4.7531 -0.3656 28.8729 -0.6863 -11.7273 -8.9481 -13.1268 1.6232 0.6568 -1.8994 -10.4557 -18.8707 -22.2930 0.2492 31.0670 0.4099 13.1910 -13.8021 -5.8544 -1.4603 0.6488 1.0495
-0.3404 95.8473 0.0563 0.0572 3.6730 12.9289 -1.5431 2.1258 -0.2679 -0.8906 -4.2819 0.6334 -0.7758 12.7380 -1.1859 5.7638 14.7545 1.3559 -1.8934 -3.6866 -3.6209 1.7175 -10.5490 -6.1438 0.0301 0.0308 -0.1148 0.7302 -10.4826 -3.9628 -0.6704 -10.5158 3.7271 -1.1458 11.9151 -9.8972 -48.0776 -4.9147 -26.6929 -0.1483 -0.6518 -106.5008 -7.9400 -11.6601 -3.1419 -14.6637 10.4337 15.7511 -59.9190 1.8196 2.5770 11.1834 14.1279 15.8774 26.7837 15.4367 7.0488 0.6266 2.8359 114.9216 7.9731 33.2669 7.3405 16.2894 7.7044 -16.8132 50.8054 -3.3939 -5.5352 11.7063 -24.7146 2.7420 -0.3572 28.1551 -0.6926 -11.8248 -8.5632 -13.8817 1.6217 0.6629 -1.9017 -10.4365 -17.4223 -23.7105 0.2292 30.4136 0.3706 13.6811 -14.0125 -7.3136 -1.4649 0.7776 1.0931
-0.5507 95.9122 0.5385 0.1465 3.5806 15.4945 -1.5135 1.7950 -0.0979 -0.9002 -4.4125 1.1616 -0.7631 12.3952 -0.3798 5.9783 15.1715 1.2905 -2.1044 -3.7174 -4.4170 2.1526 -9.8480 -7.4478 0.0310 0.0177 -0.1241 0.7369 -10.4673 -3.9707 -0.6759 -10.4978 3.7166 -0.6961 12.1277 -7.7998 -51.7208 -1.6567 -27.0607 0.0198 -0.6498 -106.0593 -8.9217 -7.0863 -3.4727 -14.5481 10.5269 15.6996 -60.2772 1.7984 2.5129 11.7880 14.1709 16.7476 21.8956 13.3984 2.9465 -0.4069 2.7824 113.7001 2.9482 33.1875 5.8735 16.7809 7.7672 -16.7521 51.3535 -3.3348 -5.5459 11.7863 -24.5273 0.9633 -0.3353 27.5972 -0.6486 -11.8051 -8.2234 -14.5466 1.6197 0.6466 -1.9100 -10.4730 -16.1677 -24.9919 0.2168 29.7756 0.3572 14.2498 -14.2008 -8.6480 -1.4616 0.8559 1.1294
-0.7177 95.9285 0.9501 0.3266 3.5019 17.6881 -1.4535 1.5244 0.0852 -0.9089 -4.5374 1.7161 -0.7458 12.0980 0.4590 6.1955 15.4148 1.1764 -2.2901 -3.7347 -5.2615 2.4530 -9.2373 -8.6003 0.0260 -0.0028 -0.1140 0.7364 -10.4773 -3.9614 -0.6864 -10.4993 3.7293 -0.1931 12.4900 -5.7368 -54.9049 1.6989 -27.2615 0.1363 -0.5035 -105.5740 -9.3799 -2.5269 -3.8933 -14.5070 10.5668 15.6274 -60.4960 1.7697 2.4563 12.1369 14.0584 17.7637 17.0698 9.9319 0.0908 -1.6287 2.5867 109.8453 -5.0539 32.7653 2.1757 17.2177 7.8290 -16.5918 51.9904 -3.1555 -5.5133 11.6943 -24.4355 -0.3732 -0.3173 27.1824 -0.6047 -11.6542 -7.9184 -15.1359 1.6157 0.5903 -1.9192 -10.6090 -15.1671 -25.9435 0.2084 29.2515 0.3489 14.8500 -14.3803 -9.8998 -1.4519 0.7869 1.1553
-0.8217 95.9366 1.2143 0.6085 3.4294 19.5002 -1.3753 1.3650 0.3050 -0.9020 -4.6344 2.2692 -0.7649 11.8603 1.2418 6.4832 15.5553 1.0531 -2.4920 -3.7609 -6.1701 2.6591 -8.7320 -9.6701 0.0214 -0.0255 -0.0959 0.7355 -10.5092 -3.9443 -0.6958 -10.5205 3.7516 0.2391 12.9442 -3.9569 -57.3204 4.8244 -27.2052 0.0435 -0.2514 -105.4046 -9.2691 0.5296 -4.1182 -14.5212 10.5781 15.5809 -60.4915 1.7370 2.3847 12.0025 13.6906 18.9552 12.6002 5.8659 -1.1635 -2.7377 2.2608 103.2382 -13.6493 30.8423 -2.3268 17.0988 7.9024 -16.4654 51.9838 -3.0053 -5.4898 11.3972 -24.4330 -1.2131 -0.3025 26.8278 -0.5770 -11.4826 -7.5307 -15.6544 1.6141 0.5101 -1.9309 -10.8662 -14.4907 -26.5932 0.2004 28.9089 0.3537 15.4072 -14.5426 -11.0277 -1.4439 0.6688 1.1744
-0.9079 95.9622 1.3481 0.9636 3.4227 21.0439 -1.2653 1.2687 0.4573 -0.8778 -4.6957 2.8949 -0.8054 11.7044 1.9212 6.8817 15.6263 0.9215 -2.7303 -3.8172 -7.1620 2.7775 -8.2269 -10.7211 0.0229 -0.0351 -0.0939 0.7359 -10.5396 -3.9466 -0.6935 -10.5401 3.7547 0.4545 13.3682 -2.4954 -58.9520 7.6662 -26.9917 -0.2009 -0.0071 -105.6684 -8.9207 1.8025 -4.1976 -14.6255 10.5820 15.5996 -60.3136 1.7074 2.2984 11.4417 13.1807 20.2990 8.2057 2.3025 -0.9361 -3.6894 1.7947 93.9299 -20.1833 27.7783 -5.0915 16.4457 7.9968 -16.5715 51.2250 -3.0622 -5.5803 10.9360 -24.4702 -1.6845 -0.2775 26.2738 -0.5515 -11.4387 -6.9414 -16.1141 1.6141 0.4541 -1.9345 -11.1612 -14.0945 -27.1315 0.1989 28.5737 0.3879 15.8384 -14.5771 -12.0283 -1.4377 0.5956 1.1763
-0.9801 96.0643 1.3685 1.3492 3.5196 22.4925 -1.1039 1.2084 0.6488 -0.8471 -4.7375 3.4481 -0.8633 11.6136 2.4889 7.4027 15.7719 0.7662 -3.0106 -3.8796 -8.1697 2.8505 -7.6527 -11.8979 0.0296 -0.0328 -0.0963 0.7418 -10.5644 -3.9506 -0.6864 -10.5610 3.7499 0.5380 13.7263 -1.3597 -59.9670 10.2061 -26.8463 -0.3302 0.2078 -106.2749 -8.7417 1.9815 -4.1083 -14.8392 10.5811 15.5435 -60.2422 1.7306 2.1391 10.6074 12.6587 21.7476 3.6273 0.4934 0.1171 -4.1598 1.4108 82.3047 -24.6400 24.6039 -5.7450 15.9155 8.0403 -16.8612 50.4241 -3.2762 -5.8307 10.3704 -24.5702 -2.0062 -0.2536 25.4777 -0.5318 -11.5093 -6.0986 -16.5715 1.6131 0.4070 -1.9430 -11.4213 -13.8643 -27.7342 0.1922 28.1177 0.4146 16.1778 -14.4629 -12.8917 -1.4333 0.5480 1.1613
-1.0342 96.2224 1.3181 1.6567 3.6867 23.9920 -0.8545 1.1550 0.8018 -0.8133 -4.7511 3.9990 -0.8612 11.5481 3.0080 7.9672 15.9588 0.5560 -3.3198 -3.9520 -9.1862 2.9456 -6.9726 -13.1811 0.0327 -0.0270 -0.0906 0.7404 -10.5977 -3.9510 -0.6795 -10.5965 3.7585 0.5603 13.9527 -0.4731 -60.6290 12.4190 -26.7624 -0.3266 0.4438 -107.0460 -8.7704 1.7508 -3.9501 -15.0909 10.6364 15.5017 -60.3391 1.7876 2.0013 9.5119 12.1510 23.2033 -0.8280 1.4974 1.3558 -4.1128 1.2381 68.4946 -27.4318 21.1136 -4.8535 15.9891 7.8996 -17.1840 50.0458 -3.5752 -6.1943 9.8555 -24.6232 -2.3132 -0.2336 24.3239 -0.5184 -11.6572 -5.0437 -17.1258 1.6137 0.3556 -1.9483 -11.5384 -13.5601 -28.4905 0.1711 27.3361 0.4169 16.3626 -14.1195 -13.7323 -1.4287 0.5406 1.1278
-1.0879 96.4507 1.2464 1.8343 3.9569 25.6394 -0.5301 1.1016 0.9193 -0.7817 -4.7402 4.4637 -0.7685 11.4498 3.5544 8.5473 16.0718 0.3077 -3.5826 -4.0275 -10.2075 3.0603 -6.3501 -14.4142 0.0403 -0.0229 -0.1038 0.7445 -10.6240 -3.9726 -0.6690 -10.6303 3.7499 0.5905 13.9979 0.2296 -61.1172 14.2854 -26.5251 -0.2098 0.5417 -107.9779 -8.9865 1.1204 -3.6069 -15.3841 10.6893 15.4691 -60.4581 1.8222 1.9167 8.0862 11.6048 24.6284 -4.3486 5.2624 2.1238 -3.2863 0.9755 53.4239 -28.1458 16.6613 -2.7290 16.4200 7.5110 -17.3729 49.7778 -3.9049 -6.5071 9.4420 -24.7129 -2.6249 -0.2262 22.9250 -0.5446 -11.8073 -3.8562 -17.8053 1.6165 0.3073 -1.9350 -11.4437 -13.0611 -29.3959 0.1416 26.1403 0.4003 16.3504 -13.5668 -14.6660 -1.4255 0.5206 1.0963
-1.1430 96.7292 1.1837 1.9251 4.3609 27.4194 -0.1891 1.0562 0.9529 -0.7341 -4.6871 4.8440 -0.6325 11.2786 4.1781 9.1574 15.9294 0.1287 -3.8045 -4.1243 -11.2611 3.2514 -5.7822 -15.6056 0.0465 -0.0257 -0.1242 0.7424 -10.6577 -4.0060 -0.6541 -10.6728 3.7366 0.6274 13.8882 0.8224 -61.6735 15.7393 -26.0180 -0.0135 0.5110 -108.9465 -9.2478 -0.0991 -2.9379 -15.6443 10.6791 15.4853 -60.4674 1.8004 1.9447 6.4091 11.0368 26.0550 -6.1407 9.3658 1.9402 -1.3152 0.1526 39.4475 -26.5758 12.1922 -0.0896 16.5508 7.0805 -17.2994 49.2501 -4.1179 -6.5885 9.0878 -24.8964 -2.9718 -0.2253 21.4168 -0.5830 -11.9290 -2.6139 -18.6105 1.6212 0.1995 -1.8994 -11.1692 -12.4344 -30.3328 0.1188 24.5796 0.3617 16.2077 -12.8208 -15.7712 -1.4223 0.5082 1.0744
-1.1533 97.0289 1.1564 2.0089 4.9123 29.2656 0.0744 0.9882 1.0114 -0.6932 -4.6411 5.0998 -0.5085 11.1149 4.7536 9.8298 15.5362 0.0294 -3.9887 -4.2053 -12.1973 3.5246 -5.4006 -16.7076 0.0476 -0.0331 -0.1353 0.7413 -10.6721 -4.0273 -0.6506 -10.6945 3.7336 0.6409 13.8004 1.2987 -62.3267 16.6059 -24.7898 0.0074 0.4712 -109.8066 -9.5309 -2.3298 -1.8987 -15.8629 10.5827 15.5112 -60.3037 1.7547 2.0160 4.9472 10.4931 27.0474 -6.4295 10.6443 0.8629 0.6962 -0.6144 29.8349 -24.3322 8.6377 2.0149 16.1067 6.9261 -17.0689 48.4985 -4.1391 -6.3831 8.7301 -25.1512 -3.3755 -0.2254 19.8283 -0.6171 -12.1076 -1.3983 -19.4241 1.6278 0.0669 -1.8635 -10.8293 -11.8497 -31.2555 0.1043 22.8952 0.3139 16.0368 -11.9425 -16.8675 -1.4261 0.5377 1.0536
-1.0777 97.3161 1.1475 2.1006 5.5360 30.9876 0.2490 0.8973 1.1395 -0.6689 -4.6358 5.2268 -0.4071 10.9913 5.1523 10.5246 15.1035 -0.0241 -4.0775 -4.2546 -12.9025 3.7419 -5.2698 -17.5633 0.0423 -0.0370 -0.1330 0.7402 -10.6758 -4.0279 -0.6604 -10.6994 3.7426 0.5520 13.8751 1.6462 -62.8968 17.0666 -22.6310 -0.3943 0.4065 -110.4036 -9.8742 -5.5352 -0.5163 -16.0370 10.5131 15.5628 -60.1298 1.7646 2.0717 3.9477 10.0178 27.3533 -6.1365 8.9514 -0.6085 1.3848 -0.9107 24.9170 -23.1268 5.1207 4.1055 15.6038 7.0459 -16.7680 47.9461 -4.0767 -6.0317 8.3644 -25.4274 -3.8028 -0.2230 18.2974 -0.6444 -12.3916 -0.2886 -20.1324 1.6317 0.0074 -1.8281 -10.4972 -11.3725 -32.0597 0.0715 21.3021 0.2407 15.8616 -11.1235 -17.8479 -1.4369 0.6247 1.0382
-0.9113 97.5487 1.1708 2.2073 6.1159 32.3801 0.3539 0.7808 1.2307 -0.6422 -4.6587 5.2876 -0.3163 10.8981 5.4258 11.1229 14.8384 -0.1160 -4.1092 -4.2818 -13.3445 3.8431 -5.2710 -18.0859 0.0402 -0.0332 -0.1353 0.7484 -10.6645 -4.0326 -0.6727 -10.6928 3.7426 0.4332 14.0576 1.9243 -63.4020 17.5440 -20.1440 -0.8660 0.2677 -110.6095 -10.3490 -8.9271 0.9770 -16.1633 10.4881 15.6852 -59.9934 1.8140 2.1168 3.3599 9.6467 27.2520 -5.6830 5.3606 -1.8928 1.0752 -0.9514 23.1493 -22.8984 1.0369 6.7499 15.0836 7.3375 -16.5895 47.7373 -4.0057 -5.6766 7.9839 -25.6154 -4.1748 -0.2097 16.9386 -0.6421 -12.7059 0.6266 -20.6745 1.6358 -0.0364 -1.7956 -10.2675 -10.9407 -32.7043 0.0506 19.7789 0.1995 15.7220 -10.3314 -18.6204 -1.4461 0.6916 1.0480
-0.6425 97.7580 1.2266 2.3151 6.5235 33.3626 0.3913 0.6652 1.3485 -0.6098 -4.7254 5.2764 -0.2157 10.8773 5.5850 11.6271 14.8114 -0.2137 -4.0766 -4.2778 -13.5746 3.8699 -5.2700 -18.3509 0.0414 -0.0314 -0.1347 0.7602 -10.6491 -4.0308 -0.6830 -10.6785 3.7446 0.3380 14.3521 2.0965 -63.7243 18.2157 -17.7153 -1.1746 0.0918 -110.5304 -11.0198 -12.0591 2.4907 -16.2539 10.4897 15.7902 -60.0101 1.8374 2.1042 3.1152 9.3447 27.0571 -5.2658 1.3026 -2.7851 0.5849 -0.9254 23.3724 -22.8951 -2.3401 8.9550 14.5970 7.5227 -16.6104 47.7162 -3.9878 -5.4768 7.6108 -25.6079 -4.4777 -0.1935 15.8729 -0.6269 -12.8928 1.2864 -20.9318 1.6353 -0.0748 -1.7878 -10.2378 -10.4875 -33.0933 0.0381 18.4094 0.1731 15.6441 -9.5466 -19.1437 -1.4544 0.6957 1.0748
-0.3020 97.9116 1.3273 2.4612 6.7072 33.9745 0.3663 0.5397 1.3881 -0.5916 -4.7970 5.3003 -0.1104 10.9281 5.6790 12.0211 14.9373 -0.3721 -4.0111 -4.2660 -13.6412 3.8809 -5.0906 -18.4618 0.0407 -0.0365 -0.1270 0.7689 -10.6402 -4.0210 -0.6932 -10.6724 3.7503 0.2933 14.6536 2.2169 -63.8293 19.0729 -15.7647 -1.2229 -0.0950 -110.3074 -11.8232 -14.6249 3.7770 -16.3342 10.5029 15.9461 -60.1055 1.8309 2.1120 3.0092 9.1524 26.8402 -4.8998 -1.7745 -3.0337 0.3369 -0.9270 24.0285 -22.6766 -4.0194 10.0305 14.2654 7.5823 -16.6415 47.7821 -4.0120 -5.4089 7.2005 -25.3708 -4.7145 -0.1691 15.1022 -0.5911 -12.8974 1.6502 -20.9427 1.6319 -0.0920 -1.8017 -10.4454 -9.9555 -33.2270 0.0365 17.1661 0.1778 15.5788 -8.8052 -19.5640 -1.4562 0.6451 1.0897
0.1033 98.0397 1.4414 2.6639 6.7188 34.3643 0.2867 0.4162 1.3940 -0.5898 -4.8745 5.3005 -0.0562 11.0253 5.7212 12.3392 15.1802 -0.5481 -3.9259 -4.2305 -13.6112 3.8793 -4.7698 -18.4743 0.0397 -0.0405 -0.1244 0.7778 -10.6362 -4.0166 -0.7044 -10.6648 3.7518 0.2922 14.8823 2.2633 -63.6739 20.0647 -14.4142 -1.0452 -0.2431 -110.0453 -12.5815 -16.3312 4.7366 -16.4081 10.5692 16.0844 -60.3558 1.8383 2.1257 2.9449 9.0176 26.6504 -4.4945 -3.4944 -2.8137 0.3273 -0.9781 24.4800 -22.2447 -4.5386 10.1556 14.1734 7.6055 -16.6351 47.9606 -4.0208 -5.3398 6.7327 -25.0076 -4.8543 -0.1657 14.6173 -0.5641 -12.7668 1.8059 -20.8661 1.6319 -0.0671 -1.8366 -10.8538 -9.3997 -33.1895 0.0308 16.0893 0.1836 15.5399 -8.1629 -19.8651 -1.4557 0.5770 1.0941
0.5532 98.1072 1.5673 2.8815 6.6024 34.5175 0.1851 0.2826 1.3995 -0.6023 -4.9396 5.3034 -0.0422 11.1425 5.7194 12.6275 15.4965 -0.7178 -3.8932 -4.1904 -13.5894 3.8659 -4.3301 -18.4922 0.0351 -0.0414 -0.1180 0.7815 -10.6331 -4.0114 -0.7180 -10.6595 3.7641 0.2790 15.0575 2.2338 -63.3115 20.9568 -13.4263 -0.8480 -0.3217 -109.7708 -13.2464 -17.4313 5.3877 -16.4250 10.6360 16.1411 -60.5625 1.8678 2.1134 2.9245 9.0154 26.4992 -4.0603 -4.1343 -2.2275 0.4078 -0.9681 24.5596 -21.6894 -4.5820 9.6094 14.2374 7.6320 -16.6258 48.2509 -4.0196 -5.3114 6.2555 -24.5672 -4.8697 -0.1567 14.3433 -0.5223 -12.5748 1.8222 -20.7442 1.6317 -0.0092 -1.8946 -11.3764 -8.8381 -33.0433 0.0181 15.1463 0.1932 15.4664 -7.5742 -20.0279 -1.4538 0.5160 1.0844
0.9639 98.1789 1.6827 3.0750 6.4869 34.5511 0.0859 0.1347 1.3867 -0.6276 -5.0080 5.3170 -0.0712 11.2713 5.6850 12.8935 15.8370 -0.8517 -3.9049 -4.1646 -13.5739 3.8666 -3.8861 -18.5364 0.0278 -0.0459 -0.1067 0.7789 -10.6389 -4.0019 -0.7304 -10.6630 3.7808 0.2973 15.2079 2.2217 -62.8564 21.6028 -12.7890 -0.7140 -0.2759 -109.5583 -13.6797 -17.8862 5.5970 -16.3975 10.7083 16.1363 -60.7189 1.8844 2.0880 2.9393 9.0373 26.3759 -3.6608 -4.3319 -1.5152 0.4576 -0.9011 24.5204 -21.2017 -4.4107 8.8693 14.3083 7.6317 -16.5969 48.4489 -4.0097 -5.2860 5.8137 -24.1811 -4.7977 -0.1452 14.2125 -0.4946 -12.3516 1.7858 -20.6807 1.6333 0.0338 -1.9318 -11.8635 -8.3152 -32.8678 0.0014 14.2692 0.2317 15.3051 -7.0249 -20.1419 -1.4480 0.4637 1.0613
1.3379 98.2467 1.7799 3.1937 6.4312 34.5357 0.0035 -0.0058 1.3493 -0.6462 -5.0815 5.3529 -0.1082 11.4067 5.6453 13.1400 16.1338 -0.9542 -3.9607 -4.1600 -13.5710 3.8649 -3.4953 -18.5903 0.0230 -0.0526 -0.0964 0.7751 -10.6450 -3.9944 -0.7358 -10.6731 3.7943 0.4263 15.3333 2.2810 -62.5810 21.9433 -12.5652 -0.7180 -0.1618 -109.4468 -13.7616 -17.7570 5.3627 -16.3277 10.7483 16.1358 -60.7259 1.8883 2.0816 2.9040 9.0607 26.2524 -3.2383 -4.8313 -0.8866 0.4991 -0.8550 24.6085 -20.9174 -4.1410 8.4773 14.3403 7.5939 -16.5431 48.4862 -3.9888 -5.2784 5.4695 -23.9253 -4.6953 -0.1349 14.1637 -0.4758 -12.1225 1.7570 -20.6475 1.6354 0.0812 -1.9270 -12.2125 -7.8665 -32.6532 -0.0089 13.4903 0.2598 15.0578 -6.4972 -20.2234 -1.4429 0.4654 1.0399
1.6610 98.3270 1.8754 3.2583 6.4356 34.4945 -0.0670 -0.1343 1.3413 -0.6465 -5.1339 5.3457 -0.1585 11.4983 5.6391 13.3825 16.4258 -0.9856 -4.0335 -4.1770 -13.5966 3.8431 -3.1870 -18.6614 0.0211 -0.0591 -0.0831 0.7729 -10.6612 -3.9873 -0.7370 -10.6968 3.8142 0.6777 15.4297 2.3473 -62.5709 22.0943 -12.6438 -0.8117 -0.1017 -109.4162 -13.6321 -17.2330 4.8636 -16.2391 10.7110 16.1271 -60.6168 1.8696 2.1108 2.8178 9.0983 26.1159 -2.8108 -5.6508 -0.4092 0.5238 -0.8641 24.9316 -20.7245 -3.7792 8.4201 14.3625 7.5160 -16.4897 48.4428 -3.9706 -5.2636 5.2110 -23.7347 -4.5575 -0.1387 14.0873 -0.4880 -11.9678 1.7305 -20.6544 1.6366 0.0913 -1.8889 -12.4470 -7.4830 -32.4032 -0.0140 12.7781 0.2617 14.8321 -5.9735 -20.3263 -1.4432 0.4779 1.0336
1.9238 98.4189 1.9414 3.2932 6.4528 34.3944 -0.1404 -0.2419 1.3552 -0.6419 -5.1688 5.3108 -0.2032 11.5524 5.6654 13.6155 16.7220 -0.9940 -4.0638 -4.2014 -13.6605 3.7622 -2.9887 -18.6215 0.0277 -0.0587 -0.0862 0.7808 -10.6799 -3.9996 -0.7315 -10.7193 3.8179 0.9653 15.5117 2.3821 -62.7309 22.0957 -12.8210 -0.9632 -0.0389 -109.4765 -13.4331 -16.5094 4.2834 -16.1664 10.6565 16.1163 -60.5133 1.8627 2.1838 2.6827 9.1344 26.0001 -2.4328 -6.5694 -0.0633 0.5816 -0.9382 25.3921 -20.5045 -3.3922 8.5313 14.4646 7.4518 -16.5023 48.4675 -3.9754 -5.2617 5.0204 -23.5523 -4.4355 -0.1497 14.0101 -0.5100 -11.8607 1.6742 -20.6004 1.6374 0.0610 -1.8438 -12.6437 -7.1341 -32.1533 -0.0217 12.1163 0.2482 14.6689 -5.4970 -20.3911 -1.4474 0.4817 1.0333
2.1555 98.4758 2.0543 3.3318 6.4424 34.3264 -0.2064 -0.3453 1.3597 -0.6440 -5.2040 5.2853 -0.2567 11.6035 5.6922 13.8177 16.9367 -0.9775 -4.0650 -4.2278 -13.7765 3.6913 -2.8225 -18.5561 0.0381 -0.0523 -0.1019 0.7897 -10.6883 -4.0221 -0.7188 -10.7250 3.8031 1.1759 15.5657 2.3535 -62.8864 21.9998 -13.0457 -1.1374 -0.0352 -109.5203 -13.2782 -15.8564 3.7818 -16.1046 10.6447 16.1617 -60.4066 1.8790 2.2397 2.5544 9.1906 25.9157 -2.1656 -7.2695 0.1549 0.6604 -1.0040 25.8282 -20.2378 -3.2129 8.6612 14.5446 7.4068 -16.5222 48.5384 -3.9574 -5.2730 4.8645 -23.3623 -4.4054 -0.1533 13.9359 -0.5268 -11.7665 1.5811 -20.5158 1.6375 0.0453 -1.8112 -12.8275 -6.7572 -31.9397 -0.0316 11.4531 0.2261 14.5579 -5.1181 -20.4952 -1.4485 0.4564 1.0263
2.3408 98.5364 2.1370 3.3611 6.3851 34.2139 -0.2627 -0.4612 1.3574 -0.6547 -5.2500 5.2674 -0.3083 11.6782 5.7031 13.9391 17.0889 -0.9888 -4.0427 -4.2445 -13.8284 3.6257 -2.7186 -18.4635 0.0510 -0.0474 -0.1232 0.8018 -10.6964 -4.0469 -0.7045 -10.7272 3.7798 1.3057 15.6082 2.2951 -63.0787 21.8694 -13.3602 -1.1997 -0.0169 -109.4913 -13.1003 -15.2400 3.3194 -16.0529 10.6512 16.1654 -60.3504 1.8886 2.2469 2.5186 9.2439 25.8600 -2.0981 -7.7087 0.4127 0.7075 -1.0563 26.1282 -20.0945 -2.9132 8.5494 14.5986 7.3940 -16.5658 48.5912 -3.9609 -5.3054 4.7425 -23.1341 -4.4147 -0.1523 13.9082 -0.5395 -11.6723 1.4746 -20.4074 1.6367 0.0080 -1.8017 -13.0214 -6.3612 -31.6997 -0.0423 10.8488 0.2166 14.4267 -4.7612 -20.5649 -1.4512 0.4056 1.0287
2.5124 98.5694 2.2198 3.4062 6.2763 34.0977 -0.3129 -0.5727 1.3349 -0.6641 -5.2875 5.2717 -0.3830 11.7656 5.6858 13.9805 17.1674 -0.9955 -4.0213 -4.2506 -13.8660 3.6049 -2.6127 -18.3818 0.0566 -0.0500 -0.1319 0.8048 -10.7084 -4.0569 -0.6960 -10.7313 3.7695 1.3767 15.5936 2.2430 -63.3135 21.6926 -13.7276 -1.2251 -0.0068 -109.3321 -12.8843 -14.5796 2.8508 -16.0454 10.6465 16.1837 -60.2635 1.8960 2.2617 2.4722 9.2882 25.8771 -2.0571 -7.9182 0.5793 0.6777 -1.1187 26.3827 -20.0451 -2.5969 8.3045 14.6392 7.4237 -16.5768 48.6789 -3.9573 -5.3043 4.6264 -22.8412 -4.4220 -0.1511 13.8620 -0.5375 -11.5871 1.3467 -20.3426 1.6373 -0.0270 -1.8080 -13.2437 -5.9510 -31.4434 -0.0482 10.2978 0.2080 14.3000 -4.4630 -20.6247 -1.4518 0.3569 1.0269
2.6462 98.5906 2.2897 3.4803 6.1128 33.9571 -0.3651 -0.6709 1.3269 -0.6685 -5.3201 5.2649 -0.4819 11.8689 5.6457 13.9769 17.2021 -0.9777 -4.0144 -4.2487 -13.9138 3.5758 -2.5543 -18.3377 0.0600 -0.0510 -0.1381 0.8059 -10.7138 -4.0617 -0.6902 -10.7311 3.7603 1.4116 15.6010 2.1973 -63.5904 21.3867 -14.1163 -1.2335 -0.0187 -109.0988 -12.6066 -13.7883 2.4673 -16.0464 10.6399 16.1860 -60.2369 1.8948 2.2839 2.3761 9.3780 25.9642 -2.0235 -8.1372 0.6690 0.6004 -1.1596 26.6386 -20.0312 -2.3951 7.9835 14.6740 7.4215 -16.5466 48.7052 -3.9472 -5.2711 4.4854 -22.5116 -4.4336 -0.1481 13.8377 -0.5302 -11.4952 1.1793 -20.2476 1.6366 -0.0412 -1.8224 -13.5131 -5.5340 -31.1746 -0.0459 9.8060 0.1970 14.1799 -4.2388 -20.6776 -1.4513 0.3122 1.0199
2.7522 98.5992 2.3474 3.5712 5.9205 33.7930 -0.4152 -0.7385 1.3301 -0.6666 -5.3509 5.2673 -0.6212 11.9873 5.5733 13.9576 17.2101 -0.9570 -4.0014 -4.2471 -13.9846 3.5677 -2.5602 -18.3181 0.0597 -0.0512 -0.1393 0.8084 -10.7233 -4.0602 -0.6936 -10.7373 3.7563 1.3895 15.6756 2.1554 -63.8232 20.9477 -14.4803 -1.2350 -0.0251 -108.8399 -12.2248 -12.8205 2.0240 -16.0748 10.6170 16.1643 -60.2341 1.8938 2.2988 2.2223 9.4675 26.0837 -1.9570 -8.5068 0.6860 0.5103 -1.1882 27.0054 -19.9997 -2.3440 7.6180 14.6742 7.3928 -16.5299 48.6795 -3.9609 -5.2514 4.3470 -22.1770 -4.4675 -0.1461 13.8367 -0.5054 -11.4212 1.0204 -20.1580 1.6367 -0.0553 -1.8516 -13.7766 -5.1540 -30.9410 -0.0426 9.3914 0.2033 14.0752 -4.1045 -20.7335 -1.4494 0.2983 1.0043
2.8120 98.6003 2.3990 3.6512 5.7141 33.5974 -0.4640 -0.7675 1.3275 -0.6652 -5.3747 5.2940 -0.7577 12.1190 5.4952 13.9519 17.1582 -0.9550 -4.0076 -4.2321 -14.0228 3.5997 -2.6423 -18.2810 0.0604 -0.0498 -0.1433 0.8145 -10.7165 -4.0621 -0.6983 -10.7274 3.7493 1.3020 15.7559 2.1413 -64.0447 20.4768 -14.9282 -1.1778 0.0140 -108.5886 -11.8171 -11.6790 1.5262 -16.0993 10.6004 16.1482 -60.2820 1.8949 2.3227 2.0643 9.5361 26.2192 -1.8952 -9.0804 0.6014 0.4226 -1.1584 27.5843 -20.0874 -2.2210 7.1334 14.6964 7.3596 -16.5390 48.6645 -3.9687 -5.2344 4.2345 -21.8376 -4.4562 -0.1444 13.8200 -0.4861 -11.4020 0.8808 -20.0633 1.6363 -0.0586 -1.8873 -14.0160 -4.8460 -30.7384 -0.0398 9.1015 0.2176 13.9950 -4.0476 -20.7811 -1.4461 0.2867 0.9877
2.8255 98.5978 2.3906 3.6959 5.5229 33.3184 -0.5088 -0.7551 1.3397 -0.6622 -5.3785 5.2955 -0.8940 12.2436 5.4274 13.9923 17.0720 -0.9928 -4.0235 -4.2241 -13.9744 3.6486 -2.8019 -18.2033 0.0619 -0.0459 -0.1471 0.8149 -10.7120 -4.0643 -0.6956 -10.7219 3.7429 1.1673 15.8189 2.1562 -64.2641 19.9994 -15.3932 -1.0760 0.0480 -108.4281 -11.4654 -10.5986 0.9924 -16.1214 10.5738 16.1071 -60.3017 1.8863 2.3074 1.9915 9.5872 26.3457 -1.9091 -9.9542 0.4552 0.3292 -1.1260 28.4968 -20.2146 -2.0017 6.6114 14.6820 7.3083 -16.5714 48.5808 -3.9904 -5.2564 4.1908 -21.5442 -4.3864 -0.1420 13.8172 -0.4840 -11.4461 0.7429 -19.9653 1.6340 -0.0550 -1.9206 -14.1805 -4.6619 -30.5348 -0.0349 8.9856 0.2294 13.9552 -4.0701 -20.7512 -1.4427 0.3112 0.9784
2.7632 98.5934 2.3562 3.6681 5.3721 32.9595 -0.5381 -0.6951 1.3396 -0.6546 -5.3735 5.2880 -1.0043 12.3611 5.3814 14.0449 16.9680 -1.0508 -4.0196 -4.2220 -13.8741 3.7667 -3.0282 -18.0945 0.0626 -0.0407 -0.1503 0.8139 -10.7131 -4.0680 -0.6926 -10.7208 3.7385 1.0279 15.8655 2.1455 -64.4705 19.5079 -15.8222 -0.9882 0.0759 -108.3582 -11.1598 -9.6542 0.4774 -16.1084 10.5580 16.0727 -60.2740 1.8784 2.2816 1.9917 9.6579 26.4304 -2.0143 -11.2129 0.3041 0.2757 -1.1531 29.6679 -20.3680 -1.7165 6.1856 14.6579 7.2439 -16.6267 48.5552 -4.0184 -5.2884 4.2519 -21.3166 -4.2683 -0.1431 13.8106 -0.4927 -11.5716 0.6315 -19.8723 1.6317 -0.0348 -1.9326 -14.2147 -4.5961 -30.3308 -0.0318 9.0163 0.2338 13.9275 -4.1341 -20.6373 -1.4397 0.3618 0.9868
2.6395 98.6039 2.2946 3.5498 5.2440 32.5346 -0.5479 -0.5889 1.3517 -0.6525 -5.3442 5.2637 -1.0679 12.4564 5.3202 14.1165 16.8523 -1.1119 -4.0086 -4.2173 -13.7160 3.9216 -3.3411 -17.9235 0.0639 -0.0358 -0.1560 0.8106 -10.6998 -4.0720 -0.6868 -10.7083 3.7313 0.8984 15.9445 2.1053 -64.5754 18.9729 -16.1665 -0.9576 0.0621 -108.3588 -10.8868 -8.7445 0.0666 -16.0939 10.5303 16.0300 -60.1810 1.8669 2.2580 2.0848 9.7582 26.4358 -2.1929 -12.6491 0.2257 0.2194 -1.1934 31.0264 -20.5138 -1.4721 5.8966 14.6662 7.1603 -16.6525 48.5275 -4.0395 -5.2947 4.4581 -21.1469 -4.1385 -0.1460 13.8463 -0.5010 -11.7012 0.5120 -19.7435 1.6271 -0.0259 -1.9330 -14.1269 -4.6186 -30.1376 -0.0281 9.1951 0.2363 13.8795 -4.2184 -20.3972 -1.4392 0.4057 1.0015
2.4536 98.6031 2.2154 3.3576 5.1337 32.0206 -0.5447 -0.4460 1.3445 -0.6602 -5.2981 5.2342 -1.0974 12.5253 5.2599 14.2043 16.7144 -1.1655 -3.9793 -4.2061 -13.5301 4.0938 -3.6782 -17.7028 0.0644 -0.0254 -0.1645 0.8092 -10.6933 -4.0801 -0.6838 -10.6998 3.7222 0.8138 16.0165 2.0453 -64.6032 18.4112 -16.5089 -0.9345 0.0693 -108.4038 -10.6497 -7.7931 -0.2029 -16.0287 10.5260 15.9830 -60.0849 1.8736 2.2425 2.2612 9.8393 26.4052 -2.4761 -14.0745 0.2452 0.2219 -1.2555 32.4604 -20.6103 -1.2868 5.6791 14.7020 7.0750 -16.6547 48.5459 -4.0487 -5.3197 4.7721 -21.0134 -3.9898 -0.1516 13.8976 -0.5121 -11.8534 0.3926 -19.5693 1.6236 -0.0267 -1.9351 -13.9297 -4.7062 -29.9277 -0.0217 9.4656 0.2397 13.7928 -4.3494 -20.0852 -1.4368 0.4519 1.0060
2.2181 98.5972 2.1293 3.0857 5.0251 31.3691 -0.5223 -0.2761 1.3218 -0.6841 -5.2413 5.1901 -1.1065 12.5581 5.2028 14.3499 16.5950 -1.1824 -3.9537 -4.2008 -13.2888 4.2634 -4.0496 -17.4119 0.0644 -0.0147 -0.1752 0.8061 -10.6945 -4.0901 -0.6800 -10.6958 3.7113 0.7495 16.0195 1.9341 -64.5976 17.9129 -16.8648 -0.9060 0.1093 -108.4661 -10.4141 -6.6638 -0.4438 -15.9733 10.5521 15.9514 -60.0820 1.8969 2.2273 2.5836 9.9123 26.3668 -2.8310 -15.4289 0.3657 0.1451 -1.3014 34.0749 -20.6520 -1.0768 5.4338 14.7927 7.0262 -16.6657 48.6562 -4.0224 -5.3389 5.2088 -20.8838 -3.8144 -0.1491 13.9886 -0.5127 -12.0096 0.2195 -19.3341 1.6214 -0.0337 -1.9314 -13.6410 -4.8370 -29.6708 -0.0145 9.8208 0.2285 13.6323 -4.5099 -19.6426 -1.4346 0.5170 1.0000
1.9483 98.5950 2.0471 2.7283 4.8951 30.5661 -0.4962 -0.1115 1.2772 -0.7033 -5.1777 5.1447 -1.0784 12.5816 5.1325 14.4790 16.4819 -1.2026 -3.9154 -4.1963 -12.9535 4.3864 -4.4168 -16.9799 0.0638 -0.0076 -0.1829 0.8029 -10.7016 -4.0992 -0.6773 -10.6965 3.7050 0.7003 15.9694 1.7986 -64.5283 17.4837 -17.3308 -0.8435 0.1555 -108.4921 -10.2047 -5.2979 -0.7499 -15.8912 10.5394 15.9038 -60.0650 1.9036 2.2167 3.0174 9.9734 26.2954 -3.1697 -16.8014 0.6895 -0.0874 -1.3497 35.9489 -20.6594 -0.8687 5.0678 14.8354 7.0098 -16.7093 48.8145 -4.0153 -5.4107 5.7772 -20.7076 -3.5963 -0.1561 14.0834 -0.5331 -12.1740 0.0364 -19.0228 1.6227 -0.0524 -1.9199 -13.2698 -4.9530 -29.3420 -0.0108 10.2044 0.2133 13.4235 -4.6759 -19.0785 -1.4325 0.5601 0.9974
1.6676 98.6104 1.9625 2.3045 4.7592 29.5558 -0.4661 0.0287 1.2468 -0.7238 -5.1218 5.0619 -1.0183 12.5893 5.0266 14.5807 16.4128 -1.2685 -3.8292 -4.1954 -12.4942 4.4201 -4.8016 -16.3531 0.0640 -0.0014 -0.1907 0.8041 -10.7236 -4.1089 -0.6770 -10.7091 3.6985 0.6673 15.9152 1.6197 -64.3963 17.0916 -17.9206 -0.7189 0.1650 -108.5163 -10.0569 -3.6771 -1.0380 -15.7859 10.5363 15.8776 -60.0958 1.9149 2.2034 3.5009 9.9944 26.1897 -3.3983 -18.5207 1.3094 -0.4063 -1.3891 38.2593 -20.5116 -0.4501 4.6587 14.8544 7.0184 -16.7530 48.9885 -3.9868 -5.4778 6.4558 -20.4907 -3.3496 -0.1638 14.2033 -0.5496 -12.3532 -0.1833 -18.5520 1.6238 -0.0510 -1.9027 -12.8302 -5.0435 -28.8916 -0.0052 10.5781 0.1857 13.1981 -4.8327 -18.4670 -1.4318 0.5846 0.9854
1.3786 98.6157 1.8980 1.8440 4.5931 28.3633 -0.4424 0.1406 1.2055 -0.7332 -5.0645 4.9241 -0.9552 12.5763 4.8777 14.6359 16.3470 -1.3314 -3.6891 -4.1959 -11.9161 4.3719 -5.1762 -15.6234 0.0637 0.0079 -0.1981 0.8037 -10.7415 -4.1191 -0.6762 -10.7207 3.6929 0.6340 15.8136 1.3442 -64.2172 16.6942 -18.6660 -0.5436 0.1733 -108.3660 -10.0502 -1.8313 -1.2582 -15.6498 10.5686 15.8578 -60.1677 1.9381 2.1717 4.0468 9.9863 26.0307 -3.3494 -20.7758 2.2390 -0.7114 -1.4016 41.3250 -20.1774 0.2213 4.3927 14.8761 7.0268 -16.7655 49.1375 -3.9549 -5.5429 7.2022 -20.2084 -3.0361 -0.1747 14.3499 -0.5524 -12.5438 -0.4381 -17.9579 1.6260 -0.0520 -1.8857 -12.3547 -5.1523 -28.3512 -0.0019 11.0069 0.1571 13.0276 -5.0403 -17.7679 -1.4315 0.6027 0.9775
1.0548 98.6046 1.8255 1.3592 4.3998 26.9156 -0.4151 0.2428 1.1560 -0.7369 -5.0099 4.7146 -0.8812 12.5254 4.6738 14.5578 16.2889 -1.3905 -3.5166 -4.1787 -11.1916 4.2516 -5.5603 -14.7635 0.0660 0.0209 -0.2092 0.8075 -10.7428 -4.1322 -0.6741 -10.7188 3.6818 0.5595 15.6695 0.9948 -63.9566 16.2563 -19.5849 -0.3711 0.2389 -107.9727 -10.1708 0.2006 -1.4254 -15.4703 10.6183 15.8592 -60.3516 1.9630 2.1198 4.6271 9.9916 25.8057 -2.8376 -23.7611 3.4847 -0.9659 -1.3349 45.5062 -19.6330 0.8924 4.3084 14.8508 6.9743 -16.6982 49.1538 -3.9142 -5.5491 8.0118 -19.8724 -2.6298 -0.1831 14.5403 -0.5390 -12.7848 -0.7592 -17.2229 1.6244 -0.0292 -1.8693 -11.8615 -5.3092 -27.6710 0.0068 11.5108 0.1335 12.9241 -5.3155 -16.9601 -1.4318 0.6048 0.9855
0.7110 98.5586 1.7518 0.8839 4.1635 25.2070 -0.3754 0.3726 1.0885 -0.7435 -4.9662 4.4706 -0.7864 12.4462 4.3758 14.3147 16.2240 -1.3906 -3.3091 -4.1433 -10.4092 4.0869 -5.9786 -13.8342 0.0639 0.0354 -0.2153 0.8127 -10.7410 -4.1402 -0.6828 -10.7141 3.6776 0.4383 15.4718 0.5068 -63.6171 15.7910 -20.6496 -0.1739 0.2647 -107.3231 -10.3132 2.2268 -1.5931 -15.2369 10.7212 15.8873 -60.5488 2.0081 2.0642 5.1945 10.0889 25.5139 -1.7094 -27.1715 4.9054 -1.1083 -1.2336 50.9082 -18.8019 1.1999 4.3871 14.7993 6.9059 -16.5767 49.0716 -3.8674 -5.5508 8.8384 -19.5023 -2.0975 -0.1926 14.8203 -0.5180 -13.0246 -1.1286 -16.4072 1.6209 0.0104 -1.8528 -11.3885 -5.5774 -26.9267 0.0195 12.1671 0.1463 12.9083 -5.7099 -15.9984 -1.4316 0.6549 0.9994
0.3889 98.4923 1.6603 0.4051 3.8763 23.2140 -0.3013 0.5359 0.9928 -0.7443 -4.9391 4.1952 -0.6446 12.3636 3.9918 13.8733 16.1360 -1.3491 -3.0999 -4.0937 -9.5315 3.8940 -6.4817 -12.7843 0.0580 0.0418 -0.2077 0.8123 -10.7137 -4.1257 -0.6936 -10.6852 3.6814 0.2501 15.3099 -0.1325 -63.0896 15.2547 -21.8480 0.0207 0.1864 -106.4349 -10.4218 4.2495 -1.7945 -15.0222 10.8111 15.9012 -60.7559 2.0253 2.0110 5.7879 10.2466 25.1206 0.1440 -30.5057 6.3763 -1.1586 -1.1164 57.5302 -17.5757 0.8177 4.5296 14.6821 6.8152 -16.3956 48.8581 -3.8200 -5.5002 9.6840 -19.1425 -1.4058 -0.2015 15.3110 -0.5004 -13.2219 -1.6293 -15.5189 1.6160 0.0524 -1.8424 -10.9330 -6.0077 -26.0398 0.0363 13.0951 0.1735 12.9373 -6.1811 -14.8225 -1.4327 0.6339 1.0206
0.0639 98.3770 1.5519 -0.0847 3.5383 20.9510 -0.1717 0.7271 0.8666 -0.7291 -4.9018 3.8723 -0.4393 12.2842 3.5593 13.2625 16.0359 -1.2827 -2.8791 -4.0475 -8.5466 3.6524 -7.0313 -11.6639 0.0486 0.0354 -0.1856 0.8059 -10.6947 -4.0957 -0.7052 -10.6649 3.7006 0.0184 15.2110 -0.9266 -62.4519 14.6731 -22.9991 0.1513 0.0253 -105.3929 -10.4346 5.9897 -2.0533 -14.8040 10.8965 15.9571 -60.8158 2.0203 2.0315 6.3512 10.4449 24.6372 2.6205 -32.9944 7.7681 -1.1727 -1.0677 64.7726 -15.9666 0.4337 4.5551 14.6680 6.7708 -16.2960 48.7992 -3.7586 -5.5054 10.5521 -18.8855 -0.5462 -0.2092 16.1777 -0.4985 -13.3505 -2.2985 -14.6538 1.6152 0.0254 -1.8388 -10.4877 -6.6110 -25.0283 0.0571 14.3266 0.2194 12.9813 -6.7430 -13.4844 -1.4324 0.5989 1.0399
-0.2140 98.1768 1.4239 -0.5923 3.1238 18.4390 0.0291 0.9839 0.7459 -0.6910 -4.8272 3.5102 -0.1265 12.2111 3.0903 12.4567 15.8907 -1.1513 -2.6784 -4.0033 -7.4980 3.3267 -7.6157 -10.4603 0.0385 0.0236 -0.1502 0.7951 -10.6712 -4.0523 -0.7146 -10.6411 3.7339 -0.2113 15.2327 -1.8411 -61.7173 14.1120 -23.9795 0.1926 -0.2353 -104.4039 -10.2453 7.3473 -2.3331 -14.6048 10.9048 15.9819 -60.7314 1.9620 2.0849 6.8646 10.6498 24.0645 5.4468 -34.2961 9.0638 -1.2414 -1.0415 72.1752 -13.9624 0.5226 4.6248 14.7301 6.7995 -16.2690 48.8819 -3.6929 -5.5068 11.4585 -18.8533 0.4968 -0.2255 17.6987 -0.5115 -13.3361 -3.3099 -13.8497 1.6153 -0.0010 -1.8413 -10.0739 -7.4871 -23.8917 0.0863 16.1060 0.2468 13.0552 -7.4189 -11.9481 -1.4323 0.4916 1.0561
-0.4432 97.7950 1.2238 -1.0253 2.6395 15.7066 0.2818 1.3652 0.6451 -0.6443 -4.6828 3.1166 0.2816 12.1399 2.6198 11.4263 15.6497 -0.9085 -2.4834 -3.9736 -6.4779 2.8932 -8.2774 -9.2364 0.0305 0.0094 -0.1096 0.7846 -10.6458 -4.0044 -0.7198 -10.6111 3.7722 -0.3808 15.3775 -2.8440 -60.8974 13.6626 -24.6714 0.0291 -0.4675 -103.7907 -9.8214 8.4927 -2.5963 -14.4265 10.8523 15.9878 -60.5155 1.8906 2.1535 7.2032 10.8829 23.4356 8.3902 -34.5786 10.2234 -1.3540 -0.9414 79.3065 -11.5674 1.1483 4.8253 14.8537 6.8623 -16.2922 49.0710 -3.6323 -5.5344 12.3104 -19.2786 1.7639 -0.2514 20.2322 -0.5330 -13.1684 -4.7610 -13.1095 1.6180 -0.0521 -1.8428 -9.8028 -8.9264 -22.7324 0.1242 18.8743 0.2740 13.2472 -8.5197 -10.1347 -1.4335 0.4047 1.0734
-0.5900 97.1127 0.9029 -1.2158 2.0888 12.7206 0.5282 1.9350 0.5735 -0.5918 -4.4826 2.7315 0.7132 12.1293 2.1398 10.1628 15.1705 -0.4665 -2.3494 -3.9531 -5.5979 2.3349 -9.0745 -7.9991 0.0245 0.0002 -0.0758 0.7778 -10.6241 -3.9650 -0.7253 -10.5803 3.8041 -0.6476 15.5830 -3.9015 -59.8747 13.5936 -25.0355 -0.2075 -0.6506 -103.9839 -9.2752 9.6596 -2.6548 -14.3341 10.7549 15.9579 -60.2693 1.8107 2.1869 7.3292 11.1147 22.8352 11.1205 -34.1786 11.4343 -1.5311 -0.7079 85.7354 -8.9588 2.0600 5.2179 15.0060 6.9853 -16.3375 49.3334 -3.5589 -5.5991 12.9462 -20.2646 3.3204 -0.2911 23.9422 -0.5580 -12.8798 -6.7026 -12.4443 1.6227 -0.1100 -1.8526 -9.8568 -11.2547 -21.5428 0.1857 23.0806 0.3111 13.4941 -10.3125 -8.0176 -1.4372 0.4189 1.0688
-0.7151 96.1005 0.5100 -1.1310 1.4981 9.5066 0.7546 2.7166 0.5029 -0.5141 -4.2236 2.3264 1.1246 12.2342 1.7035 8.6284 14.3640 0.1654 -2.2613 -3.9227 -4.8702 1.5973 -10.1033 -6.7733 0.0179 0.0017 -0.0512 0.7742 -10.6125 -3.9332 -0.7361 -10.5624 3.8256 -1.2746 15.8326 -4.9553 -58.4494 13.8979 -25.0644 -0.4370 -0.8475 -105.1495 -8.6995 10.8979 -2.5136 -14.2982 10.6984 15.9981 -60.0215 1.7461 2.2305 7.2683 11.4109 22.3307 13.5217 -33.6738 12.8805 -1.7768 -0.3310 91.0759 -6.3564 2.7895 5.7505 15.1591 7.1791 -16.3869 49.7235 -3.4338 -5.6579 13.3483 -21.7241 5.1603 -0.3387 28.6258 -0.5619 -12.5933 -9.0928 -11.8987 1.6242 -0.0769 -1.8719 -10.2695 -14.4333 -20.2657 0.2815 28.5720 0.3811 13.6143 -12.6462 -5.6516 -1.4399 0.5482 1.0398
-0.8052 94.8028 -0.0104 -0.7829 0.9403 6.2900 0.9220 3.6478 0.4366 -0.3885 -3.9056 1.8801 1.4824 12.5168 1.2921 6.9482 13.1960 0.8156 -2.1952 -3.8758 -4.2145 0.6594 -11.3344 -5.5190 0.0132 0.0047 -0.0360 0.7706 -10.5899 -3.9071 -0.7436 -10.5366 3.8324 -2.4818 16.0609 -6.0773 -56.5240 14.4173 -24.8183 -0.5903 -0.9149 -107.1009 -8.0807 12.1057 -2.5705 -14.3732 10.6376 16.0356 -59.7353 1.6922 2.3019 7.2451 11.6501 21.9239 15.9298 -33.6220 14.3585 -1.9814 0.1743 95.1933 -4.2688 3.0705 6.2859 15.2904 7.3310 -16.3999 50.1016 -3.3405 -5.6413 13.5221 -23.4566 7.1102 -0.3782 33.7431 -0.5710 -12.2963 -11.6332 -11.4419 1.6228 0.0544 -1.8881 -10.9910 -18.0908 -18.7959 0.4063 34.6580 0.5238 13.5013 -15.1214 -3.4224 -1.4411 0.6984 1.0078
-0.8920 93.4333 -0.5772 -0.3536 0.5393 3.5336 1.0511 4.5874 0.3494 -0.2248 -3.5615 1.4445 1.8401 13.0457 0.8151 5.4211 11.7527 1.3558 -2.1355 -3.8197 -3.7019 -0.3426 -12.6061 -4.4097 0.0109 0.0052 -0.0290 0.7597 -10.5554 -3.8843 -0.7383 -10.5041 3.8235 -4.2433 16.1116 -7.3398 -54.0354 14.6325 -24.3686 -0.7371 -0.8735 -109.3628 -7.4434 13.0544 -3.3013 -14.5266 10.5657 16.0028 -59.6092 1.6954 2.3752 7.6356 11.7155 21.6346 18.9054 -34.3411 15.3168 -2.1455 0.6278 98.1410 -3.4367 2.5699 6.9861 15.3336 7.4146 -16.3952 50.3724 -3.2780 -5.5849 13.6404 -25.2661 8.6928 -0.4128 38.5596 -0.6139 -12.0214 -13.9341 -10.9846 1.6202 0.2833 -1.9099 -11.7396 -21.6110 -17.2812 0.5154 40.3289 0.6695 13.1414 -17.2798 -1.7349 -1.4401 0.8392 0.9831
-1.0203 92.1501 -1.1831 -0.0328 0.2873 1.5270 1.1807 5.4502 0.2646 -0.0476 -3.2346 0.9855 2.3257 13.8594 0.2790 4.2492 10.2598 1.7956 -2.1043 -3.7695 -3.4486 -1.3099 -13.8444 -3.5389 0.0120 0.0101 -0.0293 0.7405 -10.5127 -3.8635 -0.7178 -10.4624 3.8011 -6.2180 15.9900 -8.8151 -51.0830 14.1643 -23.9896 -0.8817 -0.7287 -111.4589 -6.8031 13.9466 -4.7733 -14.7351 10.3885 15.8434 -59.6150 1.6936 2.4007 8.5748 11.6291 21.5399 22.8884 -35.5594 15.1920 -2.3328 0.8754 100.1246 -4.1910 0.6672 8.1112 15.2565 7.5027 -16.3675 50.5510 -3.2213 -5.5044 13.8590 -27.0582 9.6576 -0.4622 42.7686 -0.6880 -11.7270 -15.8273 -10.6420 1.6222 0.4919 -1.9161 -12.2549 -24.6209 -16.1070 0.5969 45.0964 0.7866 12.7017 -19.0183 -0.5737 -1.4371 0.9415 0.9687
-1.1862 90.9750 -1.7663 0.1666 0.1430 0.3203 1.3282 6.1898 0.1606 0.1172 -2.8873 0.5579 2.9867 14.7521 -0.1980 3.4097 8.9705 2.0541 -2.0679 -3.7526 -3.4154 -2.1991 -14.9493 -2.9138 0.0157 0.0210 -0.0283 0.7178 -10.4763 -3.8459 -0.6876 -10.4248 3.7820 -7.8662 15.8070 -10.4081 -48.1230 12.7141 -23.9803 -1.0671 -0.4562 -113.0758 -6.2244 15.0260 -6.5292 -14.9567 10.2737 15.7044 -59.7305 1.7322 2.4027 9.8007 11.4822 21.4915 27.7969 -36.5867 14.0554 -2.4414 0.8760 100.9990 -6.2613 -2.8933 9.5655 15.0074 7.6411 -16.3175 50.6787 -3.1893 -5.3703 14.1622 -28.7513 10.1028 -0.5210 46.2587 -0.7704 -11.4634 -17.3127 -10.4861 1.6282 0.6691 -1.8912 -12.5657 -27.0449 -15.4759 0.6587 48.9105 0.8727 12.3216 -20.4633 0.1922 -1.4337 1.0403 0.9821
-1.3389 89.9769 -2.3050 0.3088 0.0853 -0.3491 1.4775 6.8158 0.0563 0.2738 -2.5537 0.1480 3.7574 15.6340 -0.5135 2.8202 7.9500 2.1165 -2.0239 -3.7492 -3.5305 -2.9418 -15.8680 -2.5177 0.0205 0.0278 -0.0305 0.7016 -10.4681 -3.8407 -0.6617 -10.4174 3.7688 -9.0695 15.6248 -11.9752 -45.3445 10.3378 -24.3691 -1.2126 -0.0890 -114.2508 -5.8275 16.3062 -8.1517 -15.2035 10.2444 15.6146 -59.9309 1.7944 2.3729 11.1117 11.3568 21.5707 33.0929 -37.0500 12.2571 -2.4264 0.6070 100.7480 -8.8917 -7.4354 10.8139 14.7753 7.6961 -16.2469 50.6556 -3.1860 -5.2210 14.4609 -30.3057 10.2904 -0.5725 49.0859 -0.8414 -11.2485 -18.4292 -10.5232 1.6318 0.8019 -1.8525 -12.7552 -29.0133 -15.1613 0.6843 51.9484 0.9098 11.9528 -21.6485 0.7222 -1.4314 1.1288 0.9879
-1.4852 89.1692 -2.7486 0.4847 0.1142 -0.6957 1.6141 7.3286 -0.0429 0.4132 -2.2614 -0.2096 4.4762 16.4220 -0.6868 2.4808 7.2315 2.0629 -2.0090 -3.7594 -3.7048 -3.4734 -16.5820 -2.3287 0.0242 0.0323 -0.0407 0.6931 -10.4879 -3.8508 -0.6452 -10.4391 3.7558 -9.7464 15.4506 -13.3328 -42.9266 7.2854 -25.1060 -1.2126 0.2349 -115.1383 -5.6788 17.5972 -9.3391 -15.4170 10.2973 15.6195 -60.0958 1.8351 2.3669 12.1565 11.3202 21.7908 38.4285 -36.8766 10.2629 -2.3646 0.1917 99.4297 -11.2778 -12.1426 11.1136 14.8676 7.6131 -16.1429 50.5684 -3.2194 -5.1503 14.5932 -31.6795 10.5204 -0.6214 51.2766 -0.8967 -11.0779 -19.1942 -10.7400 1.6310 0.8776 -1.8271 -12.9416 -30.6256 -14.9155 0.6748 54.3193 0.8974 11.6150 -22.6211 1.0299 -1.4260 1.2388 0.9821
-1.6144 88.6071 -3.0886 0.7159 0.2086 -0.9031 1.7264 7.7121 -0.1356 0.5352 -2.0147 -0.4688 5.0291 17.0470 -0.7543 2.2815 6.7712 1.9640 -2.0197 -3.7743 -3.8619 -3.7821 -17.1034 -2.2856 0.0269 0.0346 -0.0493 0.6904 -10.5137 -3.8651 -0.6371 -10.4681 3.7503 -10.0735 15.2524 -14.3789 -40.8647 4.0005 -26.0583 -1.0479 0.4964 -115.8699 -5.7557 18.4889 -10.1279 -15.6769 10.3931 15.6811 -60.2839 1.8277 2.4019 12.7477 11.4348 22.1373 43.5509 -36.2301 8.4793 -2.2301 -0.3065 97.2060 -13.4303 -16.9290 10.3863 15.1626 7.4653 -16.0721 50.5322 -3.2862 -5.1754 14.5118 -32.7319 10.9666 -0.6673 52.7243 -0.9348 -10.9577 -19.6493 -11.0406 1.6332 0.8925 -1.8071 -13.1656 -31.8736 -14.5693 0.6690 55.9931 0.8936 11.3689 -23.2699 1.0886 -1.4209 1.3058 0.9736
-1.6908 88.2564 -3.3377 1.0017 0.3900 -1.1048 1.8123 7.9964 -0.2056 0.6334 -1.8345 -0.6589 5.3714 17.5038 -0.7669 2.1496 6.5309 1.8766 -2.0499 -3.7865 -3.9760 -3.9393 -17.4934 -2.3276 0.0280 0.0376 -0.0481 0.6934 -10.5306 -3.8704 -0.6382 -10.4905 3.7550 -10.1579 14.9677 -15.1517 -39.1453 0.6524 -26.9681 -0.7843 0.6616 -116.5135 -5.9334 18.5471 -10.5798 -15.9929 10.4650 15.7339 -60.4721 1.8342 2.4739 12.8272 11.6532 22.4983 48.1957 -35.1043 7.3002 -1.8788 -0.7788 94.3611 -15.5623 -22.4213 8.9269 15.3951 7.2650 -16.0318 50.3508 -3.3503 -5.2871 14.2162 -33.4771 11.6317 -0.6725 53.5025 -0.9109 -10.9366 -19.8846 -11.3556 1.6348 0.8943 -1.7818 -13.4160 -32.8420 -14.0520 0.6791 57.0654 0.9136 11.2758 -23.5830 0.8791 -1.4169 1.3689 0.9852
-1.7584 88.1061 -3.5076 1.3005 0.6631 -1.3778 1.8689 8.2014 -0.2249 0.7103 -1.7368 -0.8391 5.5231 17.8318 -0.7187 2.0781 6.4622 1.7854 -2.0658 -3.7772 -4.0552 -4.0106 -17.8153 -2.4395 0.0236 0.0436 -0.0219 0.6961 -10.5211 -3.8463 -0.6502 -10.4866 3.7845 -10.0238 14.5738 -15.6836 -37.8226 -2.6994 -27.6777 -0.4757 0.6939 -116.9124 -6.0424 17.6835 -10.8423 -16.2513 10.5105 15.7382 -60.6183 1.8587 2.5250 12.3955 11.9354 22.8093 51.9942 -33.1979 7.0583 -1.2816 -1.0880 91.2727 -17.9635 -29.2223 7.4051 15.4022 7.0310 -16.0269 50.0705 -3.4287 -5.3883 13.7898 -33.9312 12.4448 -0.6478 53.6805 -0.8502 -10.9628 -19.9955 -11.6278 1.6336 0.9065 -1.7741 -13.6339 -33.5928 -13.3902 0.6702 57.6306 0.9080 11.2157 -23.6591 0.5225 -1.4168 1.4331 0.9989
-1.7535 88.1756 -3.6279 1.5748 1.0188 -1.7217 1.8830 8.3458 -0.2097 0.7450 -1.7195 -0.9423 5.4874 18.0287 -0.6996 2.0148 6.6222 1.7143 -2.0376 -3.7583 -4.1127 -4.0238 -18.1145 -2.5022 0.0165 0.0439 0.0127 0.6926 -10.4935 -3.8094 -0.6618 -10.4642 3.8198 -9.6952 14.1082 -15.9941 -36.8229 -5.9510 -28.0563 -0.1510 0.6155 -116.8967 -6.0238 16.0282 -10.9388 -16.3689 10.5608 15.7314 -60.6982 1.8763 2.5846 11.6607 12.3154 22.9976 54.6269 -30.4226 8.0396 -0.6373 -1.2635 88.3708 -20.6339 -36.4805 6.6107 15.3193 6.9131 -15.9360 50.0469 -3.4591 -5.3717 13.2581 -34.1221 13.3542 -0.6245 53.3070 -0.7962 -10.9422 -19.9375 -11.8051 1.6276 0.9025 -1.7746 -13.7912 -34.1049 -12.5866 0.6541 57.6770 0.8916 11.1899 -23.4737 0.0418 -1.4172 1.4678 1.0005
-1.7184 88.4979 -3.7083 1.7977 1.4044 -2.0715 1.8376 8.4119 -0.2102 0.7286 -1.7364 -0.9086 5.2986 18.0903 -0.7686 1.9405 6.9960 1.7443 -2.0121 -3.7307 -4.2094 -3.9251 -18.2909 -2.5857 0.0097 0.0379 0.0418 0.6811 -10.4595 -3.7798 -0.6648 -10.4360 3.8514 -9.2042 13.5667 -16.1028 -36.1634 -8.8215 -28.1718 0.0816 0.5341 -116.2595 -5.8172 13.5366 -10.7192 -16.3568 10.6058 15.7105 -60.6945 1.8877 2.6063 10.9421 12.8054 23.0625 55.7843 -26.8523 10.1714 0.0484 -1.3598 86.2165 -23.2675 -42.5613 7.0225 15.3195 6.9175 -15.7544 50.1641 -3.4269 -5.2906 12.6606 -33.9830 14.2579 -0.6088 52.3281 -0.7502 -10.8184 -19.6049 -11.8951 1.6223 0.8648 -1.7755 -13.8674 -34.2479 -11.7647 0.6270 57.0477 0.8578 11.1773 -22.9636 -0.4700 -1.4174 1.4908 0.9907
-1.6334 89.0197 -3.7240 1.9312 1.7746 -2.4136 1.7217 8.4154 -0.2224 0.6837 -1.7977 -0.8475 4.9577 18.0376 -0.8659 1.8930 7.6365 1.8248 -1.9775 -3.7142 -4.2764 -3.6688 -18.4025 -2.7240 0.0064 0.0293 0.0566 0.6667 -10.4309 -3.7645 -0.6579 -10.4113 3.8690 -8.6314 13.0641 -16.1443 -35.7944 -11.3934 -27.9723 0.2108 0.4807 -114.9664 -5.5570 10.0405 -10.1802 -16.1730 10.6201 15.6848 -60.4747 1.9243 2.5890 10.3370 13.3414 23.0025 55.5993 -22.3932 13.2346 0.7077 -1.4763 85.1949 -25.1141 -46.9547 8.0053 15.3930 6.8944 -15.5916 50.1747 -3.4686 -5.2529 12.0822 -33.5289 15.0953 -0.6121 50.8319 -0.7413 -10.7048 -19.0222 -11.8524 1.6224 0.8753 -1.7640 -13.8361 -34.0399 -11.0045 0.5938 55.8841 0.8062 11.1945 -22.2311 -0.9414 -1.4201 1.5339 0.9881
-1.5586 89.6327 -3.6838 1.9854 2.0615 -2.7692 1.5309 8.3659 -0.2503 0.6073 -1.8846 -0.7543 4.4522 17.8991 -1.0024 1.9205 8.5153 1.8860 -1.9264 -3.6989 -4.2924 -3.2529 -18.4292 -2.8942 0.0013 0.0231 0.0787 0.6470 -10.4077 -3.7373 -0.6485 -10.3901 3.8888 -8.1192 12.6617 -16.2347 -35.6055 -13.5692 -27.5221 0.2613 0.4334 -113.0018 -5.3460 5.5865 -9.4628 -15.9152 10.6082 15.6704 -60.1158 1.9796 2.5450 9.8296 13.8971 22.7787 54.4504 -17.2384 16.8242 1.2002 -1.6044 85.4483 -25.1811 -49.5291 8.3044 15.4410 6.8370 -15.4958 50.0388 -3.5625 -5.2508 11.6131 -32.8061 15.8135 -0.6185 49.0203 -0.7421 -10.6885 -18.2696 -11.6853 1.6274 0.9268 -1.7512 -13.7119 -33.5224 -10.3464 0.5638 54.3880 0.7604 11.1892 -21.3758 -1.3440 -1.4234 1.5699 0.9875
-1.4412 90.2910 -3.5996 1.9779 2.2318 -3.1032 1.2842 8.2663 -0.2540 0.4968 -2.0208 -0.6936 3.7780 17.7255 -1.2016 2.0395 9.6094 1.9154 -1.8479 -3.6935 -4.2102 -2.7752 -18.3300 -3.0157 -0.0013 0.0167 0.0870 0.6294 -10.4055 -3.7280 -0.6361 -10.3884 3.8983 -7.8337 12.4201 -16.4656 -35.4129 -15.1469 -26.9581 0.3427 0.3609 -110.5108 -5.2279 0.5637 -8.6458 -15.6205 10.5261 15.6322 -59.6393 2.0085 2.4843 9.2798 14.4931 22.3339 52.7125 -11.4140 20.7298 1.2771 -1.6761 86.8595 -22.5566 -50.0225 6.8064 15.3361 6.7967 -15.5252 49.8350 -3.6688 -5.3042 11.2683 -31.9025 16.4533 -0.6330 47.1202 -0.7622 -10.7150 -17.4834 -11.4793 1.6347 1.0134 -1.7277 -13.5254 -32.7862 -9.8067 0.5351 52.8031 0.7182 11.1445 -20.4914 -1.6944 -1.4299 1.6189 0.9952
-1.3252 90.9083 -3.4811 1.9126 2.2797 -3.4152 1.0236 8.1049 -0.2854 0.3636 -2.1703 -0.6349 2.9738 17.5190 -1.4588 2.1576 10.8028 1.8925 -1.7049 -3.7027 -4.0377 -2.2786 -18.1446 -3.0086 -0.0003 0.0119 0.0744 0.6167 -10.3992 -3.7405 -0.6211 -10.3852 3.8852 -7.8587 12.2822 -16.8442 -35.2175 -16.1216 -26.3276 0.4223 0.3577 -107.6581 -5.1194 -4.8670 -7.7504 -15.3651 10.4374 15.6107 -59.2080 2.0303 2.4135 8.5648 15.0290 21.5046 50.6734 -5.1843 24.6487 0.8921 -1.4938 89.1798 -17.5199 -48.1739 3.7879 15.0975 6.8154 -15.6295 49.5157 -3.7431 -5.3564 11.0750 -30.8563 16.9983 -0.6299 45.2369 -0.7829 -10.7544 -16.7244 -11.2585 1.6438 1.0854 -1.6967 -13.3092 -31.8407 -9.3913 0.4972 51.1563 0.6718 11.0612 -19.6004 -2.0079 -1.4393 1.6589 1.0028
-1.1938 91.4301 -3.3074 1.8294 2.2354 -3.6805 0.7816 7.8822 -0.3113 0.2445 -2.3456 -0.6322 2.1073 17.3357 -1.7429 2.2217 11.9593 1.9273 -1.5337 -3.7277 -3.8061 -1.8010 -17.8950 -2.9774 0.0031 0.0070 0.0489 0.6176 -10.3958 -3.7662 -0.6144 -10.3904 3.8579 -8.2122 12.2695 -17.2511 -34.9930 -16.6944 -25.6357 0.4404 0.3395 -104.8140 -5.1040 -10.3655 -6.7590 -15.2146 10.3609 15.5880 -58.9319 1.9828 2.3058 7.6949 15.4953 20.3970 48.6058 0.7117 27.8339 0.3066 -1.1002 92.1901 -12.1161 -44.4963 0.9966 14.8865 6.9131 -15.6692 49.2663 -3.7759 -5.3099 10.9916 -29.8358 17.3836 -0.6120 43.6391 -0.7881 -10.7898 -16.0937 -10.9977 1.6588 1.0499 -1.6800 -13.1390 -30.8579 -9.0252 0.4288 49.7064 0.5850 11.0181 -18.8736 -2.2831 -1.4496 1.6490 1.0027
-1.1180 91.8487 -3.0935 1.7276 2.0979 -3.8780 0.5671 7.6339 -0.3089 0.1726 -2.5404 -0.7053 1.2428 17.1648 -2.0121 2.1892 13.0756 1.9376 -1.3613 -3.7518 -3.4747 -1.3727 -17.6452 -2.9278 0.0047 -0.0028 0.0240 0.6301 -10.3914 -3.7915 -0.6232 -10.4038 3.8322 -8.7539 12.3933 -17.6453 -34.9931 -17.2034 -24.7594 0.3818 0.2739 -102.2628 -5.3681 -15.0806 -5.5769 -15.1659 10.3248 15.6117 -58.8962 1.8578 2.2485 6.6782 15.8907 19.1062 46.6536 5.9237 29.9323 -0.3218 -0.5762 95.6695 -7.3573 -40.1177 -0.9942 14.8432 7.0855 -15.7707 49.5125 -3.7909 -5.3151 11.0170 -28.8746 17.4803 -0.5929 42.4065 -0.7718 -10.8653 -15.5699 -10.6637 1.6813 0.9621 -1.6704 -13.0299 -29.8982 -8.7373 0.3710 48.5472 0.5068 11.0738 -18.3756 -2.4883 -1.4574 1.5210 1.0032
-1.0357 92.1173 -2.8540 1.5857 1.9038 -3.9449 0.4151 7.3529 -0.3391 0.1443 -2.6903 -0.7471 0.4655 16.9968 -2.2844 1.9262 13.9704 1.8416 -1.1995 -3.7894 -3.0054 -0.9026 -17.2915 -2.9655 0.0024 -0.0234 0.0247 0.6401 -10.4197 -3.7949 -0.6376 -10.4445 3.8368 -9.2987 12.5457 -17.9016 -35.4810 -17.7767 -23.6362 0.1202 0.2248 -100.3045 -5.9466 -17.6368 -4.4665 -15.1674 10.3037 15.7060 -58.9870 1.7149 2.2390 5.6974 16.1853 17.8982 45.2252 9.9227 30.5312 -0.5071 -0.2462 99.4150 -4.3331 -37.2812 -2.0462 15.0724 7.1473 -15.9290 49.9235 -3.7798 -5.4057 11.1793 -28.0041 17.2457 -0.5948 41.5533 -0.7754 -11.0053 -15.2600 -10.2352 1.7073 0.8000 -1.6679 -12.9050 -28.9892 -8.6536 0.3437 47.6579 0.4782 11.1251 -18.0657 -2.7075 -1.4591 1.2426 1.0094
