HIERARCHY
ROOT Hips
{
	OFFSET 0.0000 0.0000 0.0000
	CHANNELS 6 Xposition Yposition Zposition Zrotation Xrotation Yrotation
	JOINT Spine1
	{
		OFFSET -0.0137 5.0038 -0.0537
		CHANNELS 3 Zrotation Xrotation Yrotation
		JOINT Spine2
		{
			OFFSET -0.0000 7.1253 -0.0298
			CHANNELS 3 Zrotation Xrotation Yrotation
			JOINT Chest
			{
				OFFSET -0.0000 7.5501 -0.8160
				CHANNELS 3 Zrotation Xrotation Yrotation
				JOINT Neck1
				{
					OFFSET -0.1817 26.3113 -0.5533
					CHANNELS 3 Zrotation Xrotation Yrotation
					JOINT Neck2
					{
						OFFSET -0.0000 7.7094 2.3026
						CHANNELS 3 Zrotation Xrotation Yrotation
						JOINT Head
						{
							OFFSET -0.0000 6.1289 1.9537
							CHANNELS 3 Zrotation Xrotation Yrotation
							JOINT Jaw
							{
								OFFSET 0.0026 0.4756 3.0949
								CHANNELS 3 Zrotation Xrotation Yrotation
								End Site
								{
									OFFSET 0.0 1.0 0.0
								}
							}
							JOINT LeftEye
							{
								OFFSET 3.2064 5.3802 7.5869
								CHANNELS 3 Zrotation Xrotation Yrotation
								End Site
								{
									OFFSET 0.0 1.0 0.0
								}
							}
							JOINT RightEye
							{
								OFFSET -3.2224 5.3619 7.5582
								CHANNELS 3 Zrotation Xrotation Yrotation
								End Site
								{
									OFFSET 0.0 1.0 0.0
								}
							}
						}
					}
				}
				JOINT LeftShoulder
				{
					OFFSET 1.6217 23.2372 5.1134
					CHANNELS 3 Zrotation Xrotation Yrotation
					JOINT LeftArm
					{
						OFFSET 14.9198 0.0000 -5.5023
						CHANNELS 3 Zrotation Xrotation Yrotation
						JOINT LeftForeArm
						{
							OFFSET 28.7393 0.0000 -0.0026
							CHANNELS 3 Zrotation Xrotation Yrotation
							JOINT LeftHand
							{
								OFFSET 27.0940 -0.0000 0.0026
								CHANNELS 3 Zrotation Xrotation Yrotation
								JOINT LeftHandThumbEnd
								{
									OFFSET 12.2686 -3.2202 4.8331
									CHANNELS 3 Zrotation Xrotation Yrotation
									End Site
									{
										OFFSET 0.0 1.0 0.0
									}
								}
								JOINT LeftHandMiddleEnd
								{
									OFFSET 19.0120 -0.3129 -0.0340
									CHANNELS 3 Zrotation Xrotation Yrotation
									End Site
									{
										OFFSET 0.0 1.0 0.0
									}
								}
							}
						}
					}
				}
				JOINT RightShoulder
				{
					OFFSET -1.3801 23.1803 5.2142
					CHANNELS 3 Zrotation Xrotation Yrotation
					JOINT RightArm
					{
						OFFSET -15.0372 0.0000 -5.5456
						CHANNELS 3 Zrotation Xrotation Yrotation
						JOINT RightForeArm
						{
							OFFSET -28.7366 0.0000 -0.0026
							CHANNELS 3 Zrotation Xrotation Yrotation
							JOINT RightHand
							{
								OFFSET -27.1336 -0.0000 0.0026
								CHANNELS 3 Zrotation Xrotation Yrotation
								JOINT RightHandThumbEnd
								{
									OFFSET -12.2642 -3.2115 4.8040
									CHANNELS 3 Zrotation Xrotation Yrotation
									End Site
									{
										OFFSET 0.0 1.0 0.0
									}
								}
								JOINT RightHandMiddleEnd
								{
									OFFSET -19.0006 -0.3066 -0.0316
									CHANNELS 3 Zrotation Xrotation Yrotation
									End Site
									{
										OFFSET 0.0 1.0 0.0
									}
								}
							}
						}
					}
				}
			}
		}
	}
	JOINT LeftLeg
	{
		OFFSET 10.0432 -8.4345 2.5957
		CHANNELS 3 Zrotation Xrotation Yrotation
		JOINT LeftShin
		{
			OFFSET -0.0000 -43.2218 -0.8029
			CHANNELS 3 Zrotation Xrotation Yrotation
			JOINT LeftFoot
			{
				OFFSET 0.0000 -42.1551 -3.4815
				CHANNELS 3 Zrotation Xrotation Yrotation
				JOINT LeftToeBase
				{
					OFFSET 0.0000 -5.0595 13.2315
					CHANNELS 3 Zrotation Xrotation Yrotation
					End Site
					{
						OFFSET 0.0 1.0 0.0
					}
				}
			}
		}
	}
	JOINT RightLeg
	{
		OFFSET -10.0473 -8.2953 2.6203
		CHANNELS 3 Zrotation Xrotation Yrotation
		JOINT RightShin
		{
			OFFSET 0.0000 -43.3622 -0.8056
			CHANNELS 3 Zrotation Xrotation Yrotation
			JOINT RightFoot
			{
				OFFSET 0.0000 -42.1174 -3.4784
				CHANNELS 3 Zrotation Xrotation Yrotation
				JOINT RightToeBase
				{
					OFFSET -0.0000 -5.0796 13.2842
					CHANNELS 3 Zrotation Xrotation Yrotation
					End Site
					{
						OFFSET 0.0 1.0 0.0
					}
				}
			}
		}
	}
}
MOTION
Frames: 120
Frame Time: 0.033333
-3.2193 90.3866 5.1302 1.9686 -9.2961 -0.0143 -0.4941 10.8483 -0.5762 -0.6628 -0.9668 -0.4691 -1.3162 22.2403 -3.3993 -0.8398 8.9985 3.7084 -0.3376 -3.5025 0.6217 2.2753 -11.3902 -1.4173 0.0146 0.0381 0.0810 0.7187 -10.4385 -3.7520 -0.6893 -10.5164 3.9157 -5.6670 13.5526 -11.4700 3.9390 -7.8248 -45.1881 -3.1417 1.8682 -119.8011 -1.4324 16.8457 -13.6836 -15.3339 10.4383 14.5856 -58.4210 1.4870 1.6682 3.8804 12.7055 18.4823 22.1600 -12.8505 40.5369 0.8820 0.7418 64.4849 93.0086 -81.2310 -63.4185 16.0227 7.5231 -16.0891 48.0224 -3.4893 -4.3240 16.1463 -21.3067 15.7700 -0.4405 37.5113 -0.5903 -14.8015 -8.9814 -14.9051 1.6509 0.0517 -1.6857 -15.8623 -22.6784 -24.6366 0.3908 47.9469 0.3475 12.2867 -18.2442 -4.4448 -1.3731 1.0833 0.9720
-2.7380 90.3895 5.2275 1.9375 -9.2992 0.1828 -0.5154 10.8429 -0.5899 -0.5882 -1.0329 -0.5287 -1.2681 22.3110 -3.4706 -0.8496 8.6130 3.6742 -0.3724 -3.4942 0.7096 2.3240 -11.0769 -1.3774 0.0018 0.0323 0.0950 0.7167 -10.4192 -3.7451 -0.7124 -10.4900 3.9391 -5.0187 13.3491 -11.5917 2.4902 -7.2177 -49.3106 -2.9582 1.6300 -116.3755 -2.8013 15.8456 -14.0080 -15.4932 10.4284 14.6671 -58.7123 1.4481 1.6765 3.9321 12.7010 18.6467 22.1298 -14.5548 41.0345 0.6603 0.7503 63.9765 95.1085 -80.8098 -65.3725 16.0831 7.4560 -16.2197 48.0800 -3.4601 -4.2921 15.8909 -21.5263 15.8384 -0.4840 38.1443 -0.6355 -14.4734 -9.3263 -15.0704 1.6529 0.0885 -1.7176 -16.1826 -22.5914 -24.5436 0.3691 47.6905 0.3594 12.7155 -17.9974 -4.7804 -1.3836 1.1236 0.9644
-2.2316 90.3660 5.2926 1.9372 -9.3091 0.3225 -0.5628 10.8553 -0.5775 -0.5318 -1.0819 -0.6461 -1.1886 22.3910 -3.4982 -0.8744 8.2439 3.6678 -0.3106 -3.5222 0.7182 2.2401 -10.7158 -1.0897 -0.0048 0.0307 0.1043 0.7139 -10.4294 -3.7441 -0.7216 -10.4957 3.9567 -4.2532 13.2211 -11.8998 1.1234 -6.6574 -53.3004 -2.4576 1.4403 -112.0893 -4.3242 14.6637 -14.7376 -15.7159 10.3869 14.7721 -59.0791 1.4069 1.6383 3.9795 12.6498 18.7779 22.2063 -16.2817 41.5678 0.5752 0.6744 63.6949 93.9941 -80.7641 -64.3262 16.2447 7.3915 -16.3304 48.2029 -3.4663 -4.3108 15.5480 -21.7740 16.1262 -0.4921 38.8418 -0.6293 -13.9960 -9.7201 -15.2730 1.6595 0.1248 -1.7371 -16.6158 -22.5820 -24.4212 0.3570 47.4854 0.3631 13.1360 -17.7307 -4.9262 -1.3886 1.1389 0.9806
-1.6579 90.3593 5.3106 1.9113 -9.2905 0.3270 -0.5971 10.8481 -0.5715 -0.4966 -1.1237 -0.7425 -1.1177 22.4840 -3.5074 -0.9222 7.8690 3.6595 -0.2259 -3.5373 0.7873 2.1882 -10.4548 -0.7689 -0.0090 0.0308 0.1137 0.7100 -10.4484 -3.7418 -0.7254 -10.5134 3.9736 -3.7026 13.1023 -12.3627 0.3630 -6.0609 -56.6801 -1.8286 1.3639 -107.5931 -5.1857 13.4597 -15.5109 -15.8378 10.4011 14.8477 -59.3867 1.4008 1.5945 3.9942 12.5635 18.7758 22.2141 -17.5583 42.3391 0.4689 0.6438 63.6571 91.3749 -81.1477 -61.9850 16.3612 7.3509 -16.3094 48.2865 -3.4443 -4.3199 15.1939 -22.0173 16.5435 -0.4636 39.4909 -0.5811 -13.5138 -10.1141 -15.4651 1.6616 0.1526 -1.7566 -17.0235 -22.5858 -24.2553 0.3441 47.1675 0.3585 13.5308 -17.4039 -4.9574 -1.3916 1.1127 0.9801
-1.0174 90.3627 5.3407 1.8646 -9.2615 0.2151 -0.6155 10.8260 -0.5418 -0.4702 -1.1518 -0.8367 -1.0920 22.5931 -3.5596 -0.9547 7.5238 3.6413 -0.1549 -3.5397 0.9599 2.2178 -10.2881 -0.4500 -0.0111 0.0310 0.1197 0.7046 -10.4524 -3.7375 -0.7240 -10.5138 3.9814 -3.3433 12.9672 -12.9201 0.2807 -5.4896 -59.3623 -1.2178 1.2611 -103.2256 -5.4248 12.2640 -16.2168 -15.8842 10.4661 14.9268 -59.5570 1.4100 1.5636 3.9289 12.4878 18.6721 22.0654 -18.3106 43.3945 0.2981 0.6410 63.9036 88.8546 -81.7661 -59.8589 16.3858 7.3668 -16.2317 48.3334 -3.3873 -4.3102 14.8524 -22.2413 17.1164 -0.4290 40.0771 -0.5265 -13.0272 -10.5023 -15.7408 1.6611 0.2038 -1.7657 -17.3897 -22.5813 -24.0815 0.3365 46.7333 0.3654 13.9236 -16.9841 -4.9603 -1.3932 1.0645 0.9744
-0.3712 90.3900 5.3210 1.8116 -9.2333 -0.0026 -0.6367 10.8253 -0.5132 -0.4544 -1.1678 -0.9261 -1.1114 22.6898 -3.6376 -0.9811 7.2356 3.6310 -0.1097 -3.5468 1.1865 2.2767 -10.1110 -0.1300 -0.0100 0.0301 0.1135 0.7086 -10.4607 -3.7436 -0.7249 -10.5210 3.9733 -3.0998 12.8423 -13.4845 0.7153 -5.0287 -61.1645 -0.7232 1.1115 -99.3223 -5.2546 11.0515 -16.7734 -15.8634 10.5201 14.9625 -59.6461 1.4213 1.5370 3.7969 12.4090 18.4942 21.8355 -18.6802 44.5478 0.2511 0.6186 64.4015 84.9525 -82.4566 -56.4372 16.3877 7.3843 -16.1321 48.3813 -3.3286 -4.2976 14.5058 -22.4223 17.7806 -0.4039 40.5897 -0.4802 -12.5518 -10.8616 -16.0423 1.6547 0.2893 -1.7710 -17.7192 -22.5942 -23.9030 0.3448 46.2642 0.3941 14.2489 -16.5071 -4.8742 -1.3959 1.0293 0.9686
0.2779 90.4455 5.3105 1.7673 -9.2024 -0.3263 -0.6683 10.8259 -0.4735 -0.4481 -1.1620 -0.9957 -1.1573 22.7316 -3.7020 -1.0366 7.0301 3.6199 -0.0585 -3.5487 1.4103 2.3476 -9.9311 0.1950 -0.0072 0.0301 0.1017 0.7116 -10.4665 -3.7576 -0.7219 -10.5278 3.9633 -2.9462 12.7398 -14.0379 1.5090 -4.5025 -62.1427 -0.3443 0.9941 -95.9168 -4.8484 9.8060 -17.1818 -15.8124 10.5865 14.9960 -59.7079 1.4248 1.5120 3.6225 12.3567 18.2493 21.5970 -18.6875 45.7389 0.3660 0.6380 65.0096 81.0888 -83.2294 -52.9998 16.3537 7.4179 -16.0584 48.3878 -3.2808 -4.2808 14.1653 -22.5276 18.5399 -0.3905 40.9953 -0.4511 -12.1427 -11.2015 -16.3083 1.6502 0.3541 -1.7694 -18.0371 -22.5827 -23.7280 0.3715 45.6855 0.4439 14.5241 -15.9692 -4.6837 -1.3984 0.9531 0.9644
0.9347 90.5423 5.2469 1.7312 -9.1869 -0.7192 -0.7049 10.8271 -0.4338 -0.4469 -1.1563 -1.0410 -1.2222 22.7517 -3.7284 -1.0914 6.9210 3.6286 -0.0169 -3.5486 1.5840 2.3847 -9.7743 0.5532 -0.0053 0.0284 0.0879 0.7149 -10.4702 -3.7725 -0.7212 -10.5336 3.9501 -2.8576 12.6738 -14.5448 2.6177 -3.8776 -62.3081 -0.0724 0.9237 -93.0777 -4.2520 8.6432 -17.4556 -15.7425 10.6583 15.0195 -59.7853 1.4642 1.4786 3.3975 12.3253 17.9296 21.3529 -18.2636 47.0036 0.5154 0.6500 65.6754 77.5265 -83.9967 -49.7918 16.3293 7.4693 -16.0078 48.4461 -3.2507 -4.2813 13.8263 -22.5284 19.3394 -0.3802 41.2698 -0.4248 -11.7703 -11.5125 -16.5011 1.6472 0.4075 -1.7566 -18.3466 -22.5238 -23.5643 0.3966 44.9857 0.4910 14.7613 -15.3823 -4.3998 -1.3990 0.8327 0.9555
1.5874 90.6450 5.1860 1.6900 -9.1967 -1.2134 -0.7448 10.8386 -0.3747 -0.4481 -1.1451 -1.0795 -1.2796 22.7472 -3.7100 -1.1630 6.9070 3.6605 0.0121 -3.5489 1.7562 2.3808 -9.6233 0.8451 -0.0046 0.0266 0.0778 0.7151 -10.4801 -3.7849 -0.7196 -10.5431 3.9431 -2.8208 12.6540 -14.9619 3.9959 -3.1893 -61.5951 0.1400 0.8666 -91.0009 -3.5227 7.6328 -17.5826 -15.6430 10.7294 15.0140 -59.8179 1.5224 1.4358 3.1368 12.2978 17.6121 21.0959 -17.4742 48.2255 0.7288 0.6650 66.4039 72.9607 -84.7871 -45.5303 16.2712 7.5145 -16.0044 48.5337 -3.2380 -4.2904 13.5393 -22.4413 20.1724 -0.3830 41.4446 -0.4163 -11.4374 -11.7890 -16.6184 1.6442 0.4539 -1.7422 -18.6246 -22.4442 -23.3916 0.4136 44.2670 0.5281 14.9704 -14.8004 -4.0118 -1.4001 0.7175 0.9589
2.1859 90.7580 5.1510 1.6433 -9.2200 -1.7936 -0.7960 10.8385 -0.3725 -0.4573 -1.1300 -1.0528 -1.3000 22.7122 -3.6375 -1.2894 6.9706 3.7133 0.0320 -3.5438 1.8852 2.3457 -9.5296 1.1191 -0.0007 0.0270 0.0606 0.7179 -10.4826 -3.8030 -0.7142 -10.5437 3.9241 -2.7899 12.7087 -15.2517 5.5282 -2.5620 -60.0066 0.3031 0.8590 -89.8195 -2.7917 6.6903 -17.5316 -15.5834 10.7807 14.9998 -59.8523 1.5750 1.4295 2.8666 12.2542 17.2849 20.8523 -16.2671 49.4789 0.8572 0.7097 67.1001 65.1500 -85.4703 -37.9220 16.2129 7.5403 -16.0243 48.6655 -3.2384 -4.3159 13.3149 -22.2732 20.9761 -0.3723 41.4924 -0.3937 -11.1884 -12.0055 -16.6717 1.6426 0.4873 -1.7204 -18.8220 -22.3582 -23.2480 0.4418 43.5369 0.5851 15.1152 -14.2336 -3.5048 -1.3992 0.6102 0.9680
2.7525 90.8825 5.1161 1.6077 -9.2610 -2.5262 -0.8406 10.8415 -0.3218 -0.4838 -1.1214 -1.0386 -1.2988 22.6570 -3.4992 -1.4349 7.0561 3.7802 0.0254 -3.5323 2.0168 2.3032 -9.4245 1.3046 0.0050 0.0266 0.0446 0.7232 -10.4817 -3.8188 -0.7078 -10.5353 3.9064 -2.7706 12.8297 -15.3940 7.1676 -1.9635 -57.5767 0.4407 0.8431 -89.4847 -2.1465 5.7367 -17.3193 -15.4603 10.8055 14.9422 -59.8462 1.6065 1.4361 2.6419 12.2115 17.0075 20.5846 -14.6784 50.6807 0.9702 0.7434 67.8051 52.5894 -86.0210 -25.4845 16.1853 7.5924 -16.0114 48.9210 -3.2078 -4.3429 13.1654 -22.0346 21.8088 -0.3644 41.4767 -0.3671 -10.9974 -12.1850 -16.6308 1.6432 0.4886 -1.7110 -18.9608 -22.2703 -23.0569 0.4510 42.8261 0.6073 15.2149 -13.7146 -2.9068 -1.3986 0.4994 0.9879
3.2366 90.9964 5.0619 1.5828 -9.3136 -3.3272 -0.8896 10.8419 -0.2952 -0.5098 -1.1200 -0.9873 -1.2781 22.6005 -3.3535 -1.6160 7.1597 3.8419 0.0343 -3.5266 2.0914 2.2208 -9.3743 1.5176 0.0106 0.0272 0.0269 0.7265 -10.4824 -3.8368 -0.7001 -10.5310 3.8859 -2.7412 13.0022 -15.3743 8.7617 -1.4471 -54.5015 0.5997 0.8439 -89.9014 -1.5452 5.0044 -16.9530 -15.3256 10.7965 14.8651 -59.8179 1.6034 1.4899 2.4245 12.1776 16.7886 20.3113 -12.9234 51.8033 1.0187 0.7416 68.5355 36.2014 -86.2378 -9.1345 16.1990 7.6264 -15.9361 49.1348 -3.1812 -4.3262 13.0889 -21.7518 22.5847 -0.3574 41.4026 -0.3333 -10.8708 -12.3424 -16.5128 1.6435 0.4552 -1.7068 -19.0196 -22.2085 -22.8626 0.4509 42.1917 0.6080 15.2364 -13.2723 -2.2742 -1.3970 0.3702 0.9939
3.6076 91.1004 5.0359 1.5672 -9.3512 -4.2134 -0.9333 10.8314 -0.2583 -0.5388 -1.1062 -0.9180 -1.2395 22.5090 -3.2212 -1.7683 7.2507 3.8742 0.0228 -3.5266 2.1735 2.1341 -9.3396 1.7155 0.0158 0.0276 0.0088 0.7340 -10.4768 -3.8557 -0.6971 -10.5180 3.8664 -2.7047 13.1969 -15.2500 10.1456 -1.0774 -50.9368 0.7315 0.9462 -90.8209 -0.9930 4.5141 -16.4675 -15.2302 10.7896 14.7892 -59.7789 1.5840 1.5470 2.2184 12.0925 16.6194 20.1020 -11.0407 52.8208 1.0178 0.7929 69.3419 18.9293 -86.0808 8.0588 16.1930 7.6649 -15.8147 49.3002 -3.1612 -4.3054 13.0891 -21.4517 23.3074 -0.3464 41.2606 -0.2972 -10.8243 -12.4402 -16.2973 1.6450 0.3983 -1.7031 -19.0089 -22.1646 -22.6153 0.4562 41.6010 0.6096 15.2147 -12.8852 -1.6829 -1.3975 0.2349 0.9990
3.8618 91.2060 4.9995 1.5701 -9.4034 -5.1450 -0.9681 10.8335 -0.1993 -0.5691 -1.1201 -0.8684 -1.1992 22.4589 -3.0961 -1.9168 7.3675 3.8999 0.0214 -3.5281 2.2684 2.0446 -9.3285 1.8841 0.0196 0.0275 -0.0077 0.7414 -10.4788 -3.8705 -0.6971 -10.5151 3.8478 -2.7075 13.4209 -15.0130 11.4121 -0.8724 -47.0619 0.7719 1.0490 -92.1154 -0.5213 4.1841 -15.8684 -15.1017 10.7775 14.7112 -59.7181 1.5748 1.5687 2.0012 12.0317 16.5395 19.8738 -9.2780 53.6144 1.0595 0.7723 70.3605 4.6536 -85.5786 22.2026 16.2023 7.6890 -15.6923 49.4417 -3.1411 -4.2677 13.1578 -21.1152 24.0036 -0.3356 41.0519 -0.2671 -10.8127 -12.5029 -16.0232 1.6434 0.3670 -1.7044 -18.9246 -22.1422 -22.3289 0.4490 41.1229 0.5867 15.1267 -12.5516 -1.0972 -1.3965 0.0740 0.9977
3.9893 91.3304 4.9872 1.5827 -9.4390 -6.0603 -1.0031 10.8291 -0.1813 -0.5969 -1.1386 -0.7836 -1.1576 22.4037 -2.9927 -2.0431 7.5093 3.8967 0.0219 -3.5242 2.3378 1.9433 -9.3485 2.0577 0.0218 0.0272 -0.0219 0.7465 -10.4765 -3.8809 -0.6981 -10.5046 3.8295 -2.7330 13.6515 -14.6775 12.4591 -0.7137 -42.9968 0.7466 1.1379 -93.5459 -0.1572 4.2856 -15.1950 -14.9952 10.7531 14.6185 -59.6660 1.5769 1.5711 1.7719 11.9873 16.4622 19.6790 -7.5247 54.2277 0.9933 0.8052 71.6601 -5.5968 -84.9004 32.2505 16.2167 7.6909 -15.5950 49.5482 -3.1541 -4.2456 13.2585 -20.7478 24.6273 -0.3301 40.6799 -0.2523 -10.8762 -12.4384 -15.6860 1.6423 0.3892 -1.7085 -18.7772 -22.1297 -22.1113 0.4479 40.6580 0.5790 15.0340 -12.2420 -0.5301 -1.3931 -0.0461 0.9957
3.9915 91.4577 4.9632 1.5888 -9.4727 -6.9204 -1.0273 10.8349 -0.1822 -0.6171 -1.1579 -0.7050 -1.1118 22.3527 -2.8769 -2.1429 7.6925 3.8954 0.0256 -3.5158 2.3625 1.8205 -9.4462 2.2198 0.0222 0.0224 -0.0262 0.7492 -10.4761 -3.8810 -0.7001 -10.4973 3.8217 -2.7640 13.9153 -14.2714 13.3034 -0.4576 -38.8570 0.7221 1.2967 -94.9397 0.1137 4.8837 -14.4924 -14.8757 10.7423 14.5320 -59.5501 1.6018 1.5473 1.5658 11.9515 16.3979 19.5391 -5.7831 54.5934 0.8196 0.8544 73.1784 -12.6851 -84.3476 39.0574 16.2003 7.7067 -15.5554 49.5961 -3.1542 -4.2349 13.4055 -20.3522 25.1340 -0.3276 40.1801 -0.2608 -11.0089 -12.3095 -15.2943 1.6410 0.4185 -1.7097 -18.5594 -22.0778 -21.9715 0.4585 40.2039 0.5848 14.9312 -11.9901 0.0254 -1.3891 -0.1359 0.9859
3.8478 91.6238 4.9577 1.5898 -9.4695 -7.6511 -1.0473 10.8365 -0.1879 -0.6290 -1.1824 -0.6269 -1.0646 22.2968 -2.7811 -2.1976 7.8777 3.9263 0.0111 -3.5047 2.3308 1.6907 -9.5701 2.3484 0.0231 0.0168 -0.0252 0.7477 -10.4666 -3.8750 -0.6966 -10.4840 3.8173 -2.7648 14.2100 -13.7910 13.9403 -0.0822 -34.9005 0.6502 1.5305 -96.1956 0.3088 5.7851 -13.8279 -14.7200 10.6993 14.4334 -59.3430 1.6345 1.5360 1.4445 11.9736 16.3533 19.4785 -4.1047 54.6006 0.5661 0.8991 74.9212 -18.4407 -83.9440 44.5407 16.1855 7.7275 -15.5866 49.6433 -3.1240 -4.2526 13.5611 -19.9543 25.4854 -0.3396 39.5071 -0.2949 -11.1864 -12.0354 -14.8422 1.6430 0.4442 -1.7136 -18.2718 -21.9720 -21.9364 0.4594 39.7106 0.5825 14.8296 -11.7739 0.5509 -1.3852 -0.2428 0.9736
3.6159 91.8106 4.9380 1.5679 -9.4172 -8.1774 -1.0580 10.8295 -0.1954 -0.6419 -1.2006 -0.5531 -0.9839 22.2192 -2.6613 -2.2187 8.0408 3.9653 -0.0178 -3.4989 2.3087 1.5830 -9.6780 2.3844 0.0247 0.0112 -0.0241 0.7455 -10.4656 -3.8741 -0.6904 -10.4814 3.8178 -2.6951 14.4879 -13.2713 14.2869 0.3716 -31.3549 0.5280 1.8531 -97.2420 0.4974 6.9216 -13.2873 -14.5475 10.6521 14.3448 -59.0971 1.6743 1.4991 1.4680 12.0246 16.3838 19.5446 -2.5927 54.0720 0.3084 0.9276 76.7803 -23.8157 -83.7249 49.5128 16.2125 7.7470 -15.6210 49.7119 -3.1034 -4.2618 13.7269 -19.5789 25.6416 -0.3572 38.6934 -0.3359 -11.4223 -11.6847 -14.3939 1.6471 0.4586 -1.7170 -17.9074 -21.8114 -21.9825 0.4504 39.2142 0.5662 14.7149 -11.6220 0.9711 -1.3838 -0.3134 0.9606
3.2667 91.9776 4.9180 1.5329 -9.3283 -8.4747 -1.0667 10.8113 -0.2025 -0.6570 -1.2076 -0.4988 -0.8771 22.1068 -2.5311 -2.2247 8.1928 4.0281 -0.0244 -3.4855 2.2661 1.4596 -9.7884 2.3690 0.0283 0.0117 -0.0297 0.7435 -10.4662 -3.8829 -0.6809 -10.4799 3.8140 -2.5787 14.7607 -12.7176 14.3955 0.8339 -28.4001 0.4874 2.1484 -98.0908 0.7965 8.1010 -13.0257 -14.4710 10.6220 14.3056 -58.9734 1.6963 1.4745 1.6495 12.0832 16.4875 19.7574 -1.1661 53.0596 0.0767 0.9737 78.6495 -31.8845 -83.9620 57.1492 16.2273 7.7429 -15.6939 49.7275 -3.0977 -4.2558 13.9306 -19.2715 25.5993 -0.3679 37.8611 -0.3588 -11.7075 -11.2763 -14.0026 1.6538 0.4386 -1.7130 -17.5087 -21.6481 -22.0675 0.4416 38.8543 0.5375 14.5754 -11.5662 1.2582 -1.3847 -0.3322 0.9478
2.7891 92.1133 4.8838 1.4943 -9.2526 -8.5412 -1.0752 10.7731 -0.2164 -0.6763 -1.2111 -0.4569 -0.7499 22.0062 -2.3969 -2.2108 8.2860 4.0726 -0.0182 -3.4828 2.2364 1.3404 -9.9306 2.3250 0.0335 0.0131 -0.0432 0.7420 -10.4596 -3.9022 -0.6688 -10.4709 3.8049 -2.5046 14.9751 -12.1708 14.2912 1.2608 -26.0978 0.5106 2.4441 -98.7783 1.3493 8.9653 -13.0512 -14.5150 10.5606 14.3002 -58.9292 1.6574 1.5178 1.9554 12.1480 16.6035 20.0878 0.1546 51.7055 -0.1646 1.0302 80.3578 -41.9831 -84.3638 66.7807 16.2791 7.7287 -15.7703 49.7497 -3.0813 -4.2634 14.1982 -19.0163 25.3556 -0.3815 37.1027 -0.3837 -12.0176 -10.9073 -13.7136 1.6595 0.4275 -1.7092 -17.1243 -21.4750 -22.1925 0.4203 38.7115 0.5011 14.3910 -11.6803 1.3761 -1.3868 -0.3289 0.9410
2.2122 92.1708 4.8757 1.4629 -9.2211 -8.4243 -1.0604 10.7384 -0.2273 -0.7021 -1.2266 -0.4232 -0.6432 21.9273 -2.2919 -2.1875 8.3935 4.0827 -0.0026 -3.4865 2.2110 1.2248 -10.1178 2.2408 0.0353 0.0182 -0.0489 0.7437 -10.4604 -3.9106 -0.6667 -10.4694 3.8002 -2.4870 15.1442 -11.6781 14.0715 1.4929 -24.4145 0.5994 2.5905 -99.4413 2.0254 9.4392 -13.2954 -14.5494 10.5111 14.3314 -58.9421 1.6076 1.5737 2.2945 12.1989 16.6929 20.4563 1.2250 50.1537 -0.3377 1.0146 81.7582 -52.6808 -84.6698 76.9165 16.2726 7.7167 -15.8224 49.6507 -3.0658 -4.2596 14.5266 -18.8340 24.9114 -0.3942 36.5299 -0.3955 -12.3721 -10.6287 -13.4875 1.6607 0.4150 -1.7232 -16.7701 -21.3551 -22.3706 0.4120 38.9111 0.4779 14.1545 -11.9993 1.3827 -1.3887 -0.2945 0.9408
1.5075 92.1552 4.9028 1.4254 -9.2416 -8.1957 -1.0321 10.7063 -0.2116 -0.7264 -1.2528 -0.4174 -0.5492 21.8761 -2.2207 -2.2273 8.4641 4.0826 0.0389 -3.4831 2.1740 1.1236 -10.2700 2.1671 0.0358 0.0201 -0.0491 0.7468 -10.4577 -3.9104 -0.6691 -10.4688 3.8009 -2.5894 15.2518 -11.2393 13.7532 1.5367 -23.2127 0.6809 2.6411 -100.2372 2.7104 9.6202 -13.6191 -14.6175 10.4448 14.3596 -58.9965 1.5425 1.6717 2.6680 12.2428 16.7883 20.7940 2.0900 48.5612 -0.4645 0.9954 82.7295 -65.6833 -84.8868 89.3243 16.2354 7.7087 -15.8464 49.4688 -3.0956 -4.2574 14.9360 -18.6988 24.3661 -0.4173 36.1213 -0.4244 -12.7972 -10.4037 -13.3159 1.6634 0.4005 -1.7367 -16.4269 -21.2799 -22.6137 0.4148 39.3930 0.4581 13.8591 -12.4700 1.3624 -1.3906 -0.2427 0.9425
0.7716 92.0869 4.9413 1.3941 -9.2800 -7.8544 -1.0064 10.6677 -0.2554 -0.7577 -1.2788 -0.4025 -0.4815 21.8260 -2.1935 -2.3043 8.5264 4.1017 0.0758 -3.4804 2.0838 1.0899 -10.4099 2.0679 0.0345 0.0222 -0.0490 0.7473 -10.4516 -3.9056 -0.6730 -10.4646 3.7970 -2.8266 15.2692 -10.8933 13.4194 1.4346 -22.3770 0.7021 2.6058 -101.3291 3.4614 9.5594 -13.8770 -14.7171 10.4291 14.4022 -59.1559 1.5045 1.7319 2.9884 12.3112 16.8424 21.1310 2.7073 47.0760 -0.6214 1.0036 83.2923 -83.8208 -84.9087 106.9607 16.1899 7.7200 -15.9033 49.2256 -3.1478 -4.2797 15.3933 -18.6273 23.6640 -0.4260 35.8417 -0.4373 -13.2899 -10.2162 -13.1973 1.6654 0.3639 -1.7581 -16.0958 -21.2822 -22.9700 0.4287 40.1219 0.4480 13.5019 -13.0883 1.2556 -1.3904 -0.1637 0.9299
-0.0323 92.0076 5.0131 1.3454 -9.3043 -7.4873 -0.9717 10.5927 -0.2848 -0.7844 -1.3120 -0.4028 -0.4406 21.7946 -2.2093 -2.4153 8.5412 4.1039 0.0892 -3.4828 1.9847 1.1243 -10.5109 1.9329 0.0345 0.0239 -0.0528 0.7504 -10.4410 -3.9023 -0.6769 -10.4553 3.7872 -3.2697 15.2757 -10.6362 13.1924 1.1596 -21.8671 0.5646 2.5410 -102.7402 4.1404 9.2635 -14.0844 -14.8020 10.3968 14.3994 -59.2823 1.4630 1.7458 3.2756 12.4025 16.8785 21.3804 3.1366 45.7638 -0.8082 1.0384 83.4314 -102.3790 -84.4758 125.1539 16.1390 7.7192 -15.9322 49.0456 -3.2103 -4.3104 15.8870 -18.5329 22.8513 -0.4393 35.5132 -0.4694 -13.8333 -10.0149 -13.0313 1.6669 0.3388 -1.7762 -15.6971 -21.2706 -23.3249 0.4343 40.9286 0.4365 13.0943 -13.7738 1.0294 -1.3879 -0.0778 0.9175
-0.8399 91.9272 5.0962 1.2644 -9.3092 -7.0632 -0.9384 10.5076 -0.3241 -0.7938 -1.3478 -0.4093 -0.4080 21.7700 -2.2639 -2.5038 8.4939 4.0746 0.0767 -3.4842 1.8763 1.1848 -10.5680 1.7845 0.0326 0.0216 -0.0516 0.7476 -10.4307 -3.8938 -0.6784 -10.4475 3.7828 -3.7680 15.2430 -10.4319 12.9581 0.8484 -21.6852 0.3164 2.5267 -104.3948 4.6823 8.9698 -14.2095 -14.8662 10.3910 14.4054 -59.3860 1.4182 1.7397 3.4867 12.4928 16.9038 21.6295 3.2912 44.6330 -0.9295 1.0916 83.1635 -116.3008 -83.7589 138.7964 16.0589 7.7436 -15.9903 48.9357 -3.2480 -4.3271 16.4033 -18.4531 21.9478 -0.4449 35.1431 -0.5029 -14.3930 -9.7601 -12.8432 1.6674 0.3232 -1.7963 -15.2307 -21.1973 -23.7174 0.4235 41.6685 0.3986 12.6414 -14.4388 0.7439 -1.3868 0.0341 0.9012
-1.6055 91.8647 5.1618 1.1686 -9.3080 -6.5809 -0.9057 10.4267 -0.3646 -0.8044 -1.3710 -0.4154 -0.3822 21.7377 -2.3628 -2.5175 8.4126 4.0149 0.0599 -3.4851 1.8251 1.2334 -10.5640 1.6352 0.0334 0.0184 -0.0562 0.7465 -10.4140 -3.8921 -0.6759 -10.4331 3.7723 -4.1866 15.1760 -10.2527 12.6876 0.6789 -21.8342 0.0830 2.5297 -106.1388 5.1027 8.7882 -14.2853 -14.9382 10.3864 14.4203 -59.4494 1.3981 1.7581 3.6685 12.5621 16.9241 21.7894 3.1526 43.7109 -0.9270 1.1009 82.5307 -125.7299 -83.1499 148.0247 16.0025 7.7276 -16.0185 48.8481 -3.2795 -4.3422 16.9240 -18.3623 21.0220 -0.4535 34.7105 -0.5445 -14.9046 -9.4502 -12.6629 1.6665 0.3434 -1.7999 -14.7564 -21.0882 -24.1405 0.4111 42.3120 0.3730 12.2642 -15.0356 0.4118 -1.3847 0.1768 0.8942
-2.4116 91.7975 5.2264 1.0678 -9.3228 -6.0486 -0.8698 10.3734 -0.3920 -0.8114 -1.3929 -0.4289 -0.3479 21.7080 -2.4641 -2.4895 8.3597 3.9429 0.0575 -3.4828 1.7726 1.2734 -10.5647 1.4810 0.0373 0.0161 -0.0675 0.7505 -10.4048 -3.9010 -0.6722 -10.4260 3.7574 -4.4994 15.1163 -10.1242 12.3866 0.7216 -22.3032 -0.0180 2.5070 -107.8732 5.3617 8.7585 -14.3045 -14.9789 10.3861 14.4318 -59.4759 1.3714 1.7586 3.8135 12.6350 16.9590 21.9063 2.8471 42.9230 -0.8933 1.0738 81.5904 -133.6541 -82.6763 155.8861 15.9535 7.7029 -16.0525 48.7518 -3.2838 -4.3420 17.4181 -18.2471 20.0533 -0.4661 34.2831 -0.5884 -15.3504 -9.1396 -12.4761 1.6646 0.3927 -1.7995 -14.2868 -20.9456 -24.5693 0.4026 42.9436 0.3489 11.9159 -15.6578 0.0508 -1.3836 0.3397 0.8931
-3.2141 91.7286 5.2391 0.9624 -9.3518 -5.4510 -0.8283 10.3600 -0.4032 -0.8179 -1.4056 -0.4459 -0.3043 21.6633 -2.5415 -2.4027 8.3127 3.8538 0.0452 -3.4904 1.7217 1.3437 -10.5868 1.3264 0.0411 0.0143 -0.0758 0.7551 -10.3945 -3.9070 -0.6693 -10.4181 3.7472 -4.7388 15.0379 -10.0314 12.1985 0.9342 -23.1226 -0.0891 2.5256 -109.5057 5.4811 8.8453 -14.2945 -14.9799 10.3831 14.4282 -59.4646 1.3319 1.7695 3.9262 12.6908 17.0318 21.9979 2.5374 42.2698 -0.9440 1.0550 80.4011 -141.3770 -82.2385 163.6824 15.9721 7.6993 -16.0992 48.7026 -3.2972 -4.3427 17.9057 -18.1317 19.0505 -0.4763 33.8593 -0.6250 -15.7520 -8.8092 -12.2762 1.6629 0.4294 -1.7974 -13.8402 -20.7809 -25.0410 0.3794 43.5490 0.3023 11.6217 -16.2836 -0.3358 -1.3820 0.4936 0.8942
-4.0042 91.6557 5.2578 0.8826 -9.3772 -4.7955 -0.7996 10.3479 -0.4296 -0.8229 -1.3973 -0.4285 -0.2734 21.6096 -2.6318 -2.2942 8.2880 3.7751 0.0553 -3.4996 1.6185 1.4520 -10.6223 1.1882 0.0433 0.0130 -0.0860 0.7559 -10.3896 -3.9169 -0.6654 -10.4153 3.7353 -4.8664 14.9479 -9.9687 12.0974 1.1498 -24.3089 -0.1664 2.6010 -111.0020 5.4505 8.9812 -14.2175 -14.9884 10.3894 14.4119 -59.4144 1.3055 1.7614 3.9649 12.7077 17.1303 22.0946 2.1474 41.7557 -0.9766 1.0876 79.0309 -148.5277 -81.7927 170.9715 16.0290 7.7027 -16.1603 48.6777 -3.3213 -4.3594 18.3198 -18.0361 18.0638 -0.4818 33.4275 -0.6534 -16.1116 -8.4652 -12.1646 1.6609 0.4529 -1.7962 -13.4433 -20.6309 -25.5707 0.3646 44.1105 0.2757 11.3530 -16.8795 -0.7425 -1.3798 0.6214 0.8879
-4.7510 91.5863 5.2679 0.8333 -9.3861 -4.1070 -0.7775 10.3554 -0.4505 -0.8313 -1.3810 -0.4084 -0.2645 21.5507 -2.7124 -2.1672 8.2898 3.7333 0.0432 -3.4948 1.5180 1.5768 -10.6399 0.9873 0.0426 0.0147 -0.0861 0.7547 -10.3929 -3.9179 -0.6657 -10.4210 3.7370 -4.8585 14.8208 -9.9104 12.0535 1.2625 -25.8508 -0.3044 2.6492 -112.2486 5.2953 9.0787 -14.0615 -14.9518 10.4297 14.3927 -59.3517 1.2771 1.7218 3.9269 12.6949 17.2709 22.1467 1.6418 41.3166 -0.9475 1.1324 77.6305 -154.0102 -81.5356 176.5841 16.0560 7.7129 -16.2142 48.6512 -3.3552 -4.3807 18.6393 -17.9752 17.1124 -0.4864 33.0348 -0.6723 -16.4076 -8.1525 -12.0532 1.6597 0.4469 -1.8020 -13.1030 -20.5422 -26.0701 0.3423 44.6641 0.2396 11.1167 -17.4438 -1.1220 -1.3774 0.7564 0.8795
-5.4228 91.5220 5.2633 0.8059 -9.3910 -3.4112 -0.7625 10.3748 -0.4846 -0.8329 -1.3543 -0.3980 -0.2781 21.4959 -2.7498 -2.0857 8.3484 3.7305 0.0294 -3.4951 1.4201 1.6900 -10.6669 0.8116 0.0410 0.0185 -0.0861 0.7492 -10.3906 -3.9181 -0.6631 -10.4212 3.7369 -4.7780 14.6529 -9.8845 12.0122 1.3034 -27.7342 -0.4547 2.7109 -113.2668 5.0640 9.0933 -13.8939 -14.9352 10.4662 14.3895 -59.2701 1.2633 1.7147 3.8140 12.6915 17.4373 22.1276 1.1073 41.0365 -0.9355 1.1197 76.2319 -158.2855 -81.6209 -178.8815 16.1145 7.7152 -16.2473 48.6509 -3.3621 -4.3810 18.8776 -17.9402 16.3060 -0.4948 32.6392 -0.7008 -16.6318 -7.8247 -11.9959 1.6604 0.3965 -1.7989 -12.8243 -20.4678 -26.5203 0.3217 45.1472 0.2033 10.9073 -17.9137 -1.5083 -1.3764 0.8697 0.8748
-5.9824 91.4670 5.2415 0.8225 -9.3946 -2.7541 -0.7511 10.4151 -0.5108 -0.8268 -1.3251 -0.3887 -0.3305 21.4552 -2.7997 -2.0601 8.4422 3.7618 0.0223 -3.4991 1.3167 1.7904 -10.7122 0.6451 0.0392 0.0258 -0.0857 0.7415 -10.3833 -3.9171 -0.6588 -10.4163 3.7371 -4.6267 14.4581 -9.8769 11.9175 1.2100 -29.9294 -0.6526 2.6779 -114.0323 4.8358 9.0880 -13.7602 -14.9478 10.5360 14.4324 -59.2386 1.2757 1.7108 3.5885 12.6725 17.6138 22.1189 0.4687 40.8603 -0.8988 1.0723 75.0388 -162.1765 -81.9940 -174.6467 16.1570 7.6922 -16.2693 48.6323 -3.3570 -4.3832 19.0023 -17.9243 15.6671 -0.5014 32.2678 -0.7200 -16.7709 -7.5124 -12.0064 1.6605 0.3450 -1.7931 -12.6313 -20.4440 -26.9171 0.3108 45.5831 0.1935 10.7462 -18.3049 -1.9075 -1.3765 0.9794 0.8713
-6.4306 91.4145 5.2063 0.8464 -9.4118 -2.1385 -0.7372 10.4889 -0.5429 -0.8117 -1.2907 -0.3862 -0.3776 21.4299 -2.8381 -2.1051 8.5682 3.8102 0.0106 -3.5040 1.2578 1.8775 -10.7350 0.4900 0.0373 0.0341 -0.0827 0.7341 -10.3698 -3.9145 -0.6550 -10.4074 3.7401 -4.4219 14.2547 -9.8988 11.7247 1.0086 -32.4711 -0.8035 2.5686 -114.5311 4.5374 9.1433 -13.7246 -15.0132 10.6031 14.4930 -59.2869 1.2911 1.7089 3.2795 12.6296 17.7905 22.1592 -0.4094 40.7316 -0.7796 1.0415 74.0873 -166.4007 -82.5696 -170.0540 16.2106 7.6737 -16.2730 48.6302 -3.3478 -4.3760 19.0606 -17.9430 15.1345 -0.5041 31.9907 -0.7383 -16.8508 -7.2494 -12.0485 1.6600 0.3019 -1.7839 -12.5091 -20.4399 -27.2788 0.2946 45.9651 0.1770 10.6155 -18.6203 -2.2692 -1.3774 1.0794 0.8736
-6.6964 91.3699 5.1637 0.8926 -9.4231 -1.5829 -0.7165 10.5909 -0.5577 -0.7923 -1.2673 -0.3923 -0.4251 21.4261 -2.8842 -2.1807 8.7002 3.8831 -0.0201 -3.5055 1.2332 1.9608 -10.7015 0.3164 0.0354 0.0394 -0.0732 0.7290 -10.3709 -3.9067 -0.6538 -10.4137 3.7531 -4.1583 14.0839 -9.9678 11.4290 0.6984 -35.3114 -0.9157 2.3606 -114.7375 4.1079 9.2857 -13.8163 -15.0576 10.6463 14.5631 -59.2986 1.2837 1.6916 2.9234 12.5910 17.9572 22.2324 -1.5440 40.6388 -0.5689 0.9780 73.3850 -171.1253 -83.2602 -164.9512 16.2892 7.6666 -16.2674 48.6159 -3.3247 -4.3412 19.0263 -18.0211 14.7413 -0.5166 31.8567 -0.7604 -16.8434 -7.0548 -12.1254 1.6595 0.2766 -1.7781 -12.4755 -20.4970 -27.5856 0.2881 46.3073 0.1708 10.5332 -18.8658 -2.5575 -1.3793 1.1709 0.8782
-6.8479 91.3228 5.1119 0.9515 -9.4158 -1.0880 -0.6980 10.6948 -0.5736 -0.7698 -1.2344 -0.4003 -0.4639 21.4538 -2.9446 -2.2749 8.8352 3.9487 -0.0522 -3.5061 1.2240 2.0114 -10.6315 0.2148 0.0325 0.0444 -0.0637 0.7211 -10.3767 -3.9022 -0.6520 -10.4255 3.7681 -3.8227 13.9421 -10.0807 11.0912 0.3623 -38.4947 -1.0315 2.1267 -114.6052 3.6233 9.4878 -14.0502 -15.1097 10.6711 14.6585 -59.3122 1.2789 1.7106 2.5370 12.5684 18.0663 22.3067 -2.7823 40.7796 -0.3950 0.9070 72.7940 -176.6268 -83.8543 -159.0418 16.3302 7.6429 -16.2632 48.5943 -3.3316 -4.3119 18.9222 -18.2233 14.4654 -0.5280 31.9315 -0.7749 -16.7964 -6.9224 -12.2603 1.6629 0.2523 -1.7693 -12.5200 -20.6295 -27.8141 0.2861 46.6216 0.1698 10.4952 -19.0443 -2.8431 -1.3820 1.2327 0.8760
-6.8324 91.2826 5.0812 1.0224 -9.3875 -0.6599 -0.6873 10.8169 -0.5667 -0.7322 -1.1992 -0.4470 -0.5090 21.4920 -3.0522 -2.3841 8.9474 4.0138 -0.0682 -3.5120 1.2608 2.0666 -10.5706 0.1927 0.0294 0.0483 -0.0545 0.7157 -10.3815 -3.8968 -0.6529 -10.4344 3.7819 -3.3659 13.7597 -10.1989 10.6013 0.0849 -41.9674 -1.2188 1.8910 -114.0514 3.1676 9.7841 -14.3638 -15.1550 10.7033 14.7672 -59.3123 1.2851 1.7477 2.1418 12.5552 18.1409 22.4196 -4.1615 41.1769 -0.2724 0.8628 72.2971 177.6499 -84.1869 -152.9794 16.3686 7.6567 -16.2896 48.5466 -3.3426 -4.3115 18.7300 -18.5203 14.3058 -0.5433 32.1966 -0.7828 -16.6931 -6.8927 -12.4307 1.6655 0.2431 -1.7632 -12.6409 -20.8396 -27.9437 0.2742 46.9005 0.1642 10.5050 -19.1311 -3.1206 -1.3863 1.2838 0.8796
-6.6818 91.2157 5.0153 1.1075 -9.3494 -0.3160 -0.6882 10.9685 -0.5576 -0.6958 -1.1498 -0.5048 -0.5459 21.5410 -3.1773 -2.4735 9.0048 4.0629 -0.0786 -3.5220 1.3080 2.1458 -10.5090 0.2466 0.0253 0.0487 -0.0386 0.7156 -10.3916 -3.8875 -0.6612 -10.4510 3.8073 -2.8050 13.5578 -10.3844 9.9618 -0.1258 -45.7072 -1.4441 1.7365 -112.9446 2.5973 10.1655 -14.8577 -15.1964 10.7109 14.8424 -59.2760 1.2783 1.7651 1.8063 12.5257 18.1603 22.5761 -5.7655 41.7605 -0.1327 0.9047 71.9522 172.6960 -84.2716 -147.8121 16.4055 7.6675 -16.2917 48.5647 -3.3624 -4.2990 18.4675 -18.9303 14.3207 -0.5502 32.6976 -0.7688 -16.5068 -6.9904 -12.7072 1.6671 0.2093 -1.7664 -12.8531 -21.1202 -27.9705 0.2795 47.1599 0.1800 10.5736 -19.1293 -3.3730 -1.3896 1.2977 0.8911
-6.3785 91.1452 4.9135 1.1829 -9.2779 0.0125 -0.6970 11.1231 -0.5579 -0.6528 -1.0956 -0.5897 -0.5523 21.6033 -3.3062 -2.5449 9.0056 4.0843 -0.0403 -3.5299 1.3683 2.2214 -10.4870 0.4026 0.0199 0.0507 -0.0246 0.7123 -10.4009 -3.8789 -0.6687 -10.4628 3.8281 -2.0935 13.3049 -10.6656 9.0410 -0.2213 -49.6466 -1.5531 1.6866 -111.2068 1.8920 10.4817 -15.5984 -15.2091 10.7490 14.9393 -59.2441 1.2961 1.8092 1.5442 12.4638 18.0776 22.8258 -7.6235 42.5665 -0.0280 0.9837 71.7265 168.8866 -84.1965 -143.8670 16.4545 7.6851 -16.3070 48.6473 -3.4042 -4.2827 18.1291 -19.4958 14.4910 -0.5445 33.3968 -0.7389 -16.2392 -7.1985 -13.1477 1.6661 0.1798 -1.7770 -13.1264 -21.4616 -27.9479 0.2905 47.3878 0.2005 10.7005 -19.0535 -3.6588 -1.3902 1.2903 0.8981
-5.9658 91.0533 4.7971 1.2335 -9.1954 0.3346 -0.6965 11.3112 -0.5349 -0.6039 -1.0510 -0.7310 -0.5359 21.7036 -3.4356 -2.5528 8.9249 4.0500 0.0047 -3.5350 1.4902 2.3163 -10.4986 0.5955 0.0117 0.0513 -0.0029 0.7062 -10.4169 -3.8608 -0.6791 -10.4793 3.8579 -1.3047 13.0338 -11.0884 7.8911 -0.2355 -53.5657 -1.4320 1.6302 -108.7962 1.0409 10.5609 -16.5672 -15.1852 10.8070 15.0275 -59.2174 1.3127 1.8353 1.4086 12.4212 17.9104 23.1081 -9.6540 43.4962 0.0678 1.0501 71.6973 167.1543 -83.9747 -142.1356 16.4870 7.7312 -16.3656 48.7708 -3.4239 -4.2973 17.7353 -20.1714 14.7889 -0.5534 34.2540 -0.7272 -15.8846 -7.4925 -13.6641 1.6651 0.1777 -1.8016 -13.4531 -21.8509 -27.8940 0.2956 47.6151 0.2148 10.9025 -18.9046 -3.8936 -1.3905 1.2603 0.9076
-5.4138 90.9847 4.7237 1.2508 -9.0426 0.6837 -0.7055 11.4649 -0.5708 -0.5664 -0.9825 -0.8171 -0.4733 21.7954 -3.5950 -2.4770 8.7220 4.0013 0.0347 -3.5306 1.6453 2.4490 -10.4699 0.8344 0.0047 0.0448 0.0160 0.6989 -10.4174 -3.8429 -0.6853 -10.4797 3.8804 -0.5257 12.7388 -11.6426 6.3226 -0.3481 -57.3085 -1.1420 1.6021 -105.7239 0.1947 10.2039 -17.6007 -15.2112 10.8656 15.1287 -59.2401 1.3332 1.8286 1.5047 12.3477 17.6692 23.4734 -11.6844 44.5589 0.1310 1.1479 71.7665 166.9438 -83.5843 -142.0583 16.4779 7.7905 -16.4283 48.8494 -3.4226 -4.3236 17.2740 -20.9422 15.2140 -0.5583 35.1299 -0.7136 -15.4386 -7.7800 -14.3084 1.6631 0.1735 -1.8221 -13.7955 -22.2373 -27.8709 0.3313 47.6728 0.2814 11.1909 -18.6277 -4.1543 -1.3910 1.2389 0.9132
-4.7441 90.9385 4.6510 1.2567 -8.8223 0.9814 -0.7154 11.6256 -0.5805 -0.5252 -0.9264 -0.9509 -0.3880 21.9186 -3.7271 -2.3634 8.4248 3.9818 0.0563 -3.5229 1.8298 2.5686 -10.4481 1.0704 -0.0006 0.0309 0.0292 0.6942 -10.4214 -3.8292 -0.6905 -10.4862 3.8956 0.1790 12.4797 -12.3142 4.3818 -0.9618 -60.6267 -0.7299 1.4741 -102.1854 -0.5816 9.2978 -18.5515 -15.2144 10.9000 15.2422 -59.3399 1.3667 1.7630 1.7623 12.3354 17.3976 23.7930 -13.5880 45.6611 0.1601 1.1794 72.0288 167.6744 -83.3225 -143.0693 16.4772 7.8634 -16.4810 48.9216 -3.3800 -4.3412 16.7175 -21.7820 15.7746 -0.5751 36.0675 -0.7147 -14.8628 -8.1420 -14.9979 1.6591 0.2180 -1.8313 -14.1427 -22.6943 -27.8015 0.3534 47.6771 0.3234 11.5241 -18.2751 -4.3711 -1.3934 1.2501 0.9105
-3.9938 90.8798 4.5944 1.2836 -8.5340 1.1679 -0.7256 11.8116 -0.6176 -0.4888 -0.8553 -1.0671 -0.2934 21.9928 -3.8109 -2.3137 8.0771 4.0075 0.0770 -3.5214 1.9876 2.6336 -10.4056 1.2683 -0.0066 0.0155 0.0450 0.6896 -10.4366 -3.8156 -0.6975 -10.5048 3.9156 0.7517 12.2074 -13.0427 2.0224 -2.2543 -63.1968 -0.2819 1.2298 -98.5379 -1.2496 8.0063 -19.3932 -15.2430 10.9251 15.3769 -59.5214 1.4168 1.6929 2.0981 12.3913 17.1079 24.0460 -15.2018 46.7487 0.1963 1.1783 72.4894 169.7420 -83.0486 -145.6040 16.3990 7.9353 -16.4990 48.9171 -3.3257 -4.3489 16.0997 -22.6842 16.4369 -0.5936 37.1163 -0.7230 -14.2435 -8.5938 -15.6309 1.6556 0.2709 -1.8408 -14.5215 -23.2634 -27.6698 0.3721 47.6874 0.3581 11.8656 -17.8989 -4.4679 -1.3988 1.2384 0.9018
-3.1717 90.7921 4.4937 1.3342 -8.2021 1.1881 -0.7246 12.0059 -0.6348 -0.4430 -0.7750 -1.1869 -0.2150 22.0395 -3.8154 -2.3910 7.7195 4.0981 0.0958 -3.5116 2.0539 2.6338 -10.4339 1.4161 -0.0099 0.0032 0.0559 0.6834 -10.4381 -3.8061 -0.6975 -10.5112 3.9290 1.1390 11.9995 -13.7426 -0.5340 -3.9704 -64.7596 0.2821 0.9726 -95.3945 -1.8133 6.5678 -20.0123 -15.3246 10.8957 15.4762 -59.7286 1.4547 1.6267 2.4567 12.4877 16.7810 24.1754 -16.2560 47.7740 0.1733 1.1931 73.0981 173.2092 -82.6973 -149.5747 16.2882 8.0032 -16.4945 49.0098 -3.2817 -4.3755 15.4316 -23.6112 17.1519 -0.6034 38.3224 -0.7219 -13.5565 -9.1323 -16.1318 1.6551 0.2927 -1.8482 -14.9468 -23.9722 -27.4672 0.3884 47.7742 0.3919 12.2081 -17.5365 -4.4244 -1.4070 1.1659 0.8889
-2.3243 90.6230 4.4376 1.4009 -7.8218 1.0082 -0.6877 12.1980 -0.6486 -0.3920 -0.7058 -1.2516 -0.1763 22.0648 -3.7679 -2.6436 7.3691 4.2205 0.0919 -3.5127 2.0718 2.5968 -10.5425 1.4700 -0.0106 -0.0060 0.0614 0.6841 -10.4468 -3.8061 -0.6995 -10.5233 3.9401 1.3074 11.8429 -14.2766 -2.9572 -5.8278 -65.1889 0.8820 0.8099 -93.3152 -2.2295 5.3033 -20.3010 -15.4616 10.8661 15.5434 -60.0446 1.4804 1.6206 2.7037 12.5646 16.4401 24.2223 -16.8273 48.5436 0.1254 1.1993 73.8529 176.8155 -82.4182 -153.5770 16.1144 8.0515 -16.4797 49.0310 -3.2711 -4.4115 14.7821 -24.5818 17.7750 -0.6037 39.7486 -0.7068 -12.8394 -9.7874 -16.3470 1.6532 0.2922 -1.8608 -15.3769 -24.8678 -27.2361 0.4028 48.0565 0.4186 12.5304 -17.2646 -4.1596 -1.4150 1.0484 0.8757
-1.4793 90.3701 4.4207 1.4765 -7.4337 0.6679 -0.6217 12.3674 -0.6400 -0.3309 -0.6466 -1.2786 -0.1690 22.0884 -3.6840 -3.0737 7.0823 4.3807 0.0874 -3.5215 1.9959 2.5613 -10.6653 1.4524 -0.0086 -0.0109 0.0601 0.6890 -10.4591 -3.8094 -0.7005 -10.5370 3.9388 1.1839 11.7384 -14.5986 -5.1583 -7.5548 -64.5927 1.4771 0.7401 -92.3820 -2.4529 4.2487 -20.3695 -15.6286 10.8499 15.6171 -60.3590 1.5082 1.6527 2.8510 12.6127 16.2031 24.2087 -17.0218 48.9040 0.0644 1.1668 74.5757 -178.8939 -82.2300 -158.0595 15.8640 8.0404 -16.4309 48.9459 -3.2696 -4.4604 14.1570 -25.5708 18.2640 -0.6012 41.3818 -0.6843 -12.1318 -10.5646 -16.2762 1.6507 0.2781 -1.8691 -15.8070 -25.9185 -26.9790 0.4217 48.5671 0.4511 12.8096 -17.1108 -3.7173 -1.4227 0.8672 0.8552
-0.6648 90.0408 4.4332 1.5997 -7.0768 0.2031 -0.5377 12.4906 -0.6100 -0.2709 -0.5941 -1.2670 -0.2168 22.1521 -3.5492 -3.6660 6.9045 4.5664 0.0627 -3.5342 1.8403 2.5246 -10.7562 1.3338 -0.0035 -0.0130 0.0475 0.6997 -10.4635 -3.8233 -0.7016 -10.5489 3.9256 0.7327 11.6212 -14.7701 -7.3032 -9.1020 -62.9574 2.0155 0.7329 -92.4491 -2.3748 3.2910 -20.2508 -15.7707 10.8323 15.6413 -60.5759 1.5529 1.6772 2.9813 12.6162 16.1232 24.1278 -16.9686 48.7978 0.0344 1.1543 75.0024 -174.2055 -81.9112 -162.8221 15.5458 7.9873 -16.3942 48.7522 -3.2878 -4.5070 13.5559 -26.5051 18.6511 -0.5786 43.1363 -0.6355 -11.5765 -11.4630 -15.9842 1.6486 0.2606 -1.8799 -16.2917 -27.0557 -26.5768 0.4532 49.2680 0.4884 13.0501 -17.0637 -3.2289 -1.4322 0.6778 0.8334
0.0560 89.6711 4.5159 1.7877 -6.8961 -0.3925 -0.4428 12.5185 -0.5342 -0.2147 -0.5411 -1.2540 -0.3355 22.3691 -3.3794 -4.4007 6.8836 4.7793 0.0299 -3.5567 1.6544 2.4915 -10.7867 1.1090 0.0044 -0.0136 0.0272 0.7116 -10.4680 -3.8422 -0.6985 -10.5600 3.9021 -0.2707 11.5159 -14.7663 -9.1107 -10.0838 -60.1674 2.5480 0.7567 -93.4433 -1.7314 1.9046 -20.0095 -15.7771 10.7931 15.5732 -60.6059 1.6066 1.7063 3.1771 12.6508 16.1831 23.8120 -16.6751 48.3896 -0.0947 1.1251 74.7777 -169.2833 -81.2863 -167.7590 15.2581 7.8862 -16.4233 48.5384 -3.3321 -4.5904 13.0528 -27.1846 19.0053 -0.5790 44.9089 -0.6162 -11.1992 -12.4431 -15.5221 1.6462 0.2690 -1.8802 -16.9307 -28.0278 -25.9090 0.4910 50.0467 0.5419 13.2717 -17.1017 -2.7838 -1.4391 0.5125 0.8279
0.6770 89.2878 4.6998 2.0348 -7.0459 -1.0757 -0.3525 12.3973 -0.4661 -0.1769 -0.4757 -1.1918 -0.5092 22.7229 -3.1675 -5.2526 7.1872 5.0168 0.0249 -3.5879 1.3938 2.4647 -10.7317 0.8431 0.0161 -0.0046 -0.0037 0.7203 -10.4630 -3.8680 -0.6850 -10.5569 3.8612 -1.8215 11.5111 -14.5581 -10.0413 -10.0529 -56.2074 3.0098 0.8260 -95.0722 -0.4486 0.0876 -19.8302 -15.6560 10.7475 15.4832 -60.4027 1.6453 1.7966 3.3651 12.7598 16.3278 23.4364 -16.3863 47.7836 -0.3719 1.1263 73.2717 -164.0882 -80.7219 -172.8877 15.1207 7.7100 -16.4913 48.4009 -3.4158 -4.6838 12.7083 -27.3528 19.2971 -0.5912 46.5330 -0.6265 -10.9698 -13.4703 -14.9397 1.6455 0.3289 -1.8693 -17.7578 -28.5565 -24.9591 0.5436 50.8342 0.6163 13.5650 -17.2434 -2.4926 -1.4423 0.3956 0.8386
1.1786 88.9147 5.0742 2.3623 -7.7991 -1.8501 -0.2805 12.1730 -0.3531 -0.1706 -0.4609 -1.1192 -0.7384 23.2458 -2.8567 -6.1367 8.0151 5.1780 0.0278 -3.6182 1.1156 2.5151 -10.5709 0.4859 0.0221 0.0118 -0.0216 0.7237 -10.4709 -3.8778 -0.6782 -10.5661 3.8355 -3.7211 11.7881 -14.0853 -9.1167 -8.6977 -51.1844 3.2733 1.0433 -96.5564 1.4395 -1.5252 -19.8462 -15.5316 10.7188 15.3444 -60.1835 1.6913 1.8921 3.4477 12.9771 16.5112 22.8609 -16.2358 47.1954 -0.5759 1.0891 69.7974 -153.8099 -81.0567 176.9384 15.3012 7.4767 -16.5353 48.5128 -3.5340 -4.7922 12.6658 -26.6205 19.4388 -0.6408 47.9413 -0.6964 -10.8639 -14.6585 -14.2450 1.6482 0.4434 -1.8483 -18.9463 -28.2780 -23.6425 0.5957 51.6038 0.7032 14.0494 -17.5754 -2.3936 -1.4406 0.3280 0.8696
1.5307 88.5827 5.6597 2.6644 -9.2867 -2.7000 -0.2482 11.8591 -0.2435 -0.1993 -0.5215 -0.8837 -0.9590 23.7796 -2.4979 -6.8951 9.5260 5.2348 0.0769 -3.6480 0.6978 2.7165 -10.2313 0.0930 0.0241 0.0262 -0.0370 0.7335 -10.4983 -3.8836 -0.6863 -10.5839 3.8131 -5.3846 12.4801 -13.1401 -5.5563 -5.8998 -45.3164 3.0252 1.4625 -96.9354 4.1589 -1.7327 -19.8119 -15.5807 10.7748 15.2517 -60.1414 1.7491 2.0708 3.2006 13.2401 16.5185 21.9160 -16.2943 47.1379 -0.2600 1.1408 63.6764 -124.9486 -82.4928 147.6456 15.8279 7.3677 -16.3455 48.9200 -3.4888 -4.8901 13.0595 -24.7298 19.2997 -0.7051 48.9404 -0.8102 -10.8358 -15.9908 -13.4308 1.6596 0.6163 -1.8134 -20.3362 -26.8212 -22.2462 0.6160 52.1160 0.7540 14.6859 -18.1237 -2.4270 -1.4316 0.3284 0.9097
1.6556 88.4310 6.5368 2.6878 -11.2272 -3.3568 -0.2605 11.4337 -0.2120 -0.2762 -0.6756 -0.5374 -1.0478 23.9340 -2.1195 -7.1946 11.5264 5.1804 0.1462 -3.6629 0.1877 2.9583 -9.5765 -0.2581 0.0265 0.0329 -0.0616 0.7403 -10.5310 -3.8955 -0.6914 -10.5995 3.7796 -5.9893 13.5625 -11.7190 0.6715 -1.5516 -38.7717 1.9320 1.9668 -96.3064 7.8589 -0.0917 -18.9659 -15.5854 10.7700 15.1310 -60.0826 1.6173 2.2532 2.4106 13.2465 16.1253 20.2511 -15.5282 48.1408 1.0058 1.1625 55.5935 -51.7754 -79.4304 71.6685 16.3346 7.5696 -15.3485 49.7786 -2.9463 -4.6810 13.9696 -21.9676 18.7464 -0.7720 49.2012 -0.9311 -10.9319 -17.1299 -12.5137 1.6728 0.7804 -1.7990 -21.4126 -24.2156 -21.3492 0.5639 52.0270 0.6713 15.3674 -18.7915 -2.6493 -1.4191 0.3965 0.9337
1.6126 88.6057 7.6128 2.3700 -13.0577 -3.6303 -0.3660 10.8323 -0.1729 -0.4034 -0.9514 -0.3012 -0.9486 23.5092 -1.7101 -6.8332 13.3713 5.0442 0.1599 -3.6266 -0.0504 3.0232 -8.6285 -0.5647 0.0274 0.0325 -0.0795 0.7288 -10.5348 -3.9049 -0.6803 -10.5921 3.7566 -5.1515 14.5668 -10.4124 8.5115 4.3910 -31.2776 0.4217 1.8864 -96.0490 11.1400 2.4767 -18.0452 -15.2570 10.4966 14.9298 -59.6700 1.2718 2.2549 1.3391 12.8491 15.5796 17.4790 -11.7145 49.5059 2.3291 0.7650 50.0226 -16.6453 -61.3784 31.3472 15.7683 7.7804 -14.1523 50.6635 -2.3797 -4.2299 15.1350 -19.0105 18.0841 -0.8387 48.6026 -1.0785 -11.1419 -17.8432 -11.7092 1.6667 0.9563 -1.7854 -21.9616 -21.0767 -21.4354 0.5403 51.0329 0.5856 16.0113 -19.2024 -2.7556 -1.4052 0.4352 0.9238
1.5588 89.2455 8.7962 1.8803 -14.2047 -3.6818 -0.5765 10.0686 -0.1282 -0.5471 -1.2623 -0.1154 -0.7079 22.3066 -1.4048 -6.1563 14.2379 4.9218 -0.0711 -3.5352 0.0224 3.0830 -7.7575 -1.0709 0.0161 0.0399 -0.0654 0.7087 -10.5070 -3.8910 -0.6829 -10.5582 3.7757 -3.5762 15.1123 -9.6121 17.0178 11.3521 -22.8166 -0.4375 1.0872 -97.3713 12.9322 4.1714 -17.9590 -14.7815 10.2320 14.9545 -59.0049 1.0018 2.2306 0.4082 12.2668 15.1685 14.2281 -6.3511 48.8243 3.5799 0.0990 52.3819 -9.9435 -43.2659 21.1593 15.1741 7.5765 -14.8143 50.6262 -2.6705 -4.3977 16.0802 -16.1367 17.5753 -0.8136 46.6978 -1.1322 -11.4986 -17.8929 -10.8975 1.6422 0.9894 -1.7556 -22.0799 -18.0864 -22.6110 0.5826 48.7061 0.6139 16.3859 -19.0928 -2.2124 -1.3961 0.4430 0.9084
1.6055 90.4125 9.9689 1.5328 -14.2876 -3.9789 -0.8265 9.1613 -0.1462 -0.6581 -1.5970 0.1245 -0.4914 20.3376 -1.1864 -5.7298 13.8845 4.9026 -0.4654 -3.4199 0.1358 3.1561 -6.9732 -1.6074 0.0064 0.0521 -0.0511 0.7062 -10.4764 -3.8872 -0.6985 -10.5208 3.8036 -1.7979 15.1882 -9.0321 24.3451 16.4083 -14.6876 -0.1355 0.6798 -100.8791 13.1991 4.2130 -17.4574 -14.2816 10.2322 15.1313 -58.3903 0.8604 2.2130 -0.4415 11.6145 14.9744 10.7448 -1.2958 45.6717 3.7412 -0.2294 61.4842 -10.3578 -33.2196 19.4659 15.2324 7.2094 -15.5967 50.1301 -3.1226 -4.7097 16.3268 -13.3788 17.5078 -0.7430 43.1073 -1.1154 -12.0242 -17.1799 -9.8084 1.6281 0.8180 -1.7423 -21.8412 -15.6725 -24.3307 0.5905 44.7526 0.6584 16.4307 -18.0431 -1.0222 -1.4007 0.2065 0.8920
1.7248 91.9892 11.1209 1.4558 -13.4930 -4.7843 -1.0333 8.1109 -0.2033 -0.6834 -1.9515 0.5019 -0.3966 17.7798 -1.0553 -5.8031 12.7614 4.9578 -0.7830 -3.3499 0.1933 3.1113 -6.1667 -1.9253 0.0024 0.0564 -0.0512 0.7110 -10.4761 -3.8979 -0.7098 -10.5145 3.8120 0.0182 14.7668 -8.2241 29.0153 17.7510 -8.9612 0.7102 0.7871 -105.6786 12.7502 3.1748 -15.9850 -14.0483 10.4564 15.2745 -58.1758 0.8185 2.1802 -1.6010 11.0157 15.0146 7.0133 2.9678 41.1634 2.4583 0.3299 73.2558 -12.6120 -28.5373 20.0976 15.4712 7.0844 -15.7416 50.0918 -3.2971 -4.7392 15.8716 -10.4661 17.8426 -0.6142 37.8769 -1.0003 -12.6565 -15.7176 -8.1798 1.6260 0.6059 -1.7694 -21.3531 -13.6172 -25.9580 0.5098 39.2847 0.6201 16.2375 -16.1134 0.4230 -1.4109 -0.0890 0.8414
1.8973 93.6650 12.4555 1.5901 -12.4027 -5.9591 -1.1393 6.9060 -0.1755 -0.6337 -2.3384 0.8693 -0.4173 15.2311 -0.9342 -6.2628 11.5783 4.9953 -0.8622 -3.3193 0.3477 2.9081 -5.1874 -2.0150 0.0038 0.0611 -0.0625 0.7210 -10.4610 -3.9112 -0.7163 -10.4903 3.7991 1.2570 13.8098 -7.2129 31.0511 15.7204 -6.8262 1.2095 1.1042 -109.8407 12.4435 0.7085 -14.6763 -13.9489 10.6340 15.2234 -58.1315 0.8293 2.1226 -3.1884 10.5978 15.0542 3.3329 5.2849 36.6520 1.0382 1.5534 83.9226 -14.7037 -26.8379 21.3648 15.6505 7.2075 -15.7036 50.3374 -3.3022 -4.6543 15.0934 -7.0599 18.3590 -0.4635 31.3961 -0.8500 -13.3019 -13.4768 -6.1772 1.6288 0.4138 -1.8234 -20.8575 -11.3633 -27.1553 0.3899 32.7829 0.5012 16.1015 -13.5435 1.6815 -1.4213 -0.2936 0.7977
2.0235 95.2128 13.8902 1.8550 -11.4110 -7.1345 -1.1765 5.5731 -0.0766 -0.5591 -2.7558 1.1845 -0.5186 13.0608 -0.8742 -6.7995 10.6900 5.0618 -0.7713 -3.3175 0.5936 2.5859 -3.8108 -1.9064 0.0055 0.0588 -0.0706 0.7282 -10.4323 -3.9112 -0.7202 -10.4544 3.7790 1.7529 12.5197 -6.2823 31.7416 11.8304 -7.3057 1.1666 1.3579 -112.5091 12.4255 -3.1498 -14.0392 -13.8535 10.6398 15.0537 -58.0343 0.8999 1.9773 -4.8074 10.2861 14.9696 -0.4157 5.3768 32.9304 0.3857 2.3827 92.0757 -16.6466 -27.0165 22.7890 15.6103 7.3784 -15.7551 50.4566 -3.2418 -4.7045 14.2604 -3.1830 18.8435 -0.3073 24.2262 -0.6740 -13.9304 -10.6559 -4.3007 1.6289 0.1945 -1.8669 -20.5726 -8.7600 -27.9589 0.2781 25.9118 0.3597 16.2032 -10.5960 2.5434 -1.4266 -0.4904 0.7631
2.0776 96.4808 15.2358 2.2177 -10.6331 -8.0267 -1.2351 4.2456 0.0217 -0.4915 -3.1894 1.3859 -0.6757 11.3514 -0.8528 -7.2104 9.9726 5.1480 -0.6081 -3.3395 0.8502 2.1678 -2.0530 -1.7256 0.0052 0.0394 -0.0617 0.7382 -10.4486 -3.9013 -0.7315 -10.4697 3.7842 1.9268 11.1239 -5.7034 31.8639 7.4686 -9.0165 0.8581 1.5376 -113.8191 12.4286 -7.6727 -13.9126 -13.8204 10.5545 14.9062 -57.9576 0.9987 1.7949 -6.1925 9.9323 14.8079 -4.4802 3.8140 30.2078 0.4261 2.6555 97.7144 -19.0840 -28.5098 24.3163 15.5424 7.4839 -15.8940 50.5739 -3.1552 -4.8898 13.4666 0.8664 19.1606 -0.1827 16.9820 -0.5138 -14.5080 -7.5531 -2.8574 1.6285 -0.0336 -1.9252 -20.5539 -6.0934 -28.4093 0.1865 19.5139 0.2425 16.5043 -7.6747 2.8686 -1.4258 -0.6152 0.7393
2.1128 97.3148 16.3317 2.5564 -10.2046 -8.5386 -1.3168 3.1245 0.1303 -0.4363 -3.6020 1.4052 -0.8395 10.1807 -0.8676 -7.3383 9.3540 5.1821 -0.4364 -3.3795 1.0574 1.7014 -0.3286 -1.5049 0.0074 0.0175 -0.0378 0.7529 -10.5067 -3.8800 -0.7428 -10.5300 3.8083 2.1274 9.8973 -5.5608 31.7876 3.6062 -11.0316 0.8073 1.3474 -114.1547 12.5313 -11.9172 -14.3449 -13.8463 10.4971 14.8942 -58.1290 1.0444 1.6379 -7.3229 9.6070 14.6654 -8.8928 1.2371 28.5263 0.6837 2.4784 101.0435 -22.0595 -30.7166 25.8288 15.5262 7.5574 -16.0626 50.9079 -3.0348 -5.0846 12.9007 4.4992 19.3524 -0.1184 10.7971 -0.4018 -14.9171 -4.7633 -1.9829 1.6253 -0.1784 -1.9827 -20.7767 -3.7920 -28.5940 0.1365 14.6786 0.1723 16.8074 -5.3653 2.8287 -1.4172 -0.5971 0.7141
2.1051 97.7109 17.2058 2.7653 -10.1581 -8.7142 -1.4162 2.3476 0.2258 -0.3917 -3.8902 1.3437 -0.9585 9.4568 -0.9435 -7.0942 8.8228 5.1244 -0.3351 -3.4297 1.2007 1.3169 1.0664 -1.2912 0.0133 0.0014 -0.0013 0.7675 -10.5521 -3.8460 -0.7464 -10.5784 3.8442 2.4670 8.9110 -5.8290 31.3252 0.6390 -13.0241 1.0808 0.8993 -113.8968 12.9935 -15.4217 -15.3280 -13.9570 10.4897 14.9614 -58.5530 1.0257 1.5642 -8.1719 9.3030 14.5952 -12.9870 -1.6088 27.8274 0.9084 2.1070 102.5415 -25.2484 -33.1477 27.2344 15.5341 7.5872 -16.2320 51.3212 -2.9433 -5.2832 12.7081 7.2539 19.5437 -0.1038 6.5056 -0.3323 -15.1700 -2.8232 -1.6677 1.6265 -0.1807 -2.0241 -21.1248 -2.0972 -28.6550 0.1125 11.8807 0.1465 17.0113 -3.9800 2.6504 -1.4084 -0.4517 0.7056
2.1027 97.7868 17.9196 2.8705 -10.5148 -8.7301 -1.5620 1.9095 0.2777 -0.3665 -4.0456 1.2679 -1.0379 9.0941 -1.0827 -6.5200 8.5121 4.9368 -0.3102 -3.4627 1.3591 1.0691 2.0758 -1.0514 0.0181 -0.0046 0.0201 0.7811 -10.5651 -3.8230 -0.7508 -10.5872 3.8606 2.9603 8.2324 -6.3975 30.2269 -1.6947 -14.8343 1.5660 0.6646 -113.4544 13.9363 -18.4459 -16.7204 -14.1252 10.4783 14.9340 -59.0618 0.9792 1.5520 -8.6863 9.0929 14.6326 -16.2403 -4.2375 27.9741 1.0022 1.6744 102.9057 -28.1033 -35.3605 28.2891 15.5732 7.5973 -16.3693 51.6910 -2.8894 -5.4333 12.8410 9.2476 19.7208 -0.1247 4.1299 -0.2867 -15.3558 -1.9412 -1.6399 1.6299 -0.0276 -2.0429 -21.6197 -0.9662 -28.7622 0.1109 10.8697 0.1642 17.1129 -3.5014 2.5694 -1.4026 -0.2445 0.7128
2.0272 97.6522 18.5008 2.9749 -11.2948 -8.7805 -1.7831 1.7595 0.3559 -0.3824 -4.0862 1.1283 -1.1076 9.0868 -1.1438 -5.6975 8.5061 4.6576 -0.3513 -3.4762 1.5146 0.9361 2.8710 -0.8241 0.0221 -0.0014 0.0185 0.7861 -10.5657 -3.8182 -0.7480 -10.5801 3.8511 3.3713 7.8069 -7.1417 28.6936 -3.5936 -16.5193 2.0238 0.7464 -113.0833 15.1805 -21.0971 -18.2063 -14.2056 10.4299 14.8151 -59.3292 0.9792 1.5288 -8.6203 9.0072 14.7798 -18.4738 -6.3725 28.6546 0.9571 1.4292 102.8933 -30.3797 -37.3074 28.8370 15.6598 7.5331 -16.3683 51.9128 -2.8554 -5.5083 13.1785 10.8478 19.9679 -0.1495 3.1949 -0.2788 -15.5188 -1.9077 -1.7664 1.6313 0.2113 -2.0691 -22.3442 -0.2765 -28.9296 0.1288 11.2909 0.1686 17.2331 -3.7479 2.7249 -1.4044 -0.0672 0.7337
1.9239 97.3764 19.0558 3.1864 -12.4064 -8.9625 -2.0881 1.7445 0.4395 -0.4117 -4.0607 1.0397 -1.2483 9.3740 -1.1364 -4.8994 8.9759 4.3542 -0.4062 -3.4640 1.6535 0.8912 3.6073 -0.6278 0.0240 0.0102 -0.0012 0.7865 -10.5372 -3.8256 -0.7443 -10.5475 3.8187 3.5296 7.6505 -7.8166 27.1274 -5.2991 -18.2693 2.2551 0.9517 -112.8189 16.7055 -22.8868 -19.4799 -14.3064 10.3806 14.6770 -59.3199 0.9844 1.5642 -8.1078 9.0330 14.9359 -19.5827 -8.0296 29.6164 0.8237 1.4742 102.7193 -32.1300 -38.8895 28.9656 15.6324 7.4632 -16.3322 51.9144 -2.8576 -5.4830 13.5788 12.5196 20.2649 -0.1703 2.8599 -0.2663 -15.6845 -2.2394 -1.8735 1.6291 0.4420 -2.0851 -23.3812 0.1656 -29.1547 0.1679 12.4860 0.2134 17.4878 -4.4564 3.1124 -1.4063 0.0409 0.7590
1.8465 97.0579 19.6592 3.4984 -13.7044 -9.3456 -2.3900 1.7357 0.5715 -0.4506 -4.0442 0.9924 -1.4811 9.8172 -1.0554 -4.3256 10.0413 4.1517 -0.4501 -3.4574 1.7465 0.9176 4.4671 -0.4751 0.0264 0.0196 -0.0181 0.7895 -10.5117 -3.8320 -0.7422 -10.5221 3.7929 3.2682 7.5923 -8.1986 26.0010 -6.5361 -20.1531 2.2212 1.0881 -112.4777 18.3094 -23.7743 -20.3371 -14.3988 10.3863 14.5677 -59.1770 1.0179 1.5868 -7.3008 9.1659 15.1308 -19.6835 -9.3549 30.5203 0.8392 1.7907 102.5036 -33.5313 -39.6758 28.5361 15.4611 7.4506 -16.3338 51.7270 -2.8967 -5.4038 13.9746 14.3981 20.5840 -0.1787 2.7153 -0.2573 -15.7793 -2.6756 -1.8860 1.6316 0.5677 -2.1086 -24.6450 0.6027 -29.3702 0.2098 13.8543 0.2738 17.8768 -5.3165 3.6198 -1.4059 0.0991 0.7951
1.7990 96.7527 20.2866 3.7829 -15.0242 -9.8287 -2.5909 1.6214 0.6897 -0.4736 -4.0687 1.0500 -1.7059 10.3050 -0.9322 -4.1101 11.6198 4.1058 -0.4703 -3.4536 1.7434 0.9628 5.5504 -0.3061 0.0281 0.0256 -0.0269 0.7885 -10.4821 -3.8317 -0.7374 -10.4934 3.7737 2.7165 7.5794 -8.2835 25.3020 -6.9358 -21.9466 2.1112 1.2783 -111.9489 19.6385 -23.6512 -20.6803 -14.4379 10.4627 14.5098 -59.0107 1.0490 1.5977 -6.4124 9.4183 15.3440 -19.0489 -10.1787 31.1668 0.8499 2.0648 102.1309 -34.3685 -39.6855 27.6244 15.1312 7.4593 -16.3600 51.4614 -2.9542 -5.3121 14.4209 16.3535 20.9306 -0.1779 2.5642 -0.2504 -15.8090 -3.0616 -1.8051 1.6383 0.6213 -2.1250 -25.8911 1.2274 -29.5550 0.2437 14.9695 0.3397 18.2535 -6.0440 4.0994 -1.4035 0.1081 0.8095
1.7544 96.4900 20.9135 3.9943 -16.2577 -10.3069 -2.6818 1.4273 0.8031 -0.5048 -4.1558 1.1120 -1.8589 10.7239 -0.7265 -4.1438 13.4950 4.2277 -0.4741 -3.4355 1.6850 0.9406 6.8869 -0.1371 0.0283 0.0276 -0.0290 0.7899 -10.4699 -3.8320 -0.7383 -10.4825 3.7696 2.2137 7.5396 -8.1800 24.8018 -6.6114 -23.4057 1.9467 1.4781 -111.2969 20.5219 -23.2199 -20.6637 -14.4397 10.5558 14.4635 -59.0277 1.1223 1.6044 -5.6373 9.7479 15.5719 -17.9947 -10.4009 31.4523 0.8357 2.3021 101.7759 -34.6002 -39.2864 26.4714 14.8457 7.4917 -16.3792 51.2270 -2.9988 -5.2214 14.9009 18.2747 21.2129 -0.1737 2.3896 -0.2236 -15.8472 -3.4029 -1.6216 1.6444 0.6765 -2.1326 -27.0151 2.0648 -29.6986 0.2616 15.6995 0.3714 18.6066 -6.5873 4.4686 -1.4020 0.1142 0.8219
1.6922 96.2803 21.5380 4.1229 -17.2866 -10.7141 -2.7016 1.1644 0.8878 -0.5425 -4.2780 1.1991 -1.9187 11.0070 -0.4975 -4.3299 15.4033 4.4382 -0.4721 -3.4083 1.6149 0.8578 8.3319 0.0118 0.0257 0.0269 -0.0240 0.7868 -10.4650 -3.8278 -0.7406 -10.4784 3.7756 1.8246 7.5120 -7.9501 24.4672 -5.9404 -24.5819 1.6362 1.7758 -110.6562 21.1826 -22.9376 -20.4850 -14.4530 10.5860 14.4463 -59.1103 1.1912 1.6059 -4.9839 10.0905 15.8092 -16.8938 -10.1428 31.4914 0.8319 2.5274 101.4890 -34.4770 -38.8659 25.4399 14.7039 7.5082 -16.3777 51.1205 -3.0257 -5.1413 15.3755 19.9441 21.4557 -0.1716 2.2593 -0.1941 -15.9115 -3.7126 -1.3510 1.6512 0.7067 -2.1215 -27.9196 3.0120 -29.8247 0.2728 16.0583 0.3800 18.9219 -6.9393 4.6660 -1.4014 0.1214 0.8302
1.6360 96.1452 22.0912 4.1544 -18.0763 -10.9993 -2.6652 0.8912 0.9561 -0.5936 -4.4236 1.2756 -1.9179 11.1582 -0.2801 -4.5360 17.1223 4.7009 -0.4763 -3.3708 1.5113 0.7447 9.6882 0.1415 0.0226 0.0252 -0.0235 0.7901 -10.4466 -3.8247 -0.7507 -10.4595 3.7748 1.6371 7.4609 -7.6922 24.3269 -5.0613 -25.4002 1.3613 2.1187 -110.1090 21.7925 -22.9301 -20.3325 -14.4798 10.6274 14.4427 -59.2590 1.2539 1.6266 -4.5327 10.3424 16.0218 -15.8846 -9.6413 31.3989 0.7306 2.7715 101.2854 -34.3147 -38.7583 24.6596 14.5695 7.5219 -16.3602 51.0733 -3.0474 -5.0586 15.8797 21.2503 21.7213 -0.1746 2.1555 -0.1759 -15.9641 -3.9708 -1.1291 1.6567 0.7300 -2.0922 -28.5897 3.9379 -29.9892 0.2801 16.1421 0.3952 19.1899 -7.1624 4.7722 -1.4006 0.1154 0.8466
1.5286 96.0343 22.5887 4.0946 -18.6079 -11.1606 -2.6110 0.6295 0.9729 -0.6270 -4.5627 1.3539 -1.8837 11.1740 -0.1251 -4.7546 18.5385 4.9630 -0.4607 -3.3618 1.3753 0.6101 10.7946 0.2646 0.0243 0.0230 -0.0362 0.7984 -10.4354 -3.8353 -0.7554 -10.4441 3.7568 1.6890 7.2555 -7.3891 24.1828 -4.1475 -26.0588 1.0961 2.3965 -109.7196 22.3849 -23.1357 -20.2054 -14.5148 10.6729 14.4557 -59.3535 1.3081 1.6406 -4.3167 10.4616 16.1884 -15.0934 -9.2251 31.3244 0.5876 2.8253 101.1503 -33.9693 -38.7139 23.9135 14.4219 7.5404 -16.3547 51.0409 -3.0339 -5.0170 16.3519 22.1842 21.9395 -0.1755 2.0774 -0.1610 -16.0146 -4.1560 -0.9637 1.6641 0.6873 -2.0636 -28.9983 4.7681 -30.2217 0.2831 15.9835 0.4207 19.3967 -7.2563 4.8207 -1.3999 0.0982 0.8567
1.4094 95.9976 23.0019 3.9461 -18.8685 -11.2293 -2.5458 0.4238 0.9710 -0.6447 -4.6818 1.3862 -1.8148 11.0973 0.0125 -4.9332 19.5843 5.2051 -0.4607 -3.3632 1.2166 0.4872 11.6550 0.3026 0.0293 0.0238 -0.0517 0.8128 -10.4268 -3.8510 -0.7598 -10.4280 3.7391 1.9596 7.0437 -7.1373 24.1798 -3.3932 -26.4932 0.8452 2.7105 -109.6075 22.9923 -23.5618 -20.2059 -14.5148 10.7105 14.4678 -59.4138 1.3188 1.6609 -4.3465 10.4386 16.3044 -14.6892 -9.0479 31.2173 0.5458 2.7042 101.3225 -33.6094 -38.7895 23.3065 14.3045 7.5274 -16.3803 51.0206 -3.0476 -5.0237 16.7845 22.6837 22.1432 -0.1727 2.0515 -0.1422 -16.1133 -4.2795 -0.8842 1.6695 0.6180 -2.0416 -29.1204 5.4607 -30.4282 0.2854 15.6527 0.4316 19.4788 -7.2449 4.7599 -1.4034 0.0892 0.8650
1.2605 96.0149 23.3028 3.7178 -18.8300 -11.2232 -2.4643 0.3013 0.9420 -0.6568 -4.7480 1.3935 -1.7181 10.8834 0.1145 -5.0781 20.2618 5.3395 -0.4912 -3.3599 1.0882 0.3477 12.2766 0.2934 0.0353 0.0244 -0.0649 0.8226 -10.4187 -3.8643 -0.7579 -10.4139 3.7237 2.4629 6.9293 -6.9160 24.3499 -2.7765 -26.6650 0.6671 3.0519 -109.8567 23.6138 -24.0992 -20.2898 -14.4713 10.7104 14.4521 -59.3867 1.3054 1.6864 -4.6466 10.3105 16.3600 -14.7332 -8.9992 30.9672 0.4230 2.4112 101.9063 -33.1829 -39.2058 23.0272 14.2690 7.5038 -16.3847 51.0810 -3.0698 -5.0237 17.1651 22.7452 22.3329 -0.1688 2.0491 -0.1499 -16.2488 -4.3090 -0.8078 1.6682 0.5121 -2.0376 -28.9087 5.9867 -30.5314 0.2829 15.1796 0.4485 19.4173 -7.1211 4.5682 -1.4060 0.0833 0.8736
1.0930 96.1128 23.4393 3.4473 -18.4370 -11.2310 -2.3772 0.2626 0.8851 -0.6604 -4.7726 1.3724 -1.6230 10.5351 0.1517 -5.1863 20.6349 5.4028 -0.5435 -3.3616 0.9776 0.1859 12.6156 0.2566 0.0435 0.0220 -0.0790 0.8336 -10.4172 -3.8783 -0.7527 -10.4076 3.7061 3.2095 6.9418 -6.6976 24.5940 -2.3890 -26.5321 0.5177 3.2321 -110.4846 24.2262 -24.7990 -20.5130 -14.3497 10.6956 14.4331 -59.1970 1.2753 1.6817 -5.2951 10.0877 16.3116 -15.1354 -9.1255 30.5483 0.2574 1.9169 102.9462 -32.6927 -39.8059 23.1077 14.3492 7.4939 -16.4373 51.2286 -3.0970 -5.0498 17.4085 22.2719 22.5012 -0.1718 2.1403 -0.1766 -16.3887 -4.2952 -0.7380 1.6595 0.3602 -2.0303 -28.3367 6.2585 -30.4361 0.2706 14.5807 0.4479 19.2462 -6.9307 4.2982 -1.4058 0.0631 0.8713
0.9802 96.3062 23.4009 3.1505 -17.6553 -11.2726 -2.2781 0.3241 0.8223 -0.6628 -4.7679 1.3361 -1.5522 10.0746 0.0831 -5.2357 20.7810 5.3900 -0.6015 -3.3567 0.8438 -0.0194 12.5735 0.2794 0.0530 0.0160 -0.0993 0.8455 -10.4120 -3.8997 -0.7463 -10.4015 3.6847 4.1698 6.9549 -6.5076 24.7250 -2.1332 -26.0967 0.4321 3.1396 -111.4990 24.7633 -25.6210 -20.9767 -14.1899 10.6752 14.4294 -58.9400 1.2426 1.6725 -6.2345 9.8132 16.1186 -15.8510 -9.2706 29.8421 -0.0708 1.3722 104.4495 -32.0225 -40.4301 23.4064 14.5000 7.5432 -16.5311 51.5004 -3.1101 -5.0878 17.4709 21.2107 22.6361 -0.1715 2.3651 -0.2252 -16.5042 -4.1919 -0.6511 1.6484 0.1134 -2.0185 -27.3898 6.2387 -30.0783 0.2484 13.8339 0.4460 18.9542 -6.6204 3.9578 -1.4042 0.0004 0.8592
0.8885 96.5448 23.1496 2.8896 -16.5177 -11.4241 -2.2059 0.4826 0.7341 -0.6810 -4.7083 1.3101 -1.5238 9.5287 -0.1153 -5.2411 20.7959 5.3384 -0.6141 -3.3526 0.6999 -0.2483 12.0720 0.3647 0.0553 0.0076 -0.1066 0.8498 -10.4091 -3.9096 -0.7457 -10.4007 3.6786 5.3051 6.9444 -6.3040 24.5320 -1.7242 -25.2823 0.6799 2.6788 -112.8162 25.2434 -26.5436 -21.8382 -14.0366 10.6767 14.4349 -58.6951 1.2078 1.6653 -7.4346 9.5538 15.7458 -16.7692 -9.4480 28.8282 -0.5618 0.7307 106.3613 -31.2415 -40.7286 23.8471 14.7258 7.6476 -16.6280 51.8714 -3.0730 -5.1237 17.3217 19.5692 22.7839 -0.1728 2.8166 -0.2745 -16.5732 -4.0306 -0.5814 1.6399 -0.2144 -2.0161 -26.1671 5.8210 -29.4179 0.2271 13.0510 0.4398 18.5929 -6.1527 3.5889 -1.4006 -0.1507 0.8450
0.8968 96.8174 22.6816 2.6724 -15.1495 -11.6789 -2.1529 0.8096 0.6464 -0.7300 -4.6151 1.2258 -1.5200 9.0331 -0.3653 -5.2029 20.7308 5.2097 -0.5879 -3.3251 0.5670 -0.4958 11.0614 0.5069 0.0487 0.0082 -0.0883 0.8504 -10.4007 -3.8913 -0.7597 -10.3908 3.6987 6.4914 6.9830 -6.1267 23.9355 -1.2394 -24.1372 1.2559 2.0535 -114.3808 25.6908 -27.6784 -23.1208 -13.9045 10.7479 14.4969 -58.6630 1.2015 1.6695 -8.8154 9.4772 15.1019 -17.8272 -9.7784 27.3189 -1.2645 0.1448 108.7996 -30.2959 -40.6723 24.2844 14.9565 7.7738 -16.7238 52.2532 -3.0507 -5.2054 16.9821 17.3059 22.9564 -0.1796 3.8362 -0.3177 -16.5603 -3.9843 -0.6380 1.6380 -0.6016 -2.0416 -24.7717 4.8957 -28.5277 0.2086 12.5829 0.4277 18.1923 -5.7395 3.3018 -1.3971 -0.3350 0.8391
0.9339 97.0376 21.9503 2.4682 -13.6594 -12.0121 -2.1274 1.3453 0.5383 -0.7865 -4.4096 1.0916 -1.5776 8.6338 -0.6838 -5.0982 20.5902 5.0395 -0.5720 -3.3258 0.4922 -0.7182 9.6761 0.6665 0.0432 0.0110 -0.0689 0.8474 -10.4081 -3.8716 -0.7679 -10.3912 3.7182 7.7180 7.0122 -5.9401 22.7707 -0.8125 -22.6530 2.0552 1.4180 -116.1221 25.8918 -29.0961 -24.5648 -13.8387 10.8312 14.5701 -58.9046 1.2250 1.6600 -10.2200 9.5373 14.1160 -18.9804 -10.5054 25.3035 -2.0764 -0.5687 111.8470 -29.1769 -40.3059 24.7061 15.1221 7.8615 -16.7799 52.5242 -3.0259 -5.2854 16.5720 14.3550 23.1655 -0.1929 5.7368 -0.3749 -16.4337 -4.3388 -0.8409 1.6363 -0.9445 -2.0825 -23.2997 3.4130 -27.4597 0.1958 12.6967 0.4104 17.7645 -5.5806 3.0949 -1.3944 -0.4805 0.8434
1.0360 97.1396 20.8904 2.2233 -12.0569 -12.3264 -2.1376 2.1773 0.4117 -0.8394 -4.1044 0.8711 -1.6728 8.4043 -1.0827 -4.9313 20.4724 4.8640 -0.5850 -3.3120 0.4212 -0.8790 7.9765 0.8486 0.0403 0.0228 -0.0683 0.8520 -10.4186 -3.8711 -0.7783 -10.3850 3.7188 9.1059 7.1179 -5.7164 20.8680 -0.6069 -20.7029 3.0424 0.9661 -118.1989 25.6705 -30.8619 -25.8380 -13.7928 10.9206 14.6468 -59.2769 1.2720 1.6692 -11.3840 9.7135 12.6690 -20.3959 -11.6799 22.4525 -3.0120 -1.4712 115.7752 -28.1427 -39.7670 25.1921 15.2248 7.9207 -16.7994 52.5147 -3.0045 -5.3887 16.1247 10.5430 23.3902 -0.2097 8.7382 -0.4327 -16.1213 -5.2136 -1.3178 1.6309 -1.2062 -2.1086 -21.7224 1.1601 -26.3228 0.1896 13.7895 0.4057 17.2545 -5.7507 2.8511 -1.3956 -0.5800 0.8569
1.2004 97.0445 19.5643 1.9415 -10.4713 -12.3555 -2.2305 3.3639 0.2520 -0.8701 -3.6908 0.5538 -1.7826 8.4482 -1.5518 -4.7256 20.5187 4.7365 -0.5908 -3.3190 0.3298 -1.0403 6.0736 0.9609 0.0336 0.0385 -0.0635 0.8519 -10.4448 -3.8685 -0.7929 -10.3956 3.7279 10.8601 7.1890 -5.4827 17.8873 -0.6695 -18.3016 4.0907 0.6627 -120.7645 24.7207 -32.8216 -26.4311 -13.7323 10.9534 14.5828 -59.5627 1.3818 1.6469 -12.0327 10.0451 10.6354 -21.9837 -13.0045 18.1246 -4.1982 -2.6840 120.7887 -26.9557 -38.4681 25.2388 15.2055 7.9634 -16.8054 52.3192 -2.9718 -5.4756 15.6542 6.0864 23.4815 -0.2405 12.6185 -0.4740 -15.5740 -6.5744 -2.0879 1.6166 -1.3791 -2.1285 -20.1981 -1.8809 -25.3646 0.1957 16.1234 0.3983 16.6875 -6.3881 2.5562 -1.4043 -0.6254 0.8776
1.3966 96.6861 17.9713 1.6846 -8.9486 -11.9043 -2.3973 4.9555 -0.0097 -0.8867 -3.1771 0.1961 -1.9181 8.8242 -2.0706 -4.5615 20.7637 4.7249 -0.5638 -3.3538 0.0345 -1.2416 4.0519 0.9807 0.0146 0.0421 -0.0356 0.8276 -10.5034 -3.8474 -0.8078 -10.4523 3.7699 12.9772 7.1563 -5.2074 13.6423 -0.9607 -15.4443 4.9549 0.4356 -124.2095 22.9500 -34.6966 -26.1374 -13.6843 10.9025 14.3923 -59.6149 1.5852 1.6578 -11.9843 10.4764 8.0991 -23.0304 -14.4641 11.3928 -5.2658 -3.8117 127.0365 -25.6460 -36.0633 24.6749 14.9651 7.9602 -16.8778 51.8782 -2.9930 -5.5202 15.1108 1.0523 23.2824 -0.2815 17.3280 -0.5328 -14.8320 -8.2604 -3.1244 1.6034 -1.4544 -2.1333 -18.8351 -5.6602 -24.6986 0.2335 19.7454 0.4064 16.0284 -7.5506 2.0530 -1.4139 -0.6138 0.8822
1.6934 96.0999 16.2451 1.5594 -7.5024 -10.9642 -2.6055 6.9184 -0.2967 -0.8894 -2.5887 -0.1616 -2.1108 9.5219 -2.6415 -4.4186 20.9636 4.8525 -0.5675 -3.4015 -0.4636 -1.4472 2.0587 0.7404 -0.0127 0.0304 0.0089 0.7832 -10.5553 -3.8110 -0.8208 -10.5195 3.8349 15.0403 7.0174 -4.7950 8.5962 -1.4033 -12.4315 5.2482 0.1852 -128.5516 20.4736 -36.9516 -25.4068 -13.6604 10.6784 14.1273 -59.2644 1.7925 1.7566 -11.0286 11.0682 5.3621 -22.4492 -16.1280 2.0937 -5.6075 -4.3480 134.1631 -24.6170 -32.5478 23.9193 14.5968 7.9124 -16.9576 51.3286 -3.0423 -5.5394 14.3842 -4.3370 22.7990 -0.3312 22.6431 -0.6020 -13.9273 -9.9793 -4.3022 1.5949 -1.5346 -2.1202 -17.8033 -9.9672 -24.3360 0.2859 24.2823 0.4595 15.4419 -8.9085 1.4125 -1.4196 -0.5874 0.8877
1.9722 95.2631 14.3542 1.6086 -6.1221 -9.5613 -2.7808 9.2599 -0.6365 -0.8898 -1.9120 -0.4862 -2.2840 10.5097 -3.2183 -4.3677 20.9153 4.9721 -0.6251 -3.4755 -1.0725 -1.6642 0.1725 0.2677 -0.0404 0.0042 0.0424 0.7384 -10.6261 -3.7948 -0.8342 -10.6088 3.8976 16.8537 6.8146 -4.1704 2.8162 -1.7992 -9.6834 4.6486 0.2370 -133.2171 17.0146 -40.5175 -24.0814 -13.7148 10.2691 13.7984 -58.4528 1.9204 1.9650 -9.3314 11.9408 2.7035 -18.8511 -17.0512 -9.4946 -4.7228 -4.0213 141.4184 -23.8685 -27.7576 23.0991 14.1760 7.8200 -16.9841 50.7438 -3.1047 -5.5191 13.4271 -10.0330 22.1021 -0.4075 28.4730 -0.7039 -12.8659 -11.6533 -5.6323 1.5938 -1.5152 -2.0809 -17.1046 -14.7029 -24.2017 0.3501 29.5267 0.5493 14.9439 -10.4653 0.6309 -1.4218 -0.5173 0.8979
2.2511 94.1640 12.3694 1.8682 -4.6696 -7.9030 -2.8620 11.7742 -0.9814 -0.8902 -1.1753 -0.7461 -2.3499 11.6831 -3.7419 -4.5159 20.5341 5.0183 -0.7511 -3.5668 -1.6986 -1.8403 -1.5449 -0.4469 -0.0637 -0.0311 0.0565 0.7088 -10.7386 -3.8088 -0.8537 -10.7352 3.9482 17.8653 6.5915 -3.4961 -3.0064 -2.1776 -7.6466 3.0329 0.5873 -137.2468 12.2113 -45.1877 -21.0439 -14.0225 9.7748 13.6221 -57.5882 1.9651 2.1765 -6.9508 13.1649 0.5439 -12.3644 -16.1181 -21.2149 -1.8809 -2.8656 147.0840 -23.4170 -21.9834 22.6083 14.0524 7.6425 -16.9962 50.2570 -3.1544 -5.5715 12.2195 -15.9416 21.5314 -0.5292 34.4517 -0.8467 -11.7359 -13.2026 -7.2027 1.5913 -1.4401 -2.0431 -16.7359 -19.8742 -24.0763 0.4285 35.1962 0.6413 14.4976 -12.1893 -0.2184 -1.4245 -0.3442 0.8765
2.5448 92.8104 10.3540 2.3369 -3.0286 -6.2102 -2.8194 14.2452 -1.2765 -0.9070 -0.4136 -0.8841 -2.2478 13.0608 -4.1879 -4.9688 19.6795 4.8981 -0.9349 -3.6410 -2.3325 -1.7918 -3.1094 -1.3767 -0.0904 -0.0621 0.0649 0.6822 -10.8565 -3.8260 -0.8820 -10.8623 3.9898 17.6088 6.4676 -2.9102 -8.3547 -2.5105 -6.8113 0.7638 1.2175 -139.6481 6.1516 -49.1609 -15.4708 -14.6893 9.3869 13.7734 -57.2737 1.9941 2.3243 -3.8225 14.6688 -0.5914 -4.3733 -12.9559 -30.5352 2.5200 -1.4074 149.2912 -23.1847 -15.4892 22.7022 14.2567 7.3715 -17.0219 49.9166 -3.2112 -5.6715 10.6315 -21.9758 21.3607 -0.6590 40.2411 -0.9386 -10.5565 -14.4803 -8.8595 1.5881 -1.3036 -2.0301 -16.6668 -25.4542 -23.7498 0.5260 40.9456 0.7315 14.1504 -13.8656 -1.1712 -1.4314 -0.0896 0.8178
2.8126 91.2672 8.3319 3.0103 -1.2028 -4.5804 -2.6650 16.5619 -1.4804 -0.9333 0.3527 -0.9429 -1.9988 14.6310 -4.5225 -5.6307 18.3870 4.6076 -1.1867 -3.6852 -2.9207 -1.4724 -4.5609 -2.5324 -0.1318 -0.0922 0.0827 0.6495 -10.9353 -3.8141 -0.9342 -10.9465 4.0275 16.2798 6.4560 -2.6468 -13.6562 -2.6176 -8.0112 -1.3277 2.1290 -139.4706 -0.1720 -50.5696 -7.8915 -15.4915 9.3022 14.2410 -57.7213 2.0277 2.4005 -0.1783 15.9955 -0.1464 4.1428 -8.2652 -35.9826 6.7060 0.3107 147.2757 -23.3929 -9.2676 23.2069 14.5615 7.1556 -17.1026 49.7169 -3.2620 -5.8568 8.5402 -27.9907 21.9185 -0.8049 45.6093 -1.0552 -9.3031 -15.3558 -10.5345 1.5945 -1.2114 -2.0585 -16.9429 -31.2851 -23.0831 0.6602 46.5123 0.8428 13.9477 -15.3872 -2.1880 -1.4442 0.1483 0.7448
3.0325 89.6136 6.4437 3.7643 0.6223 -2.9688 -2.3812 18.6461 -1.6714 -0.9767 1.1587 -0.9303 -1.6155 16.4085 -4.7819 -6.2230 16.8764 4.1661 -1.4787 -3.7234 -3.4473 -1.0011 -5.7861 -3.8707 -0.1834 -0.1243 0.1017 0.6020 -10.9670 -3.7861 -0.9906 -10.9812 4.0537 14.2501 6.5775 -2.9650 -19.3022 -2.4518 -12.4780 -2.2827 2.9011 -135.7669 -4.9235 -48.1934 -0.0624 -16.2462 9.4887 14.8991 -58.7445 2.0308 2.4489 3.4378 16.6178 2.0239 13.3188 -2.9520 -36.6684 8.7177 2.5288 141.3540 -24.0848 -5.3933 23.6973 14.7053 7.0359 -17.0482 49.3687 -3.4011 -5.9734 6.0310 -33.7873 23.3233 -0.9873 50.5682 -1.2242 -7.9973 -15.8127 -12.2626 1.6125 -1.1347 -2.1032 -17.5380 -36.9988 -22.2128 0.8128 51.7097 0.9702 13.9150 -16.6316 -3.2401 -1.4599 0.3151 0.7043
3.1453 87.8108 4.8156 4.3878 2.2315 -1.4547 -1.9969 20.4631 -1.8879 -1.0040 1.9612 -0.9685 -1.1961 18.4086 -4.8960 -6.4428 15.4761 3.7385 -1.6704 -3.7328 -3.8877 -0.5398 -6.4782 -5.2048 -0.2210 -0.1480 0.1000 0.5738 -10.9330 -3.7734 -1.0358 -10.9608 4.0472 11.7565 6.8670 -4.0983 -24.9009 -2.8343 -20.9429 -1.3495 2.8010 -127.6066 -5.9332 -41.7759 5.4274 -16.7135 9.8692 15.5023 -59.7446 1.9449 2.4452 6.2689 16.1455 5.5251 23.9383 1.9499 -30.8401 6.7467 4.4301 131.7920 -25.1111 -6.4436 24.0411 14.4414 6.8627 -16.5145 48.4710 -3.8333 -5.7833 3.4319 -39.1775 25.4195 -1.2742 55.2435 -1.4918 -6.6818 -16.0475 -14.0761 1.6299 -1.0203 -2.1324 -18.2492 -42.2229 -21.2656 0.9990 56.5300 1.2041 13.9503 -17.6831 -4.3057 -1.4798 0.3788 0.7342
3.1335 85.7859 3.4035 4.7294 3.4225 -0.3378 -1.6027 22.0033 -2.0524 -0.9488 2.7750 -1.0633 -0.8162 20.5744 -4.9229 -6.3810 14.4403 3.3759 -1.6638 -3.6882 -4.1780 -0.2314 -6.5324 -6.0891 -0.2348 -0.1382 0.0794 0.5761 -10.8429 -3.7775 -1.0631 -10.8889 4.0131 9.0102 7.3342 -6.4720 -30.0859 -6.1694 -31.5672 0.6340 1.6366 -114.0514 -3.3007 -33.8851 7.4118 -16.8379 10.3665 15.9926 -60.3256 1.7956 2.3480 7.5863 14.5297 9.6425 35.5166 2.1726 -17.7071 1.3858 3.6802 118.3067 -26.6513 -15.6708 25.4745 14.4034 6.3535 -15.3985 47.7275 -4.2621 -5.1106 1.1541 -44.0460 27.9793 -1.6439 59.9093 -1.8285 -5.4272 -16.4418 -15.8178 1.6361 -0.8070 -2.0992 -18.9643 -46.7774 -20.1038 1.2536 61.2122 1.5641 13.9611 -18.7319 -5.1814 -1.4987 0.3416 0.8080
3.0830 83.4961 2.3381 4.8061 4.0822 0.0922 -1.2891 23.1647 -2.0421 -0.8193 3.6438 -1.2513 -0.4860 22.7610 -4.8365 -6.2303 13.8320 3.0222 -1.8105 -3.6423 -4.2864 -0.0873 -5.6919 -6.1668 -0.2112 -0.1099 0.0570 0.6231 -10.7121 -3.7880 -1.0579 -10.7933 3.9682 6.3288 7.6884 -10.2799 -34.2825 -13.8019 -40.1727 1.6831 0.6906 -94.8314 1.4059 -27.8595 6.3568 -16.6596 10.8555 16.3839 -60.3942 1.7102 2.2934 7.6112 12.3088 13.5755 43.7914 -7.3970 -3.1522 -2.2599 1.5054 100.2581 -28.7029 -31.4423 28.4642 15.4525 6.2773 -15.1218 48.4681 -4.1138 -4.8573 -0.5019 -48.2457 30.7288 -2.0129 64.7354 -2.1440 -4.4020 -17.4301 -17.3289 1.6325 -0.4183 -2.0341 -19.9252 -50.6066 -18.3175 1.6058 65.9248 1.9953 13.9649 -19.7670 -5.8680 -1.5081 0.3200 0.8451
3.0205 80.9336 1.4995 4.8652 4.0800 -0.4502 -1.1196 24.1088 -1.7918 -0.6312 4.5194 -1.5168 -0.3777 24.8996 -4.6302 -6.1435 13.7352 2.7838 -2.0776 -3.6409 -4.2528 -0.1343 -4.3864 -5.6431 -0.1199 -0.0949 0.0431 0.7097 -10.5253 -3.7689 -0.9556 -10.6442 3.8873 4.4652 7.6447 -14.6276 -38.4449 -25.8475 -43.8948 0.4609 0.2771 -70.5415 7.6191 -25.6290 2.7616 -16.0555 10.8858 16.7702 -59.7333 1.8174 2.4198 6.6952 10.2580 17.1120 46.7903 -22.6009 9.3772 -2.8000 -0.5407 77.0366 -27.4799 -47.5856 29.7185 15.9855 6.8294 -15.7248 49.4509 -3.7816 -4.9863 -1.4329 -51.6487 33.7902 -2.4871 69.8729 -2.5766 -3.8188 -18.9577 -18.6251 1.6290 -0.0467 -2.0573 -21.7555 -53.8752 -15.2626 2.0301 71.0162 2.4129 13.9107 -21.1246 -6.1819 -1.4982 0.4611 0.8192
2.9769 78.2589 0.7805 4.9865 3.5041 -1.4642 -1.0103 25.1577 -1.4947 -0.4223 5.3589 -1.7621 -0.4238 26.7912 -4.3018 -6.2235 13.9599 2.7266 -1.8369 -3.7235 -4.1037 -0.2210 -2.9960 -4.9243 -0.0829 -0.1061 0.0811 0.7061 -10.4220 -3.6903 -0.8722 -10.5525 3.8725 4.5815 7.7217 -17.7270 -42.3946 -38.5450 -44.4439 0.1542 0.2835 -44.6942 10.4504 -26.6061 -0.6518 -16.0711 10.5007 16.6031 -60.0492 1.7728 2.2585 4.7001 8.8380 20.1165 44.7730 -35.3460 21.4299 -1.9387 -0.3148 52.9915 -15.1486 -56.4971 21.2825 15.9992 7.1422 -15.6999 50.1861 -3.5489 -4.7241 -1.6744 -54.5222 36.6957 -3.1555 75.1889 -3.1835 -3.2529 -20.5471 -19.8206 1.6254 0.1802 -2.0268 -24.3486 -56.6440 -11.4853 2.9792 76.3008 3.3439 14.0059 -22.6493 -6.3334 -1.4716 0.8216 0.8685
2.8807 76.0109 0.2377 4.9418 2.9939 -2.1697 -0.8070 26.0035 -1.2871 -0.3373 6.0241 -1.8447 -0.0566 28.3174 -3.9259 -6.2613 14.1620 2.4644 -1.1625 -3.7880 -3.7014 -0.1852 -1.7226 -4.0910 -0.1228 -0.1291 0.1023 0.6434 -10.4255 -3.6392 -0.8806 -10.5257 3.8805 6.2649 7.7696 -19.5669 -42.0045 -45.9493 -48.3504 1.5361 0.1006 -21.6421 4.3881 -27.9550 1.8141 -16.9933 10.5796 15.9460 -61.7988 1.4355 1.9078 1.9452 8.4665 22.0118 37.5400 -39.7613 36.2814 -1.1125 0.3409 34.9522 4.3140 -52.9673 8.1653 15.8867 7.1704 -15.8860 50.9409 -3.4890 -4.6543 -1.4772 -57.0894 38.3895 -3.9089 79.6230 -3.8204 -2.2964 -21.6191 -20.8069 1.6250 0.2409 -1.8727 -26.1802 -58.9489 -9.0353 4.8690 80.7055 5.2488 14.3117 -23.7640 -6.3321 -1.4564 1.1089 0.9828
2.7776 74.2947 -0.1020 4.4636 2.8476 -2.4110 -0.5817 26.5036 -1.2388 -0.1997 6.4694 -1.8631 0.7386 29.5671 -3.4034 -5.5487 14.4594 1.9634 -0.8409 -3.8987 -3.1570 -0.0976 -0.5873 -3.4499 -0.1407 -0.1509 0.0925 0.5943 -10.3878 -3.6171 -0.8603 -10.4540 3.8477 7.4923 7.5939 -20.6613 -40.6445 -47.6056 -51.7812 0.6138 -0.0577 -11.1956 -3.8458 -28.8100 4.1877 -16.7696 11.1541 15.9507 -61.7595 1.3786 1.9166 -0.3539 8.5669 22.9933 30.7517 -39.6644 48.7183 0.4739 0.3995 23.7609 15.6602 -45.7214 3.2332 15.4641 7.1982 -16.2722 50.1419 -3.4611 -4.6219 -0.7422 -59.6289 38.7973 -4.7419 82.8777 -4.5962 -1.6493 -22.1063 -21.3631 1.6197 0.2669 -1.7846 -26.3039 -60.9171 -8.7875 7.0586 83.9304 7.4047 14.5635 -24.6595 -6.3725 -1.4615 1.3853 1.0115
2.6537 73.1507 -0.2054 3.7365 2.8753 -2.3944 -0.4104 26.8518 -1.2833 -0.0356 6.5450 -1.8029 1.3824 30.3541 -2.8825 -3.9825 15.1448 1.3882 -0.7046 -3.9118 -2.5689 -0.0809 0.1531 -2.8659 -0.1380 -0.1693 0.0630 0.5683 -10.4311 -3.6459 -0.8279 -10.4990 3.8176 7.9327 7.5590 -20.6416 -42.9167 -47.6740 -50.6805 0.0923 -0.0235 -11.7959 -7.3745 -33.7925 0.3450 -16.2609 11.4127 16.4723 -61.3622 1.5233 1.8667 -1.1995 8.8389 23.0439 31.6639 -43.3460 50.7381 0.1523 0.5384 19.3825 17.2754 -43.2237 2.7821 15.2318 7.7151 -16.0976 50.8839 -3.0777 -4.4796 0.5523 -61.8234 38.1040 -6.8887 84.9761 -6.8147 -1.4429 -22.3241 -21.4794 1.6187 0.2929 -1.7508 -25.1465 -62.2184 -10.0606 8.9691 86.1041 9.2524 14.5410 -25.4608 -6.2422 -1.4699 1.4350 0.9290
2.5602 72.5199 -0.2316 3.1028 2.7696 -2.1661 -0.2572 27.0959 -1.2896 0.0617 6.4998 -1.7175 1.8701 30.7373 -2.5168 -2.4721 15.8055 0.9830 -0.6163 -3.8906 -2.0753 0.0680 0.5980 -2.4067 -0.1259 -0.1793 0.0366 0.5890 -10.5034 -3.6969 -0.8258 -10.5966 3.8124 8.2628 7.8500 -20.2539 -45.9156 -48.2716 -48.2239 0.2796 -0.0156 -13.7772 -8.0711 -37.4172 -2.9850 -15.9708 11.1908 16.5233 -60.8568 1.5228 1.8815 -1.0228 9.1397 22.6969 37.9608 -49.1201 45.3587 -1.5211 0.6418 19.4242 15.2047 -45.6089 3.6900 15.3410 8.0753 -15.6736 52.0314 -2.8358 -4.3223 2.2019 -63.1505 36.4672 -9.2645 86.1186 -9.2706 -1.4270 -22.6022 -21.2680 1.6132 0.3615 -1.7164 -23.6314 -62.6965 -11.9667 9.6664 87.3593 9.9139 14.4155 -26.0744 -6.0090 -1.4738 1.2130 0.8954
2.4363 72.1692 -0.2681 2.6258 2.5981 -1.8718 -0.1604 27.1758 -1.2402 0.0958 6.4418 -1.6134 2.2924 30.9997 -2.1884 -1.2298 16.2057 0.7798 -0.5211 -3.8629 -1.7784 0.3705 0.8053 -2.1036 -0.1176 -0.1900 0.0245 0.6154 -10.5765 -3.7415 -0.8364 -10.6808 3.8290 8.6949 8.3483 -19.8171 -48.7862 -49.4899 -45.4097 0.5222 -0.0619 -14.6405 -8.3001 -39.5385 -4.6844 -15.8900 10.8635 16.2699 -60.7533 1.4723 1.7271 -0.5519 9.3771 22.3944 47.8635 -54.2477 35.2213 -2.4981 0.5577 22.5823 9.7812 -53.3752 7.9652 16.1028 7.8565 -15.2295 52.3795 -2.7387 -4.2015 3.9359 -63.8414 34.4417 -11.7392 86.5688 -11.7965 -1.6514 -22.7860 -20.9286 1.6184 0.3821 -1.7007 -22.1777 -62.6604 -13.8968 10.5110 88.0161 10.7274 14.2780 -26.6506 -5.7297 -1.4679 1.0730 0.8971
2.3283 72.1146 -0.2849 2.2665 2.3521 -1.6752 -0.1867 27.1440 -1.2017 0.1052 6.3671 -1.5293 2.5381 31.2147 -1.9430 -0.2488 16.3728 0.7192 -0.5929 -3.8670 -1.5608 0.8631 0.8161 -1.9564 -0.1263 -0.1899 0.0235 0.6230 -10.6031 -3.7615 -0.8630 -10.6888 3.8459 9.0605 8.8231 -19.5823 -51.0539 -50.5913 -42.6931 0.6958 -0.0983 -14.6602 -8.5803 -41.2161 -5.3980 -16.0602 10.6284 16.0030 -61.1369 1.4756 1.5475 -0.1205 9.5188 22.3044 55.4757 -56.7152 27.2110 -2.6259 0.3601 26.5231 3.0576 -60.0328 14.4501 17.1675 7.2406 -15.2424 51.5541 -2.7513 -4.1844 5.5664 -63.9276 32.5038 -12.2102 86.4951 -12.2777 -1.9489 -22.8925 -20.5903 1.6238 0.4201 -1.6981 -20.9495 -62.2363 -15.4672 10.0155 88.1067 10.1853 14.0836 -27.0429 -5.4557 -1.4593 1.0343 0.9440
2.2418 72.3286 -0.3538 1.9115 2.0855 -1.6573 -0.2642 27.0134 -1.1400 0.1271 6.2949 -1.4982 2.5691 31.3317 -1.8372 0.4537 16.4055 0.6873 -0.7314 -3.8880 -1.3391 1.3161 0.7265 -1.8300 -0.1202 -0.1847 0.0233 0.6441 -10.6042 -3.7689 -0.8720 -10.6705 3.8475 9.2283 9.0919 -19.6424 -52.8647 -51.3615 -40.0768 0.9034 -0.1096 -14.6167 -8.6391 -42.5219 -5.8998 -16.1728 10.4558 15.8241 -61.3953 1.4707 1.5114 0.0461 9.6547 22.3550 59.2761 -58.0198 23.3258 -2.5755 0.1887 29.1247 -2.1847 -63.3185 19.2532 17.7217 6.8715 -15.3581 50.8555 -2.7503 -4.1701 7.1106 -63.6026 30.8020 -10.7245 85.9848 -10.7893 -2.2801 -22.8885 -20.2927 1.6277 0.5633 -1.7053 -19.6736 -61.5584 -16.8622 7.3691 87.6855 7.4929 13.7542 -27.1613 -5.1404 -1.4524 0.9914 1.0025
2.1596 72.6897 -0.4072 1.5387 1.8211 -1.8032 -0.3496 26.8477 -1.0916 0.1046 6.2130 -1.4631 2.4812 31.4172 -1.8390 0.9098 16.4554 0.6880 -0.7851 -3.9033 -1.1706 1.6275 0.5734 -1.6044 -0.0986 -0.1816 0.0214 0.6715 -10.6117 -3.7780 -0.8551 -10.6645 3.8432 9.3194 9.3015 -19.8131 -54.3150 -52.1625 -37.6991 1.1431 -0.1219 -14.5978 -8.5873 -43.4947 -6.2796 -16.2324 10.3672 15.7506 -61.4727 1.4476 1.5135 -0.0555 9.8056 22.4147 60.8063 -59.0948 22.0176 -2.5160 0.0620 30.2024 -5.9019 -65.6287 22.1657 17.9418 6.7854 -15.4086 50.5891 -2.7020 -4.1750 8.5481 -63.1081 29.4011 -8.9270 85.2539 -9.0005 -2.6530 -22.7965 -19.9847 1.6304 0.7854 -1.7064 -18.2983 -60.7864 -18.2268 4.7701 86.9241 4.8526 13.4007 -27.0782 -4.7779 -1.4462 0.9284 1.0340
2.0869 73.1845 -0.4083 1.1692 1.4976 -2.0578 -0.4399 26.6438 -1.0380 0.0390 6.1239 -1.4602 2.2729 31.4611 -1.9117 1.2642 16.5699 0.7361 -0.7934 -3.9101 -1.0275 1.8728 0.3662 -1.3317 -0.1078 -0.1775 0.0266 0.6581 -10.6096 -3.7701 -0.8611 -10.6514 3.8494 9.4159 9.5008 -20.0702 -55.4702 -52.9832 -35.5776 1.3952 -0.1234 -14.4589 -8.6564 -44.2833 -6.3711 -16.2492 10.3147 15.6857 -61.3846 1.4372 1.5127 -0.2893 9.9830 22.4765 61.4261 -60.1693 21.7578 -2.2350 -0.0234 30.2128 -10.1181 -68.3333 25.1718 17.9509 6.8333 -15.3916 50.5304 -2.6126 -4.1462 9.8342 -62.3741 28.3192 -7.2483 84.2921 -7.3358 -3.0218 -22.5872 -19.7520 1.6308 0.9747 -1.7285 -16.9664 -59.7990 -19.5319 3.0452 85.8376 3.0943 13.0881 -26.8563 -4.3025 -1.4434 0.8547 1.0490
2.0421 73.7956 -0.4125 0.8164 1.0906 -2.3189 -0.5303 26.3770 -1.0297 -0.0872 6.0458 -1.4370 2.0055 31.5067 -2.0196 1.5872 16.7577 0.8048 -0.7746 -3.9100 -0.8890 2.1283 0.1198 -1.0385 -0.1368 -0.1767 0.0361 0.6183 -10.5933 -3.7489 -0.8814 -10.6258 3.8588 9.5710 9.7230 -20.4294 -55.9706 -53.6779 -34.1046 1.5988 -0.1172 -14.1216 -8.9435 -44.9607 -6.1953 -16.2495 10.2981 15.6180 -61.2032 1.4703 1.4922 -0.5358 10.1605 22.4322 61.2166 -61.1984 22.4937 -1.7438 -0.0991 29.4822 -16.1636 -71.5252 29.4189 17.8316 6.9830 -15.2678 50.6642 -2.4924 -4.0723 11.0111 -61.4603 27.4808 -5.8452 83.1520 -5.9466 -3.3732 -22.2649 -19.6732 1.6312 1.0249 -1.7463 -15.7684 -58.6000 -20.7643 2.1433 84.5022 2.1689 12.8308 -26.5192 -3.7962 -1.4381 0.7664 1.0484
2.0010 74.4537 -0.4140 0.5015 0.6185 -2.5574 -0.6283 26.0617 -1.0190 -0.2250 5.9300 -1.4267 1.6903 31.5520 -2.1728 1.9253 17.0289 0.9283 -0.7294 -3.9127 -0.7259 2.3922 -0.0899 -0.7836 -0.1665 -0.1767 0.0453 0.5863 -10.5874 -3.7338 -0.9102 -10.6144 3.8737 9.7791 9.9324 -20.8219 -55.9091 -54.1667 -33.2331 1.7139 -0.1073 -13.7197 -9.3997 -45.5776 -5.7730 -16.2924 10.2997 15.5913 -61.0490 1.4955 1.4964 -0.8297 10.3877 22.2235 59.3225 -61.9500 25.0569 -0.9749 -0.1814 28.2201 -25.2496 -75.2144 36.3852 17.5996 7.2415 -15.0226 50.9709 -2.3696 -3.9693 11.9852 -60.4575 26.9633 -4.8111 81.9664 -4.9238 -3.6648 -21.8346 -19.7890 1.6294 0.9782 -1.7441 -14.7761 -57.3027 -21.8177 1.6982 83.0998 1.7154 12.6188 -26.1061 -3.3120 -1.4305 0.6868 1.0326
1.9386 75.1502 -0.3753 0.2523 0.0552 -2.7506 -0.7381 25.6732 -1.0233 -0.3644 5.7622 -1.4194 1.3175 31.5478 -2.3820 2.3046 17.3424 1.1370 -0.6505 -3.9089 -0.5260 2.6671 -0.2901 -0.5817 -0.1882 -0.1790 0.0529 0.5593 -10.6139 -3.7325 -0.9281 -10.6355 3.8969 9.9800 10.1002 -21.1839 -55.5852 -54.3348 -32.6278 1.6901 -0.1065 -13.4115 -9.8665 -46.3925 -5.3501 -16.3980 10.3562 15.6144 -61.0125 1.4715 1.4854 -1.0769 10.5733 21.9076 54.7866 -61.7266 30.3415 0.2432 -0.2268 26.7143 -42.8025 -79.4809 51.6335 17.2431 7.6267 -14.5727 51.4088 -2.2754 -3.7865 12.7663 -59.2805 26.7842 -4.1086 80.6685 -4.2401 -3.9139 -21.3363 -20.1263 1.6285 0.8733 -1.7117 -14.0773 -55.8561 -22.6400 1.4601 81.6364 1.4755 12.4436 -25.7000 -2.9169 -1.4235 0.7330 1.0262
1.9327 75.8409 -0.3206 0.0696 -0.5212 -2.9278 -0.8643 25.1828 -1.0175 -0.4984 5.5713 -1.4189 0.9229 31.4925 -2.6267 2.7231 17.6214 1.3191 -0.5555 -3.9058 -0.2513 2.9206 -0.4661 -0.4212 -0.1991 -0.1788 0.0594 0.5445 -10.6582 -3.7378 -0.9355 -10.6691 3.9194 10.2443 10.2625 -21.5204 -54.9858 -54.3138 -32.2947 1.5757 -0.1539 -13.1719 -10.3398 -47.4869 -4.8721 -16.4880 10.4599 15.7201 -61.0854 1.4385 1.5212 -1.2701 10.8093 21.4155 46.6190 -59.8146 39.3338 2.0456 -0.2186 25.3430 -95.5865 -82.3643 101.1452 16.1866 8.2472 -13.4102 51.8311 -2.1330 -3.3965 13.3290 -58.0659 26.9156 -3.5665 79.3670 -3.7071 -4.1253 -20.7358 -20.6149 1.6313 0.7470 -1.6542 -13.6240 -54.4180 -23.2559 1.3693 80.2076 1.3812 12.2228 -25.3144 -2.5681 -1.4180 0.8683 1.0143
1.9722 76.5058 -0.2600 -0.0434 -1.0824 -3.0734 -1.0382 24.5862 -0.9954 -0.6225 5.3104 -1.4496 0.5051 31.3898 -2.9502 3.2037 17.9035 1.4261 -0.3735 -3.8907 0.0906 3.0135 -0.6243 -0.2224 -0.1866 -0.1640 0.0612 0.5485 -10.6802 -3.7380 -0.9113 -10.6861 3.9179 10.6296 10.3822 -21.8643 -54.2554 -54.1650 -32.0841 1.5460 -0.2072 -12.8105 -11.0529 -48.6801 -3.9694 -16.6318 10.5779 15.9290 -61.1722 1.4309 1.6686 -1.4493 11.0422 20.6418 33.9658 -53.2141 53.1799 3.6772 0.0347 25.6117 -162.5167 -70.5562 160.5975 11.4603 9.5171 -9.0086 49.3590 -1.6486 -2.0670 13.6450 -56.8226 27.3660 -3.0988 78.0564 -3.2219 -4.2843 -20.1642 -21.1341 1.6314 0.7288 -1.6145 -13.4211 -53.0942 -23.6753 1.2529 78.8753 1.2628 11.8737 -25.0083 -2.1314 -1.4194 0.9882 0.9677
2.0639 77.1670 -0.1956 -0.1457 -1.6355 -2.9508 -1.2237 23.8831 -1.0408 -0.7623 5.0095 -1.5277 0.1714 31.1430 -3.3222 3.9750 18.0877 1.4373 -0.2087 -3.8705 0.4972 2.9799 -0.8910 -0.0033 -0.2062 -0.1466 0.0745 0.5243 -10.5769 -3.6657 -0.9249 -10.5835 3.8801 11.0642 10.2559 -22.4330 -54.1318 -53.9150 -31.2159 1.6131 -0.1769 -12.1947 -12.1742 -49.5450 -2.0838 -16.8260 10.4745 16.0032 -60.9323 1.4327 2.0593 -1.1653 11.1725 19.2443 19.8577 -34.4522 68.8374 0.4281 0.6017 30.7232 22.5790 66.1741 7.0418 6.9719 13.3805 -6.7370 35.9730 -1.4995 -2.7346 13.8743 -55.5664 27.7599 -2.5378 76.6793 -2.5941 -4.3882 -19.5731 -21.7419 1.6183 0.9128 -1.5720 -13.3890 -51.8106 -24.1804 1.0257 77.5432 1.0602 11.4693 -24.6062 -1.8775 -1.4194 1.0436 0.9738
2.1195 77.7580 -0.1449 -0.2345 -2.2365 -2.8767 -1.3335 23.1818 -0.9817 -0.8642 4.6245 -1.6408 -0.1872 30.8562 -3.6996 4.7515 18.4235 1.4888 0.0458 -3.8552 0.7417 2.7341 -1.5192 0.2747 -0.1861 -0.1430 0.0758 0.5482 -10.5472 -3.6507 -0.9072 -10.5545 3.8603 11.3403 10.6551 -23.0351 -52.9660 -53.8265 -31.3015 1.5981 -0.1657 -11.2654 -13.1689 -51.1493 -0.1313 -16.8687 10.3866 15.9874 -60.7475 1.3829 2.1292 -0.8931 11.5751 17.6755 15.0338 -22.4430 74.2331 -0.5746 0.9056 34.6088 26.2194 43.2935 5.1788 14.1682 9.5843 -14.3841 51.7514 -2.4433 -4.9981 14.2500 -54.3224 27.8741 -2.2621 75.4672 -2.2981 -4.6703 -19.1736 -22.1494 1.6078 1.0296 -1.5443 -13.3946 -50.4820 -24.6200 0.9090 76.2899 0.9364 11.2037 -24.2889 -1.7957 -1.4256 1.0114 0.9571
2.1395 78.3045 -0.0538 -0.2485 -2.9747 -2.7816 -1.4202 22.5303 -0.9304 -0.9509 4.2547 -1.7711 -0.5962 30.5561 -4.1124 5.3319 18.8713 1.5091 0.2275 -3.8437 0.9741 2.5700 -2.2273 0.5556 -0.1690 -0.1380 0.0783 0.5699 -10.5887 -3.6667 -0.8943 -10.6008 3.8746 11.3184 11.1115 -23.6626 -51.6834 -53.7615 -31.3781 1.4212 -0.1756 -10.3996 -14.3905 -53.0620 2.1190 -16.8633 10.3229 15.9140 -60.5798 1.3386 2.1312 -0.9021 12.0115 16.1768 13.2613 -16.4683 76.6754 0.0737 1.1665 38.0683 27.9178 36.7900 5.9881 15.1766 8.4320 -16.1631 51.9168 -2.7312 -5.6420 14.6339 -52.9162 27.8782 -2.1223 74.3277 -2.1705 -5.0191 -18.8462 -22.4733 1.6103 0.9628 -1.5342 -13.6595 -49.0297 -24.8296 0.8020 75.1024 0.8164 11.0204 -24.0558 -1.7282 -1.4350 0.9331 0.9502
2.1355 78.8469 0.0557 -0.1963 -3.8092 -2.6002 -1.5147 21.8911 -0.9305 -1.0309 3.9127 -1.8800 -1.0284 30.2582 -4.5867 5.7370 19.3437 1.5615 0.3708 -3.8185 1.1718 2.4970 -2.9882 0.8646 -0.1646 -0.1273 0.0848 0.5753 -10.6227 -3.6723 -0.8909 -10.6364 3.8911 11.0840 11.4533 -24.3155 -50.8942 -53.7952 -30.9022 1.1816 -0.1926 -9.9717 -16.0518 -54.8615 4.7997 -16.8208 10.2681 15.8360 -60.4268 1.3353 2.1008 -1.0228 12.3583 14.6988 12.5240 -12.7349 78.2832 0.4171 1.4964 41.5808 28.6022 33.8136 6.1728 15.3597 7.9335 -16.7945 51.6588 -2.8175 -5.8942 15.0024 -51.3638 27.7931 -2.0314 73.1551 -2.0948 -5.4195 -18.5765 -22.7686 1.6158 0.8972 -1.5226 -14.1843 -47.4658 -24.8040 0.6974 73.9555 0.6961 10.8416 -23.8903 -1.7332 -1.4435 0.8429 0.9531
2.0896 79.4039 0.1757 -0.0748 -4.6864 -2.3065 -1.6083 21.2449 -0.9420 -1.0917 3.5944 -2.0208 -1.5168 29.9860 -5.0901 6.0024 19.7909 1.6166 0.4522 -3.7894 1.3920 2.4908 -3.8304 1.1531 -0.1612 -0.1137 0.0901 0.5719 -10.6338 -3.6752 -0.8811 -10.6471 3.9045 10.6589 11.7070 -24.9518 -50.6002 -53.9754 -29.9346 0.9361 -0.2262 -10.2147 -18.1930 -56.7267 7.8210 -16.8091 10.2428 15.8569 -60.3390 1.3582 2.1062 -1.2451 12.6251 13.3063 12.0731 -9.9172 79.5125 0.3759 1.8210 44.8998 29.0983 32.2401 5.9694 15.3931 7.7492 -17.0726 51.4620 -2.8356 -5.9568 15.2871 -49.6799 27.6255 -1.9305 71.8597 -2.0025 -5.8619 -18.2412 -23.0371 1.6173 0.8390 -1.5199 -14.8442 -45.8339 -24.5893 0.6010 72.8067 0.5892 10.7051 -23.6775 -1.9342 -1.4492 0.7650 0.9579
1.9904 79.9756 0.2521 0.1229 -5.5906 -1.9853 -1.6989 20.6021 -0.9404 -1.1265 3.2928 -2.1865 -2.0593 29.7476 -5.5325 6.1787 20.1402 1.6904 0.4741 -3.7612 1.5828 2.4987 -4.7786 1.3797 -0.1514 -0.1039 0.0914 0.5729 -10.6343 -3.6809 -0.8645 -10.6489 3.9118 10.2134 11.8976 -25.5138 -50.8575 -54.2701 -28.6113 0.6890 -0.2763 -11.2266 -20.5858 -58.7349 10.8154 -16.8693 10.2246 16.0183 -60.3382 1.3600 2.1507 -1.6112 12.8410 11.9990 11.4725 -7.1184 80.5015 -0.0281 2.1980 48.0424 29.5678 30.6913 5.5908 15.3733 7.7568 -17.2441 51.3351 -2.8417 -5.9557 15.4848 -47.8795 27.4324 -1.7690 70.4353 -1.8570 -6.3455 -17.8985 -23.2314 1.6150 0.7597 -1.5225 -15.5920 -44.1797 -24.2430 0.5626 71.6644 0.5493 10.6385 -23.4208 -2.2315 -1.4498 0.6799 0.9710
1.8391 80.5735 0.3056 0.3735 -6.4609 -1.6848 -1.7644 19.9611 -0.9234 -1.1374 2.9954 -2.2954 -2.5635 29.5575 -5.8946 6.1366 20.3546 1.7879 0.4496 -3.7360 1.6831 2.5789 -5.6905 1.4706 -0.1453 -0.1006 0.0926 0.5676 -10.6373 -3.6843 -0.8476 -10.6507 3.9161 9.7258 12.0262 -25.8507 -51.3590 -54.4342 -27.4142 0.4044 -0.3297 -13.2068 -22.8636 -60.7559 13.3308 -16.9280 10.1802 16.2367 -60.3079 1.3481 2.2118 -2.1295 13.0886 10.9303 10.5160 -4.5850 80.9284 -0.6103 2.5572 51.0405 29.9906 28.6436 5.2498 15.3613 7.8221 -17.3427 51.3159 -2.8576 -5.9410 15.5481 -46.0619 27.3955 -1.6193 68.9004 -1.7326 -6.8002 -17.5093 -23.4873 1.6097 0.6362 -1.5303 -16.2944 -42.5963 -23.9036 0.5765 70.4977 0.5649 10.6362 -23.0716 -2.4981 -1.4419 0.5878 0.9788
1.6965 81.1772 0.3468 0.6752 -7.2676 -1.4747 -1.7801 19.3295 -0.8654 -1.1237 2.6933 -2.3365 -2.9744 29.2940 -6.1215 5.9470 20.5195 1.8786 0.3910 -3.7024 1.7123 2.6507 -6.5637 1.4262 -0.1381 -0.0987 0.0929 0.5646 -10.6334 -3.6903 -0.8304 -10.6431 3.9208 9.2295 12.0823 -25.9668 -52.0119 -54.0404 -26.5673 0.0845 -0.3646 -16.3028 -24.6541 -63.0395 15.1411 -16.9195 10.1267 16.3516 -60.1644 1.3261 2.2465 -2.7618 13.2915 10.2211 9.4993 -2.5848 80.4763 -1.2790 2.9499 53.9386 30.1829 26.0728 4.8639 15.4211 7.9474 -17.4248 51.4005 -2.8549 -5.9139 15.5078 -44.1931 27.4560 -1.4542 67.2270 -1.5909 -7.2387 -17.0932 -23.6792 1.6095 0.5060 -1.5326 -16.9585 -41.0589 -23.5877 0.6190 69.2281 0.6101 10.7061 -22.6442 -2.6684 -1.4349 0.4972 0.9938
1.5771 81.7588 0.3631 0.9874 -7.9978 -1.3173 -1.7276 18.7700 -0.7682 -1.0719 2.3863 -2.3246 -3.2368 29.0002 -6.2029 5.6301 20.6840 1.9381 0.3218 -3.6763 1.6757 2.6522 -7.4139 1.2660 -0.1329 -0.0960 0.0946 0.5620 -10.6426 -3.6990 -0.8176 -10.6556 3.9324 8.8148 12.0908 -25.8170 -52.7415 -53.1687 -26.2067 -0.2287 -0.3726 -20.2407 -25.8696 -65.6049 16.4482 -16.8791 10.1100 16.3127 -60.0424 1.3075 2.2611 -3.4525 13.4632 9.8809 8.3616 -1.2414 79.0643 -1.8414 3.2219 56.8068 30.0336 23.0389 4.3552 15.4950 8.0835 -17.4661 51.5949 -2.8616 -5.8950 15.4155 -42.4021 27.4517 -1.3101 65.6173 -1.4558 -7.5981 -16.7088 -23.7183 1.6085 0.3630 -1.5347 -17.5885 -39.6629 -23.3020 0.6321 68.0371 0.6036 10.8196 -22.2542 -2.7301 -1.4286 0.3980 1.0080
1.4276 82.3027 0.3853 1.2994 -8.6850 -1.1724 -1.6241 18.2174 -0.7030 -0.9964 2.1015 -2.2145 -3.3173 28.6373 -6.1376 5.1683 20.8046 1.9949 0.2655 -3.6570 1.5038 2.6359 -8.2627 1.0142 -0.1264 -0.0966 0.0960 0.5582 -10.6470 -3.7102 -0.8018 -10.6646 3.9449 8.4113 12.0138 -25.4235 -53.6781 -51.8403 -26.1204 -0.6156 -0.3788 -24.7198 -25.9296 -68.0432 16.9394 -16.7266 10.1088 16.0937 -59.8284 1.2958 2.2336 -4.0642 13.5828 9.9296 7.2984 -0.4182 76.7665 -2.2741 3.4147 59.5443 29.6915 19.5775 3.9061 15.5510 8.1705 -17.4624 51.7282 -2.8484 -5.8963 15.3181 -40.6195 27.3295 -1.1801 64.0330 -1.3246 -7.8687 -16.3368 -23.6025 1.6126 0.1881 -1.5242 -18.1921 -38.3456 -23.1723 0.6661 66.8471 0.6237 10.8528 -21.8676 -2.5881 -1.4256 0.3306 1.0028
1.2834 82.7615 0.4217 1.6075 -9.3127 -1.0949 -1.4559 17.6898 -0.6400 -0.8771 1.8241 -2.0717 -3.2621 28.2411 -5.9273 4.5995 20.8927 2.1034 0.1534 -3.6335 1.2332 2.6106 -9.1437 0.6114 -0.1269 -0.0934 0.1040 0.5501 -10.6557 -3.7133 -0.7950 -10.6723 3.9647 8.0554 11.9227 -24.7150 -54.9036 -50.1738 -26.1691 -1.0514 -0.4045 -29.7788 -24.5071 -69.8503 16.2353 -16.5212 10.1170 15.8459 -59.5700 1.2682 2.2273 -4.5582 13.7487 10.2952 6.2047 0.0442 73.7099 -2.3579 3.4724 62.2053 28.9917 15.6471 3.6036 15.6272 8.2020 -17.4292 51.8307 -2.8723 -5.8698 15.2502 -38.9528 27.0807 -1.0776 62.6195 -1.2149 -8.0502 -16.0662 -23.3560 1.6140 0.0737 -1.5191 -18.7526 -37.2209 -23.1939 0.6885 65.8199 0.6437 10.8083 -21.5321 -2.2095 -1.4263 0.3209 1.0068
1.1163 83.1713 0.4683 1.9527 -9.9291 -1.0844 -1.2333 17.1601 -0.5668 -0.7247 1.5415 -1.8887 -3.1046 27.8388 -5.5808 3.9479 21.0312 2.2542 0.0241 -3.6059 0.8449 2.4980 -10.1775 0.1387 -0.1193 -0.0890 0.1058 0.5472 -10.6373 -3.7175 -0.7782 -10.6534 3.9707 7.7455 11.8182 -23.6368 -56.4805 -47.8640 -26.3303 -1.4691 -0.4958 -35.9853 -22.1462 -71.2783 14.7840 -16.3194 10.2000 15.6152 -59.4123 1.2440 2.1615 -4.8399 13.9970 10.8832 4.9347 0.7118 70.0186 -2.3480 3.4853 64.8204 27.8845 11.0737 3.6921 15.6575 8.2049 -17.3874 51.8046 -2.9099 -5.8288 15.1726 -37.2757 26.8100 -0.9777 61.2740 -1.0985 -8.1614 -15.8343 -22.9348 1.6213 -0.0064 -1.5201 -19.3720 -36.2435 -23.2806 0.7290 64.8982 0.6895 10.7324 -21.2263 -1.6860 -1.4296 0.3859 1.0074
0.9062 83.5255 0.5191 2.3382 -10.5058 -1.1734 -0.9764 16.6455 -0.5107 -0.5370 1.2467 -1.6824 -2.9068 27.4405 -5.1143 3.2908 21.3043 2.4091 -0.1442 -3.5903 0.4307 2.2971 -11.2541 -0.3588 -0.0932 -0.0837 0.0867 0.5664 -10.6124 -3.7404 -0.7454 -10.6269 3.9458 7.4876 11.7234 -22.1538 -58.4186 -44.7236 -26.4913 -1.8983 -0.6545 -43.7046 -19.3584 -72.4815 12.9912 -16.1552 10.3455 15.3868 -59.4603 1.2417 2.0741 -4.8853 14.2947 11.5529 3.5589 1.3843 65.8689 -2.1373 3.4941 67.3876 26.4559 6.3577 4.1411 15.6176 8.1902 -17.3419 51.6617 -2.9740 -5.7315 15.0830 -35.6696 26.5509 -0.8997 60.0679 -0.9988 -8.2465 -15.6652 -22.3467 1.6259 -0.0367 -1.5317 -20.0420 -35.4425 -23.3895 0.7579 64.1185 0.7290 10.6921 -20.9644 -0.9719 -1.4350 0.5027 1.0081
0.6542 83.8194 0.5557 2.7606 -10.9979 -1.3586 -0.7072 16.1399 -0.4793 -0.3385 0.9461 -1.4509 -2.6966 27.0308 -4.6149 2.6884 21.7246 2.6002 -0.3205 -3.5937 -0.0101 2.0456 -12.2583 -0.8708 -0.0577 -0.0798 0.0550 0.5932 -10.5831 -3.7772 -0.7009 -10.6011 3.9055 7.1894 11.6504 -20.3908 -60.3087 -40.6133 -26.8594 -2.1689 -0.9209 -52.5681 -17.1626 -73.4585 11.7208 -16.0946 10.5145 15.1415 -59.8540 1.2520 2.0075 -4.7174 14.5619 12.2581 2.2810 2.0204 61.5546 -1.7876 3.5072 69.7105 24.6488 1.8921 5.0061 15.5104 8.1599 -17.3017 51.4188 -3.0507 -5.6890 14.9528 -34.1662 26.3104 -0.8840 59.0008 -0.9762 -8.4091 -15.6014 -21.5356 1.6334 -0.0588 -1.5383 -20.7248 -34.7999 -23.4204 0.7525 63.4666 0.7175 10.7578 -20.8111 -0.2052 -1.4427 0.6314 1.0108
0.3650 84.0902 0.5848 3.2082 -11.4357 -1.6247 -0.4117 15.5866 -0.4876 -0.1701 0.6874 -1.1565 -2.4524 26.5776 -4.1172 2.1504 22.3298 2.7496 -0.4887 -3.6184 -0.4425 1.8075 -13.0658 -1.3636 -0.0111 -0.0746 0.0027 0.6373 -10.5495 -3.8358 -0.6503 -10.5794 3.8413 6.7569 11.6111 -18.4775 -61.9036 -35.5571 -27.4927 -2.2380 -1.2402 -61.9613 -17.0614 -73.8532 12.3140 -16.2268 10.6225 15.0542 -60.4268 1.3411 1.9881 -4.3587 14.7440 12.9226 1.2267 2.7313 57.2782 -1.4625 3.4754 71.5397 22.6695 -2.3327 6.2930 15.4134 8.1228 -17.2824 51.1745 -3.0693 -5.7047 14.8040 -32.6341 26.0224 -0.9074 57.9185 -1.0021 -8.6923 -15.5964 -20.5267 1.6499 -0.1035 -1.5513 -21.4204 -34.1746 -23.3089 0.7033 62.8834 0.6504 10.9217 -20.7807 0.5265 -1.4535 0.6499 1.0258
0.0560 84.2992 0.6769 3.5931 -11.9196 -1.7716 -0.0838 15.0699 -0.5098 -0.0238 0.4944 -0.9214 -2.1453 26.2249 -3.6912 1.5882 22.9679 2.7600 -0.6112 -3.6774 -0.7402 1.6151 -13.4067 -1.7431 0.0289 -0.0787 -0.0499 0.6827 -10.5589 -3.8999 -0.6147 -10.6002 3.7832 6.3624 11.5952 -16.6275 -63.2867 -30.6492 -28.0243 -2.5138 -1.3675 -70.4217 -18.1303 -73.3208 14.1355 -16.4118 10.5151 15.1647 -60.5128 1.5550 2.0145 -4.0979 14.8743 13.3018 0.3289 3.3078 53.4869 -1.2220 3.2283 72.9637 20.9453 -5.5250 7.3061 15.5156 8.1674 -17.4099 51.2495 -3.0307 -5.7277 14.7982 -31.1824 25.4109 -0.9568 56.9596 -1.0342 -9.0699 -15.5839 -19.3914 1.6700 -0.1940 -1.5606 -22.0949 -33.5173 -23.0865 0.6920 62.5461 0.6299 11.1633 -20.9415 0.8811 -1.4555 0.4341 1.0532
