HIERARCHY
ROOT Hips
{
	OFFSET 0.0000 0.0000 0.0000
	CHANNELS 6 Xposition Yposition Zposition Zrotation Xrotation Yrotation
	JOINT Spine1
	{
		OFFSET -0.0137 5.0038 -0.0537
		CHANNELS 3 Zrotation Xrotation Yrotation
		JOINT Spine2
		{
			OFFSET -0.0000 7.1253 -0.0298
			CHANNELS 3 Zrotation Xrotation Yrotation
			JOINT Chest
			{
				OFFSET -0.0000 7.5501 -0.8160
				CHANNELS 3 Zrotation Xrotation Yrotation
				JOINT Neck1
				{
					OFFSET -0.1817 26.3113 -0.5533
					CHANNELS 3 Zrotation Xrotation Yrotation
					JOINT Neck2
					{
						OFFSET -0.0000 7.7094 2.3026
						CHANNELS 3 Zrotation Xrotation Yrotation
						JOINT Head
						{
							OFFSET -0.0000 6.1289 1.9537
							CHANNELS 3 Zrotation Xrotation Yrotation
							JOINT Jaw
							{
								OFFSET 0.0026 0.4756 3.0949
								CHANNELS 3 Zrotation Xrotation Yrotation
								End Site
								{
									OFFSET 0.0 1.0 0.0
								}
							}
							JOINT LeftEye
							{
								OFFSET 3.2064 5.3802 7.5869
								CHANNELS 3 Zrotation Xrotation Yrotation
								End Site
								{
									OFFSET 0.0 1.0 0.0
								}
							}
							JOINT RightEye
							{
								OFFSET -3.2224 5.3619 7.5582
								CHANNELS 3 Zrotation Xrotation Yrotation
								End Site
								{
									OFFSET 0.0 1.0 0.0
								}
							}
						}
					}
				}
				JOINT LeftShoulder
				{
					OFFSET 1.6217 23.2372 5.1134
					CHANNELS 3 Zrotation Xrotation Yrotation
					JOINT LeftArm
					{
						OFFSET 14.9198 0.0000 -5.5023
						CHANNELS 3 Zrotation Xrotation Yrotation
						JOINT LeftForeArm
						{
							OFFSET 28.7393 0.0000 -0.0026
							CHANNELS 3 Zrotation Xrotation Yrotation
							JOINT LeftHand
							{
								OFFSET 27.0940 -0.0000 0.0026
								CHANNELS 3 Zrotation Xrotation Yrotation
								JOINT LeftHandThumbEnd
								{
									OFFSET 12.2686 -3.2202 4.8331
									CHANNELS 3 Zrotation Xrotation Yrotation
									End Site
									{
										OFFSET 0.0 1.0 0.0
									}
								}
								JOINT LeftHandMiddleEnd
								{
									OFFSET 19.0120 -0.3129 -0.0340
									CHANNELS 3 Zrotation Xrotation Yrotation
									End Site
									{
										OFFSET 0.0 1.0 0.0
									}
								}
							}
						}
					}
				}
				JOINT RightShoulder
				{
					OFFSET -1.3801 23.1803 5.2142
					CHANNELS 3 Zrotation Xrotation Yrotation
					JOINT RightArm
					{
						OFFSET -15.0372 0.0000 -5.5456
						CHANNELS 3 Zrotation Xrotation Yrotation
						JOINT RightForeArm
						{
							OFFSET -28.7366 0.0000 -0.0026
							CHANNELS 3 Zrotation Xrotation Yrotation
							JOINT RightHand
							{
								OFFSET -27.1336 -0.0000 0.0026
								CHANNELS 3 Zrotation Xrotation Yrotation
								JOINT RightHandThumbEnd
								{
									OFFSET -12.2642 -3.2115 4.8040
									CHANNELS 3 Zrotation Xrotation Yrotation
									End Site
									{
										OFFSET 0.0 1.0 0.0
									}
								}
								JOINT RightHandMiddleEnd
								{
									OFFSET -19.0006 -0.3066 -0.0316
									CHANNELS 3 Zrotation Xrotation Yrotation
									End Site
									{
										OFFSET 0.0 1.0 0.0
									}
								}
							}
						}
					}
				}
			}
		}
	}
	JOINT LeftLeg
	{
		OFFSET 10.0432 -8.4345 2.5957
		CHANNELS 3 Zrotation Xrotation Yrotation
		JOINT LeftShin
		{
			OFFSET -0.0000 -43.2218 -0.8029
			CHANNELS 3 Zrotation Xrotation Yrotation
			JOINT LeftFoot
			{
				OFFSET 0.0000 -42.1551 -3.4815
				CHANNELS 3 Zrotation Xrotation Yrotation
				JOINT LeftToeBase
				{
					OFFSET 0.0000 -5.0595 13.2315
					CHANNELS 3 Zrotation Xrotation Yrotation
					End Site
					{
						OFFSET 0.0 1.0 0.0
					}
				}
			}
		}
	}
	JOINT RightLeg
	{
		OFFSET -10.0473 -8.2953 2.6203
		CHANNELS 3 Zrotation Xrotation Yrotation
		JOINT RightShin
		{
			OFFSET 0.0000 -43.3622 -0.8056
			CHANNELS 3 Zrotation Xrotation Yrotation
			JOINT RightFoot
			{
				OFFSET 0.0000 -42.1174 -3.4784
				CHANNELS 3 Zrotation Xrotation Yrotation
				JOINT RightToeBase
				{
					OFFSET -0.0000 -5.0796 13.2842
					CHANNELS 3 Zrotation Xrotation Yrotation
					End Site
					{
						OFFSET 0.0 1.0 0.0
					}
				}
			}
		}
	}
}
MOTION
Frames: 120
Frame Time: 0.033333
0.4820 93.4313 -1.0775 -1.0728 -4.2902 0.1493 0.1787 3.8479 0.0457 -0.4205 -3.7516 0.4168 1.2370 13.8257 -1.3266 2.6597 23.7845 2.0894 -0.6923 -3.6235 -0.4306 0.3551 -11.3493 -1.5820 0.0386 0.1111 0.0196 0.7074 -10.4098 -3.8305 -0.6284 -10.4584 3.8605 0.3054 11.8205 -6.1127 -17.6485 -3.7466 -45.8238 0.2716 1.6483 -112.2041 -9.8241 14.2026 -12.7833 -16.1585 10.6099 15.1415 -60.0063 1.8105 2.1392 -0.7823 12.4971 15.7180 56.3745 -13.7754 25.5120 0.5197 0.1063 73.4831 -81.2965 -83.7259 91.5431 14.4826 7.5943 -15.5873 48.8709 -3.3894 -4.7000 15.8637 -19.7009 14.7025 -0.3440 36.8839 -0.5393 -12.2981 -15.4079 -14.3536 1.6550 -0.6384 -1.7722 -13.6946 -17.0547 -20.5176 0.4171 36.5233 0.5594 11.6414 -16.3261 10.9847 -1.3984 -0.2477 1.0643
0.7811 93.3720 -1.1202 -1.1572 -4.2390 -0.1684 0.1677 3.9646 0.0510 -0.3955 -3.7443 0.4443 1.1809 13.8085 -1.2719 2.6884 23.3769 2.0555 -0.7588 -3.6259 -0.3178 0.5181 -11.1745 -1.5933 0.0267 0.1067 0.0418 0.6992 -10.3990 -3.8098 -0.6438 -10.4392 3.8869 0.4415 11.5955 -6.2059 -18.0411 -4.6424 -47.2812 0.0320 1.3977 -112.1668 -9.1921 14.1388 -12.6419 -16.0992 10.6505 15.2494 -60.0004 1.7734 2.2033 -1.0115 12.5637 16.0428 56.9881 -14.5058 27.0969 0.8846 -0.0104 72.4159 -69.1631 -83.0113 79.7972 14.5462 7.6511 -15.7516 48.9789 -3.4057 -4.7446 15.8285 -20.0312 14.9891 -0.3832 37.5570 -0.5676 -12.2031 -15.7455 -14.3805 1.6521 -0.5708 -1.7821 -13.7179 -17.2675 -20.3492 0.4164 36.5826 0.5823 11.7517 -16.3034 11.0804 -1.4097 -0.1696 1.0587
1.1010 93.2763 -1.1558 -1.1911 -4.1520 -0.4488 0.1342 4.0376 0.0836 -0.3916 -3.7214 0.4463 1.1263 13.8170 -1.2036 2.7598 23.0698 2.0354 -0.7910 -3.6538 -0.2927 0.6213 -11.0863 -1.5512 0.0259 0.1081 0.0452 0.7010 -10.4037 -3.8116 -0.6468 -10.4390 3.8938 0.4585 11.4402 -6.4250 -18.2013 -5.4633 -48.6598 -0.0763 1.1578 -111.6537 -8.7553 14.2417 -12.7722 -16.0725 10.6262 15.2882 -59.9608 1.7509 2.1631 -1.2930 12.6568 16.3278 57.3876 -14.6819 29.1233 1.0528 0.0023 71.5617 -62.9115 -82.6977 74.1624 14.5889 7.7069 -15.9417 48.9751 -3.4665 -4.7907 15.7095 -20.3927 15.2425 -0.3905 38.2188 -0.5759 -12.0284 -16.0551 -14.3347 1.6566 -0.4837 -1.7665 -13.8096 -17.5480 -20.1534 0.4356 36.7171 0.6076 11.8791 -16.3212 11.1538 -1.4167 -0.0948 1.0646
1.3801 93.1806 -1.2136 -1.2174 -4.0710 -0.6878 0.0884 4.0923 0.1219 -0.3931 -3.7156 0.4512 1.0593 13.8664 -1.1523 2.8157 22.9135 2.0448 -0.7902 -3.6812 -0.3201 0.7489 -11.1885 -1.4957 0.0293 0.1089 0.0374 0.7032 -10.4102 -3.8216 -0.6414 -10.4412 3.8841 0.4570 11.3204 -6.6847 -18.0342 -6.1564 -49.8836 -0.0304 0.9714 -110.6209 -8.5205 14.3613 -12.9746 -16.0365 10.6173 15.2747 -59.9469 1.7393 2.0842 -1.5724 12.7896 16.5096 57.5317 -14.2582 31.4604 1.0202 0.0316 71.1278 -55.7934 -82.7931 67.8146 14.5730 7.7289 -16.0695 48.8879 -3.5376 -4.7878 15.5673 -20.7275 15.4343 -0.3793 38.8271 -0.5604 -11.8137 -16.3025 -14.2521 1.6585 -0.4169 -1.7629 -13.9102 -17.8219 -19.9098 0.4342 36.8545 0.6103 11.9935 -16.3313 11.1531 -1.4204 -0.0800 1.0549
1.6300 93.1033 -1.2422 -1.2635 -4.0102 -0.8876 0.0500 4.1341 0.1782 -0.3976 -3.7191 0.4483 0.9708 13.9311 -1.1651 2.8454 22.8478 2.0546 -0.7940 -3.6961 -0.2971 0.9407 -11.4241 -1.4638 0.0299 0.1086 0.0386 0.7022 -10.4026 -3.8172 -0.6386 -10.4307 3.8804 0.4859 11.2402 -6.9214 -17.4776 -6.7318 -51.0032 0.1146 0.8699 -109.0947 -8.3241 14.4365 -13.1674 -15.9979 10.6043 15.2079 -59.9157 1.7280 1.9834 -1.8369 12.9191 16.5893 57.5644 -13.2461 33.9725 0.9074 0.0706 71.1749 -48.0601 -83.0986 60.9404 14.4769 7.7584 -16.1869 48.8303 -3.5676 -4.8039 15.4492 -21.0057 15.6116 -0.3770 39.3340 -0.5633 -11.5826 -16.5158 -14.2046 1.6559 -0.3415 -1.7664 -13.9728 -18.0305 -19.6916 0.4403 36.9560 0.6377 12.0880 -16.2995 11.0807 -1.4224 -0.0784 1.0457
1.8591 93.0383 -1.2673 -1.3175 -3.9624 -1.0494 -0.0014 4.1634 0.2116 -0.4137 -3.7201 0.4294 0.8851 13.9624 -1.2143 2.8253 22.8487 2.0981 -0.7764 -3.7073 -0.2795 1.1617 -11.5978 -1.4110 0.0301 0.1071 0.0370 0.6993 -10.3911 -3.8149 -0.6349 -10.4165 3.8742 0.5682 11.1558 -7.1415 -16.7038 -7.1856 -51.8331 0.2552 0.8511 -107.2923 -8.1767 14.3982 -13.3929 -15.9294 10.6146 15.1283 -59.8724 1.7169 1.8720 -1.9951 13.0730 16.5750 57.6064 -11.8574 36.2522 0.7951 0.1036 71.6932 -39.7100 -83.4073 53.4398 14.4401 7.7794 -16.2767 48.8542 -3.5813 -4.7846 15.3677 -21.2214 15.7493 -0.3711 39.7243 -0.5601 -11.3655 -16.6878 -14.1845 1.6545 -0.2515 -1.7799 -14.0096 -18.1926 -19.4946 0.4453 37.0379 0.6546 12.1122 -16.2584 11.0110 -1.4246 -0.0657 1.0310
2.0142 92.9895 -1.2874 -1.3826 -3.9379 -1.1660 -0.0601 4.1804 0.2340 -0.4369 -3.7234 0.3601 0.8080 13.9772 -1.2777 2.7593 22.9170 2.1641 -0.7551 -3.7166 -0.2332 1.3623 -11.7542 -1.3369 0.0302 0.1023 0.0321 0.6964 -10.3853 -3.8166 -0.6315 -10.4114 3.8660 0.6555 11.0920 -7.3515 -15.7151 -7.4959 -52.3706 0.3512 0.8485 -105.3972 -8.1265 14.1850 -13.6496 -15.8708 10.6217 15.0555 -59.8610 1.7152 1.7730 -2.0227 13.2936 16.4608 57.6237 -10.2315 38.2219 0.7044 0.0982 72.5647 -31.0246 -83.7084 45.5462 14.4583 7.7922 -16.3450 48.9076 -3.5810 -4.7690 15.3312 -21.3737 15.8214 -0.3789 40.0231 -0.5743 -11.2057 -16.8346 -14.1281 1.6530 -0.1673 -1.7895 -14.0153 -18.2927 -19.3458 0.4423 37.1039 0.6565 12.0583 -16.2248 10.9976 -1.4252 -0.0926 1.0190
2.1325 92.9613 -1.2948 -1.4543 -3.9277 -1.2363 -0.1240 4.1818 0.2373 -0.4675 -3.7246 0.2924 0.7450 13.9805 -1.3545 2.6832 22.9946 2.2182 -0.7281 -3.7191 -0.1802 1.5376 -11.8777 -1.2437 0.0286 0.0996 0.0296 0.6935 -10.3787 -3.8187 -0.6317 -10.4049 3.8640 0.7131 11.0500 -7.6279 -14.6022 -7.5421 -52.5786 0.4632 0.8739 -103.5615 -8.1317 13.8797 -13.9773 -15.8181 10.6400 14.9847 -59.8647 1.7296 1.6795 -1.9489 13.5194 16.2532 57.6418 -8.4563 39.8045 0.6201 0.0866 73.7094 -21.5016 -84.0215 36.7358 14.5206 7.8140 -16.4504 49.0091 -3.5874 -4.7819 15.3316 -21.4483 15.8091 -0.3845 40.1733 -0.5808 -11.1430 -16.9280 -14.0386 1.6494 -0.1026 -1.7935 -13.9866 -18.3175 -19.2907 0.4467 37.0988 0.6675 11.9658 -16.1933 11.0100 -1.4240 -0.1618 1.0081
2.1776 92.9595 -1.3069 -1.5374 -3.9286 -1.2478 -0.1860 4.1731 0.2181 -0.5042 -3.7122 0.2359 0.6877 13.9656 -1.4924 2.6039 23.0723 2.2538 -0.7100 -3.7291 -0.0830 1.6909 -11.9716 -1.1858 0.0236 0.0969 0.0348 0.6859 -10.3818 -3.8129 -0.6338 -10.4092 3.8705 0.7093 11.0562 -7.8841 -13.3445 -7.3579 -52.5141 0.5589 0.9019 -101.8724 -8.1421 13.6725 -14.4604 -15.8347 10.6593 14.9174 -59.9010 1.7627 1.6141 -1.7924 13.7132 15.9653 57.6011 -6.5976 40.9920 0.5857 0.0620 75.1105 -11.3311 -84.0413 27.1059 14.5446 7.8251 -16.5292 49.0602 -3.6001 -4.8046 15.3909 -21.4602 15.6861 -0.3897 40.1932 -0.5868 -11.1430 -16.9591 -13.9260 1.6470 -0.0476 -1.7931 -13.9195 -18.2853 -19.3037 0.4575 37.0591 0.6966 11.8818 -16.1861 10.9854 -1.4223 -0.2150 1.0053
2.1396 92.9816 -1.3363 -1.6232 -3.9438 -1.2220 -0.2392 4.1762 0.1990 -0.5338 -3.7186 0.1313 0.6279 13.9585 -1.6295 2.5040 23.1610 2.2614 -0.6696 -3.7288 0.0354 1.8277 -12.0849 -1.1692 0.0214 0.0929 0.0356 0.6803 -10.3903 -3.8107 -0.6326 -10.4207 3.8713 0.6171 11.1612 -8.1281 -11.9690 -7.0026 -52.1671 0.6509 0.9299 -100.3989 -8.2262 13.4415 -15.0983 -15.8401 10.6622 14.8471 -59.8935 1.7789 1.5711 -1.5977 13.8686 15.6227 57.4641 -4.6767 41.7528 0.6148 0.0121 76.7413 -2.2074 -83.8184 18.4267 14.5743 7.8348 -16.5924 49.1393 -3.6008 -4.8394 15.4886 -21.4267 15.4830 -0.3984 40.1310 -0.6019 -11.1644 -16.9273 -13.7904 1.6463 -0.0093 -1.7857 -13.7967 -18.2076 -19.3621 0.4624 37.0075 0.7074 11.8049 -16.2059 10.9472 -1.4197 -0.2286 1.0088
2.0607 93.0228 -1.3646 -1.6941 -3.9594 -1.1532 -0.2859 4.1745 0.1592 -0.5607 -3.7201 0.0442 0.5597 13.9420 -1.7844 2.4032 23.2310 2.2388 -0.6299 -3.7192 0.1490 1.9502 -12.1706 -1.1660 0.0217 0.0888 0.0302 0.6785 -10.3961 -3.8158 -0.6300 -10.4305 3.8658 0.4420 11.3511 -8.3300 -10.6233 -6.5009 -51.5471 0.7408 0.9580 -99.2024 -8.3264 13.2009 -15.8470 -15.8545 10.6534 14.7927 -59.8702 1.7747 1.5839 -1.3753 13.9611 15.2328 57.1955 -2.6694 42.0831 0.6526 0.0174 78.5616 5.7471 -83.3908 10.9310 14.5947 7.8447 -16.6397 49.1812 -3.6102 -4.8593 15.6085 -21.3270 15.2025 -0.3993 39.9220 -0.6064 -11.2418 -16.8038 -13.6412 1.6451 0.0171 -1.7879 -13.6311 -18.0842 -19.4534 0.4659 36.9251 0.7109 11.7233 -16.2277 10.8612 -1.4171 -0.2000 1.0147
1.8702 93.0815 -1.3919 -1.7403 -3.9665 -1.0673 -0.3180 4.1674 0.1370 -0.5814 -3.7186 -0.0456 0.4864 13.9212 -1.9249 2.3130 23.2835 2.2126 -0.5808 -3.7063 0.2272 2.0195 -12.2867 -1.1281 0.0238 0.0869 0.0207 0.6797 -10.3887 -3.8248 -0.6269 -10.4265 3.8557 0.1900 11.6159 -8.4870 -9.4061 -5.8649 -50.6845 0.8801 1.0335 -98.4306 -8.3485 12.9865 -16.5851 -15.8802 10.6404 14.7490 -59.8941 1.7520 1.6174 -1.1387 13.9957 14.8255 56.7420 -0.6367 42.0563 0.6629 0.0717 80.3755 12.2528 -82.9953 5.0065 14.6000 7.8541 -16.6632 49.1750 -3.6131 -4.8598 15.7540 -21.1697 14.9237 -0.4035 39.5779 -0.6183 -11.3682 -16.6211 -13.5013 1.6447 0.0145 -1.7902 -13.4503 -17.9446 -19.5450 0.4649 36.8367 0.6976 11.6343 -16.2602 10.7794 -1.4155 -0.1873 1.0186
1.6204 93.1563 -1.3982 -1.7624 -3.9579 -0.9650 -0.3354 4.1523 0.1232 -0.5989 -3.7156 -0.1157 0.4265 13.8895 -2.0525 2.2573 23.3130 2.2021 -0.5544 -3.7093 0.2735 2.0720 -12.3767 -1.0924 0.0266 0.0829 0.0094 0.6812 -10.3810 -3.8355 -0.6227 -10.4205 3.8436 -0.1096 11.8819 -8.5870 -8.4169 -5.2125 -49.6057 0.9971 1.1032 -98.1442 -8.2768 12.7561 -17.2526 -15.9305 10.6041 14.7275 -59.9612 1.7167 1.6694 -0.9022 13.9820 14.4253 56.0927 1.3576 41.6762 0.6026 0.1851 82.0197 17.6376 -82.6884 0.3313 14.6577 7.8836 -16.7072 49.2183 -3.6113 -4.8635 15.9032 -20.9713 14.6178 -0.4030 39.1228 -0.6233 -11.5486 -16.3589 -13.3513 1.6441 -0.0299 -1.7940 -13.2446 -17.7780 -19.6094 0.4539 36.7227 0.6684 11.5128 -16.2984 10.6719 -1.4140 -0.1612 1.0201
1.2955 93.2484 -1.4141 -1.7519 -3.9459 -0.8283 -0.3348 4.1402 0.1356 -0.6205 -3.7247 -0.1925 0.3739 13.8670 -2.1582 2.2143 23.3571 2.1965 -0.5331 -3.7186 0.3273 2.0910 -12.4623 -1.0624 0.0296 0.0789 -0.0022 0.6852 -10.3750 -3.8440 -0.6207 -10.4133 3.8298 -0.4255 12.1218 -8.6230 -7.6477 -4.5731 -48.3411 1.0476 1.1419 -98.3888 -8.1943 12.4982 -17.7695 -15.9480 10.5456 14.7069 -60.0183 1.6770 1.7469 -0.6738 13.9602 14.0753 55.2323 3.2206 40.9123 0.4978 0.2665 83.3789 22.0178 -82.5298 -3.3363 14.6910 7.9266 -16.7499 49.2770 -3.5841 -4.8674 16.0491 -20.7516 14.3082 -0.3974 38.6036 -0.6166 -11.7748 -16.0490 -13.1870 1.6439 -0.0729 -1.8047 -13.0269 -17.6170 -19.6490 0.4261 36.6344 0.6132 11.3642 -16.3266 10.5646 -1.4120 -0.1432 1.0217
0.9223 93.3521 -1.4123 -1.7246 -3.9164 -0.6448 -0.3150 4.1103 0.1011 -0.6290 -3.7270 -0.2232 0.3325 13.8182 -2.2512 2.1705 23.4176 2.1833 -0.4998 -3.7201 0.3547 2.0473 -12.5356 -1.0088 0.0316 0.0729 -0.0105 0.6854 -10.3575 -3.8457 -0.6166 -10.3901 3.8139 -0.7374 12.3337 -8.5703 -7.1198 -3.9030 -47.0004 1.0565 1.2108 -99.0799 -8.0593 12.3121 -18.1021 -15.9551 10.5076 14.7112 -60.0419 1.6608 1.8531 -0.4392 13.9090 13.7434 54.2076 4.7841 39.6909 0.4221 0.3932 84.3725 25.5372 -82.4427 -6.3505 14.7677 7.9364 -16.7516 49.3286 -3.5791 -4.8737 16.1748 -20.5106 14.0290 -0.3940 37.9571 -0.6184 -12.0082 -15.6509 -13.0689 1.6448 -0.1077 -1.8023 -12.8025 -17.4379 -19.7591 0.4273 36.4977 0.6023 11.1951 -16.2985 10.4446 -1.4087 -0.1086 1.0329
0.5544 93.4579 -1.3951 -1.6741 -3.8885 -0.3857 -0.2812 4.1032 0.0865 -0.6239 -3.7418 -0.2838 0.2954 13.7548 -2.3253 2.1662 23.4812 2.1784 -0.5022 -3.7127 0.3549 1.9345 -12.6121 -0.9606 0.0328 0.0707 -0.0165 0.6850 -10.3349 -3.8452 -0.6142 -10.3657 3.8038 -1.0244 12.5032 -8.4170 -6.7813 -3.2272 -45.6581 0.9644 1.3090 -100.1546 -7.8930 12.2412 -18.2649 -15.9266 10.4609 14.7013 -60.0122 1.6602 1.9138 -0.1983 13.8534 13.4508 53.0293 6.0084 38.0292 0.3143 0.5332 85.0513 27.5197 -82.6077 -8.0111 14.8600 7.9474 -16.7702 49.3669 -3.5390 -4.9016 16.2753 -20.2494 13.7086 -0.3902 37.2812 -0.6128 -12.2693 -15.2437 -12.9349 1.6462 -0.1567 -1.8013 -12.6117 -17.2526 -19.9159 0.4246 36.3541 0.5850 11.0672 -16.2729 10.3211 -1.4061 -0.0427 1.0453
0.1800 93.5788 -1.3787 -1.6059 -3.8436 -0.1107 -0.2365 4.0935 0.0697 -0.6077 -3.7464 -0.3117 0.2717 13.6841 -2.4043 2.1914 23.5773 2.1726 -0.5050 -3.7091 0.3214 1.7531 -12.6819 -0.9048 0.0318 0.0687 -0.0134 0.6844 -10.3248 -3.8388 -0.6158 -10.3548 3.8040 -1.2633 12.6604 -8.1947 -6.5696 -2.5308 -44.4117 0.9076 1.3991 -101.4278 -7.6686 12.3050 -18.2378 -15.9276 10.4363 14.6943 -60.0072 1.6703 1.9743 0.0359 13.8091 13.1922 51.7359 6.6926 35.9925 0.1795 0.6477 85.4771 28.1537 -83.1610 -8.5769 14.9522 7.9081 -16.7424 49.3485 -3.5135 -4.9205 16.3197 -20.0171 13.3780 -0.3863 36.6288 -0.6064 -12.4882 -14.8509 -12.7801 1.6487 -0.1956 -1.7900 -12.4480 -17.0866 -20.0922 0.4317 36.2062 0.5880 10.9684 -16.2408 10.1986 -1.4029 0.0046 1.0536
-0.1472 93.6898 -1.3713 -1.5310 -3.7787 0.2218 -0.1783 4.0769 0.0461 -0.5863 -3.7589 -0.3297 0.2862 13.6155 -2.4361 2.2533 23.6433 2.1799 -0.5467 -3.7047 0.2669 1.5545 -12.6464 -0.9298 0.0298 0.0692 -0.0093 0.6819 -10.3138 -3.8306 -0.6174 -10.3429 3.8057 -1.4543 12.7947 -7.9440 -6.5543 -1.8980 -43.3135 0.8019 1.5335 -102.8608 -7.4958 12.5235 -18.0470 -15.9063 10.4306 14.6930 -59.9565 1.7081 1.9992 0.2748 13.7168 12.9726 50.4635 6.7610 33.6279 0.0880 0.7155 85.6047 26.0626 -83.9582 -6.7596 14.9807 7.8503 -16.6607 49.3007 -3.4973 -4.9363 16.3266 -19.8027 13.0278 -0.3849 35.9792 -0.6067 -12.6647 -14.4637 -12.5980 1.6530 -0.2393 -1.7843 -12.3131 -16.9179 -20.2767 0.4186 36.0241 0.5653 10.8978 -16.2264 10.0603 -1.4019 0.0727 1.0581
-0.4309 93.7977 -1.3729 -1.4490 -3.7062 0.5395 -0.1132 4.0613 0.0297 -0.5650 -3.7701 -0.3417 0.3436 13.5599 -2.4347 2.2972 23.6923 2.1939 -0.5719 -3.7050 0.1988 1.3307 -12.5248 -0.9983 0.0302 0.0691 -0.0094 0.6806 -10.3190 -3.8305 -0.6156 -10.3478 3.8073 -1.6162 12.9100 -7.6549 -6.6297 -1.2944 -42.3783 0.6983 1.6846 -104.4210 -7.3866 12.8238 -17.7619 -15.8642 10.4256 14.7108 -59.8580 1.7276 2.0323 0.4863 13.5799 12.8251 49.3170 6.1464 31.1149 0.0058 0.7474 85.4360 20.1011 -85.0674 -1.4132 15.0354 7.7932 -16.5672 49.2798 -3.4600 -4.9699 16.2883 -19.6230 12.7107 -0.3781 35.4189 -0.6016 -12.7854 -14.1258 -12.4071 1.6584 -0.3243 -1.7732 -12.2132 -16.7749 -20.3941 0.3961 35.8601 0.5259 10.8781 -16.2038 9.8548 -1.4032 0.1360 1.0634
-0.6378 93.8894 -1.3862 -1.3622 -3.6341 0.8319 -0.0538 4.0406 0.0038 -0.5407 -3.7706 -0.3145 0.4407 13.5087 -2.4018 2.3579 23.7233 2.1797 -0.6019 -3.6993 0.0988 1.1067 -12.3765 -1.1153 0.0301 0.0705 -0.0084 0.6769 -10.3333 -3.8331 -0.6126 -10.3628 3.8132 -1.7332 13.0004 -7.3798 -6.8306 -0.6934 -41.6807 0.5961 1.8107 -105.9764 -7.3889 13.1801 -17.4706 -15.8454 10.4328 14.7365 -59.7893 1.7178 2.0948 0.6317 13.4137 12.7680 48.5139 4.8203 28.6404 -0.1015 0.7725 84.9438 7.8571 -86.3904 9.9603 15.1029 7.7297 -16.4459 49.2864 -3.4405 -4.9948 16.2199 -19.4833 12.4468 -0.3670 34.9584 -0.5933 -12.8311 -13.8469 -12.2399 1.6648 -0.4207 -1.7656 -12.1679 -16.6578 -20.4826 0.3704 35.6896 0.4918 10.8960 -16.1559 9.6381 -1.4039 0.1555 1.0619
-0.7916 93.9735 -1.3907 -1.2818 -3.5770 1.0914 0.0086 4.0172 -0.0101 -0.5142 -3.7787 -0.2676 0.5603 13.4917 -2.3641 2.4573 23.7631 2.1473 -0.6264 -3.6931 -0.0404 0.8804 -12.2482 -1.2365 0.0306 0.0746 -0.0076 0.6745 -10.3471 -3.8354 -0.6094 -10.3811 3.8158 -1.7430 13.1008 -7.1169 -7.1826 -0.2248 -41.3089 0.5203 1.8427 -107.4067 -7.6006 13.5928 -17.2046 -15.8094 10.4539 14.7738 -59.7364 1.6906 2.1407 0.6939 13.2235 12.8117 48.1371 2.9231 26.4442 -0.1852 0.6967 84.2076 -16.5426 -87.4094 33.3189 15.1706 7.6854 -16.3329 49.2972 -3.4068 -4.9875 16.1090 -19.4204 12.2687 -0.3561 34.6616 -0.5875 -12.8050 -13.6475 -12.1154 1.6694 -0.4981 -1.7618 -12.1613 -16.5682 -20.5640 0.3516 35.5461 0.4688 10.9416 -16.1139 9.4615 -1.4044 0.1628 1.0498
-0.8603 94.0137 -1.3847 -1.2283 -3.5473 1.2930 0.0744 4.0136 -0.0146 -0.4888 -3.7655 -0.2009 0.7236 13.4504 -2.2958 2.5904 23.7704 2.0660 -0.6490 -3.6821 -0.1636 0.6629 -12.0782 -1.3540 0.0306 0.0780 -0.0039 0.6715 -10.3561 -3.8357 -0.6064 -10.3912 3.8229 -1.6523 13.1126 -6.9036 -7.8248 0.1288 -41.2594 0.4158 1.8745 -108.7065 -8.0186 14.0715 -16.9609 -15.7928 10.4791 14.8076 -59.7068 1.6677 2.1768 0.7030 12.9836 12.9578 48.2111 0.6663 24.6553 -0.2023 0.7164 83.2043 -57.6027 -87.6806 73.2388 15.2158 7.6568 -16.1901 49.3185 -3.3913 -4.9649 16.0086 -19.3985 12.2088 -0.3443 34.5050 -0.5823 -12.7444 -13.5261 -12.0521 1.6713 -0.5342 -1.7729 -12.2097 -16.4868 -20.6765 0.3436 35.3853 0.4604 11.0087 -16.0443 9.3633 -1.4045 0.1740 1.0375
-0.8138 94.0365 -1.3787 -1.1978 -3.5421 1.4207 0.1412 4.0385 0.0088 -0.4678 -3.7620 -0.1551 0.9130 13.4325 -2.1966 2.7628 23.7877 2.0142 -0.6667 -3.6744 -0.2884 0.4934 -11.8840 -1.4984 0.0347 0.0847 -0.0116 0.6733 -10.3718 -3.8487 -0.5999 -10.4098 3.8185 -1.5005 13.0570 -6.7671 -8.6055 0.2504 -41.5127 0.2863 1.7788 -109.9378 -8.5625 14.5019 -16.7002 -15.7636 10.4853 14.8298 -59.6826 1.6314 2.1698 0.6875 12.7880 13.2298 48.5662 -1.7611 23.3978 -0.1789 0.7141 82.0423 -94.1357 -86.8170 108.7138 15.2505 7.6605 -16.0578 49.3430 -3.3505 -4.9258 15.9106 -19.4644 12.2235 -0.3391 34.6034 -0.5766 -12.6228 -13.5311 -12.0252 1.6716 -0.5600 -1.7826 -12.3014 -16.4670 -20.7730 0.3399 35.3139 0.4591 11.1103 -15.9854 9.3533 -1.4039 0.2185 1.0260
-0.6667 94.0318 -1.3508 -1.1951 -3.5430 1.4534 0.1982 4.0700 0.0571 -0.4456 -3.7659 -0.1372 1.1193 13.4251 -2.0551 2.9793 23.7828 1.9594 -0.7037 -3.6740 -0.4086 0.3685 -11.6695 -1.6140 0.0411 0.0937 -0.0267 0.6785 -10.3804 -3.8699 -0.5921 -10.4205 3.8079 -1.3195 12.9609 -6.7160 -9.5687 0.1797 -42.1159 0.1414 1.6657 -111.0669 -9.1657 14.8373 -16.4311 -15.7088 10.4868 14.8311 -59.6380 1.6092 2.1261 0.6832 12.6515 13.5800 49.1980 -4.2285 22.7278 -0.0858 0.7258 80.6877 -112.8772 -85.3093 126.5489 15.2790 7.7014 -15.9505 49.3997 -3.3211 -4.8756 15.7994 -19.6008 12.3182 -0.3345 34.8936 -0.5683 -12.4412 -13.6312 -12.0505 1.6715 -0.5684 -1.7948 -12.4232 -16.4766 -20.8251 0.3275 35.2639 0.4475 11.2287 -15.9145 9.3708 -1.4056 0.2541 1.0229
-0.4100 94.0054 -1.3395 -1.2173 -3.5559 1.3955 0.2446 4.1106 0.0837 -0.4203 -3.7567 -0.0993 1.3333 13.4204 -1.8984 3.1976 23.7598 1.8723 -0.7400 -3.6777 -0.4710 0.2977 -11.4667 -1.6483 0.0451 0.1006 -0.0353 0.6847 -10.3996 -3.8863 -0.5898 -10.4405 3.8049 -1.0885 12.8548 -6.7433 -10.7430 -0.1997 -43.0936 -0.0683 1.5191 -112.0786 -9.7314 15.0138 -16.1253 -15.6696 10.4818 14.8285 -59.5817 1.6055 2.0838 0.6735 12.5491 13.9703 50.0558 -6.6027 22.6657 0.0186 0.7629 79.1682 -121.1780 -83.7552 134.0522 15.2514 7.7319 -15.8673 49.3922 -3.3290 -4.8107 15.6841 -19.7801 12.4926 -0.3251 35.3206 -0.5471 -12.2185 -13.7955 -12.1190 1.6696 -0.5700 -1.8019 -12.5718 -16.4933 -20.8205 0.3224 35.1891 0.4596 11.3688 -15.8049 9.3917 -1.4059 0.2681 1.0200
-0.0710 93.9699 -1.3426 -1.2520 -3.5777 1.2639 0.2774 4.1674 0.1037 -0.3944 -3.7464 -0.0595 1.5196 13.4574 -1.7629 3.4206 23.6720 1.8098 -0.7858 -3.6842 -0.4532 0.2707 -11.2724 -1.6408 0.0465 0.1001 -0.0338 0.6879 -10.4189 -3.8912 -0.5899 -10.4600 3.8109 -0.8269 12.7068 -6.8125 -12.0421 -0.8442 -44.3887 -0.2558 1.3563 -112.9660 -10.1395 15.1000 -15.8237 -15.6896 10.4827 14.8633 -59.5700 1.6160 2.0446 0.6286 12.4960 14.3856 51.0459 -8.8532 23.1257 0.1815 0.7464 77.5434 -123.8887 -82.4731 136.0611 15.1630 7.7822 -15.8177 49.3334 -3.3329 -4.7624 15.5587 -20.0235 12.7557 -0.3192 35.8967 -0.5282 -11.9534 -14.0080 -12.2469 1.6672 -0.5417 -1.8044 -12.7540 -16.5735 -20.7657 0.3226 35.1551 0.4844 11.5642 -15.6480 9.4662 -1.4060 0.2630 1.0164
0.3425 93.9118 -1.3661 -1.2984 -3.5994 1.0462 0.3071 4.2369 0.1185 -0.3678 -3.7248 -0.0098 1.6735 13.5000 -1.6364 3.6035 23.5461 1.7622 -0.8078 -3.6786 -0.3690 0.2624 -11.0800 -1.5733 0.0460 0.0976 -0.0233 0.6879 -10.4229 -3.8850 -0.5906 -10.4652 3.8253 -0.5540 12.5084 -6.9645 -13.5093 -1.5971 -45.9966 -0.3574 1.2105 -113.6467 -10.3709 15.0193 -15.5240 -15.7522 10.5017 14.9361 -59.5986 1.6436 2.0277 0.5469 12.4939 14.8318 52.1400 -10.8522 24.0934 0.2864 0.7324 75.8398 -122.8006 -81.6859 134.4145 15.0610 7.8346 -15.7922 49.2378 -3.3440 -4.7281 15.4192 -20.2957 13.1355 -0.3143 36.5504 -0.5020 -11.6549 -14.2696 -12.4315 1.6670 -0.4821 -1.8053 -12.9644 -16.6891 -20.6472 0.3364 35.1068 0.5187 11.8219 -15.4539 9.5885 -1.4083 0.2463 1.0089
0.8262 93.8300 -1.4015 -1.3455 -3.6245 0.7462 0.3335 4.3472 0.1425 -0.3382 -3.7068 0.0319 1.7768 13.5808 -1.5230 3.7176 23.3876 1.7262 -0.8173 -3.6849 -0.1920 0.2971 -10.9307 -1.4272 0.0441 0.0962 -0.0106 0.6875 -10.4303 -3.8751 -0.5936 -10.4727 3.8407 -0.3181 12.3014 -7.1647 -14.9128 -2.5158 -47.9002 -0.3099 1.1214 -114.0358 -10.3577 14.7560 -15.3341 -15.8073 10.5066 15.0208 -59.6038 1.6493 2.0121 0.3667 12.5445 15.3060 53.3351 -12.5573 25.4520 0.3402 0.6681 74.3075 -119.1702 -81.3490 130.3803 14.9838 7.9001 -15.7908 49.1870 -3.3323 -4.7103 15.2433 -20.6272 13.6110 -0.3187 37.3359 -0.4842 -11.3206 -14.5991 -12.6372 1.6655 -0.3922 -1.8026 -13.2028 -16.8507 -20.4409 0.3433 35.0823 0.5401 12.1248 -15.2731 9.7338 -1.4094 0.2266 1.0002
1.3636 93.7361 -1.4762 -1.4012 -3.6239 0.3645 0.3629 4.4631 0.1765 -0.3063 -3.6781 0.0786 1.8209 13.6718 -1.4450 3.7644 23.1924 1.7252 -0.8177 -3.6897 0.0283 0.3954 -10.7807 -1.2431 0.0400 0.0936 0.0068 0.6862 -10.4323 -3.8603 -0.6001 -10.4736 3.8624 -0.1571 12.0676 -7.3822 -16.1119 -3.6142 -49.9835 -0.2448 1.0476 -113.9038 -10.1826 14.5210 -15.3049 -15.8650 10.4876 15.0783 -59.5233 1.6347 1.9909 0.1219 12.6400 15.7870 54.5046 -13.8388 27.2058 0.3651 0.5875 73.0994 -114.3134 -81.3386 125.3150 14.9554 7.9665 -15.8216 49.1919 -3.3228 -4.6969 15.0442 -21.0195 14.2033 -0.3249 38.1559 -0.4683 -10.9563 -14.9512 -12.9217 1.6636 -0.2959 -1.7958 -13.4440 -17.0675 -20.1480 0.3563 35.0562 0.5710 12.4734 -15.0908 9.8450 -1.4110 0.1903 1.0005
1.8966 93.6277 -1.5556 -1.4528 -3.6019 -0.0144 0.3680 4.5972 0.1875 -0.2779 -3.6350 0.1262 1.8126 13.7640 -1.3854 3.7548 23.0209 1.7776 -0.7841 -3.6956 0.2244 0.5180 -10.6560 -1.0066 0.0354 0.0896 0.0207 0.6833 -10.4396 -3.8488 -0.6058 -10.4807 3.8785 0.0251 11.8429 -7.6015 -16.9357 -4.9257 -52.0464 -0.2677 1.0527 -113.1476 -9.8541 14.5167 -15.3206 -15.8600 10.4708 15.0995 -59.3978 1.5981 1.9397 -0.2135 12.7433 16.2146 55.6583 -14.7187 29.1962 0.4462 0.5148 72.2620 -106.3160 -81.6826 117.3186 14.9135 8.0231 -15.8689 49.2053 -3.3146 -4.7121 14.8143 -21.4596 14.8315 -0.3315 38.9875 -0.4563 -10.5701 -15.3150 -13.2245 1.6633 -0.2220 -1.7892 -13.6735 -17.3502 -19.8483 0.3742 35.0600 0.6055 12.7945 -14.8755 9.9744 -1.4111 0.1192 0.9839
2.4166 93.5305 -1.6747 -1.5166 -3.5614 -0.3768 0.3617 4.7400 0.2135 -0.2566 -3.5803 0.1381 1.7515 13.8485 -1.3492 3.6895 22.8900 1.8612 -0.7529 -3.6977 0.3957 0.6479 -10.5770 -0.7650 0.0308 0.0889 0.0317 0.6803 -10.4353 -3.8367 -0.6113 -10.4767 3.8882 0.2604 11.6235 -7.8394 -17.2991 -6.2739 -53.9307 -0.2909 1.0704 -111.6552 -9.4834 14.7431 -15.3377 -15.8347 10.4692 15.1043 -59.2547 1.5638 1.8891 -0.6284 12.8763 16.5559 56.6440 -15.1235 31.5114 0.5891 0.4164 71.7629 -94.6430 -82.2034 105.9149 14.8358 8.0312 -15.9419 49.1684 -3.3305 -4.7011 14.5919 -21.9391 15.4900 -0.3441 39.7677 -0.4551 -10.1782 -15.6267 -13.5719 1.6624 -0.1767 -1.7839 -13.8606 -17.6861 -19.5483 0.3920 35.1017 0.6459 13.0423 -14.6639 10.0754 -1.4131 0.0424 0.9705
2.8954 93.4272 -1.8334 -1.5851 -3.5025 -0.6581 0.3233 4.8952 0.2667 -0.2507 -3.5479 0.1126 1.6696 13.9462 -1.3299 3.5664 22.7886 1.9598 -0.6998 -3.6987 0.4967 0.7937 -10.5608 -0.5794 0.0274 0.0891 0.0401 0.6792 -10.4268 -3.8270 -0.6165 -10.4697 3.8963 0.5841 11.4501 -8.1201 -17.1051 -7.5717 -55.4839 -0.2526 1.0079 -109.5788 -9.1482 15.1679 -15.3271 -15.7506 10.4979 15.1137 -59.1639 1.5571 1.8328 -1.0530 13.0314 16.7608 57.4089 -15.0274 34.0248 0.7450 0.3170 71.6092 -80.7103 -82.6821 92.5654 14.6969 8.0038 -16.0648 49.1209 -3.3389 -4.7146 14.3809 -22.4580 16.1417 -0.3626 40.4924 -0.4676 -9.8163 -15.8721 -14.0219 1.6593 -0.1358 -1.7785 -13.9913 -18.0651 -19.3218 0.4000 35.2268 0.6698 13.1855 -14.4855 10.1446 -1.4166 -0.0399 0.9626
3.2740 93.3150 -1.9995 -1.6778 -3.4463 -0.8016 0.2586 5.0595 0.2778 -0.2648 -3.4988 0.1099 1.5938 14.0170 -1.3254 3.4167 22.7072 2.0586 -0.6655 -3.7038 0.5211 0.9762 -10.5858 -0.4783 0.0223 0.0881 0.0491 0.6763 -10.4189 -3.8169 -0.6236 -10.4645 3.9040 0.9958 11.2993 -8.4725 -16.4237 -8.7983 -56.5357 -0.1430 0.9797 -107.1424 -8.8263 15.6559 -15.3458 -15.7090 10.5534 15.1050 -59.2263 1.5627 1.7649 -1.4343 13.1901 16.7946 58.0159 -14.5067 36.5121 0.9497 0.2409 71.8025 -65.3971 -83.0715 78.0034 14.6059 7.9630 -16.1929 49.0936 -3.3666 -4.7078 14.2363 -23.0242 16.7149 -0.3757 41.1743 -0.4843 -9.4749 -16.0740 -14.6022 1.6550 -0.1121 -1.7724 -14.0715 -18.4709 -19.2487 0.4175 35.4528 0.7036 13.2217 -14.3869 10.2387 -1.4190 -0.1248 0.9546
3.5649 93.1861 -2.2189 -1.7778 -3.3981 -0.8059 0.1660 5.2106 0.3063 -0.3011 -3.4431 0.1022 1.5086 14.0582 -1.3514 3.2566 22.6487 2.1411 -0.6414 -3.6972 0.5031 1.1688 -10.6232 -0.4453 0.0216 0.0861 0.0480 0.6777 -10.4062 -3.8169 -0.6269 -10.4519 3.9017 1.4182 11.2358 -8.8676 -15.2575 -9.8066 -56.9567 0.0351 0.8729 -104.6948 -8.6523 15.9251 -15.4237 -15.6567 10.5783 15.0698 -59.2887 1.5674 1.7255 -1.6808 13.3353 16.7058 58.3526 -13.4590 38.8269 1.1737 0.1722 72.2514 -48.0773 -83.2220 61.6412 14.5687 7.9044 -16.3094 49.1404 -3.3897 -4.7162 14.1547 -23.6165 17.2070 -0.3976 41.8147 -0.5209 -9.1852 -16.2570 -15.2430 1.6513 -0.0929 -1.7611 -14.0897 -18.8798 -19.2767 0.4331 35.8015 0.7233 13.1786 -14.4062 10.3091 -1.4209 -0.2196 0.9510
3.7278 93.0247 -2.4302 -1.8909 -3.3838 -0.6730 0.0502 5.3488 0.3169 -0.3599 -3.3806 0.0850 1.4175 14.0882 -1.3684 3.1173 22.6233 2.2051 -0.6550 -3.6946 0.4610 1.3726 -10.7089 -0.4917 0.0240 0.0875 0.0322 0.6808 -10.3967 -3.8312 -0.6249 -10.4401 3.8822 1.8197 11.2059 -9.2682 -13.8266 -10.5016 -56.6523 0.2648 0.6883 -102.4919 -8.6141 15.9726 -15.5703 -15.6386 10.5992 15.0091 -59.3790 1.5833 1.6808 -1.7832 13.4853 16.4610 58.3719 -11.8899 40.8829 1.3744 0.1162 72.9648 -29.4809 -83.0718 44.2004 14.5558 7.8283 -16.4230 49.1757 -3.4240 -4.7272 14.1709 -24.2015 17.5376 -0.4189 42.4292 -0.5482 -8.9792 -16.4044 -15.8966 1.6476 -0.0876 -1.7528 -14.0533 -19.2714 -19.4146 0.4274 36.3048 0.7174 13.0328 -14.5610 10.3429 -1.4228 -0.2952 0.9518
3.7579 92.8553 -2.6300 -2.0004 -3.4204 -0.4628 -0.0863 5.4864 0.3387 -0.4266 -3.3290 0.0391 1.2906 14.1159 -1.3703 2.9781 22.6617 2.2496 -0.6645 -3.6954 0.4405 1.5880 -10.8204 -0.5841 0.0261 0.0857 0.0152 0.6847 -10.3864 -3.8463 -0.6254 -10.4250 3.8637 2.1300 11.2047 -9.6065 -12.4126 -10.7674 -55.5443 0.5094 0.5744 -100.8806 -8.6847 15.6415 -15.7511 -15.6104 10.6327 14.9136 -59.5245 1.6027 1.6515 -1.7399 13.6540 16.1219 58.0475 -9.7698 42.5928 1.4653 0.0777 73.9197 -11.4862 -82.2888 27.4893 14.6111 7.8079 -16.5141 49.3015 -3.4652 -4.7499 14.2846 -24.7465 17.7525 -0.4481 43.0247 -0.5913 -8.8527 -16.5619 -16.5112 1.6444 -0.1095 -1.7506 -13.9864 -19.6194 -19.5838 0.4069 36.9370 0.6900 12.7441 -14.8588 10.3506 -1.4256 -0.3674 0.9702
3.6589 92.6569 -2.8052 -2.1064 -3.4934 -0.1975 -0.2241 5.6114 0.2978 -0.4932 -3.2710 0.0400 1.1258 14.1250 -1.3670 2.8392 22.7253 2.2696 -0.6910 -3.7017 0.4171 1.8242 -10.9239 -0.7049 0.0250 0.0793 0.0056 0.6850 -10.3796 -3.8511 -0.6286 -10.4168 3.8504 2.2768 11.2893 -9.8053 -11.2132 -10.6287 -53.6653 0.7829 0.6022 -100.1241 -8.8254 14.8631 -15.9046 -15.6103 10.6905 14.8624 -59.7193 1.6467 1.6655 -1.5771 13.7754 15.6792 57.3809 -7.1698 43.7654 1.4102 0.1733 75.2056 2.6530 -80.7027 14.6233 14.6794 7.8096 -16.5644 49.4223 -3.5113 -4.8066 14.4988 -25.2604 17.8512 -0.4694 43.5866 -0.6309 -8.8088 -16.7316 -17.0688 1.6433 -0.1508 -1.7421 -13.8673 -19.9479 -19.8387 0.4002 37.7093 0.6818 12.3664 -15.2607 10.3779 -1.4255 -0.4170 0.9968
3.4453 92.4398 -2.9802 -2.2048 -3.5948 0.0553 -0.3682 5.7093 0.2430 -0.5462 -3.2302 0.0440 0.9127 14.1391 -1.3519 2.6940 22.8056 2.3001 -0.7222 -3.7180 0.4346 2.0501 -10.9692 -0.8309 0.0237 0.0683 -0.0011 0.6798 -10.3688 -3.8508 -0.6273 -10.4042 3.8392 2.1706 11.4429 -9.7537 -10.4476 -10.0570 -51.1257 1.0569 0.7657 -100.3296 -9.0346 13.5658 -15.9720 -15.5966 10.7596 14.8672 -59.8637 1.7044 1.7828 -1.2740 13.8343 15.2278 56.3076 -4.1757 44.1565 1.2295 0.4168 76.8566 11.6920 -78.0220 6.8598 14.7854 7.8439 -16.5436 49.6078 -3.5134 -4.8195 14.7975 -25.7263 17.9078 -0.5087 44.1249 -0.6868 -8.8339 -16.9299 -17.5468 1.6460 -0.2014 -1.7329 -13.7237 -20.2643 -20.1268 0.4083 38.6097 0.6783 11.9084 -15.7547 10.4723 -1.4275 -0.4336 1.0252
3.1405 92.2078 -3.1368 -2.2823 -3.7311 0.2760 -0.4970 5.7823 0.1980 -0.5897 -3.2044 0.0718 0.6565 14.1751 -1.3873 2.5562 22.9356 2.3576 -0.7238 -3.7356 0.4650 2.2217 -10.9670 -0.8799 0.0238 0.0605 -0.0101 0.6785 -10.3518 -3.8510 -0.6265 -10.3870 3.8220 1.7858 11.6641 -9.4104 -10.1074 -9.1501 -48.2012 1.2018 0.9514 -101.4099 -9.1686 11.8672 -15.8354 -15.5905 10.8076 14.8992 -59.9376 1.7511 1.9299 -0.7938 13.8355 14.7723 54.6093 -1.0820 43.6277 0.9614 0.7291 78.8715 15.9173 -73.8443 3.8929 14.9238 7.9122 -16.4543 49.8452 -3.4882 -4.7984 15.1563 -26.1544 17.8653 -0.5424 44.7170 -0.7209 -8.9229 -17.1237 -17.9381 1.6547 -0.2487 -1.7138 -13.5709 -20.5974 -20.4558 0.4404 39.6438 0.6931 11.4344 -16.3226 10.6519 -1.4303 -0.3976 1.0473
2.7730 91.9378 -3.2437 -2.3552 -3.9077 0.4338 -0.5973 5.8324 0.1745 -0.6277 -3.1867 0.1504 0.3945 14.2290 -1.4634 2.4226 23.0960 2.4446 -0.7145 -3.7441 0.5051 2.3636 -10.9184 -0.8845 0.0281 0.0618 -0.0277 0.6833 -10.3320 -3.8634 -0.6228 -10.3710 3.7993 1.1563 11.9391 -8.8180 -10.1930 -8.1820 -45.0659 1.0852 1.1488 -103.0629 -9.1394 10.0764 -15.5633 -15.5760 10.8416 14.9610 -59.9908 1.7727 2.0734 -0.0900 13.7770 14.2987 52.0625 1.7600 42.0239 0.6810 1.1139 81.2505 16.6741 -67.9210 4.2974 15.0636 7.9432 -16.2645 49.9862 -3.4821 -4.7228 15.5990 -26.5511 17.7300 -0.5469 45.3716 -0.7225 -9.0686 -17.3070 -18.2332 1.6601 -0.2892 -1.7034 -13.4413 -20.9314 -20.8269 0.4870 40.7689 0.7087 11.0220 -16.9376 10.9544 -1.4352 -0.2914 1.0667
2.3349 91.6537 -3.3118 -2.4172 -4.1735 0.5252 -0.6704 5.8655 0.2145 -0.6504 -3.2032 0.1796 0.1571 14.3275 -1.4920 2.3135 23.4117 2.5570 -0.6873 -3.7543 0.5552 2.4607 -10.8556 -0.8148 0.0345 0.0658 -0.0501 0.6944 -10.3229 -3.8802 -0.6217 -10.3651 3.7729 0.4562 12.2380 -8.0725 -10.6932 -7.4422 -42.0985 0.7989 1.2616 -104.7994 -8.9447 8.8451 -15.3721 -15.5724 10.8580 15.0586 -60.0023 1.7432 2.1855 0.6908 13.7492 13.8578 48.6169 3.8007 39.4649 0.4529 1.3426 83.8106 15.3806 -60.9001 6.5078 15.2009 7.8274 -15.9794 49.9823 -3.5419 -4.6479 16.1130 -26.8457 17.5556 -0.5431 46.0782 -0.7084 -9.2629 -17.4849 -18.4163 1.6612 -0.2867 -1.6990 -13.3586 -21.2177 -21.1597 0.5403 41.9741 0.7332 10.6898 -17.5905 11.3633 -1.4396 -0.1605 1.0891
1.8707 91.3352 -3.3316 -2.4410 -4.5612 0.5914 -0.7032 5.8717 0.2293 -0.6672 -3.2228 0.2245 -0.0469 14.4277 -1.4622 2.2014 24.0037 2.6029 -0.6455 -3.7573 0.6145 2.4859 -10.7638 -0.6449 0.0307 0.0711 -0.0512 0.6978 -10.3324 -3.8780 -0.6333 -10.3738 3.7709 -0.0812 12.4487 -7.3722 -11.5855 -7.1063 -39.5888 0.6111 1.2119 -106.1876 -8.5238 8.4664 -15.4175 -15.6763 10.8244 15.1533 -60.1172 1.6596 2.2597 1.2220 13.7133 13.3877 44.6309 4.5887 36.3989 0.1855 1.4280 86.2751 13.0283 -53.1436 9.1309 15.1654 7.5907 -15.6822 49.8585 -3.6280 -4.6569 16.6524 -26.9257 17.2901 -0.5349 46.7361 -0.7017 -9.5039 -17.7371 -18.4600 1.6593 -0.2089 -1.7029 -13.3530 -21.3645 -21.4356 0.6054 43.1607 0.7844 10.4037 -18.3000 11.7221 -1.4384 -0.0031 1.0984
1.4140 91.0653 -3.3074 -2.4468 -5.0368 0.6940 -0.6924 5.8091 0.2388 -0.6942 -3.2619 0.2296 -0.2204 14.4876 -1.4338 2.1731 24.9256 2.5560 -0.6265 -3.7473 0.7374 2.4168 -10.5632 -0.4337 0.0208 0.0742 -0.0359 0.6929 -10.3456 -3.8605 -0.6490 -10.3896 3.7892 -0.3246 12.5086 -6.8350 -12.6368 -7.2922 -37.6263 0.7175 1.0889 -106.9907 -7.8862 8.7131 -15.6306 -15.9392 10.7406 15.2246 -60.3838 1.5398 2.2962 1.4036 13.5806 12.9031 40.3354 4.0673 33.3064 -0.0276 1.3539 88.4296 9.9326 -44.6510 11.2596 14.9428 7.4524 -15.5344 49.8896 -3.6454 -4.7560 17.1892 -26.7069 16.9254 -0.5374 47.1419 -0.7143 -9.7566 -17.9715 -18.3417 1.6552 -0.1345 -1.7121 -13.4186 -21.2551 -21.6844 0.6519 44.0954 0.8332 10.2318 -18.9617 11.9502 -1.4317 0.0869 1.1129
0.9504 90.9693 -3.2130 -2.4884 -5.5124 0.9040 -0.6513 5.6294 0.1992 -0.7312 -3.3122 0.2432 -0.3472 14.4737 -1.4932 2.3586 26.0911 2.4554 -0.5997 -3.7205 0.8327 2.2803 -10.1854 -0.2638 0.0140 0.0714 -0.0224 0.6837 -10.3699 -3.8486 -0.6536 -10.4158 3.8074 -0.1257 12.3592 -6.5153 -13.7919 -8.0896 -36.1992 1.2159 1.0237 -107.2317 -6.9941 9.3559 -15.8192 -16.3247 10.6212 15.3070 -60.8661 1.4204 2.4115 1.2972 13.3775 12.4211 35.8058 2.0986 30.5861 -0.0217 1.2102 90.1924 6.5560 -35.4505 12.1633 14.6975 7.5169 -15.6454 50.0152 -3.4853 -4.9432 17.6800 -26.1970 16.4817 -0.5582 47.0362 -0.7564 -10.0065 -18.0265 -18.0547 1.6512 -0.1466 -1.7181 -13.4250 -20.7800 -22.0742 0.6814 44.4417 0.8853 10.1703 -19.3631 12.0956 -1.4219 0.0916 1.1208
0.5397 91.0678 -3.0893 -2.5223 -5.8910 1.2213 -0.6329 5.3968 0.1531 -0.7729 -3.3751 0.2026 -0.4504 14.2734 -1.6192 2.8339 27.3458 2.2847 -0.5981 -3.6809 0.9144 2.1397 -9.7372 -0.2053 0.0120 0.0689 -0.0134 0.6745 -10.3903 -3.8430 -0.6479 -10.4370 3.8200 0.5580 12.0002 -6.4768 -14.9245 -9.4972 -35.2258 1.8326 1.0076 -107.2173 -5.6459 10.0765 -15.6161 -16.6682 10.5151 15.3711 -61.3583 1.3334 2.5158 0.9595 13.0232 11.9769 31.3016 -0.8659 28.6263 0.1506 1.0812 91.7720 3.2342 -26.5996 11.9399 14.6090 7.6586 -15.8620 50.0619 -3.3156 -5.0980 18.0179 -25.4780 16.0605 -0.5861 46.3655 -0.8090 -10.2385 -17.8567 -17.6868 1.6487 -0.2202 -1.7140 -13.3728 -20.0298 -22.6037 0.6761 44.1434 0.8865 10.2110 -19.5128 12.2406 -1.4170 0.0222 1.1287
0.1728 91.3275 -2.9527 -2.5557 -6.1091 1.6375 -0.6243 5.1724 0.0810 -0.8117 -3.4058 0.1617 -0.5104 13.8388 -1.7780 3.4807 28.3830 2.0377 -0.6025 -3.6421 0.9699 2.0335 -9.3909 -0.2625 0.0139 0.0667 -0.0127 0.6710 -10.4045 -3.8494 -0.6398 -10.4502 3.8266 1.5863 11.4523 -6.6631 -15.5418 -11.4069 -34.6543 2.1819 0.9955 -107.1874 -3.6956 10.1506 -14.9593 -16.8047 10.4861 15.4173 -61.6567 1.3211 2.5737 0.3182 12.4443 11.6033 26.9420 -4.0797 27.5739 0.1619 1.1543 93.4581 0.1792 -19.4660 11.2901 14.5267 7.6537 -15.9996 49.8489 -3.2705 -5.1335 18.2062 -24.7159 15.7089 -0.5763 45.2318 -0.8181 -10.4890 -17.4529 -17.3457 1.6461 -0.2975 -1.6965 -13.2386 -19.1501 -23.2193 0.6498 43.2943 0.8688 10.2780 -19.4251 12.3164 -1.4191 -0.0524 1.1298
-0.1557 91.6817 -2.8197 -2.5095 -6.1760 2.0379 -0.6267 4.9782 0.0353 -0.8325 -3.4370 0.0801 -0.5533 13.2694 -1.9046 4.0930 29.0798 1.7743 -0.6120 -3.6280 0.9877 1.9351 -9.1958 -0.3416 0.0167 0.0640 -0.0114 0.6752 -10.4147 -3.8529 -0.6369 -10.4589 3.8305 2.7729 10.8209 -6.9703 -15.3186 -13.4130 -34.4410 2.3637 0.8621 -107.1618 -1.2637 9.4318 -14.0806 -16.6560 10.5239 15.4516 -61.6109 1.3368 2.5892 -0.6180 11.7559 11.3114 22.6195 -6.7362 27.3676 -0.1472 1.3541 95.3102 -2.6263 -14.7074 10.9212 14.5895 7.6147 -16.0460 49.8541 -3.2805 -5.0384 18.1781 -23.9833 15.5013 -0.5709 43.8886 -0.8284 -10.7220 -16.9071 -17.0577 1.6399 -0.4129 -1.6897 -13.1237 -18.3329 -23.7440 0.6292 42.1988 0.8314 10.3439 -19.1643 12.3231 -1.4256 -0.1319 1.1219
-0.4091 92.0769 -2.6703 -2.3851 -6.1322 2.3943 -0.6161 4.7877 0.0185 -0.8391 -3.4669 0.0067 -0.5820 12.6469 -1.9837 4.6118 29.3978 1.5294 -0.6492 -3.6312 0.9478 1.7986 -9.0407 -0.3712 0.0227 0.0625 -0.0194 0.6873 -10.4125 -3.8642 -0.6365 -10.4554 3.8243 3.9611 10.1840 -7.3363 -14.3899 -15.5305 -34.3923 2.2938 0.6263 -107.0296 1.3509 8.3901 -13.1048 -16.4368 10.5106 15.3849 -61.3647 1.3195 2.5821 -1.6850 11.0760 11.0586 18.2603 -8.8559 27.5992 -0.5305 1.6148 97.1697 -5.3012 -12.0863 10.8282 14.8078 7.6509 -16.0987 50.2014 -3.2813 -4.9504 17.9820 -23.2446 15.3927 -0.5566 42.4311 -0.8128 -10.9801 -16.2685 -16.8185 1.6338 -0.5451 -1.6998 -13.0777 -17.5964 -24.1002 0.6173 41.0090 0.7796 10.4566 -18.7809 12.1912 -1.4346 -0.2278 1.1099
-0.5871 92.4707 -2.4815 -2.2007 -6.0098 2.6809 -0.5756 4.5935 -0.0141 -0.8303 -3.5004 -0.0258 -0.5910 12.0142 -2.0301 4.9985 29.3739 1.3557 -0.6812 -3.6328 0.8316 1.6079 -8.8617 -0.4186 0.0241 0.0625 -0.0221 0.6976 -10.4250 -3.8685 -0.6440 -10.4666 3.8216 5.0800 9.5282 -7.6919 -13.1325 -17.6618 -34.3360 2.0722 0.3583 -106.8166 3.8574 7.3743 -11.9900 -16.2023 10.5141 15.2688 -61.2029 1.3303 2.5116 -2.7100 10.4765 10.8388 13.8785 -10.6529 27.9192 -0.8637 1.7553 98.9381 -7.8441 -11.0313 10.8652 15.0373 7.7301 -16.1586 50.6368 -3.2518 -4.9176 17.6569 -22.4835 15.2624 -0.5181 40.9512 -0.7560 -11.2426 -15.6285 -16.5558 1.6259 -0.6370 -1.7095 -13.0720 -16.9457 -24.2726 0.5953 39.8146 0.7217 10.5868 -18.3632 11.8931 -1.4386 -0.2888 1.0833
-0.7393 92.8549 -2.2448 -1.9937 -5.8308 2.9413 -0.5095 4.4012 -0.0267 -0.8059 -3.5501 -0.0570 -0.6000 11.4032 -2.0699 5.2781 29.0711 1.2475 -0.7282 -3.6356 0.7028 1.3901 -8.6274 -0.5185 0.0198 0.0570 -0.0148 0.6952 -10.4401 -3.8594 -0.6506 -10.4784 3.8293 6.0862 8.8510 -7.9883 -11.8560 -19.6871 -34.2205 1.7647 0.1708 -106.5821 6.1206 6.2837 -10.7968 -15.9349 10.5119 15.1539 -60.9889 1.3775 2.4209 -3.5650 9.9572 10.7029 9.6579 -12.3087 28.0599 -0.9873 1.8153 100.6571 -10.1949 -10.7762 10.9499 15.1919 7.8553 -16.2769 50.9792 -3.1883 -4.9285 17.2927 -21.7392 15.1444 -0.4849 39.4875 -0.7010 -11.5339 -15.0156 -16.3350 1.6196 -0.7236 -1.7346 -13.1068 -16.3470 -24.3013 0.5675 38.6522 0.6668 10.7422 -17.9620 11.4768 -1.4427 -0.3553 1.0615
-0.8420 93.2043 -2.0041 -1.7928 -5.6228 3.1740 -0.4307 4.2028 -0.0734 -0.7652 -3.5907 -0.0278 -0.6009 10.8300 -2.1122 5.4706 28.6629 1.1694 -0.8000 -3.6484 0.5600 1.1753 -8.3659 -0.6418 0.0132 0.0476 -0.0027 0.6874 -10.4500 -3.8453 -0.6566 -10.4830 3.8408 6.9142 8.2764 -8.2108 -10.7396 -21.4844 -33.9889 1.4753 0.0480 -106.4927 7.9895 5.2647 -9.6360 -15.7001 10.4945 15.0571 -60.7778 1.4063 2.3399 -4.2773 9.5200 10.6183 6.0410 -13.9387 27.9399 -1.0117 1.8332 102.2709 -12.0981 -10.8722 11.0411 15.2756 7.9572 -16.4285 51.1484 -3.1579 -4.9993 16.9364 -21.0474 15.0453 -0.4518 38.0964 -0.6368 -11.8193 -14.4546 -16.2119 1.6193 -0.8312 -1.7566 -13.1589 -15.8227 -24.2910 0.5447 37.5539 0.6148 10.9154 -17.5544 11.0745 -1.4444 -0.4103 1.0261
-0.8912 93.5253 -1.7516 -1.6021 -5.4319 3.3701 -0.3533 4.0317 -0.0834 -0.7183 -3.6345 -0.0428 -0.5970 10.3398 -2.1441 5.6213 28.2117 1.1138 -0.9003 -3.6578 0.4663 0.9542 -8.1156 -0.7707 0.0104 0.0390 0.0049 0.6810 -10.4511 -3.8336 -0.6564 -10.4821 3.8463 7.5797 7.8452 -8.3304 -9.8906 -23.0108 -33.6310 1.2113 0.0153 -106.5904 9.3527 4.4240 -8.5857 -15.4877 10.4646 14.9855 -60.4867 1.4108 2.2670 -4.8930 9.1468 10.5788 3.2129 -15.4990 27.5418 -0.9793 1.7585 103.8633 -13.5422 -11.0973 10.9951 15.2957 8.0196 -16.5748 51.1682 -3.1897 -5.0997 16.6115 -20.3889 14.9741 -0.4447 36.8416 -0.6196 -12.0667 -13.9926 -16.1269 1.6178 -0.8910 -1.7778 -13.2541 -15.3125 -24.2449 0.5191 36.5188 0.5651 11.0913 -17.1954 10.7170 -1.4450 -0.4287 1.0103
-0.9027 93.7932 -1.4747 -1.4346 -5.2743 3.5437 -0.2814 3.8742 -0.1115 -0.6676 -3.6768 -0.0348 -0.5660 9.9427 -2.1740 5.7115 27.8250 1.0716 -0.9834 -3.6711 0.3835 0.7474 -7.9229 -0.9055 0.0118 0.0334 0.0059 0.6836 -10.4502 -3.8300 -0.6560 -10.4782 3.8426 8.0561 7.5351 -8.3034 -9.3005 -24.2717 -33.2750 1.0043 -0.0498 -106.8978 10.2933 3.6926 -7.7697 -15.3827 10.4203 14.9383 -60.2687 1.4034 2.2353 -5.4070 8.8663 10.5511 1.1619 -16.9630 26.9361 -1.0378 1.5545 105.3213 -14.4623 -11.5076 10.8818 15.3113 8.0571 -16.6864 51.1538 -3.2272 -5.1935 16.3152 -19.7822 14.8716 -0.4352 35.7769 -0.6064 -12.2585 -13.5964 -16.0504 1.6193 -0.9003 -1.7881 -13.3689 -14.8497 -24.2623 0.5055 35.5962 0.5340 11.2368 -16.8828 10.4461 -1.4436 -0.4153 1.0010
-0.8922 93.9980 -1.1972 -1.3073 -5.1556 3.6938 -0.2043 3.7338 -0.1207 -0.6189 -3.7242 -0.0366 -0.5080 9.6447 -2.1866 5.7375 27.4890 1.0432 -1.0418 -3.6769 0.2984 0.5500 -7.7434 -1.0260 0.0100 0.0314 0.0168 0.6819 -10.4404 -3.8165 -0.6583 -10.4643 3.8512 8.3639 7.2593 -8.1625 -9.0879 -25.1595 -32.9303 0.7959 -0.0957 -107.3688 10.8806 3.1108 -7.1707 -15.3746 10.3709 14.9330 -60.1353 1.4000 2.1980 -5.7574 8.6730 10.5171 -0.1581 -18.1658 26.2057 -1.1219 1.2792 106.6652 -14.9091 -11.8711 10.6095 15.3387 8.0649 -16.7702 51.0991 -3.2622 -5.2809 16.0921 -19.2576 14.7412 -0.4394 34.9382 -0.6087 -12.4242 -13.3033 -15.9500 1.6226 -0.8552 -1.7937 -13.4910 -14.4398 -24.3238 0.4953 34.8344 0.5155 11.3796 -16.6450 10.2516 -1.4430 -0.3758 1.0014
-0.8511 94.1346 -0.9216 -1.2122 -5.1031 3.8037 -0.1279 3.6151 -0.1006 -0.5785 -3.7676 -0.0606 -0.4349 9.4485 -2.1872 5.7539 27.2791 1.0457 -1.0742 -3.6874 0.2082 0.3563 -7.6099 -1.1097 0.0087 0.0318 0.0258 0.6819 -10.4464 -3.8082 -0.6614 -10.4672 3.8615 8.5095 7.0203 -7.9712 -9.0867 -25.6461 -32.6322 0.6597 -0.1146 -107.8972 11.2669 2.6557 -6.7306 -15.3815 10.3402 14.9619 -60.0554 1.3865 2.1809 -5.9888 8.5742 10.4989 -0.9013 -19.1150 25.4506 -1.2573 1.0453 107.8577 -15.0093 -12.3271 10.2660 15.3684 8.0509 -16.7966 51.0670 -3.2809 -5.3428 15.9501 -18.8256 14.6058 -0.4393 34.3938 -0.6066 -12.5474 -13.1609 -15.8666 1.6282 -0.8191 -1.7952 -13.6333 -14.1043 -24.3742 0.4769 34.3285 0.4828 11.4984 -16.5196 10.1069 -1.4413 -0.3252 1.0027
-0.8217 94.2071 -0.6734 -1.1505 -5.0931 3.9112 -0.0459 3.4987 -0.0859 -0.5434 -3.7956 -0.0628 -0.3581 9.3245 -2.1981 5.7704 27.1337 1.0485 -1.0890 -3.6983 0.1116 0.1556 -7.5641 -1.1576 0.0059 0.0323 0.0380 0.6808 -10.4484 -3.7973 -0.6665 -10.4674 3.8751 8.4897 6.8082 -7.7504 -9.2151 -25.7537 -32.4669 0.5331 -0.0453 -108.3703 11.5195 2.2913 -6.4633 -15.4334 10.3198 14.9815 -60.0640 1.3941 2.1751 -6.1516 8.5336 10.4586 -1.1307 -19.7204 24.7354 -1.4487 0.9455 108.8835 -14.8388 -12.8774 9.9720 15.3231 8.0378 -16.8095 51.0346 -3.3006 -5.3908 15.8759 -18.4730 14.4425 -0.4365 34.0565 -0.6105 -12.6199 -13.1231 -15.7983 1.6299 -0.7669 -1.7899 -13.7715 -13.8169 -24.4297 0.4619 34.0065 0.4647 11.5912 -16.4479 9.9620 -1.4404 -0.2927 1.0027
-0.7936 94.2265 -0.4349 -1.1281 -5.1241 3.9834 0.0453 3.4076 -0.0664 -0.5109 -3.8213 -0.0651 -0.2754 9.2655 -2.1898 5.8021 27.0225 1.0677 -1.1047 -3.7035 -0.0085 -0.0212 -7.5857 -1.2288 0.0059 0.0327 0.0400 0.6808 -10.4431 -3.7943 -0.6666 -10.4596 3.8754 8.3546 6.6882 -7.5179 -9.4219 -25.6356 -32.4472 0.4176 0.0665 -108.7296 11.7077 2.0051 -6.4388 -15.4742 10.3122 14.9993 -60.1101 1.4171 2.1725 -6.2411 8.5376 10.4415 -1.0247 -20.0850 24.0409 -1.5683 0.8759 109.8632 -14.4661 -13.3404 9.6932 15.3171 7.9936 -16.7835 51.0008 -3.3125 -5.3988 15.8754 -18.2114 14.2410 -0.4250 33.9622 -0.5970 -12.6629 -13.1805 -15.7247 1.6307 -0.7207 -1.7923 -13.8893 -13.5975 -24.5098 0.4511 33.8935 0.4433 11.6193 -16.4333 9.9086 -1.4417 -0.2773 0.9959
-0.7891 94.2070 -0.2508 -1.1239 -5.1954 4.0168 0.1232 3.3537 -0.0410 -0.4831 -3.8293 -0.0679 -0.1964 9.2545 -2.1665 5.8388 26.9250 1.0811 -1.1213 -3.6998 -0.1370 -0.1544 -7.6668 -1.3004 0.0093 0.0358 0.0313 0.6857 -10.4407 -3.8033 -0.6649 -10.4570 3.8655 8.1747 6.6193 -7.3216 -9.6205 -25.3758 -32.5219 0.3582 0.1675 -108.9613 11.8955 1.8782 -6.5511 -15.4894 10.3176 15.0126 -60.1706 1.4447 2.1635 -6.3111 8.5448 10.4796 -0.7663 -20.2943 23.4457 -1.6444 0.8726 110.7465 -14.0257 -13.8545 9.5025 15.3162 7.9478 -16.7570 50.9828 -3.3323 -5.4069 15.9289 -18.0349 14.0600 -0.4148 34.0701 -0.5879 -12.6829 -13.3206 -15.6830 1.6305 -0.6952 -1.7953 -14.0023 -13.4709 -24.5933 0.4534 33.9962 0.4416 11.6043 -16.5106 9.9124 -1.4434 -0.2423 0.9842
-0.7858 94.1504 -0.1169 -1.1434 -5.2962 4.0354 0.2012 3.3367 -0.0013 -0.4589 -3.8355 -0.0932 -0.1233 9.2875 -2.1067 5.8789 26.8008 1.0975 -1.1617 -3.6871 -0.2643 -0.2094 -7.7401 -1.4116 0.0115 0.0430 0.0249 0.6912 -10.4434 -3.8105 -0.6658 -10.4590 3.8585 7.9919 6.6278 -7.1596 -9.7380 -25.1098 -32.7209 0.3575 0.2959 -109.0117 12.1324 1.7584 -6.7843 -15.4993 10.3243 15.0228 -60.2550 1.4646 2.1291 -6.3805 8.6018 10.5698 -0.5314 -20.4241 23.0013 -1.6905 0.8316 111.5024 -13.6736 -14.2904 9.4441 15.3455 7.8932 -16.7247 50.9534 -3.3380 -5.4100 16.0385 -17.9391 13.8975 -0.4086 34.3234 -0.5847 -12.6805 -13.5149 -15.6685 1.6284 -0.6465 -1.7996 -14.0843 -13.3870 -24.6718 0.4492 34.2271 0.4378 11.5450 -16.6539 9.9267 -1.4438 -0.1956 0.9787
-0.8117 94.0875 -0.0013 -1.1856 -5.3891 4.0750 0.2788 3.3203 0.0114 -0.4290 -3.8301 -0.0812 -0.0561 9.3390 -2.0711 5.9107 26.6628 1.1074 -1.2069 -3.6931 -0.3886 -0.2430 -7.8125 -1.5057 0.0154 0.0471 0.0111 0.6974 -10.4494 -3.8245 -0.6647 -10.4658 3.8438 7.8250 6.6689 -7.0543 -9.8031 -24.8749 -32.9477 0.4282 0.3846 -108.9026 12.4697 1.8404 -7.0715 -15.5053 10.3204 15.0233 -60.2835 1.4607 2.0973 -6.4538 8.6718 10.6685 -0.3835 -20.5661 22.8090 -1.7073 0.7927 112.0428 -13.4026 -14.7362 9.5416 15.3524 7.8454 -16.6864 50.9131 -3.3383 -5.3927 16.1784 -17.8881 13.7261 -0.4077 34.6016 -0.5841 -12.6643 -13.7029 -15.6839 1.6262 -0.6093 -1.7978 -14.1213 -13.3220 -24.7424 0.4580 34.4797 0.4648 11.4894 -16.7911 9.8814 -1.4408 -0.1435 0.9798
-0.8184 94.0291 0.1038 -1.2489 -5.4673 4.1049 0.3496 3.2957 0.0242 -0.3992 -3.8197 -0.0561 0.0121 9.3861 -2.0427 5.9432 26.5253 1.1362 -1.2381 -3.6956 -0.5144 -0.2781 -7.8725 -1.5793 0.0210 0.0474 -0.0060 0.7052 -10.4435 -3.8422 -0.6611 -10.4634 3.8251 7.7272 6.6989 -6.9998 -9.9183 -24.7034 -33.1715 0.5264 0.5208 -108.6726 12.8415 1.9092 -7.3577 -15.5150 10.2887 15.0020 -60.3454 1.4483 2.0952 -6.4859 8.7464 10.7897 -0.3328 -20.6906 22.8671 -1.6915 0.7244 112.4153 -13.2511 -14.9709 9.7145 15.3806 7.7613 -16.6213 50.8940 -3.3025 -5.3749 16.3368 -17.8434 13.6068 -0.4024 34.8209 -0.5864 -12.6484 -13.8391 -15.7066 1.6257 -0.6119 -1.7981 -14.1235 -13.2256 -24.8107 0.4701 34.6473 0.4815 11.4514 -16.8570 9.8581 -1.4381 -0.1194 0.9865
-0.8579 94.0027 0.2154 -1.3141 -5.5363 4.0904 0.4146 3.2552 0.0494 -0.3756 -3.8119 -0.0298 0.0828 9.4325 -2.0353 5.9371 26.4354 1.1734 -1.2643 -3.7085 -0.6090 -0.3226 -7.9118 -1.6360 0.0253 0.0461 -0.0210 0.7118 -10.4450 -3.8558 -0.6591 -10.4642 3.8069 7.7387 6.6571 -6.9846 -10.1014 -24.6226 -33.2650 0.5818 0.5501 -108.4211 13.1786 2.0041 -7.6042 -15.5137 10.2477 14.9943 -60.3508 1.4400 2.0672 -6.4728 8.7784 10.9326 -0.4323 -20.7692 23.1167 -1.6788 0.6715 112.6629 -13.1707 -15.1733 9.9201 15.3647 7.6972 -16.5653 50.8872 -3.2734 -5.3487 16.4836 -17.7565 13.5484 -0.3973 34.9333 -0.5853 -12.6322 -13.9394 -15.7077 1.6238 -0.6203 -1.8023 -14.0956 -13.0661 -24.8215 0.4720 34.6817 0.4889 11.4490 -16.8813 9.7817 -1.4327 -0.1010 0.9912
-0.8750 94.0158 0.3536 -1.3806 -5.5921 4.0797 0.4690 3.1973 0.0662 -0.3589 -3.8224 -0.0205 0.1588 9.4640 -2.0021 5.9054 26.3756 1.2046 -1.3000 -3.7238 -0.6779 -0.3762 -7.9107 -1.6989 0.0270 0.0441 -0.0309 0.7155 -10.4484 -3.8648 -0.6598 -10.4683 3.7956 7.8389 6.5960 -7.0381 -10.3100 -24.6062 -33.2315 0.5990 0.5467 -108.1796 13.5136 1.9388 -7.7947 -15.5410 10.2108 15.0045 -60.3839 1.4428 2.0550 -6.4401 8.8086 11.0680 -0.6440 -20.8167 23.4702 -1.6442 0.6043 112.8138 -13.1558 -15.3686 10.1463 15.3920 7.6509 -16.5265 50.9254 -3.2327 -5.3196 16.6305 -17.5966 13.5160 -0.4011 34.8744 -0.5937 -12.6239 -14.0003 -15.7150 1.6243 -0.6257 -1.8039 -14.0485 -12.8196 -24.8082 0.4646 34.5449 0.4813 11.4713 -16.8732 9.6981 -1.4280 -0.1120 0.9886
-0.9013 94.0516 0.4795 -1.4439 -5.6378 4.0468 0.5283 3.1273 0.0601 -0.3442 -3.8378 0.0063 0.2257 9.4757 -1.9842 5.8139 26.3045 1.2464 -1.3103 -3.7314 -0.7760 -0.4448 -7.8859 -1.7158 0.0251 0.0403 -0.0283 0.7173 -10.4500 -3.8634 -0.6650 -10.4697 3.7991 7.9987 6.5429 -7.1284 -10.4614 -24.5368 -33.0634 0.6284 0.5404 -107.9667 13.8249 1.7282 -7.9413 -15.5650 10.1895 15.0160 -60.3779 1.4583 2.0574 -6.4156 8.8348 11.2289 -0.9634 -20.8610 23.8659 -1.5645 0.5848 112.8510 -13.2445 -15.5408 10.4157 15.4264 7.6290 -16.5103 50.9747 -3.1983 -5.3137 16.7567 -17.3666 13.5226 -0.3894 34.6629 -0.5828 -12.6302 -14.0010 -15.7339 1.6274 -0.6554 -1.8080 -13.9958 -12.5035 -24.7601 0.4541 34.2569 0.4730 11.5094 -16.8174 9.6067 -1.4244 -0.1420 0.9864
-0.9046 94.1086 0.6267 -1.4848 -5.6829 3.9795 0.5850 3.0590 0.0535 -0.3390 -3.8652 0.0207 0.2645 9.4644 -1.9685 5.6877 26.2257 1.3113 -1.3160 -3.7372 -0.8474 -0.5245 -7.8379 -1.7493 0.0218 0.0379 -0.0238 0.7158 -10.4618 -3.8595 -0.6704 -10.4809 3.8050 8.2017 6.5161 -7.2221 -10.4846 -24.3749 -32.7993 0.7451 0.4547 -107.8506 14.1524 1.4228 -8.0080 -15.5706 10.2103 15.0298 -60.3845 1.4837 2.0231 -6.4033 8.8594 11.3823 -1.3918 -20.8392 24.2669 -1.5450 0.5764 112.9070 -13.3490 -15.5054 10.5951 15.4657 7.6256 -16.5203 51.0225 -3.1631 -5.3008 16.8466 -17.1069 13.5634 -0.3790 34.4143 -0.5808 -12.6448 -13.9953 -15.7408 1.6304 -0.6832 -1.8136 -13.9381 -12.1476 -24.6435 0.4268 33.9079 0.4478 11.5225 -16.7974 9.4997 -1.4214 -0.1830 0.9720
-0.9147 94.1788 0.7638 -1.5176 -5.7076 3.9104 0.6507 2.9798 0.0480 -0.3367 -3.8902 0.0239 0.2861 9.4396 -1.9431 5.5490 26.1105 1.3959 -1.3238 -3.7356 -0.9210 -0.6125 -7.7815 -1.7859 0.0212 0.0383 -0.0256 0.7158 -10.4540 -3.8619 -0.6714 -10.4752 3.8042 8.3984 6.4759 -7.3141 -10.4861 -24.1994 -32.4646 0.8392 0.4551 -107.8143 14.5034 0.9113 -8.0722 -15.5509 10.2499 15.0711 -60.3687 1.5239 2.0048 -6.4091 8.8991 11.5196 -1.8431 -20.8526 24.6093 -1.4748 0.6521 112.9951 -13.4552 -15.4207 10.7765 15.4563 7.6327 -16.5657 51.0356 -3.1614 -5.3235 16.9337 -16.8120 13.6251 -0.3725 34.0703 -0.5792 -12.7246 -13.9262 -15.7325 1.6362 -0.7021 -1.8207 -13.8921 -11.7728 -24.5150 0.4112 33.4875 0.4285 11.5396 -16.7502 9.3756 -1.4242 -0.1970 0.9671
-0.9186 94.2641 0.9072 -1.5325 -5.7368 3.8427 0.7066 2.9148 0.0285 -0.3361 -3.9260 0.0402 0.2963 9.4092 -1.9367 5.4016 26.0427 1.4704 -1.3306 -3.7214 -0.9907 -0.6971 -7.7143 -1.7930 0.0228 0.0435 -0.0328 0.7169 -10.4510 -3.8723 -0.6692 -10.4738 3.7980 8.6058 6.5318 -7.3864 -10.4229 -24.0317 -32.0793 0.9661 0.3915 -107.8912 14.8929 0.3914 -8.1308 -15.5365 10.2778 15.1252 -60.3540 1.5200 2.0144 -6.4451 8.9510 11.6242 -2.3453 -20.8792 24.9095 -1.4411 0.6119 113.1640 -13.5621 -15.3231 10.9245 15.5023 7.6250 -16.6038 51.0963 -3.1671 -5.3567 16.9902 -16.5112 13.6708 -0.3629 33.7223 -0.5608 -12.8117 -13.8167 -15.7157 1.6385 -0.6984 -1.8127 -13.8464 -11.4182 -24.4048 0.4016 33.0829 0.4168 11.5456 -16.6936 9.2373 -1.4251 -0.1936 0.9619
-0.9334 94.3448 1.0492 -1.5398 -5.7608 3.7947 0.7626 2.8505 -0.0042 -0.3352 -3.9419 0.0665 0.3024 9.3617 -1.9430 5.2667 25.9784 1.5290 -1.3122 -3.7170 -1.0340 -0.7753 -7.6129 -1.7892 0.0246 0.0448 -0.0406 0.7167 -10.4446 -3.8823 -0.6653 -10.4680 3.7907 8.7912 6.5566 -7.4321 -10.4373 -23.8513 -31.6293 0.9769 0.3562 -108.0674 15.3535 -0.2083 -8.2108 -15.5775 10.2990 15.1857 -60.3990 1.5190 2.0330 -6.5109 8.9499 11.7014 -2.7751 -20.7864 25.1501 -1.4428 0.5811 113.4636 -13.6684 -15.2176 11.0425 15.6152 7.6494 -16.6510 51.1976 -3.1825 -5.3694 17.0421 -16.2027 13.7237 -0.3558 33.3526 -0.5455 -12.9096 -13.6970 -15.7179 1.6429 -0.6953 -1.7991 -13.8215 -11.0603 -24.3474 0.3857 32.6506 0.4019 11.5908 -16.6210 9.0963 -1.4259 -0.1704 0.9635
-0.9515 94.4091 1.1781 -1.5410 -5.7920 3.7703 0.8202 2.8003 -0.0178 -0.3304 -3.9508 0.0735 0.2930 9.3157 -1.9482 5.1563 25.9178 1.5522 -1.2973 -3.7111 -1.0293 -0.8336 -7.5175 -1.7857 0.0258 0.0449 -0.0410 0.7136 -10.4312 -3.8835 -0.6597 -10.4565 3.7910 8.9839 6.5439 -7.4601 -10.5623 -23.5117 -31.1823 0.9988 0.3716 -108.3484 15.7456 -0.8782 -8.3210 -15.6193 10.3181 15.2122 -60.4776 1.5293 2.0900 -6.6164 8.9039 11.7687 -3.0360 -20.6108 25.2814 -1.4601 0.5933 113.8606 -13.6907 -15.2436 11.0508 15.6923 7.6773 -16.6518 51.2266 -3.1972 -5.3722 17.0994 -15.9212 13.7939 -0.3669 33.0122 -0.5547 -13.0027 -13.5928 -15.7628 1.6450 -0.6940 -1.7870 -13.8284 -10.7334 -24.3237 0.3813 32.2638 0.4060 11.6515 -16.5492 9.0069 -1.4284 -0.1874 0.9764
-0.9727 94.4779 1.2870 -1.5319 -5.8124 3.7701 0.8624 2.7609 -0.0343 -0.3223 -3.9617 0.0823 0.2845 9.2771 -1.9489 5.0481 25.8597 1.5528 -1.2602 -3.7033 -1.0110 -0.8603 -7.4116 -1.7846 0.0253 0.0422 -0.0362 0.7126 -10.4363 -3.8814 -0.6599 -10.4643 3.7978 9.1708 6.5250 -7.4600 -10.7617 -23.1146 -30.7983 1.0354 0.3846 -108.6601 16.0455 -1.5026 -8.4648 -15.6257 10.3386 15.2379 -60.5557 1.5419 2.1316 -6.7218 8.8673 11.8315 -3.1704 -20.3943 25.3194 -1.5277 0.5154 114.3107 -13.5959 -15.3341 11.0191 15.7410 7.6894 -16.6541 51.2605 -3.1976 -5.3724 17.1215 -15.6949 13.8531 -0.3697 32.7538 -0.5467 -13.0552 -13.5116 -15.8110 1.6456 -0.7141 -1.7803 -13.8392 -10.4734 -24.2995 0.3796 31.9644 0.4016 11.6594 -16.4822 8.9647 -1.4306 -0.2262 0.9760
-1.0106 94.5381 1.3846 -1.5071 -5.8234 3.7581 0.8899 2.7249 -0.0343 -0.3173 -3.9580 0.0894 0.2798 9.2444 -1.9323 4.9651 25.7820 1.5537 -1.2401 -3.6989 -0.9857 -0.8382 -7.2833 -1.8086 0.0258 0.0418 -0.0355 0.7120 -10.4404 -3.8809 -0.6584 -10.4719 3.7984 9.3431 6.4782 -7.4284 -11.0090 -22.6426 -30.4937 1.0757 0.4058 -108.9851 16.2526 -1.9989 -8.6509 -15.6287 10.3653 15.2637 -60.6009 1.5679 2.1404 -6.8139 8.8480 11.8939 -3.1889 -20.1906 25.2818 -1.6036 0.3973 114.7511 -13.4482 -15.6624 11.0494 15.7455 7.6758 -16.6269 51.2262 -3.2171 -5.3736 17.1283 -15.5038 13.9308 -0.3671 32.5343 -0.5388 -13.0913 -13.4530 -15.8692 1.6456 -0.7289 -1.7793 -13.8573 -10.2700 -24.2354 0.3783 31.7483 0.4087 11.6328 -16.4695 8.8890 -1.4332 -0.2602 0.9812
-1.0244 94.5737 1.4705 -1.4723 -5.8255 3.7383 0.9107 2.7095 -0.0085 -0.3034 -3.9645 0.0837 0.2676 9.2308 -1.9076 4.8823 25.6922 1.5669 -1.2347 -3.6926 -0.9695 -0.7720 -7.1597 -1.8705 0.0260 0.0447 -0.0367 0.7120 -10.4432 -3.8830 -0.6582 -10.4746 3.7993 9.5347 6.4638 -7.3948 -11.2780 -22.1760 -30.2499 1.1648 0.4018 -109.3282 16.3584 -2.4624 -8.8443 -15.6135 10.3636 15.2500 -60.5635 1.5641 2.0924 -6.9073 8.8524 11.9646 -3.1063 -20.0330 25.2020 -1.6234 0.2934 115.1326 -13.2464 -16.2629 11.0944 15.7485 7.6304 -16.5817 51.1660 -3.2395 -5.3546 17.1208 -15.3454 13.9869 -0.3681 32.3552 -0.5338 -13.1126 -13.3916 -15.8871 1.6438 -0.7557 -1.7852 -13.8864 -10.1349 -24.1418 0.3730 31.6187 0.4013 11.6136 -16.4907 8.7735 -1.4350 -0.2987 0.9908
-1.0538 94.5956 1.5581 -1.4241 -5.8254 3.7413 0.9239 2.7075 0.0138 -0.2904 -3.9624 0.0965 0.2437 9.2245 -1.8967 4.8085 25.6445 1.5742 -1.2470 -3.6909 -0.9615 -0.6910 -7.0544 -1.9060 0.0263 0.0469 -0.0405 0.7126 -10.4443 -3.8849 -0.6587 -10.4789 3.7943 9.7395 6.4255 -7.3786 -11.5137 -21.7135 -30.0687 1.2753 0.3567 -109.6303 16.4451 -2.8692 -9.0682 -15.5902 10.3685 15.2230 -60.5833 1.5460 2.0292 -7.0057 8.8698 12.0507 -2.9964 -19.9006 25.0979 -1.5852 0.2695 115.4414 -13.1664 -17.1089 11.1771 15.7089 7.6242 -16.5339 51.1758 -3.2296 -5.3405 17.0933 -15.1991 13.9789 -0.3613 32.2036 -0.5205 -13.1288 -13.3556 -15.8724 1.6411 -0.7985 -1.8028 -13.9155 -10.0456 -24.0358 0.3742 31.5589 0.4124 11.5747 -16.5144 8.6336 -1.4332 -0.3436 0.9972
-1.0967 94.6281 1.6318 -1.3584 -5.8128 3.7432 0.9276 2.6997 0.0363 -0.2798 -3.9592 0.1427 0.2099 9.2328 -1.9105 4.7141 25.6168 1.6104 -1.2381 -3.6801 -0.9701 -0.5992 -6.9043 -1.9335 0.0257 0.0454 -0.0413 0.7143 -10.4452 -3.8829 -0.6618 -10.4823 3.7921 9.9251 6.3708 -7.3624 -11.7004 -21.2664 -29.9839 1.3783 0.3179 -109.8979 16.5192 -3.1445 -9.2989 -15.5287 10.3558 15.1848 -60.5107 1.5266 1.9843 -7.1227 8.9064 12.1589 -2.8325 -19.7101 24.9650 -1.4764 0.3098 115.6529 -13.1717 -17.8006 11.2960 15.6916 7.6371 -16.5162 51.2447 -3.1834 -5.3287 17.0420 -15.0546 13.9515 -0.3561 32.0313 -0.5165 -13.1620 -13.3015 -15.7930 1.6414 -0.8539 -1.8332 -13.9469 -9.9726 -23.8773 0.3752 31.5099 0.4226 11.5554 -16.5160 8.4537 -1.4302 -0.4225 0.9994
-1.0963 94.6510 1.7137 -1.2969 -5.8028 3.7560 0.9286 2.6869 0.0497 -0.2731 -3.9478 0.1906 0.1839 9.2405 -1.9116 4.6139 25.6444 1.6280 -1.2405 -3.6626 -0.9213 -0.5116 -6.7108 -1.9704 0.0228 0.0440 -0.0351 0.7121 -10.4374 -3.8724 -0.6656 -10.4778 3.7952 10.1516 6.3090 -7.3569 -11.8258 -20.9522 -29.9404 1.4465 0.2763 -110.1327 16.6247 -3.3561 -9.5200 -15.4946 10.3301 15.1408 -60.4565 1.5339 1.9420 -7.2757 8.9347 12.2816 -2.6628 -19.3854 24.7736 -1.4696 0.3658 115.8205 -13.1824 -18.3528 11.4692 15.6570 7.6611 -16.4866 51.3130 -3.1210 -5.2987 16.9983 -14.9016 13.8905 -0.3645 31.8442 -0.5307 -13.1987 -13.2570 -15.6812 1.6403 -0.8790 -1.8594 -13.9790 -9.8756 -23.6886 0.3820 31.4324 0.4300 11.5777 -16.4907 8.2361 -1.4250 -0.4982 0.9979
-1.1054 94.6715 1.7758 -1.2441 -5.7866 3.7883 0.9330 2.6868 0.0598 -0.2659 -3.9439 0.2251 0.1602 9.2447 -1.8843 4.5075 25.7063 1.6663 -1.2673 -3.6481 -0.8534 -0.4292 -6.4502 -2.0220 0.0184 0.0424 -0.0192 0.7082 -10.4166 -3.8509 -0.6709 -10.4600 3.8080 10.4105 6.2637 -7.3327 -11.8853 -20.7241 -29.9379 1.4235 0.2493 -110.3977 16.7103 -3.4939 -9.6234 -15.4663 10.2885 15.0919 -60.3751 1.5333 1.9193 -7.4627 8.9705 12.4140 -2.4831 -19.0310 24.4982 -1.4802 0.3899 116.0008 -13.2166 -18.8147 11.6767 15.6011 7.6949 -16.4756 51.3857 -3.0547 -5.2572 16.9601 -14.7378 13.8162 -0.3706 31.6378 -0.5483 -13.2431 -13.2148 -15.5786 1.6407 -0.8891 -1.8694 -14.0036 -9.7506 -23.5220 0.3802 31.3104 0.4386 11.6372 -16.4377 8.0392 -1.4213 -0.5372 0.9963
-1.1353 94.7053 1.8836 -1.2063 -5.7649 3.7886 0.9508 2.6960 0.0693 -0.2567 -3.9533 0.2567 0.1570 9.2279 -1.8351 4.3851 25.8036 1.7379 -1.2839 -3.6398 -0.8142 -0.3576 -6.1019 -2.0805 0.0143 0.0390 -0.0077 0.7055 -10.4125 -3.8373 -0.6767 -10.4550 3.8200 10.7090 6.1994 -7.3190 -11.9582 -20.5186 -29.8559 1.3451 0.2970 -110.7318 16.8294 -3.8187 -9.6683 -15.4417 10.3196 15.1180 -60.3457 1.5451 1.8792 -7.6580 9.0298 12.5947 -2.4099 -18.6963 24.1361 -1.5286 0.3364 116.2272 -13.2997 -19.1662 11.9304 15.6096 7.7261 -16.4820 51.4732 -3.0152 -5.2393 16.9326 -14.5732 13.7213 -0.3709 31.4349 -0.5577 -13.2733 -13.1730 -15.5009 1.6407 -0.9170 -1.8736 -14.0093 -9.6156 -23.3900 0.3641 31.1655 0.4234 11.6839 -16.3748 7.9074 -1.4186 -0.5549 0.9854
-1.1325 94.7348 1.9478 -1.1846 -5.7384 3.7889 0.9853 2.7058 0.0612 -0.2465 -3.9532 0.3167 0.1657 9.1838 -1.7948 4.2338 25.9241 1.8129 -1.2909 -3.6378 -0.7610 -0.3183 -5.6744 -2.0901 0.0111 0.0356 0.0040 0.7074 -10.4133 -3.8265 -0.6852 -10.4578 3.8341 11.0988 6.0996 -7.3011 -12.1182 -20.2636 -29.6857 1.2650 0.3398 -111.1234 16.9054 -4.2915 -9.6730 -15.4604 10.3173 15.1386 -60.2876 1.5351 1.8923 -7.9181 9.0721 12.8191 -2.3498 -18.3323 23.6562 -1.5540 0.2440 116.5298 -13.3626 -19.5039 12.1305 15.6590 7.7607 -16.4658 51.5724 -2.9766 -5.2386 16.9266 -14.4109 13.6025 -0.3789 31.2388 -0.5681 -13.3139 -13.1239 -15.4041 1.6422 -0.9425 -1.8635 -14.0137 -9.4784 -23.3018 0.3606 30.9859 0.4247 11.7193 -16.3064 7.8261 -1.4169 -0.5716 0.9815
-1.1521 94.7643 2.0575 -1.1520 -5.7329 3.7669 1.0271 2.7274 0.0634 -0.2479 -3.9524 0.3526 0.1891 9.1263 -1.7579 4.0436 26.0870 1.9035 -1.2666 -3.6361 -0.7194 -0.2877 -5.1504 -2.0793 0.0073 0.0273 0.0202 0.7087 -10.4262 -3.8119 -0.6945 -10.4731 3.8555 11.5101 5.9715 -7.2754 -12.3884 -19.8314 -29.4455 1.2331 0.4090 -111.5479 16.9157 -4.8145 -9.6905 -15.4756 10.3493 15.1807 -60.3002 1.5278 1.8883 -8.2261 9.1255 13.0767 -2.2884 -17.8881 23.0997 -1.5712 0.1262 116.9871 -13.3934 -19.7303 12.2536 15.7805 7.7694 -16.4454 51.6869 -2.9554 -5.2486 16.8952 -14.2125 13.4504 -0.3800 31.0689 -0.5686 -13.3408 -13.0853 -15.2929 1.6466 -0.9948 -1.8548 -14.0425 -9.3515 -23.2494 0.3515 30.8391 0.3977 11.7923 -16.2523 7.8260 -1.4177 -0.6008 0.9823
-1.1617 94.8029 2.1472 -1.1136 -5.7385 3.7363 1.0691 2.7379 0.0525 -0.2472 -3.9450 0.4127 0.2164 9.0681 -1.7290 3.8411 26.2925 1.9881 -1.2147 -3.6276 -0.6860 -0.2582 -4.6010 -2.0216 0.0052 0.0213 0.0323 0.7077 -10.4387 -3.8019 -0.6977 -10.4864 3.8695 11.9500 5.8721 -7.2787 -12.6904 -19.1736 -29.1829 1.3546 0.4759 -111.9699 16.9059 -5.4928 -9.7889 -15.4851 10.4077 15.2291 -60.3887 1.5158 1.9308 -8.5653 9.1869 13.3252 -2.2560 -17.2929 22.5178 -1.6518 0.0043 117.5514 -13.4888 -20.0951 12.5153 15.9003 7.7740 -16.4321 51.8154 -2.9271 -5.2464 16.8584 -14.0151 13.2882 -0.3791 30.9321 -0.5711 -13.3357 -13.0765 -15.1751 1.6497 -1.0519 -1.8469 -14.0986 -9.2264 -23.2175 0.3505 30.7016 0.3876 11.8767 -16.2023 7.8245 -1.4174 -0.6741 0.9838
-1.1514 94.8209 2.2350 -1.0733 -5.7305 3.7146 1.1185 2.7339 0.0436 -0.2422 -3.9489 0.4711 0.2379 9.0174 -1.7135 3.6144 26.4945 2.0573 -1.1433 -3.6201 -0.6625 -0.2076 -3.9924 -1.9801 0.0032 0.0175 0.0409 0.7057 -10.4423 -3.7940 -0.7001 -10.4874 3.8794 12.4198 5.8187 -7.2700 -13.0340 -18.3329 -28.9353 1.5610 0.5139 -112.4260 16.7971 -6.3890 -9.9974 -15.5342 10.4441 15.2511 -60.5053 1.5097 1.9528 -8.9678 9.2293 13.5908 -2.1978 -16.5198 21.8689 -1.7847 -0.0987 118.2722 -13.6364 -20.5810 12.9276 15.9493 7.7806 -16.4017 51.8794 -2.9300 -5.2250 16.8157 -13.8306 13.0825 -0.3783 30.8337 -0.5671 -13.3304 -13.0859 -15.0392 1.6533 -1.0986 -1.8456 -14.1695 -9.1251 -23.1927 0.3548 30.5700 0.3927 11.9556 -16.1596 7.8175 -1.4191 -0.7456 0.9837
-1.1619 94.8404 2.3190 -1.0312 -5.7354 3.6772 1.1652 2.7495 0.0486 -0.2349 -3.9509 0.5009 0.2683 8.9638 -1.6812 3.3964 26.6723 2.1074 -1.0868 -3.6024 -0.6300 -0.1188 -3.3267 -1.9844 -0.0023 0.0144 0.0543 0.7008 -10.4400 -3.7773 -0.7067 -10.4825 3.8922 12.9569 5.7565 -7.3172 -13.4084 -17.4310 -28.6270 1.7417 0.4530 -112.9393 16.5696 -7.4684 -10.1748 -15.5431 10.4773 15.2498 -60.5999 1.5246 1.9188 -9.4402 9.2693 13.8737 -2.1134 -15.5880 21.1946 -2.0011 -0.2920 119.1344 -13.8725 -21.1112 13.5372 15.9636 7.7741 -16.3569 51.8993 -2.9365 -5.2015 16.7724 -13.6584 12.8909 -0.3783 30.7872 -0.5589 -13.3249 -13.1348 -14.9023 1.6530 -1.1281 -1.8656 -14.2369 -9.0502 -23.1541 0.3596 30.5054 0.4041 11.9810 -16.1209 7.8278 -1.4219 -0.8026 0.9744
-1.1708 94.8393 2.3784 -0.9969 -5.7405 3.6461 1.2053 2.7895 0.0460 -0.2287 -3.9447 0.5450 0.3160 8.8920 -1.6678 3.2155 26.7960 2.1817 -1.0680 -3.5823 -0.6250 0.0121 -2.5891 -2.0245 -0.0098 0.0109 0.0685 0.6925 -10.4314 -3.7610 -0.7137 -10.4699 3.9074 13.5841 5.6834 -7.4046 -13.7997 -16.4799 -28.2901 1.9104 0.3653 -113.5068 16.2891 -8.6960 -10.3489 -15.5366 10.5178 15.2412 -60.6526 1.5455 1.8612 -9.9689 9.2726 14.2159 -2.0259 -14.5601 20.5095 -2.2274 -0.5303 120.0814 -14.2945 -21.7105 14.3232 15.9288 7.7419 -16.2843 51.8422 -2.9809 -5.1914 16.7532 -13.5079 12.7301 -0.3766 30.7508 -0.5480 -13.3172 -13.1808 -14.8429 1.6505 -1.1648 -1.8890 -14.3102 -9.0104 -23.1365 0.3722 30.4765 0.4299 11.9816 -16.0461 7.8513 -1.4240 -0.8387 0.9564
-1.1600 94.8422 2.4055 -0.9681 -5.7173 3.6225 1.2330 2.8495 0.0586 -0.2175 -3.9387 0.5541 0.3692 8.8247 -1.6074 3.0731 26.8426 2.2306 -1.0572 -3.5637 -0.6385 0.1710 -1.8378 -2.1272 -0.0170 0.0087 0.0793 0.6887 -10.4300 -3.7472 -0.7249 -10.4621 3.9184 14.2404 5.6741 -7.5443 -14.0784 -15.6430 -27.8873 2.0764 0.2063 -114.1504 16.0492 -9.9318 -10.4620 -15.4889 10.5609 15.2365 -60.6880 1.5469 1.7973 -10.5182 9.2608 14.5322 -1.9363 -13.5603 19.8998 -2.4761 -0.7672 120.9742 -14.7646 -21.9251 15.0277 15.8943 7.7474 -16.2358 51.8211 -3.0037 -5.1969 16.7147 -13.4271 12.5464 -0.3733 30.7580 -0.5390 -13.3296 -13.2458 -14.7856 1.6472 -1.2047 -1.9187 -14.3552 -9.0322 -23.1177 0.3788 30.4786 0.4494 11.9663 -16.0008 7.8930 -1.4243 -0.8851 0.9332
-1.1460 94.8379 2.3913 -0.9329 -5.6446 3.6469 1.2372 2.9396 0.0774 -0.2092 -3.9074 0.5805 0.4282 8.7221 -1.5612 2.9865 26.7739 2.2573 -1.0622 -3.5489 -0.6692 0.3447 -1.1552 -2.2374 -0.0197 0.0095 0.0780 0.6887 -10.4121 -3.7483 -0.7306 -10.4404 3.9178 14.9060 5.6978 -7.7200 -14.2575 -14.9067 -27.4124 2.2369 0.0554 -114.8980 15.8831 -11.1833 -10.5343 -15.4362 10.6084 15.2534 -60.7120 1.5305 1.7752 -11.0457 9.2015 14.8348 -1.8001 -12.7869 19.3908 -2.5815 -0.8717 121.7364 -15.2494 -21.8562 15.5660 15.8698 7.7784 -16.2217 51.7959 -3.0092 -5.1979 16.6653 -13.4290 12.3201 -0.3616 30.7502 -0.5170 -13.3750 -13.2611 -14.7711 1.6435 -1.2544 -1.9470 -14.3808 -9.1183 -23.1265 0.3849 30.4846 0.4640 11.9595 -15.9460 7.8566 -1.4241 -0.9049 0.9146
-1.1669 94.8501 2.3516 -0.9010 -5.5243 3.7483 1.2154 3.0736 0.1018 -0.2054 -3.8699 0.6171 0.5034 8.6408 -1.5110 2.9503 26.5797 2.2228 -1.0682 -3.5308 -0.7040 0.5385 -0.5683 -2.3450 -0.0158 0.0114 0.0639 0.6998 -10.4105 -3.7646 -0.7336 -10.4382 3.9040 15.5553 5.7671 -7.8998 -14.3789 -14.2040 -26.8537 2.4438 -0.1997 -115.7610 15.7653 -12.2446 -10.5756 -15.3746 10.6362 15.2891 -60.7337 1.4955 1.7680 -11.4867 9.1519 15.1114 -1.5318 -12.2760 18.9024 -2.6242 -0.9654 122.3025 -15.6994 -21.5023 15.8927 15.8494 7.8364 -16.2135 51.8077 -2.9624 -5.1960 16.5804 -13.5340 12.0452 -0.3600 30.7564 -0.5184 -13.4138 -13.2232 -14.7512 1.6396 -1.2974 -1.9783 -14.3547 -9.2736 -23.1343 0.3913 30.5358 0.4764 11.9375 -15.8993 7.7649 -1.4240 -0.9258 0.9046
-1.1711 94.8557 2.2551 -0.8572 -5.3254 3.9637 1.1592 3.2693 0.1298 -0.2119 -3.8024 0.6807 0.6080 8.5281 -1.4572 3.0021 26.2848 2.1496 -1.0801 -3.5152 -0.7482 0.7645 -0.0343 -2.4662 -0.0119 0.0061 0.0500 0.7106 -10.4102 -3.7830 -0.7363 -10.4358 3.8918 16.1848 5.8619 -8.0820 -14.6731 -13.3461 -26.1387 2.6440 -0.3876 -116.7668 15.5690 -13.2825 -10.5776 -15.3169 10.6596 15.3575 -60.7388 1.4238 1.7868 -11.8212 9.0304 15.3677 -0.9099 -11.7926 18.4004 -2.6649 -1.0073 122.7209 -16.0265 -21.0286 16.0943 15.8236 7.8852 -16.2258 51.7788 -2.9722 -5.1939 16.4543 -13.7648 11.6750 -0.3597 30.7438 -0.5233 -13.4769 -13.1453 -14.7413 1.6344 -1.3402 -2.0133 -14.2874 -9.5362 -23.2116 0.3836 30.6185 0.4647 11.8963 -15.8827 7.6296 -1.4208 -0.9362 0.8901
-1.1968 94.8734 2.0733 -0.8075 -4.9955 4.3207 1.0655 3.5393 0.1774 -0.2276 -3.7247 0.7465 0.7518 8.4149 -1.3794 3.1365 25.8924 2.0283 -1.0800 -3.5001 -0.8186 1.0261 0.3687 -2.6064 -0.0047 -0.0026 0.0328 0.7290 -10.3985 -3.8060 -0.7400 -10.4235 3.8769 16.7688 6.0479 -8.2676 -15.3795 -12.1630 -25.1591 2.8200 -0.4648 -117.9750 15.0836 -14.4431 -10.5612 -15.2712 10.6300 15.4331 -60.6664 1.3196 1.8698 -12.0084 8.8854 15.5344 0.2226 -11.3742 17.8460 -2.6121 -0.9534 122.9706 -16.2705 -20.4930 16.2614 15.8148 7.8955 -16.2001 51.6321 -3.0389 -5.1896 16.2811 -14.2285 11.1652 -0.3788 30.7730 -0.5556 -13.5427 -12.9807 -14.7611 1.6288 -1.4158 -2.0431 -14.1724 -9.9596 -23.3779 0.3698 30.7323 0.4368 11.8372 -15.8881 7.4667 -1.4174 -0.9891 0.8838
-1.2270 94.8995 1.7877 -0.7502 -4.4728 4.9367 0.9538 3.8862 0.2002 -0.2487 -3.6271 0.7941 0.9264 8.3204 -1.2277 3.3539 25.3112 1.8514 -1.0428 -3.4962 -0.9301 1.3084 0.6403 -2.7962 -0.0019 -0.0188 0.0267 0.7367 -10.3922 -3.8202 -0.7417 -10.4260 3.8781 17.2835 6.2919 -8.4116 -17.0829 -10.5296 -23.8851 2.7632 -0.3013 -119.4089 14.0946 -15.7832 -10.2705 -15.2433 10.6801 15.5288 -60.6217 1.3123 1.9499 -12.1161 8.6124 15.5530 2.3531 -10.8520 17.2133 -2.4533 -0.8215 122.9086 -16.3140 -19.4707 16.1412 15.9736 7.8507 -16.0735 51.4895 -3.1139 -5.1006 16.0393 -15.0319 10.3983 -0.3869 30.8638 -0.5872 -13.6184 -12.7095 -14.8221 1.6213 -1.5518 -2.0764 -13.9678 -10.6192 -23.6796 0.3455 30.8953 0.3991 11.7463 -15.8901 7.2431 -1.4147 -1.0767 0.8848
-1.2555 94.9142 1.3725 -0.6315 -3.7323 5.8751 0.8212 4.3211 0.1391 -0.2624 -3.4823 0.8943 1.0925 8.2732 -1.0418 3.6838 24.4878 1.5750 -0.9942 -3.4953 -1.1029 1.5636 0.8018 -3.0292 -0.0053 -0.0519 0.0360 0.7467 -10.3981 -3.8201 -0.7577 -10.4555 3.8961 17.7835 6.6175 -8.4243 -20.9410 -8.4055 -22.1770 2.3228 -0.0167 -120.9982 12.4838 -17.2067 -9.3065 -15.1733 10.6632 15.6300 -60.5302 1.4461 2.0256 -12.4267 8.2876 15.6154 6.6178 -10.6371 16.1292 -2.0691 -0.6874 122.3791 -16.3677 -17.6351 15.6487 16.1885 7.7487 -15.9129 51.3261 -3.1803 -4.9194 15.6369 -16.2329 9.2913 -0.3995 31.0790 -0.6379 -13.7514 -12.2864 -14.8597 1.6186 -1.7382 -2.0951 -13.7415 -11.6335 -24.2209 0.3342 31.2204 0.3895 11.6612 -15.9196 6.9983 -1.4151 -1.2393 0.8937
-1.3130 94.9331 0.8743 -0.4058 -2.8535 6.9759 0.7479 4.8441 0.0589 -0.2509 -3.2606 1.0515 1.2164 8.3831 -0.7075 3.9907 23.4770 1.2475 -1.0109 -3.4885 -1.4075 1.7728 0.8502 -3.3961 -0.0137 -0.0840 0.0610 0.7550 -10.4534 -3.8135 -0.7814 -10.5284 3.9396 17.8752 6.9550 -8.0832 -27.6170 -5.4924 -20.4078 1.3878 0.1745 -122.1946 10.5817 -17.9243 -6.9949 -15.0737 10.4709 15.7164 -60.3124 1.6126 2.1368 -13.1926 8.0045 16.0493 14.4232 -10.9853 13.8344 -1.5368 -0.3909 121.3468 -17.1776 -15.8811 14.5707 16.2292 7.5395 -15.7606 50.9073 -3.2899 -4.6766 15.0822 -17.6843 7.8403 -0.4320 31.4183 -0.7123 -13.9303 -11.8087 -14.7609 1.6201 -1.9333 -2.0997 -13.5765 -13.0127 -24.9331 0.3230 31.7722 0.3946 11.7387 -15.9907 6.7733 -1.4257 -1.4066 0.9003
-1.2583 94.8852 0.3162 -0.1631 -1.9416 7.9494 0.8679 5.4663 0.0706 -0.1754 -3.0274 1.3881 1.3917 8.8209 -0.2077 4.0417 22.3759 1.1380 -1.2214 -3.5058 -2.0557 1.9887 0.7381 -4.0561 -0.0236 -0.0931 0.0889 0.7517 -10.5585 -3.8116 -0.7978 -10.6343 3.9939 16.2795 7.3656 -7.1952 -35.6348 -1.4571 -19.2680 -0.0457 0.3044 -122.2034 9.7503 -17.4327 -4.0034 -14.9948 10.2678 15.6786 -60.1200 1.5917 2.2127 -13.3364 7.9264 16.8426 23.9666 -11.7479 10.3543 -0.8684 0.1148 119.0754 -19.4388 -16.9790 13.9561 16.0164 7.3845 -15.5752 50.2468 -3.2808 -4.4877 14.5022 -19.3709 6.3448 -0.4457 32.1547 -0.7504 -13.9795 -11.4587 -14.3702 1.6243 -2.1311 -2.1086 -13.5441 -14.7904 -25.7325 0.3425 32.7342 0.4039 12.0190 -16.0549 6.8697 -1.4451 -1.5462 0.8658
-1.1166 94.5594 -0.2917 0.0011 -1.1090 8.5761 1.1842 6.2538 0.2488 -0.0375 -2.7890 1.8210 1.7578 9.6137 0.5091 3.5538 21.1766 1.1478 -1.4762 -3.5769 -2.8090 2.3224 0.3944 -5.0362 -0.0138 -0.0767 0.0716 0.7595 -10.6633 -3.8518 -0.7866 -10.7251 3.9951 12.3445 8.0770 -5.5690 -43.7920 3.9345 -19.0120 -1.5271 0.3141 -120.7831 10.4620 -16.2107 -2.0879 -14.8944 10.3623 15.6205 -59.9497 1.5520 2.1796 -11.8357 7.9645 17.8145 32.2283 -12.7328 6.2341 -0.3393 0.6306 113.9932 -22.9956 -23.0202 16.1967 15.5508 7.4075 -15.5826 49.5620 -3.2587 -4.5235 14.0431 -21.4128 5.0969 -0.4567 33.7946 -0.7874 -13.7577 -11.6914 -13.7430 1.6211 -2.1849 -2.0864 -13.5696 -17.0693 -26.6051 0.3887 34.5235 0.4278 12.2966 -16.3363 7.3357 -1.4630 -1.6561 0.8350
-0.9437 93.8526 -0.9329 0.2217 -0.5247 8.9203 1.4759 7.1194 0.5126 0.0793 -2.4910 2.3607 2.2514 10.7602 1.6109 2.7308 20.0200 1.0533 -1.6352 -3.6863 -3.5807 2.8957 -0.5802 -6.1288 0.0356 -0.0423 -0.0154 0.8060 -10.7072 -3.9427 -0.7345 -10.7525 3.8942 6.5207 9.3856 -3.2434 -50.4673 10.0843 -19.1737 -2.5145 -0.3992 -117.8684 11.9939 -14.3966 -2.9744 -14.8768 10.7048 15.7633 -59.6004 1.6929 2.1606 -9.5502 7.9149 18.7097 38.3275 -15.3282 0.8681 -0.2305 0.6212 104.6939 -28.0369 -34.8157 22.1115 14.7894 7.4534 -15.7852 49.0092 -3.2998 -4.6525 13.6727 -23.6800 4.3395 -0.4905 36.3868 -0.8199 -13.3498 -12.7318 -13.4606 1.6097 -1.8492 -2.0448 -13.8789 -19.9287 -27.7074 0.4911 37.5512 0.5098 12.4055 -17.3010 8.3725 -1.4664 -1.6006 0.8124
-0.8991 92.8367 -1.6418 0.6295 -0.2986 9.6481 1.5845 8.0345 0.7108 0.1425 -2.1341 3.0632 2.6317 12.1708 2.8997 2.4455 18.8174 0.9026 -1.7814 -3.7562 -4.5769 3.4436 -2.4016 -7.2395 0.0806 -0.0209 -0.0953 0.8414 -10.6539 -4.0012 -0.6811 -10.7056 3.7800 1.2886 10.9769 -1.1635 -55.9973 16.5599 -19.3300 -2.2026 -0.9394 -114.4885 13.5714 -13.8714 -6.2388 -15.1732 10.9174 15.9171 -59.2715 1.8260 2.1766 -8.2776 7.6384 19.4978 43.0739 -20.5111 -6.2876 0.0253 -0.0199 90.7094 -38.0150 -50.3496 34.4670 14.6670 7.5669 -15.7304 48.5319 -3.3610 -4.7762 13.2480 -26.0993 3.8915 -0.5407 39.6329 -0.8670 -12.8526 -14.1362 -13.9815 1.6062 -1.3324 -2.0236 -14.5551 -22.8828 -28.9154 0.6254 41.4922 0.6822 12.2922 -18.9660 9.4177 -1.4545 -1.4499 0.8147
-1.0620 91.8942 -2.3430 0.9493 -0.3164 11.2940 1.6936 8.9564 0.8527 0.1905 -1.7732 3.7426 3.0803 13.4888 4.0395 2.9448 17.8588 0.8097 -2.0002 -3.7848 -5.7828 3.8844 -3.9838 -8.6444 0.0886 -0.0399 -0.1138 0.8302 -10.6614 -4.0076 -0.6562 -10.7181 3.7520 -1.2798 12.2252 0.2805 -61.3150 21.3199 -20.2891 -1.6839 -0.3476 -110.8048 15.7102 -16.4324 -11.1269 -15.5074 10.8897 15.9842 -59.2917 1.8578 2.0843 -7.9520 7.5842 20.3877 46.3439 -27.3176 -13.0317 0.4584 -0.2273 73.3376 -59.6731 -64.1656 60.4222 14.9588 7.6662 -15.5751 48.5291 -3.3034 -4.7370 12.9485 -28.4172 3.1658 -0.6260 42.5218 -0.9740 -12.4721 -14.9451 -14.9571 1.6265 -1.1257 -2.0293 -15.1541 -24.9756 -30.1971 0.7668 44.9015 0.9083 12.1506 -20.4508 9.7134 -1.4446 -1.2592 0.8253
-1.3372 91.1293 -2.9472 1.2001 -0.3795 13.4504 1.8529 9.7458 1.0450 0.2561 -1.3850 4.2242 3.7222 14.4280 5.0989 3.7353 17.1653 0.6943 -2.3512 -3.8403 -6.9800 4.3148 -4.9909 -10.2667 0.0957 -0.0666 -0.1234 0.8249 -10.7007 -4.0194 -0.6376 -10.7616 3.7444 -2.3151 13.0008 1.2255 -66.0636 24.5077 -22.4437 -1.2097 0.1336 -105.9362 17.8785 -19.6822 -16.4704 -15.6066 10.7023 16.0610 -59.5143 1.8717 2.0798 -7.5930 7.3801 21.3815 47.3994 -34.1881 -17.3786 0.6165 -0.1844 55.6410 -91.2757 -70.5070 96.9071 15.2247 7.7253 -15.2408 48.9929 -3.1499 -4.6618 12.7353 -30.3962 2.1117 -0.6533 44.5806 -1.0108 -12.2952 -15.2915 -16.1926 1.6398 -1.1246 -2.0200 -15.6163 -26.3146 -31.4517 0.8466 47.3774 1.0299 12.0731 -21.5520 9.4645 -1.4416 -1.0749 0.8156
-1.6992 90.5285 -3.4003 1.3554 -0.4228 15.7155 2.0831 10.3986 1.2796 0.3384 -1.0272 4.4830 4.5182 15.0479 6.1018 4.5485 16.5372 0.5258 -2.7078 -3.9107 -8.0194 4.6754 -5.7841 -11.8389 0.1089 -0.0692 -0.1387 0.8454 -10.7334 -4.0472 -0.6312 -10.7932 3.7354 -2.7930 13.4247 1.8042 -70.1385 26.7694 -25.3844 -0.3354 -0.1486 -100.4188 19.2598 -22.5969 -21.7847 -15.5527 10.5687 16.0578 -59.7430 1.8386 2.0390 -6.9724 7.0496 22.5191 46.8946 -41.0829 -19.9626 0.6329 -0.3535 40.4032 -120.1950 -71.0789 129.8963 15.5620 7.6858 -14.9684 49.2306 -3.0457 -4.6214 12.6761 -32.0622 0.9049 -0.6278 46.0038 -0.9764 -12.3625 -15.3665 -17.3804 1.6427 -1.0668 -1.9842 -15.8666 -27.1808 -32.6249 0.8266 49.2660 0.9777 11.9877 -22.4825 8.9442 -1.4428 -0.8323 0.8071
-2.1156 90.0497 -3.7158 1.4971 -0.4364 17.8048 2.3008 10.8052 1.5138 0.4485 -0.8059 4.5641 5.2195 15.5447 6.9243 5.3528 15.9801 0.3168 -2.9965 -3.9579 -8.8761 4.9402 -6.5673 -13.1597 0.1179 -0.0524 -0.1529 0.8605 -10.7186 -4.0672 -0.6290 -10.7724 3.7256 -3.0878 13.6886 2.1057 -73.0578 28.2680 -28.2160 0.6022 -0.7321 -95.1085 20.0019 -25.2060 -26.6166 -15.5601 10.5552 16.0131 -60.1919 1.7811 1.9899 -6.3915 6.9196 23.5424 46.2047 -47.0533 -21.6298 0.3659 -0.3067 30.1398 -138.1032 -69.6737 150.0844 15.8884 7.6122 -15.0119 49.5220 -2.9576 -4.6336 12.6946 -33.3225 -0.3184 -0.6062 46.8484 -0.9449 -12.5890 -15.2796 -18.2697 1.6393 -0.9026 -1.9539 -16.0066 -27.7338 -33.5123 0.7645 50.7593 0.8707 11.9152 -23.3692 8.1061 -1.4449 -0.5959 0.8195
-2.5058 89.6597 -3.8944 1.6710 -0.5000 19.5245 2.4763 10.9688 1.6614 0.5505 -0.6900 4.5960 5.6613 15.9835 7.4243 6.1474 15.6112 0.1287 -3.1946 -3.9846 -9.6206 5.0924 -7.2216 -14.1240 0.1088 -0.0456 -0.1445 0.8547 -10.6944 -4.0613 -0.6426 -10.7423 3.7405 -3.2315 13.9292 2.2550 -74.8232 29.3159 -30.3859 1.1814 -1.2042 -90.6601 20.8485 -28.0287 -30.9060 -15.6435 10.5232 15.9350 -60.7293 1.6811 1.9512 -6.3735 6.9299 24.0935 46.1196 -50.9970 -22.6487 -0.0866 -0.1961 24.6668 -147.7824 -68.5345 160.5063 16.1690 7.4673 -15.1289 49.8197 -2.8830 -4.6601 12.6766 -34.1413 -1.3551 -0.5683 47.2948 -0.8942 -12.8969 -15.2015 -18.8805 1.6269 -0.7916 -1.9440 -16.1746 -28.0598 -34.0602 0.7432 51.9527 0.8403 11.8143 -24.1068 7.1896 -1.4352 -0.4474 0.8272
-2.8598 89.4509 -3.9123 1.8696 -0.6549 20.9252 2.6037 10.9494 1.7097 0.6211 -0.6699 4.6090 5.8481 16.3179 7.6190 6.8331 15.5748 0.0162 -3.3095 -4.0027 -10.1888 5.1674 -7.5026 -14.7749 0.0951 -0.0528 -0.1294 0.8368 -10.6991 -4.0496 -0.6533 -10.7449 3.7641 -3.1706 14.1075 2.3151 -75.8215 30.2907 -31.9783 1.3404 -1.4751 -87.1852 21.6476 -30.7829 -34.2766 -15.7678 10.4327 15.8565 -61.2363 1.6177 1.9289 -6.8057 7.1337 24.2000 46.2169 -53.0116 -22.7931 -0.4913 -0.1638 22.1053 -152.9126 -67.6227 165.7011 16.3733 7.3860 -15.2178 50.1313 -2.8102 -4.6459 12.5753 -34.4556 -2.0943 -0.5571 47.2701 -0.8871 -13.2299 -15.0346 -19.3027 1.6177 -0.7911 -1.9336 -16.4065 -28.0229 -34.3911 0.7632 52.6210 0.8868 11.7636 -24.6397 6.2966 -1.4231 -0.3384 0.8295
-3.1401 89.4836 -3.8321 2.0778 -0.8490 21.9214 2.6904 10.8006 1.7275 0.6543 -0.7137 4.6024 5.8646 16.4332 7.6155 7.3328 15.9533 -0.0402 -3.4159 -4.0153 -10.5202 5.2294 -7.2797 -15.2441 0.0793 -0.0659 -0.1104 0.8180 -10.7105 -4.0352 -0.6668 -10.7597 3.7950 -2.8697 14.1948 2.2992 -76.7207 31.3647 -33.7257 1.4236 -1.2739 -84.5043 22.0213 -32.9625 -36.3628 -15.8964 10.3596 15.7624 -61.5642 1.6090 1.8777 -7.4397 7.4793 24.1481 46.0776 -53.8624 -22.1953 -0.5877 -0.1808 20.5862 -155.8788 -67.4209 168.4365 16.4589 7.3367 -15.1825 50.3300 -2.7626 -4.5829 12.3894 -34.2543 -2.4807 -0.5413 46.6976 -0.8663 -13.5796 -14.5898 -19.5644 1.6136 -0.8638 -1.9198 -16.6112 -27.5873 -34.4988 0.7505 52.5985 0.8944 11.7476 -24.8692 5.5702 -1.4166 -0.2324 0.8237
-3.3663 89.7367 -3.6383 2.2845 -1.1025 22.6398 2.7478 10.6212 1.6895 0.6606 -0.7892 4.6234 5.7828 16.2649 7.5591 7.6612 16.5846 -0.1199 -3.5317 -4.0426 -10.6974 5.2179 -6.7298 -15.4741 0.0737 -0.0788 -0.1054 0.8105 -10.7163 -4.0354 -0.6702 -10.7758 3.8072 -2.2830 14.2759 2.2121 -77.8284 32.5012 -35.9337 1.5600 -0.8072 -82.3359 21.9027 -34.4995 -37.5470 -16.0464 10.2994 15.6733 -61.6573 1.5985 1.7471 -8.2786 7.8136 23.9727 46.0479 -54.0524 -21.5268 -0.4711 -0.1922 19.3799 -158.6023 -68.0172 170.9089 16.5006 7.3074 -15.1293 50.4519 -2.7751 -4.5478 12.1253 -33.5841 -2.5835 -0.5105 45.6183 -0.8256 -14.0037 -13.8767 -19.8313 1.6173 -0.9566 -1.8918 -16.7901 -26.7559 -34.5160 0.7126 51.9144 0.8685 11.7534 -24.8588 4.9501 -1.4158 -0.1583 0.8056
-3.5896 90.1126 -3.4002 2.4105 -1.4204 23.1533 2.8010 10.4655 1.6415 0.6651 -0.8870 4.6582 5.6848 15.9152 7.4842 7.8434 17.2509 -0.2057 -3.5935 -4.0455 -10.7259 5.1470 -6.0931 -15.5242 0.0675 -0.0875 -0.0989 0.8106 -10.7225 -4.0354 -0.6821 -10.7859 3.8215 -1.6554 14.4117 2.1472 -78.8078 33.6124 -37.7697 1.5711 -0.4537 -80.7704 21.2195 -35.3938 -37.9234 -16.2799 10.2158 15.6351 -61.7266 1.5671 1.7038 -9.0628 8.0700 23.8075 45.9931 -53.9967 -21.1006 -0.3450 -0.2168 18.5810 -161.3213 -68.8345 173.5694 16.5606 7.2776 -15.1797 50.4890 -2.8210 -4.6084 11.9468 -32.6361 -2.5450 -0.5077 44.3089 -0.8114 -14.4758 -13.0074 -20.1188 1.6256 -1.0731 -1.8596 -16.9055 -25.6711 -34.5735 0.6593 50.8724 0.8216 11.7635 -24.7044 4.4638 -1.4177 -0.0864 0.7828
-3.7602 90.5413 -3.1464 2.4402 -1.7082 23.5827 2.8585 10.2585 1.5914 0.6630 -1.0140 4.6716 5.6497 15.5075 7.4584 7.9906 17.8212 -0.3109 -3.5700 -4.0381 -10.6505 5.0036 -5.3963 -15.4051 0.0611 -0.0902 -0.0908 0.8093 -10.7246 -4.0318 -0.6926 -10.7792 3.8337 -1.2452 14.5650 2.1541 -79.3817 34.5962 -38.7453 1.4677 -0.3135 -79.5973 20.4650 -35.7964 -37.8001 -16.4566 10.1950 15.6497 -61.8552 1.5381 1.6667 -9.5503 8.2113 23.6866 45.3906 -53.7620 -20.5673 -0.3008 -0.2234 18.1166 -163.7852 -69.7436 176.0453 16.5849 7.2394 -15.2462 50.4701 -2.9309 -4.6504 11.8992 -31.6372 -2.5363 -0.5127 42.9396 -0.7965 -14.9530 -12.1441 -20.3806 1.6378 -1.2345 -1.8308 -16.8995 -24.5137 -34.8265 0.6066 49.6426 0.7552 11.7756 -24.4614 4.1094 -1.4218 0.0091 0.7634
-3.8939 90.9619 -2.8553 2.3980 -1.9345 23.9871 2.9268 9.9636 1.5953 0.6628 -1.1601 4.6241 5.6742 15.1388 7.4344 8.2207 18.2631 -0.4512 -3.4873 -4.0098 -10.5018 4.8039 -4.6434 -15.1884 0.0588 -0.0861 -0.0895 0.8078 -10.7189 -4.0339 -0.6956 -10.7581 3.8391 -1.0821 14.7262 2.2312 -79.5069 35.4049 -39.0562 1.3881 -0.3364 -78.6430 19.9875 -35.7713 -37.5477 -16.5665 10.2093 15.6669 -61.9995 1.5383 1.6450 -9.7247 8.2753 23.5663 44.0155 -53.2526 -19.5662 -0.2050 -0.2088 17.8425 -165.6664 -70.8829 177.9150 16.4618 7.2188 -15.2831 50.3546 -2.9837 -4.6774 11.9304 -30.6776 -2.5931 -0.5041 41.6240 -0.7655 -15.3333 -11.4125 -20.5995 1.6455 -1.4363 -1.8217 -16.8053 -23.3459 -35.1314 0.5624 48.3518 0.7028 11.8354 -24.1710 3.6767 -1.4284 0.0613 0.7558
-3.9872 91.3305 -2.5610 2.3166 -2.1160 24.3786 2.9878 9.6326 1.5971 0.6519 -1.3015 4.5593 5.7386 14.8223 7.4018 8.5369 18.6017 -0.6378 -3.3404 -3.9650 -10.3480 4.5465 -3.8928 -14.8699 0.0642 -0.0774 -0.1015 0.8147 -10.7067 -4.0506 -0.6905 -10.7351 3.8275 -1.0723 14.8976 2.3232 -79.3675 36.0472 -39.0409 1.4027 -0.2945 -77.9357 19.7361 -35.4815 -37.2399 -16.6162 10.2611 15.6932 -62.1103 1.5548 1.5991 -9.7648 8.2473 23.4101 42.3766 -52.4775 -18.4154 -0.1128 -0.2012 17.6779 -167.0923 -72.1277 179.2737 16.3312 7.1596 -15.2694 50.2035 -2.9961 -4.6954 11.9706 -29.8319 -2.7180 -0.4805 40.4900 -0.7294 -15.5732 -10.8506 -20.7439 1.6470 -1.5580 -1.8163 -16.6757 -22.2487 -35.4473 0.5229 47.1159 0.6639 11.8335 -23.8442 3.2617 -1.4339 0.1127 0.7576
-3.9946 91.6711 -2.2471 2.2241 -2.2522 24.7447 3.0286 9.2579 1.6103 0.6444 -1.4310 4.4672 5.7945 14.5345 7.3119 8.8989 18.8591 -0.8408 -3.2100 -3.9291 -10.1840 4.2964 -3.1480 -14.5596 0.0689 -0.0675 -0.1146 0.8213 -10.7015 -4.0697 -0.6874 -10.7247 3.8203 -1.1204 15.0431 2.3861 -79.1466 36.6233 -38.8396 1.4563 -0.2031 -77.4782 19.3860 -35.1389 -36.7717 -16.5746 10.3226 15.7600 -62.1053 1.5862 1.5880 -9.7475 8.2182 23.2449 40.9224 -51.5403 -17.4284 0.0210 -0.1892 17.6009 -168.3270 -73.1366 -179.6304 16.1823 7.0887 -15.1940 50.0788 -2.9906 -4.6979 11.9987 -29.0492 -2.8187 -0.4559 39.4554 -0.6930 -15.6975 -10.3882 -20.8452 1.6476 -1.5855 -1.8209 -16.5762 -21.1723 -35.7267 0.4866 45.8632 0.6255 11.8534 -23.4531 2.8778 -1.4420 0.1489 0.7685
-3.9204 91.9843 -1.9455 2.1448 -2.3497 25.0328 3.0509 8.8891 1.5849 0.6422 -1.5585 4.3838 5.8403 14.2967 7.2049 9.2519 19.0657 -1.0128 -3.0843 -3.9008 -10.0508 4.0954 -2.5117 -14.2730 0.0731 -0.0613 -0.1261 0.8336 -10.7015 -4.0885 -0.6908 -10.7214 3.8147 -1.1762 15.1344 2.4319 -78.9688 37.1372 -38.6478 1.5479 -0.1263 -77.1538 18.9067 -34.8672 -36.3187 -16.5102 10.3623 15.8243 -62.0271 1.6046 1.6040 -9.6931 8.1837 23.0930 39.6803 -50.5445 -16.6345 0.1257 -0.1844 17.7039 -169.5410 -73.8948 -178.5868 16.0544 7.0157 -15.1204 49.9262 -2.9518 -4.6844 11.9781 -28.3678 -2.8662 -0.4309 38.5807 -0.6570 -15.6976 -10.0144 -20.8822 1.6485 -1.5941 -1.8302 -16.5345 -20.2169 -35.9418 0.4715 44.6895 0.6052 11.9007 -23.0204 2.5292 -1.4452 0.1728 0.7761
-3.8169 92.2507 -1.6593 2.0695 -2.3936 25.2176 3.0483 8.5324 1.5663 0.6391 -1.6850 4.3048 5.8835 14.0968 7.0824 9.5985 19.2199 -1.1807 -2.9952 -3.8764 -9.9042 3.9335 -1.9759 -14.0093 0.0796 -0.0583 -0.1392 0.8474 -10.7003 -4.1040 -0.6912 -10.7189 3.8024 -1.1793 15.2253 2.4865 -78.8112 37.5278 -38.3938 1.6169 -0.0646 -76.9354 18.4421 -34.5707 -35.8450 -16.4850 10.4085 15.8703 -62.0182 1.6165 1.6250 -9.6202 8.1057 22.9431 38.6709 -49.5076 -15.9895 0.2298 -0.1875 17.9196 -170.6608 -74.6792 -177.5947 15.9729 6.9562 -15.0872 49.8152 -2.9340 -4.6652 11.9327 -27.7804 -2.8868 -0.4116 37.8275 -0.6272 -15.5971 -9.7501 -20.8373 1.6486 -1.5677 -1.8378 -16.4945 -19.4005 -36.0860 0.4621 43.6275 0.5902 12.0066 -22.5737 2.2086 -1.4459 0.1571 0.7912
-3.6816 92.4753 -1.3773 2.0086 -2.4015 25.3066 3.0304 8.2084 1.5430 0.6351 -1.8016 4.2432 5.9343 13.9246 6.9527 9.8844 19.3227 -1.3120 -2.9283 -3.8595 -9.7696 3.8186 -1.5144 -13.8110 0.0861 -0.0581 -0.1523 0.8576 -10.7073 -4.1250 -0.6884 -10.7261 3.7957 -1.1422 15.2693 2.5467 -78.6796 37.7718 -38.1467 1.6284 -0.0284 -76.6369 18.0337 -34.4038 -35.4379 -16.3855 10.4503 15.9288 -61.9465 1.6285 1.6639 -9.5246 8.0263 22.8032 37.8349 -48.4996 -15.4176 0.3408 -0.1858 18.2073 -171.7640 -75.4639 -176.5492 15.8746 6.9158 -15.0648 49.7288 -2.8958 -4.6555 11.8568 -27.2645 -2.8565 -0.3834 37.1887 -0.5806 -15.4412 -9.5989 -20.7689 1.6501 -1.5318 -1.8450 -16.4714 -18.7063 -36.1705 0.4609 42.6637 0.5970 12.1212 -22.1208 1.9269 -1.4430 0.1382 0.8040
-3.5087 92.6581 -1.1568 1.9660 -2.3674 25.2868 3.0057 7.9425 1.5157 0.6240 -1.8992 4.2176 5.9757 13.7471 6.8408 10.1227 19.3715 -1.4113 -2.8906 -3.8395 -9.6610 3.7352 -1.1087 -13.6535 0.0830 -0.0612 -0.1509 0.8617 -10.7080 -4.1275 -0.6980 -10.7289 3.8026 -1.0580 15.2616 2.5969 -78.6187 37.9360 -37.9481 1.6094 0.0241 -76.3035 17.7161 -34.3818 -35.0978 -16.3625 10.4720 15.9911 -61.9368 1.6491 1.6877 -9.4040 7.9571 22.6868 37.1360 -47.5496 -14.8884 0.4310 -0.2006 18.5232 -172.7786 -76.1493 -175.5668 15.7797 6.9014 -15.0610 49.6469 -2.8771 -4.6554 11.7706 -26.8416 -2.7683 -0.3607 36.6631 -0.5346 -15.2704 -9.5041 -20.6714 1.6504 -1.5270 -1.8561 -16.4601 -18.1434 -36.1562 0.4593 41.7832 0.6096 12.2602 -21.6985 1.6922 -1.4384 0.1027 0.8146
-3.2930 92.8263 -0.9576 1.9194 -2.3156 25.1510 2.9920 7.7239 1.5184 0.6131 -1.9850 4.2129 6.0297 13.6001 6.7676 10.2901 19.3781 -1.4887 -2.8495 -3.8218 -9.5832 3.6710 -0.7705 -13.5421 0.0731 -0.0663 -0.1385 0.8547 -10.7124 -4.1183 -0.7111 -10.7350 3.8231 -0.9774 15.2389 2.6197 -78.6458 38.0269 -37.8745 1.6311 0.0839 -75.9959 17.5343 -34.4885 -34.8585 -16.3382 10.4685 16.0071 -61.9071 1.6556 1.6707 -9.2395 7.8867 22.5910 36.4583 -46.6196 -14.3054 0.5082 -0.2396 18.8412 -173.6936 -76.7609 -174.6601 15.7454 6.9223 -15.0805 49.6399 -2.8494 -4.6803 11.6859 -26.4906 -2.6250 -0.3490 36.2816 -0.5072 -15.0856 -9.4617 -20.4958 1.6495 -1.5533 -1.8604 -16.4570 -17.6695 -36.0364 0.4578 40.9805 0.6077 12.3647 -21.3205 1.5468 -1.4341 0.0431 0.8176
-3.0799 92.9829 -0.7956 1.8616 -2.2398 24.9542 2.9871 7.5531 1.5000 0.6043 -2.0587 4.2233 6.0937 13.4563 6.6949 10.4467 19.3911 -1.5290 -2.8363 -3.8140 -9.5184 3.6239 -0.4804 -13.4533 0.0624 -0.0743 -0.1249 0.8495 -10.7265 -4.1044 -0.7266 -10.7529 3.8396 -0.9026 15.2107 2.6373 -78.7192 38.0362 -37.8513 1.6882 0.0844 -75.7495 17.3690 -34.5326 -34.5580 -16.3449 10.4748 16.0176 -61.9257 1.6449 1.6641 -9.0563 7.8077 22.5342 35.8928 -45.8246 -13.7442 0.5794 -0.2858 19.1570 -174.8129 -77.4469 -173.4931 15.7464 6.9266 -15.0686 49.5544 -2.8817 -4.6847 11.6021 -26.2284 -2.4844 -0.3299 36.0407 -0.4683 -14.8624 -9.4530 -20.2983 1.6446 -1.5797 -1.8530 -16.4275 -17.2773 -35.8563 0.4485 40.2561 0.6007 12.4451 -20.9655 1.4344 -1.4294 -0.0361 0.8093
-2.8298 93.0984 -0.6800 1.8122 -2.1456 24.6560 2.9821 7.4132 1.4944 0.6038 -2.1028 4.2488 6.1472 13.3131 6.6534 10.5826 19.3744 -1.5613 -2.8456 -3.8309 -9.4733 3.5900 -0.2017 -13.3742 0.0605 -0.0842 -0.1231 0.8501 -10.7410 -4.1038 -0.7303 -10.7692 3.8435 -0.8427 15.1724 2.6544 -78.8066 37.9682 -37.8030 1.7379 0.0730 -75.5811 17.2193 -34.5206 -34.2181 -16.3578 10.4719 16.0304 -61.9098 1.6088 1.6795 -8.8523 7.7246 22.5380 35.4719 -45.1378 -13.2456 0.6060 -0.3325 19.5052 -175.9715 -78.1175 -172.2341 15.7160 6.9753 -15.1143 49.3874 -2.9007 -4.7035 11.5445 -26.0329 -2.3094 -0.3224 35.9005 -0.4409 -14.6794 -9.4624 -20.0879 1.6427 -1.6125 -1.8438 -16.4061 -16.9850 -35.5985 0.4502 39.6003 0.6156 12.5197 -20.6256 1.3253 -1.4291 -0.0908 0.7986
-2.5747 93.1942 -0.5909 1.7688 -2.0589 24.3029 2.9885 7.3137 1.5078 0.6158 -2.1306 4.2620 6.1714 13.2024 6.6482 10.6973 19.3666 -1.5786 -2.8627 -3.8526 -9.4610 3.5645 0.0573 -13.2996 0.0674 -0.0906 -0.1329 0.8586 -10.7610 -4.1154 -0.7240 -10.7899 3.8323 -0.8032 15.1534 2.6488 -78.7846 37.8815 -37.5906 1.7638 0.0716 -75.6216 17.0284 -34.4583 -33.8277 -16.4215 10.4667 16.0346 -61.9467 1.5462 1.7216 -8.6738 7.6708 22.5971 35.1949 -44.6161 -12.8463 0.6126 -0.3675 19.8547 -177.2891 -78.7172 -170.7635 15.6979 7.0341 -15.1908 49.3053 -2.9394 -4.7495 11.4767 -25.9143 -2.1006 -0.3333 35.8970 -0.4411 -14.5122 -9.5562 -19.8621 1.6384 -1.6453 -1.8339 -16.3962 -16.7942 -35.2634 0.4482 39.1205 0.6216 12.5877 -20.3749 1.2373 -1.4310 -0.1226 0.7851
-2.3442 93.2347 -0.5467 1.7328 -1.9849 23.8996 3.0091 7.2357 1.5334 0.6349 -2.1333 4.2655 6.1802 13.1447 6.6854 10.7434 19.3186 -1.5654 -2.8627 -3.8696 -9.4842 3.5178 0.2291 -13.2134 0.0807 -0.0905 -0.1495 0.8694 -10.7846 -4.1393 -0.7078 -10.8138 3.8186 -0.8028 15.1184 2.6716 -78.6018 37.7805 -37.1856 1.6868 0.0021 -75.8274 16.7806 -34.4100 -33.4864 -16.4072 10.4773 16.0585 -61.9627 1.4895 1.7671 -8.5544 7.6460 22.6873 35.0714 -44.2739 -12.5284 0.6036 -0.3519 20.2242 -178.2197 -79.2311 -169.7791 15.5883 7.0896 -15.2554 49.2708 -2.9349 -4.7816 11.4371 -25.8232 -1.8921 -0.3415 35.9628 -0.4384 -14.3889 -9.7114 -19.6311 1.6349 -1.7060 -1.8365 -16.4151 -16.6742 -34.8700 0.4574 38.7509 0.6571 12.6452 -20.1855 1.1178 -1.4345 -0.1525 0.7732
-2.1322 93.2379 -0.5207 1.7188 -1.8955 23.4692 3.0388 7.1934 1.5504 0.6564 -2.1327 4.2801 6.1517 13.1267 6.7305 10.7027 19.2396 -1.5144 -2.7939 -3.8535 -9.5607 3.4631 0.2625 -13.1148 0.0984 -0.0861 -0.1706 0.8865 -10.7927 -4.1643 -0.6878 -10.8204 3.7921 -0.8316 15.0740 2.7667 -78.2682 37.7090 -36.5974 1.5355 -0.0490 -76.2505 16.5394 -34.4822 -33.2324 -16.3542 10.4845 16.0772 -61.9764 1.4518 1.8463 -8.4968 7.7030 22.8305 35.0784 -44.1232 -12.3410 0.6269 -0.3110 20.6996 -178.0852 -79.6587 -169.9524 15.4792 7.1600 -15.3292 49.3887 -2.8710 -4.8553 11.3884 -25.7915 -1.7417 -0.3503 36.1137 -0.4543 -14.2961 -9.9724 -19.2992 1.6368 -1.7812 -1.8405 -16.4128 -16.6636 -34.4246 0.4602 38.5399 0.6714 12.6937 -20.1210 0.9897 -1.4376 -0.1344 0.7630
-1.9624 93.2237 -0.4904 1.7015 -1.7972 23.0395 3.0749 7.1606 1.5604 0.6828 -2.1251 4.3179 6.1176 13.0978 6.7999 10.5757 19.1651 -1.4730 -2.7112 -3.8284 -9.6176 3.4535 0.1259 -13.0893 0.1098 -0.0827 -0.1861 0.8985 -10.7748 -4.1792 -0.6764 -10.7993 3.7713 -0.9130 15.0526 2.9243 -77.8028 37.6035 -35.9390 1.3124 0.0338 -76.6331 16.4337 -34.7739 -33.2102 -16.3181 10.4837 16.1240 -61.9579 1.4587 1.9509 -8.4829 7.8341 23.0536 35.1627 -43.8036 -12.1622 0.5586 -0.1933 21.2830 -177.0106 -79.3096 -171.0998 15.4091 7.2230 -15.4525 49.5713 -2.7922 -4.9658 11.3719 -25.7501 -1.6616 -0.3528 36.2471 -0.4595 -14.2216 -10.2475 -18.9010 1.6478 -1.8468 -1.8453 -16.4077 -16.7065 -33.9639 0.4649 38.4008 0.6846 12.7474 -20.0726 0.8698 -1.4410 -0.1492 0.7752
-1.7727 93.1696 -0.4572 1.6936 -1.6999 22.6946 3.0943 7.1296 1.5594 0.6883 -2.1074 4.3313 6.1148 13.0789 6.8084 10.3535 19.1520 -1.6094 -2.6836 -3.8299 -9.4392 3.5350 -0.0036 -13.1234 0.1043 -0.0837 -0.1861 0.8970 -10.7735 -4.1750 -0.6851 -10.7877 3.7672 -1.0084 15.0282 3.1337 -77.3040 37.4567 -35.3572 1.0544 0.1750 -77.0640 16.4139 -34.8832 -33.2197 -16.3131 10.4844 16.1607 -61.9057 1.4537 2.0297 -8.5190 7.9617 23.2622 35.1979 -43.2801 -11.8168 0.4276 -0.0937 22.0471 -175.9334 -78.5906 -172.3160 15.4334 7.3041 -15.5850 49.8400 -2.6704 -5.2126 11.3684 -25.7285 -1.6408 -0.3545 36.3724 -0.4470 -14.1518 -10.4893 -18.6056 1.6566 -1.8282 -1.8498 -16.4082 -16.7908 -33.5039 0.4512 38.3870 0.6642 12.7667 -20.0749 0.5929 -1.4420 -0.2369 0.7919
