HIERARCHY
ROOT Hips
{
	OFFSET 0.0000 0.0000 0.0000
	CHANNELS 6 Xposition Yposition Zposition Zrotation Xrotation Yrotation
	JOINT Spine1
	{
		OFFSET -0.0137 5.0038 -0.0537
		CHANNELS 3 Zrotation Xrotation Yrotation
		JOINT Spine2
		{
			OFFSET -0.0000 7.1253 -0.0298
			CHANNELS 3 Zrotation Xrotation Yrotation
			JOINT Chest
			{
				OFFSET -0.0000 7.5501 -0.8160
				CHANNELS 3 Zrotation Xrotation Yrotation
				JOINT Neck1
				{
					OFFSET -0.1817 26.3113 -0.5533
					CHANNELS 3 Zrotation Xrotation Yrotation
					JOINT Neck2
					{
						OFFSET -0.0000 7.7094 2.3026
						CHANNELS 3 Zrotation Xrotation Yrotation
						JOINT Head
						{
							OFFSET -0.0000 6.1289 1.9537
							CHANNELS 3 Zrotation Xrotation Yrotation
							JOINT Jaw
							{
								OFFSET 0.0026 0.4756 3.0949
								CHANNELS 3 Zrotation Xrotation Yrotation
								End Site
								{
									OFFSET 0.0 1.0 0.0
								}
							}
							JOINT LeftEye
							{
								OFFSET 3.2064 5.3802 7.5869
								CHANNELS 3 Zrotation Xrotation Yrotation
								End Site
								{
									OFFSET 0.0 1.0 0.0
								}
							}
							JOINT RightEye
							{
								OFFSET -3.2224 5.3619 7.5582
								CHANNELS 3 Zrotation Xrotation Yrotation
								End Site
								{
									OFFSET 0.0 1.0 0.0
								}
							}
						}
					}
				}
				JOINT LeftShoulder
				{
					OFFSET 1.6217 23.2372 5.1134
					CHANNELS 3 Zrotation Xrotation Yrotation
					JOINT LeftArm
					{
						OFFSET 14.9198 0.0000 -5.5023
						CHANNELS 3 Zrotation Xrotation Yrotation
						JOINT LeftForeArm
						{
							OFFSET 28.7393 0.0000 -0.0026
							CHANNELS 3 Zrotation Xrotation Yrotation
							JOINT LeftHand
							{
								OFFSET 27.0940 -0.0000 0.0026
								CHANNELS 3 Zrotation Xrotation Yrotation
								JOINT LeftHandThumbEnd
								{
									OFFSET 12.2686 -3.2202 4.8331
									CHANNELS 3 Zrotation Xrotation Yrotation
									End Site
									{
										OFFSET 0.0 1.0 0.0
									}
								}
								JOINT LeftHandMiddleEnd
								{
									OFFSET 19.0120 -0.3129 -0.0340
									CHANNELS 3 Zrotation Xrotation Yrotation
									End Site
									{
										OFFSET 0.0 1.0 0.0
									}
								}
							}
						}
					}
				}
				JOINT RightShoulder
				{
					OFFSET -1.3801 23.1803 5.2142
					CHANNELS 3 Zrotation Xrotation Yrotation
					JOINT RightArm
					{
						OFFSET -15.0372 0.0000 -5.5456
						CHANNELS 3 Zrotation Xrotation Yrotation
						JOINT RightForeArm
						{
							OFFSET -28.7366 0.0000 -0.0026
							CHANNELS 3 Zrotation Xrotation Yrotation
							JOINT RightHand
							{
								OFFSET -27.1336 -0.0000 0.0026
								CHANNELS 3 Zrotation Xrotation Yrotation
								JOINT RightHandThumbEnd
								{
									OFFSET -12.2642 -3.2115 4.8040
									CHANNELS 3 Zrotation Xrotation Yrotation
									End Site
									{
										OFFSET 0.0 1.0 0.0
									}
								}
								JOINT RightHandMiddleEnd
								{
									OFFSET -19.0006 -0.3066 -0.0316
									CHANNELS 3 Zrotation Xrotation Yrotation
									End Site
									{
										OFFSET 0.0 1.0 0.0
									}
								}
							}
						}
					}
				}
			}
		}
	}
	JOINT LeftLeg
	{
		OFFSET 10.0432 -8.4345 2.5957
		CHANNELS 3 Zrotation Xrotation Yrotation
		JOINT LeftShin
		{
			OFFSET -0.0000 -43.2218 -0.8029
			CHANNELS 3 Zrotation Xrotation Yrotation
			JOINT LeftFoot
			{
				OFFSET 0.0000 -42.1551 -3.4815
				CHANNELS 3 Zrotation Xrotation Yrotation
				JOINT LeftToeBase
				{
					OFFSET 0.0000 -5.0595 13.2315
					CHANNELS 3 Zrotation Xrotation Yrotation
					End Site
					{
						OFFSET 0.0 1.0 0.0
					}
				}
			}
		}
	}
	JOINT RightLeg
	{
		OFFSET -10.0473 -8.2953 2.6203
		CHANNELS 3 Zrotation Xrotation Yrotation
		JOINT RightShin
		{
			OFFSET 0.0000 -43.3622 -0.8056
			CHANNELS 3 Zrotation Xrotation Yrotation
			JOINT RightFoot
			{
				OFFSET 0.0000 -42.1174 -3.4784
				CHANNELS 3 Zrotation Xrotation Yrotation
				JOINT RightToeBase
				{
					OFFSET -0.0000 -5.0796 13.2842
					CHANNELS 3 Zrotation Xrotation Yrotation
					End Site
					{
						OFFSET 0.0 1.0 0.0
					}
				}
			}
		}
	}
}
MOTION
Frames: 120
Frame Time: 0.033333
-0.6911 96.6929 -1.7643 0.1056 -1.0582 -0.1337 1.0698 6.6648 -0.1059 0.1014 -2.8221 -0.1537 1.4620 14.2285 -2.5324 -2.8056 6.8466 3.7654 -0.4158 -3.5794 1.2638 -1.2778 -17.3268 1.3510 0.0392 0.0759 0.0877 0.7723 -10.4349 -3.7782 -0.7004 -10.4358 3.9577 -0.6369 15.5897 -8.0430 -37.8506 -17.8794 -35.5508 -0.7469 1.3078 -130.9854 -25.8369 40.1785 6.3587 -15.2972 10.3119 14.8380 -59.0731 1.5664 2.1790 -2.6940 14.1218 18.1553 55.7613 -19.9248 -2.1671 -0.1875 0.1767 102.7578 40.0648 -58.1670 -25.6717 15.5072 6.9690 -14.7120 47.2505 -3.2996 -4.5371 8.0935 -16.8623 11.8373 -0.0747 27.5906 -0.1155 -8.0132 -10.1359 -5.9397 1.6797 -0.2265 -1.8126 -8.1670 -17.6963 -8.7378 0.1741 26.6514 0.2455 8.1232 -8.5911 2.2764 -1.4005 0.2031 1.1412
-0.5209 96.6713 -1.7460 0.0955 -1.1289 -0.0444 1.0861 6.6693 -0.1296 0.1314 -2.8274 -0.0970 1.4977 14.2792 -2.5035 -2.7716 6.6241 3.7728 -0.4620 -3.5900 1.2996 -1.3810 -16.9487 1.2161 0.0306 0.0609 0.1094 0.7683 -10.4442 -3.7576 -0.7136 -10.4415 3.9804 -0.5800 15.5444 -8.1178 -38.0112 -18.2512 -37.3399 -0.7830 1.2370 -130.9533 -26.2643 40.6738 6.6036 -15.1949 10.3101 14.8013 -59.0581 1.5348 2.1985 -2.6902 14.1989 18.6286 56.6100 -21.8771 -2.0443 -0.1786 0.2040 100.7944 41.3049 -59.8013 -27.1820 15.6014 7.0273 -14.9349 47.3804 -3.3347 -4.5915 8.0288 -16.9711 11.9296 -0.1034 27.9114 -0.1577 -7.9231 -10.3473 -6.2011 1.6839 -0.2302 -1.8488 -8.2966 -17.6345 -8.6662 0.1760 26.6833 0.2660 8.2688 -8.5731 2.1597 -1.4098 0.3463 1.1076
-0.3533 96.6088 -1.7691 0.1036 -1.2174 0.0929 1.0702 6.6617 -0.1023 0.1595 -2.8392 -0.1420 1.5811 14.3925 -2.4072 -2.7109 6.4393 3.8183 -0.4792 -3.6162 1.2404 -1.5840 -16.5426 1.1888 0.0282 0.0597 0.1064 0.7667 -10.4607 -3.7621 -0.7166 -10.4566 3.9789 -0.4073 15.5547 -8.2915 -38.1057 -18.6934 -39.3963 -0.6435 1.1489 -130.9707 -27.2901 41.5886 6.7071 -15.0913 10.2646 14.7159 -58.9892 1.5310 2.1201 -2.6299 14.2415 19.1634 57.6636 -23.8705 -1.6370 -0.1947 0.1302 98.7040 42.4563 -62.2408 -29.0671 15.8002 7.1347 -15.1886 47.6244 -3.3759 -4.6869 7.9183 -17.1226 12.0194 -0.1173 28.3720 -0.1722 -7.6901 -10.6159 -6.4190 1.6932 -0.1618 -1.8686 -8.4904 -17.6603 -8.6457 0.1760 26.8974 0.2570 8.4492 -8.6324 2.1374 -1.4148 0.5254 1.0936
-0.1574 96.5424 -1.8298 0.0894 -1.3194 0.1684 1.0435 6.6415 -0.0982 0.1708 -2.8371 -0.1399 1.7404 14.5308 -2.2842 -2.7023 6.3180 3.8633 -0.4670 -3.6324 1.1507 -1.7530 -16.2360 1.2257 0.0279 0.0676 0.1005 0.7653 -10.4752 -3.7714 -0.7157 -10.4670 3.9730 -0.1450 15.5824 -8.4825 -37.9900 -19.2248 -41.7210 -0.4311 1.0854 -130.8633 -28.5101 42.5062 6.7378 -14.9610 10.2402 14.6452 -58.9352 1.5210 2.0484 -2.4901 14.2573 19.6512 58.7686 -25.8043 -0.8558 -0.2432 0.0840 96.5988 43.0037 -65.0869 -30.6133 16.0070 7.2774 -15.4356 47.9269 -3.4184 -4.7717 7.8156 -17.2624 12.0853 -0.1104 28.8339 -0.1573 -7.4680 -10.8555 -6.5823 1.7006 -0.0839 -1.8688 -8.6694 -17.6942 -8.6127 0.1730 27.0930 0.2692 8.6342 -8.6773 2.0894 -1.4151 0.6320 1.0883
0.0928 96.4726 -1.9013 0.0674 -1.4062 0.2104 1.0003 6.6050 -0.0836 0.1702 -2.8433 -0.1383 1.9265 14.6634 -2.1610 -2.7003 6.1860 3.8844 -0.4488 -3.6214 1.0940 -1.8445 -15.9715 1.2919 0.0278 0.0757 0.1058 0.7615 -10.4686 -3.7646 -0.7121 -10.4612 3.9749 0.2336 15.5959 -8.6745 -37.6568 -19.8881 -44.2260 -0.1863 1.0982 -130.6400 -29.8167 43.3351 6.7266 -14.8456 10.2179 14.5795 -58.7910 1.5187 1.9817 -2.2873 14.2406 20.1303 59.9524 -27.5621 0.2302 -0.2821 0.0845 94.4768 42.7048 -68.1822 -31.4384 16.1265 7.4937 -15.6712 48.2699 -3.4324 -4.8348 7.7001 -17.3909 12.1446 -0.1029 29.2440 -0.1306 -7.2650 -11.0529 -6.6954 1.7044 -0.0158 -1.8758 -8.8475 -17.7320 -8.6068 0.1727 27.2190 0.2928 8.8312 -8.6454 2.0723 -1.4145 0.6918 1.0858
0.3383 96.4215 -1.9710 0.0512 -1.4494 0.1667 0.9365 6.5584 -0.0479 0.1604 -2.8573 -0.1340 2.1091 14.7608 -2.0764 -2.7057 6.0626 3.8823 -0.4432 -3.6023 1.1163 -1.8700 -15.6440 1.3831 0.0282 0.0790 0.1113 0.7611 -10.4630 -3.7581 -0.7107 -10.4584 3.9787 0.6817 15.5660 -8.8576 -37.2327 -20.7279 -46.6339 -0.0202 1.1365 -130.2893 -30.8921 43.8247 6.8862 -14.6949 10.2242 14.5463 -58.6698 1.5081 1.9312 -2.0470 14.2140 20.5886 61.1789 -28.9688 1.5244 -0.2634 0.0485 92.5071 41.0236 -71.1801 -30.8448 16.2127 7.7497 -15.8569 48.6845 -3.4085 -4.8537 7.5573 -17.5232 12.2627 -0.0984 29.5988 -0.1079 -7.0607 -11.2510 -6.7759 1.7070 0.0749 -1.8843 -9.0099 -17.8046 -8.5960 0.1831 27.2766 0.3317 9.0193 -8.5607 2.1218 -1.4139 0.7104 1.0850
0.5904 96.3949 -2.0649 0.0347 -1.4668 0.0452 0.8670 6.5095 -0.0358 0.1452 -2.8790 -0.1544 2.2509 14.8152 -1.9695 -2.7187 5.9688 3.9058 -0.4405 -3.5784 1.1560 -1.8834 -15.3134 1.5217 0.0278 0.0802 0.1147 0.7565 -10.4540 -3.7533 -0.7065 -10.4527 3.9818 1.1431 15.4864 -9.0340 -36.8118 -21.7443 -48.7865 0.0351 1.2109 -129.7107 -31.8108 44.1073 7.0442 -14.5805 10.2539 14.5483 -58.6169 1.5098 1.9067 -1.7929 14.2523 21.0177 62.4758 -30.0846 2.9520 -0.1339 0.0155 90.7111 38.2174 -74.1814 -28.9604 16.2743 8.0063 -15.9764 49.1149 -3.3672 -4.8547 7.4196 -17.6203 12.4128 -0.1018 29.8488 -0.0976 -6.9015 -11.3868 -6.8059 1.7093 0.1516 -1.8943 -9.1574 -17.8460 -8.5641 0.1802 27.1957 0.3510 9.1385 -8.4075 2.2368 -1.4129 0.6877 1.0806
0.8651 96.4045 -2.1090 0.0084 -1.4696 -0.0932 0.8054 6.4484 -0.0535 0.1291 -2.8971 -0.1481 2.3563 14.8356 -1.8976 -2.7364 5.9129 3.9412 -0.4441 -3.5594 1.1931 -1.9032 -14.9640 1.6948 0.0254 0.0788 0.1184 0.7500 -10.4567 -3.7504 -0.7047 -10.4584 3.9858 1.5955 15.3930 -9.1952 -36.3944 -22.9221 -50.7268 0.0401 1.2661 -128.9292 -32.5495 44.2856 7.2281 -14.5447 10.2854 14.5664 -58.6317 1.5127 1.9184 -1.6016 14.3953 21.3745 63.7460 -30.9081 4.5946 -0.0187 -0.0097 89.1611 35.6080 -77.2817 -27.0546 16.2941 8.2217 -16.0901 49.4907 -3.3282 -4.8474 7.2830 -17.6645 12.5779 -0.1123 29.9746 -0.0931 -6.7939 -11.4694 -6.8237 1.7097 0.2539 -1.8890 -9.2755 -17.8327 -8.5575 0.1880 26.9597 0.3882 9.2351 -8.1961 2.3921 -1.4099 0.6588 1.0698
1.1011 96.4441 -2.1621 -0.0054 -1.4657 -0.2959 0.7350 6.3923 -0.0592 0.1071 -2.9289 -0.1669 2.4050 14.8398 -1.8574 -2.7431 5.8802 3.9925 -0.4501 -3.5399 1.2629 -1.9236 -14.6156 1.8566 0.0224 0.0786 0.1164 0.7452 -10.4627 -3.7535 -0.7057 -10.4682 3.9858 1.9860 15.2720 -9.3808 -35.9724 -24.1595 -52.3729 0.0168 1.2399 -127.8974 -33.0651 44.4745 7.3842 -14.5483 10.2900 14.5539 -58.6402 1.5345 1.8961 -1.4648 14.5460 21.6808 64.7617 -31.3573 6.5185 0.0974 -0.0841 87.8910 32.6469 -79.9803 -24.5607 16.2222 8.3926 -16.2205 49.7547 -3.2842 -4.8401 7.1396 -17.6469 12.7251 -0.1209 30.0054 -0.0869 -6.7451 -11.5042 -6.7531 1.7102 0.3520 -1.8872 -9.3959 -17.7978 -8.5292 0.1935 26.6478 0.4204 9.3109 -7.9769 2.5828 -1.4088 0.6243 1.0563
1.3317 96.4950 -2.2190 -0.0166 -1.4472 -0.5634 0.6610 6.3149 -0.0695 0.0748 -2.9454 -0.1592 2.4401 14.8142 -1.8688 -2.7896 5.8505 4.0439 -0.4509 -3.5222 1.3519 -1.9344 -14.2921 2.0026 0.0207 0.0787 0.1105 0.7421 -10.4536 -3.7587 -0.7056 -10.4623 3.9784 2.2598 15.1302 -9.5558 -35.5253 -25.3838 -53.7102 0.0125 1.1805 -126.6503 -33.5467 44.7296 7.3494 -14.5922 10.2677 14.5423 -58.6601 1.5288 1.9188 -1.4006 14.6647 21.8937 65.4682 -31.3430 8.7597 0.1910 -0.1236 86.9869 28.6695 -82.1553 -20.8626 16.0664 8.5252 -16.2808 49.9356 -3.2296 -4.8022 7.0085 -17.5617 12.8960 -0.1238 29.8796 -0.0737 -6.7485 -11.4627 -6.6612 1.7123 0.4454 -1.8732 -9.4873 -17.7309 -8.5077 0.2038 26.2390 0.4607 9.3794 -7.7151 2.7517 -1.4102 0.6254 1.0464
1.5385 96.5695 -2.2628 -0.0089 -1.4356 -0.8784 0.5848 6.2485 -0.0421 0.0416 -2.9923 -0.2183 2.4311 14.8043 -1.8705 -2.8779 5.8789 4.0958 -0.4540 -3.5029 1.4431 -1.9164 -14.0841 2.0803 0.0209 0.0794 0.1010 0.7413 -10.4523 -3.7668 -0.7046 -10.4650 3.9688 2.4575 15.0320 -9.7693 -35.0002 -26.6676 -54.6527 -0.0126 1.1056 -125.1218 -34.2167 45.1020 6.8351 -14.6121 10.2185 14.5135 -58.6104 1.5039 1.9294 -1.3733 14.8189 22.0055 65.8090 -30.9189 11.2044 0.3705 -0.1817 86.5573 22.5846 -83.8059 -14.8794 15.9018 8.6120 -16.2991 50.0837 -3.2094 -4.7701 6.8755 -17.4247 13.0931 -0.1268 29.6904 -0.0647 -6.7577 -11.3859 -6.5499 1.7101 0.5314 -1.8789 -9.5677 -17.6602 -8.4878 0.2117 25.8236 0.4906 9.4389 -7.4405 2.9391 -1.4125 0.6044 1.0436
1.7149 96.6441 -2.2951 0.0153 -1.4160 -1.1829 0.5132 6.1644 -0.0681 0.0057 -3.0282 -0.2232 2.3975 14.7769 -1.9154 -3.0019 5.9333 4.1399 -0.4506 -3.4943 1.4504 -1.8906 -13.9790 2.2216 0.0200 0.0795 0.0951 0.7363 -10.4423 -3.7716 -0.7015 -10.4556 3.9599 2.5836 14.9449 -9.9738 -34.4410 -27.8387 -55.2137 -0.0466 1.0976 -123.4946 -34.8662 45.4471 5.9921 -14.6565 10.1709 14.4879 -58.5576 1.4957 1.9542 -1.3891 14.9239 21.9580 65.9219 -29.9799 13.7615 0.5111 -0.1430 86.6745 14.5748 -84.7703 -6.9805 15.7368 8.6653 -16.2647 50.1713 -3.1995 -4.7235 6.7597 -17.2203 13.2765 -0.1252 29.3645 -0.0582 -6.7894 -11.2191 -6.4773 1.7079 0.5760 -1.8886 -9.6304 -17.5444 -8.5428 0.2291 25.3071 0.5342 9.4896 -7.1511 3.1080 -1.4141 0.5424 1.0317
1.8444 96.7341 -2.3118 0.0388 -1.3935 -1.5027 0.4538 6.0882 -0.0449 -0.0171 -3.0703 -0.2648 2.3341 14.7406 -1.9987 -3.1339 6.0364 4.1755 -0.4471 -3.4939 1.4866 -1.8793 -13.9465 2.3600 0.0196 0.0755 0.0926 0.7382 -10.4415 -3.7750 -0.7043 -10.4550 3.9590 2.6526 14.8955 -10.1444 -33.8358 -28.8157 -55.3571 -0.0250 1.0712 -121.9113 -35.4636 45.7254 5.0494 -14.6940 10.1415 14.4791 -58.5531 1.4672 1.9406 -1.4150 15.0332 21.8128 65.8136 -28.5657 16.2203 0.6605 -0.1771 87.3387 4.9508 -85.0060 2.5615 15.5391 8.6816 -16.1896 50.1714 -3.1917 -4.6657 6.6588 -16.9860 13.4551 -0.1210 28.9777 -0.0514 -6.8119 -11.0287 -6.3645 1.7041 0.5949 -1.9055 -9.6570 -17.3873 -8.5362 0.2293 24.7514 0.5492 9.5138 -6.8425 3.2633 -1.4161 0.4634 1.0174
1.9171 96.8341 -2.3150 0.0682 -1.3803 -1.7846 0.4006 6.0044 -0.0430 -0.0393 -3.1165 -0.2998 2.2609 14.7133 -2.0931 -3.2570 6.1516 4.2057 -0.4600 -3.5025 1.5342 -1.8831 -13.9365 2.5091 0.0197 0.0683 0.0869 0.7385 -10.4410 -3.7802 -0.7046 -10.4519 3.9529 2.6711 14.8279 -10.2842 -33.3367 -29.5746 -55.0027 -0.0111 1.0616 -120.5033 -35.8481 45.7501 4.0893 -14.7568 10.1251 14.4678 -58.5815 1.4628 1.8879 -1.4141 15.1428 21.5467 65.6512 -26.7496 18.3856 0.8204 -0.2088 88.4924 -2.9417 -84.4457 10.2567 15.3689 8.6756 -16.1045 50.1592 -3.1932 -4.6203 6.5778 -16.6980 13.6072 -0.1169 28.4946 -0.0449 -6.8261 -10.7770 -6.2383 1.7014 0.6001 -1.9180 -9.6656 -17.1763 -8.5180 0.2242 24.1409 0.5519 9.5266 -6.5434 3.3851 -1.4158 0.3740 1.0010
1.9190 96.9387 -2.2918 0.0992 -1.3570 -2.0178 0.3499 5.9204 -0.0547 -0.0532 -3.1569 -0.3456 2.1776 14.6509 -2.2053 -3.3923 6.2790 4.2371 -0.4639 -3.5067 1.6061 -1.9368 -13.9506 2.6582 0.0210 0.0592 0.0777 0.7385 -10.4344 -3.7875 -0.7021 -10.4431 3.9414 2.6399 14.7457 -10.3542 -32.9506 -30.0758 -54.1689 -0.0102 1.0531 -119.3816 -35.9580 45.5067 3.1850 -14.8369 10.1004 14.4673 -58.5755 1.4772 1.8466 -1.3634 15.2692 21.1994 65.4801 -24.5666 20.1698 0.9294 -0.2412 90.0847 -6.4810 -83.2491 13.3820 15.1838 8.6507 -16.0236 50.0776 -3.1985 -4.5810 6.5200 -16.4086 13.7106 -0.1154 27.9752 -0.0414 -6.8368 -10.4977 -6.1230 1.6979 0.6135 -1.9219 -9.6510 -16.9336 -8.5153 0.2181 23.5024 0.5452 9.5197 -6.2366 3.4865 -1.4148 0.3270 0.9972
1.8780 97.0261 -2.2738 0.1347 -1.3416 -2.2042 0.3091 5.8652 -0.0791 -0.0720 -3.1822 -0.3959 2.0948 14.5664 -2.3218 -3.5218 6.3896 4.2750 -0.4665 -3.5040 1.6766 -2.0319 -14.0271 2.8078 0.0217 0.0555 0.0688 0.7426 -10.4227 -3.7954 -0.7050 -10.4271 3.9321 2.6055 14.6649 -10.3847 -32.6263 -30.2565 -52.9281 -0.0024 1.0694 -118.6228 -35.7446 45.0167 2.4206 -14.9112 10.0777 14.4545 -58.6020 1.4832 1.8152 -1.2834 15.3979 20.7364 65.3979 -22.1271 21.4316 0.9780 -0.2496 92.0398 -7.1257 -81.7436 13.3527 15.0669 8.5894 -15.9696 49.9653 -3.2247 -4.5908 6.4908 -16.1318 13.7332 -0.1122 27.4695 -0.0445 -6.8780 -10.2229 -5.9789 1.6959 0.6204 -1.9193 -9.6222 -16.7224 -8.5688 0.2143 22.9714 0.5368 9.5231 -6.0156 3.5874 -1.4140 0.3102 0.9955
1.8126 97.1123 -2.2671 0.1718 -1.3235 -2.3426 0.2804 5.8322 -0.0967 -0.0871 -3.2057 -0.4594 2.0053 14.4909 -2.4420 -3.6411 6.4497 4.2909 -0.4601 -3.4959 1.7408 -2.1533 -14.1713 2.9549 0.0218 0.0558 0.0631 0.7449 -10.4050 -3.7980 -0.7073 -10.4086 3.9243 2.5427 14.6024 -10.3288 -32.2621 -30.1092 -51.4972 0.0638 1.0681 -118.2338 -35.3139 44.3340 1.9224 -14.9409 10.0726 14.4593 -58.6143 1.4889 1.8062 -1.1572 15.5724 20.2093 65.3818 -19.6157 22.0472 1.0077 -0.2898 94.2674 -6.9810 -80.2392 12.3663 15.0035 8.5000 -15.9337 49.8466 -3.2578 -4.6305 6.4813 -15.9145 13.7141 -0.1083 27.0417 -0.0476 -6.9027 -9.9900 -5.8549 1.6950 0.5993 -1.9198 -9.5756 -16.5619 -8.6557 0.2105 22.5502 0.5332 9.5088 -5.8449 3.6854 -1.4117 0.2926 0.9930
1.7164 97.1605 -2.2715 0.2098 -1.2886 -2.4330 0.2578 5.8046 -0.1236 -0.0974 -3.2136 -0.5125 1.9192 14.4110 -2.5587 -3.7466 6.4654 4.3008 -0.4570 -3.4948 1.8158 -2.2690 -14.3101 3.0808 0.0217 0.0582 0.0612 0.7470 -10.3908 -3.7986 -0.7099 -10.3915 3.9217 2.4315 14.5812 -10.2151 -31.9387 -29.6897 -49.9086 0.1347 1.1108 -118.1638 -34.6303 43.5464 1.6407 -15.0021 10.0730 14.4689 -58.6220 1.4894 1.8072 -0.9783 15.7013 19.6454 65.3746 -17.0111 22.0257 0.9982 -0.3179 96.7404 -6.4378 -78.4760 10.7840 14.9760 8.3740 -15.8684 49.7266 -3.3136 -4.6710 6.4837 -15.7595 13.6779 -0.1035 26.6587 -0.0540 -6.9137 -9.7693 -5.7514 1.6952 0.5697 -1.9220 -9.5186 -16.4669 -8.7233 0.2041 22.2583 0.5269 9.4617 -5.7430 3.7206 -1.4095 0.3038 0.9909
1.6054 97.2028 -2.2730 0.2501 -1.2368 -2.4658 0.2310 5.8005 -0.1600 -0.0955 -3.2217 -0.5916 1.8442 14.3444 -2.6253 -3.8547 6.4602 4.3056 -0.4387 -3.4916 1.8812 -2.3824 -14.4310 3.1733 0.0215 0.0600 0.0574 0.7487 -10.3900 -3.8020 -0.7121 -10.3880 3.9186 2.2870 14.5767 -10.0495 -31.7477 -29.0495 -48.1901 0.1977 1.1080 -118.4265 -33.6528 42.7307 1.5935 -15.0809 10.0902 14.5042 -58.6777 1.4914 1.8106 -0.7664 15.7998 19.0907 65.2808 -14.4205 21.3258 0.9901 -0.3639 99.3409 -5.6365 -76.3566 8.9111 15.0365 8.2583 -15.8327 49.6528 -3.3568 -4.7197 6.4941 -15.6651 13.6328 -0.0987 26.3425 -0.0650 -6.9210 -9.6055 -5.7032 1.6943 0.5151 -1.9223 -9.4572 -16.4398 -8.7537 0.1933 22.0934 0.5132 9.4083 -5.7038 3.7107 -1.4085 0.3176 0.9942
1.4516 97.2345 -2.3187 0.2870 -1.1663 -2.4738 0.2037 5.8110 -0.1908 -0.0845 -3.2130 -0.6463 1.7739 14.2726 -2.6978 -3.9117 6.4332 4.2802 -0.4359 -3.4956 1.9547 -2.4944 -14.5123 3.2465 0.0218 0.0612 0.0506 0.7506 -10.3888 -3.8091 -0.7137 -10.3864 3.9137 2.1170 14.6134 -9.8183 -31.7202 -28.2737 -46.2977 0.2124 1.0550 -118.9599 -32.3060 41.8776 1.7910 -15.1882 10.0818 14.5269 -58.6832 1.4712 1.8472 -0.5521 15.8552 18.5400 64.9742 -11.8880 20.0759 0.8981 -0.3777 101.9656 -3.7848 -73.7561 6.1733 15.1309 8.1315 -15.8158 49.5553 -3.3866 -4.7728 6.5192 -15.6121 13.6089 -0.1044 26.0497 -0.0950 -6.9371 -9.4600 -5.6639 1.6930 0.4770 -1.9077 -9.3824 -16.4510 -8.7388 0.1807 22.0024 0.4934 9.3562 -5.6969 3.6559 -1.4072 0.3191 1.0039
1.2802 97.2601 -2.3552 0.3077 -1.0753 -2.4414 0.1956 5.8265 -0.2275 -0.0708 -3.1944 -0.6839 1.7165 14.1962 -2.7466 -3.8998 6.4227 4.2367 -0.4255 -3.5075 2.0062 -2.6038 -14.6264 3.2908 0.0207 0.0644 0.0493 0.7515 -10.3878 -3.8096 -0.7171 -10.3844 3.9122 1.9558 14.6332 -9.5412 -31.9240 -27.4060 -44.2764 0.1568 0.9875 -119.7129 -30.7471 41.0090 2.0451 -15.3330 10.0719 14.5517 -58.7902 1.4753 1.9107 -0.3344 15.8048 17.9959 64.3469 -9.5218 18.2213 0.8025 -0.3907 104.4603 -0.8471 -70.7665 2.5977 15.1785 7.9873 -15.7710 49.3392 -3.4290 -4.8177 6.5669 -15.6130 13.4939 -0.1049 25.7827 -0.1159 -6.9926 -9.3460 -5.5660 1.6901 0.4464 -1.8941 -9.2812 -16.5145 -8.7251 0.1633 21.9835 0.4658 9.2464 -5.7415 3.5537 -1.4092 0.3144 1.0150
1.0785 97.2794 -2.3920 0.3100 -0.9788 -2.3817 0.2001 5.8689 -0.2422 -0.0571 -3.1924 -0.6982 1.6763 14.1332 -2.8049 -3.8436 6.4097 4.1640 -0.3976 -3.5093 2.0288 -2.7096 -14.7016 3.3303 0.0202 0.0645 0.0488 0.7549 -10.3956 -3.8077 -0.7216 -10.3931 3.9102 1.8113 14.7022 -9.2255 -32.2472 -26.3822 -42.2483 0.1070 0.8744 -120.6448 -29.0500 40.2112 2.4547 -15.4585 10.0771 14.5929 -58.8999 1.4627 1.9727 -0.1175 15.7293 17.4734 63.3009 -7.5352 15.7735 0.7629 -0.3359 106.6715 2.9225 -67.4229 -1.3690 15.2303 7.8056 -15.6883 49.0773 -3.4529 -4.8541 6.6381 -15.6596 13.3439 -0.1112 25.5773 -0.1384 -7.0604 -9.2227 -5.4183 1.6884 0.3957 -1.8836 -9.1423 -16.6142 -8.7082 0.1526 22.0445 0.4321 9.0885 -5.8116 3.4809 -1.4102 0.2955 1.0264
0.8744 97.2842 -2.4213 0.2915 -0.8925 -2.3074 0.2190 5.9188 -0.2536 -0.0531 -3.1824 -0.6856 1.6652 14.0623 -2.8552 -3.7411 6.4132 4.1028 -0.3803 -3.5127 2.0296 -2.7675 -14.6844 3.3100 0.0199 0.0658 0.0391 0.7561 -10.4048 -3.8170 -0.7235 -10.4013 3.9007 1.6580 14.7913 -8.8822 -32.6434 -25.2008 -40.2996 0.0418 0.7534 -121.6809 -27.3069 39.4412 2.9806 -15.5557 10.0806 14.6420 -59.0224 1.4420 2.0637 0.0694 15.6141 17.0235 61.7747 -6.0802 12.8462 0.7540 -0.1981 108.4036 7.3574 -64.0951 -5.2984 15.2893 7.5771 -15.5760 48.6893 -3.4875 -4.8502 6.7542 -15.7262 13.1002 -0.1157 25.4489 -0.1494 -7.1498 -9.1421 -5.2549 1.6870 0.3630 -1.8705 -8.9884 -16.7343 -8.7444 0.1457 22.1781 0.3982 8.9455 -5.9049 3.4471 -1.4112 0.2777 1.0426
0.6801 97.2720 -2.4226 0.2722 -0.8490 -2.2222 0.2460 5.9761 -0.2419 -0.0474 -3.1673 -0.6529 1.6690 13.9975 -2.8968 -3.6364 6.4582 4.0690 -0.3970 -3.5225 1.9589 -2.7826 -14.6176 3.2256 0.0198 0.0685 0.0317 0.7575 -10.4054 -3.8228 -0.7253 -10.4023 3.8929 1.5006 14.8952 -8.5237 -33.0303 -23.9288 -38.6436 -0.0481 0.6992 -122.7009 -25.9013 38.9132 3.3490 -15.5935 10.0980 14.6756 -59.1010 1.4111 2.1076 0.1512 15.5103 16.6944 59.9690 -5.3293 9.7786 0.7461 -0.0443 109.4993 11.7155 -61.3525 -8.3646 15.3699 7.3532 -15.4508 48.3472 -3.5091 -4.8381 6.9026 -15.7526 12.7857 -0.1222 25.3414 -0.1574 -7.2683 -9.0692 -5.0451 1.6849 0.3345 -1.8713 -8.8320 -16.8210 -8.8129 0.1410 22.3571 0.3661 8.8118 -6.0370 3.4301 -1.4111 0.2767 1.0527
0.4489 97.2538 -2.4374 0.2476 -0.8512 -2.1341 0.2941 6.0280 -0.2269 -0.0410 -3.1548 -0.5875 1.6768 13.9552 -2.9000 -3.5654 6.5888 4.0285 -0.4208 -3.5461 1.8598 -2.7642 -14.5399 3.1001 0.0195 0.0719 0.0334 0.7592 -10.4249 -3.8222 -0.7275 -10.4188 3.8957 1.3279 15.0094 -8.1716 -33.3752 -22.6739 -37.2961 -0.1156 0.6427 -123.6807 -24.8623 38.6418 3.5270 -15.5763 10.1167 14.6821 -59.1104 1.3934 2.1389 0.1052 15.4348 16.4529 57.9818 -5.2934 6.8540 0.6761 0.0722 110.0055 15.7552 -59.3571 -10.5965 15.4556 7.1615 -15.3210 48.0767 -3.5297 -4.8059 7.0754 -15.7371 12.4079 -0.1235 25.2485 -0.1586 -7.4111 -8.9836 -4.8028 1.6812 0.3072 -1.8704 -8.6684 -16.8667 -8.8548 0.1407 22.5716 0.3477 8.6838 -6.1755 3.3494 -1.4089 0.2844 1.0596
0.2421 97.2328 -2.4244 0.2326 -0.8975 -2.0181 0.3595 6.0720 -0.2125 -0.0279 -3.1484 -0.5073 1.6725 13.9222 -2.8678 -3.5184 6.7497 3.9793 -0.4522 -3.5570 1.7866 -2.7456 -14.4588 2.9511 0.0199 0.0732 0.0390 0.7588 -10.4389 -3.8187 -0.7264 -10.4287 3.9034 1.1549 15.0521 -7.8411 -33.8261 -21.4905 -36.3649 -0.1953 0.5952 -124.5419 -24.2116 38.7024 3.5414 -15.5588 10.1439 14.6883 -59.1038 1.4115 2.1588 -0.0217 15.3483 16.3052 56.1284 -5.8573 4.4225 0.5010 0.1737 109.8743 19.2531 -58.0914 -12.1144 15.4728 7.0203 -15.2362 47.8669 -3.5724 -4.7785 7.2580 -15.6562 12.0363 -0.1168 25.1235 -0.1579 -7.5785 -8.8695 -4.5936 1.6802 0.2813 -1.8768 -8.5304 -16.8470 -8.8925 0.1374 22.7524 0.3289 8.6063 -6.2972 3.2678 -1.4069 0.2972 1.0624
0.0120 97.1997 -2.4360 0.2323 -0.9943 -1.8617 0.4329 6.1190 -0.2037 -0.0101 -3.1333 -0.4045 1.6617 13.9092 -2.8330 -3.4992 6.9313 3.9565 -0.4822 -3.5673 1.7150 -2.7555 -14.3737 2.7672 0.0212 0.0694 0.0454 0.7577 -10.4460 -3.8114 -0.7225 -10.4348 3.9083 0.9861 15.0899 -7.5221 -34.3444 -20.3817 -35.8972 -0.1615 0.5722 -125.3369 -23.7958 39.0901 3.5858 -15.5649 10.1753 14.7038 -59.1049 1.4304 2.1762 -0.2136 15.3035 16.2572 54.5532 -6.9901 2.4779 0.3005 0.2467 109.2622 22.0380 -57.4203 -13.0245 15.4719 6.9121 -15.1685 47.7439 -3.5795 -4.7583 7.4401 -15.5318 11.6757 -0.1224 25.0230 -0.1695 -7.7184 -8.7628 -4.4369 1.6811 0.2437 -1.8860 -8.4233 -16.7872 -8.9175 0.1382 22.9845 0.3141 8.5387 -6.4433 3.1672 -1.4041 0.3219 1.0552
-0.2281 97.1745 -2.4511 0.2408 -1.1279 -1.6470 0.5171 6.1746 -0.1962 0.0163 -3.1118 -0.3062 1.6494 13.9064 -2.7648 -3.5041 7.0837 3.9370 -0.5299 -3.5840 1.6673 -2.7607 -14.2769 2.5512 0.0232 0.0645 0.0439 0.7574 -10.4601 -3.8136 -0.7181 -10.4474 3.9064 0.8190 15.1265 -7.2345 -35.0025 -19.4569 -35.8287 -0.0905 0.5627 -126.1070 -23.6483 39.7792 3.6350 -15.5627 10.2030 14.7017 -59.0885 1.4350 2.1881 -0.4588 15.2660 16.3176 53.4608 -8.5960 0.9965 0.0791 0.2999 108.2313 24.3886 -57.3215 -13.7783 15.5087 6.8505 -15.1251 47.7225 -3.5402 -4.7360 7.6125 -15.3943 11.3377 -0.1301 24.9520 -0.1857 -7.8714 -8.6890 -4.3593 1.6819 0.2332 -1.8930 -8.3356 -16.7025 -8.9764 0.1366 23.2643 0.2909 8.4715 -6.6562 3.0668 -1.4027 0.3499 1.0476
-0.4383 97.1310 -2.4580 0.2524 -1.2718 -1.4086 0.6082 6.2266 -0.1851 0.0446 -3.0788 -0.1899 1.6525 13.9164 -2.6831 -3.5286 7.1753 3.9319 -0.5625 -3.6028 1.5939 -2.7571 -14.2017 2.3549 0.0236 0.0586 0.0496 0.7548 -10.4757 -3.8089 -0.7147 -10.4634 3.9120 0.6110 15.1788 -6.9918 -35.7382 -18.7836 -36.1225 -0.0535 0.5774 -126.8581 -23.7895 40.6837 3.6693 -15.5574 10.2015 14.6617 -59.0178 1.4418 2.2021 -0.6949 15.2322 16.4646 52.8484 -10.5962 -0.0337 -0.0969 0.3408 106.8500 26.5605 -57.8356 -14.6940 15.5570 6.8036 -15.1117 47.6976 -3.4881 -4.7480 7.7804 -15.2794 10.9983 -0.1319 24.9312 -0.1853 -8.0139 -8.6583 -4.2984 1.6824 0.2412 -1.8873 -8.2564 -16.6476 -9.0465 0.1321 23.6175 0.2639 8.3841 -6.9137 2.9773 -1.4023 0.3770 1.0404
-0.6659 97.0856 -2.4998 0.2765 -1.4105 -1.1594 0.6910 6.2911 -0.1675 0.0734 -3.0540 -0.1007 1.6645 13.9580 -2.5546 -3.5513 7.1961 3.9423 -0.5854 -3.6076 1.4996 -2.7547 -14.1777 2.1716 0.0238 0.0545 0.0470 0.7526 -10.4892 -3.8124 -0.7122 -10.4785 3.9108 0.4317 15.2468 -6.8048 -36.5726 -18.3846 -36.7496 -0.0801 0.5764 -127.5225 -24.0927 41.7160 3.7537 -15.5099 10.1926 14.6253 -58.9228 1.4519 2.1740 -0.8897 15.1833 16.7164 52.7340 -12.8889 -0.6516 -0.1877 0.3614 105.1612 28.5681 -58.8526 -15.8315 15.6356 6.7924 -15.1260 47.7132 -3.4418 -4.7532 7.9206 -15.2182 10.6796 -0.1309 25.0013 -0.1819 -8.1382 -8.6778 -4.2742 1.6836 0.2266 -1.8949 -8.1945 -16.6583 -9.1194 0.1336 24.0847 0.2472 8.2758 -7.2216 2.9183 -1.4040 0.4109 1.0339
-0.8868 97.0215 -2.5382 0.2996 -1.5434 -0.9188 0.7753 6.3613 -0.1452 0.0979 -3.0074 0.0071 1.6972 14.0155 -2.4374 -3.5646 7.1599 3.9850 -0.6155 -3.6118 1.3835 -2.7576 -14.1972 2.0325 0.0219 0.0564 0.0519 0.7492 -10.4850 -3.8088 -0.7124 -10.4765 3.9160 0.2633 15.3304 -6.6883 -37.4317 -18.1484 -37.7348 -0.1154 0.6168 -128.0916 -24.5698 42.9165 3.8668 -15.5122 10.1661 14.5819 -58.8457 1.4396 2.1600 -1.0714 15.1351 17.0642 53.0435 -15.4416 -0.8311 -0.2459 0.3746 103.0934 30.7190 -60.3421 -17.4266 15.7425 6.8098 -15.1997 47.7406 -3.3991 -4.7826 8.0704 -15.2029 10.4364 -0.1267 25.1150 -0.1603 -8.2547 -8.7008 -4.3009 1.6844 0.2106 -1.8988 -8.1353 -16.7162 -9.1944 0.1440 24.5932 0.2491 8.1537 -7.5132 2.8431 -1.4056 0.4383 1.0336
-1.1024 96.9577 -2.5757 0.3057 -1.6739 -0.6722 0.8689 6.4459 -0.0808 0.1234 -2.9845 0.0483 1.7498 14.1385 -2.3012 -3.5781 7.0932 4.0474 -0.6210 -3.6023 1.2512 -2.8042 -14.2748 1.9014 0.0205 0.0604 0.0490 0.7472 -10.4806 -3.8111 -0.7132 -10.4771 3.9135 0.1345 15.4202 -6.6547 -38.1978 -18.0289 -39.1243 -0.0735 0.6203 -128.5294 -25.2826 44.3142 4.0005 -15.4681 10.1618 14.5740 -58.7883 1.4189 2.1461 -1.2477 15.1364 17.5014 53.7088 -18.1616 -0.5754 -0.2781 0.3403 100.7125 32.9154 -62.3688 -19.5443 15.8670 6.8712 -15.3269 47.8090 -3.3769 -4.8153 8.2268 -15.2374 10.2414 -0.1253 25.2889 -0.1436 -8.3457 -8.7325 -4.3647 1.6818 0.1983 -1.9092 -8.0493 -16.8050 -9.2927 0.1538 25.1357 0.2474 8.0189 -7.8091 2.8250 -1.4062 0.4795 1.0462
-1.3411 96.8965 -2.6412 0.2843 -1.7875 -0.4157 0.9670 6.5088 -0.0467 0.1350 -2.9379 0.1298 1.8556 14.2607 -2.1753 -3.5884 7.0508 4.0963 -0.6051 -3.6030 1.0801 -2.8439 -14.3271 1.7724 0.0198 0.0701 0.0417 0.7485 -10.4659 -3.8193 -0.7158 -10.4691 3.9052 0.0841 15.5419 -6.7239 -38.8132 -18.0545 -40.9502 0.0473 0.6770 -128.7446 -26.2968 45.8233 4.0049 -15.4458 10.1699 14.5693 -58.8370 1.4007 2.1419 -1.4129 15.1094 17.9685 54.6474 -20.9145 0.1294 -0.2814 0.3499 98.0233 35.1532 -64.8754 -22.2035 16.0017 6.9697 -15.4541 47.9614 -3.3654 -4.8535 8.4177 -15.3005 10.0695 -0.1183 25.4491 -0.1133 -8.4245 -8.7708 -4.4827 1.6798 0.2111 -1.9136 -7.9313 -16.8837 -9.4821 0.1816 25.6043 0.2831 7.8847 -8.0544 2.8132 -1.4061 0.5340 1.0570
-1.5659 96.8402 -2.6911 0.2492 -1.8977 -0.1481 1.0608 6.5621 -0.0117 0.1389 -2.9156 0.1756 1.9893 14.4200 -2.0443 -3.5731 7.0465 4.1231 -0.5981 -3.5868 0.9517 -2.8483 -14.3255 1.6014 0.0203 0.0778 0.0446 0.7490 -10.4539 -3.8167 -0.7151 -10.4631 3.9080 0.1207 15.6961 -6.8643 -39.1695 -18.3053 -43.1361 0.1626 0.7680 -128.6867 -27.5874 47.2136 3.9497 -15.4242 10.1812 14.5872 -58.9799 1.3974 2.1218 -1.5657 15.0666 18.5060 55.7909 -23.5442 1.1567 -0.2053 0.3407 95.2085 37.3493 -67.8537 -25.1380 16.1417 7.1538 -15.6440 48.1920 -3.3833 -4.8927 8.6136 -15.3757 9.9530 -0.1159 25.6016 -0.0976 -8.4568 -8.7989 -4.6608 1.6785 0.2401 -1.9223 -7.7830 -16.9195 -9.7013 0.2003 25.9859 0.3092 7.7696 -8.2552 2.8180 -1.4058 0.5971 1.0659
-1.7579 96.8094 -2.7174 0.1875 -1.9885 0.1306 1.1633 6.5865 0.0227 0.1440 -2.9118 0.1980 2.1251 14.5988 -1.9226 -3.5153 7.0956 4.1336 -0.6110 -3.5690 0.8544 -2.7993 -14.3073 1.4171 0.0207 0.0853 0.0511 0.7455 -10.4464 -3.8099 -0.7103 -10.4595 3.9148 0.2766 15.8373 -7.0376 -39.2759 -18.7570 -45.5933 0.2498 0.8869 -128.3415 -28.7523 48.2038 3.9925 -15.3861 10.1949 14.6022 -59.1282 1.4106 2.0808 -1.6986 15.0831 19.0873 56.9797 -25.9381 2.5420 -0.1836 0.3144 92.4768 40.0884 -71.3105 -28.6566 16.2706 7.3716 -15.8984 48.5629 -3.4253 -4.9492 8.8279 -15.4738 9.8903 -0.1239 25.7590 -0.0991 -8.4921 -8.8181 -4.8861 1.6797 0.2718 -1.9217 -7.6153 -16.9134 -9.9523 0.2088 26.2497 0.3363 7.6838 -8.4143 2.8182 -1.4034 0.6597 1.0652
-1.9492 96.7958 -2.7424 0.1229 -2.0505 0.3438 1.2566 6.6008 0.0287 0.1639 -2.9122 0.2268 2.2615 14.7447 -1.8165 -3.4546 7.1486 4.1169 -0.6348 -3.5538 0.7824 -2.7212 -14.2419 1.3105 0.0212 0.0850 0.0605 0.7390 -10.4385 -3.8008 -0.7021 -10.4528 3.9236 0.4926 15.9264 -7.1724 -39.2905 -19.4106 -48.1649 0.2489 1.0074 -127.6851 -29.5077 48.8668 4.2368 -15.3526 10.2536 14.6699 -59.3207 1.4403 2.0799 -1.8586 15.1606 19.7057 58.1622 -28.0079 4.3060 -0.2558 0.3625 89.9657 43.9630 -75.0663 -33.2065 16.3443 7.6013 -16.1506 48.9436 -3.4285 -5.0128 9.0311 -15.5618 9.8615 -0.1363 25.8531 -0.1090 -8.5509 -8.8177 -5.0889 1.6843 0.2915 -1.9120 -7.4473 -16.8741 -10.1969 0.2109 26.3798 0.3598 7.6219 -8.5300 2.8556 -1.4008 0.7380 1.0603
-2.0871 96.7836 -2.7231 0.0551 -2.0627 0.4910 1.3524 6.6086 0.0222 0.1909 -2.9068 0.2474 2.3845 14.8344 -1.7120 -3.3732 7.1693 4.1285 -0.6615 -3.5494 0.7231 -2.6576 -14.1475 1.2628 0.0224 0.0797 0.0605 0.7333 -10.4477 -3.8041 -0.6935 -10.4628 3.9256 0.6798 15.9744 -7.2889 -39.1996 -20.1764 -50.6927 0.1692 1.0699 -126.7350 -29.7199 49.3046 4.7605 -15.3395 10.3116 14.7197 -59.4975 1.4784 2.0924 -2.0442 15.2401 20.3155 59.2297 -29.7030 6.4176 -0.3620 0.4165 87.7827 49.6276 -78.7493 -39.3861 16.3502 7.8180 -16.3655 49.2904 -3.4043 -5.0324 9.2096 -15.6886 9.8773 -0.1406 25.9613 -0.1012 -8.6091 -8.8475 -5.2599 1.6892 0.2962 -1.8938 -7.2849 -16.8685 -10.4059 0.2102 26.4532 0.3824 7.5841 -8.6250 2.9271 -1.3989 0.7946 1.0478
-2.1710 96.7710 -2.7149 -0.0129 -2.0236 0.5258 1.4497 6.6044 0.0406 0.2206 -2.8953 0.2349 2.5079 14.8826 -1.6053 -3.3115 7.0802 4.1569 -0.6814 -3.5474 0.6980 -2.6098 -14.0581 1.2718 0.0235 0.0745 0.0591 0.7301 -10.4586 -3.8099 -0.6877 -10.4752 3.9280 0.7277 15.9759 -7.4470 -38.9240 -20.9374 -53.0346 0.0837 1.0296 -125.4139 -29.5709 49.6067 5.4760 -15.2530 10.3570 14.7465 -59.5643 1.5344 2.0940 -2.2073 15.2974 20.8792 60.0613 -30.9299 8.8548 -0.4776 0.5124 86.0263 56.2705 -81.7390 -46.2434 16.2657 7.9755 -16.5105 49.5118 -3.3745 -4.9960 9.3654 -15.8605 9.9663 -0.1451 26.1272 -0.0975 -8.6626 -8.9215 -5.3995 1.6930 0.2624 -1.8793 -7.1419 -16.9244 -10.5014 0.2121 26.5446 0.4052 7.5584 -8.7061 2.9737 -1.3999 0.8148 1.0377
-2.2184 96.7219 -2.7065 -0.0767 -1.9568 0.4927 1.5479 6.5961 0.0554 0.2318 -2.8924 0.2395 2.6361 14.9237 -1.5216 -3.2746 6.9069 4.2079 -0.6815 -3.5502 0.6809 -2.5902 -14.0660 1.3161 0.0239 0.0790 0.0513 0.7296 -10.4634 -3.8212 -0.6864 -10.4800 3.9221 0.6770 15.9942 -7.6819 -38.4462 -21.7088 -55.0195 -0.0126 0.9499 -123.7888 -29.4419 49.9512 6.1437 -15.1351 10.3518 14.7209 -59.5071 1.5467 2.0715 -2.3682 15.3636 21.3390 60.7610 -31.7587 11.3820 -0.5548 0.5835 84.6854 61.0615 -83.9496 -50.9791 16.1244 8.1081 -16.5614 49.6231 -3.3424 -4.9308 9.4791 -16.1396 10.1495 -0.1425 26.4678 -0.0742 -8.7107 -9.0360 -5.5801 1.6963 0.2424 -1.8804 -7.0204 -17.0873 -10.5292 0.2196 26.7533 0.4314 7.5115 -8.8054 2.9959 -1.4030 0.8281 1.0269
-2.2256 96.6413 -2.6763 -0.1276 -1.9000 0.3644 1.6277 6.5884 0.1149 0.2225 -2.9072 0.2134 2.7900 14.9826 -1.4635 -3.2718 6.6727 4.2229 -0.6646 -3.5455 0.7036 -2.6086 -14.2196 1.3971 0.0239 0.0884 0.0499 0.7322 -10.4607 -3.8257 -0.6891 -10.4757 3.9252 0.5539 16.0278 -7.9760 -37.7262 -22.3864 -56.6806 0.0213 0.8549 -121.9649 -29.4148 50.3444 6.8246 -14.9550 10.3501 14.7300 -59.4035 1.5215 2.0209 -2.4715 15.4429 21.7240 61.3766 -32.1429 13.8795 -0.5036 0.5891 83.7859 61.8846 -85.6970 -51.7221 15.9998 8.2451 -16.5463 49.7047 -3.3339 -4.8394 9.5559 -16.4691 10.4432 -0.1337 26.9782 -0.0461 -8.7103 -9.2487 -5.7754 1.6963 0.2591 -1.9062 -6.9571 -17.3333 -10.4875 0.2440 27.1235 0.4629 7.4583 -8.9775 3.0639 -1.4044 0.8294 1.0216
-2.1672 96.5587 -2.6275 -0.1575 -1.8542 0.1810 1.6812 6.5567 0.1489 0.2011 -2.9098 0.1868 2.9335 15.0292 -1.4692 -3.2804 6.4506 4.2398 -0.6539 -3.5317 0.7351 -2.6590 -14.4836 1.5364 0.0224 0.0935 0.0508 0.7341 -10.4517 -3.8256 -0.6941 -10.4641 3.9281 0.5350 15.9927 -8.2647 -36.9917 -23.0785 -57.7602 0.1064 0.7970 -120.2403 -29.5772 50.5618 7.3622 -14.8450 10.3421 14.7337 -59.3420 1.5099 1.9473 -2.5218 15.4983 22.0027 61.9992 -31.9932 16.2033 -0.3717 0.5510 83.4312 59.3222 -86.9473 -49.3330 15.8643 8.4130 -16.5177 49.7807 -3.3251 -4.7501 9.5857 -16.7918 10.8185 -0.1269 27.5392 -0.0291 -8.6942 -9.4997 -6.0118 1.6959 0.2896 -1.9401 -6.9585 -17.5892 -10.4723 0.2762 27.4958 0.5091 7.4320 -9.1474 3.2312 -1.4020 0.8293 1.0110
-2.0572 96.4826 -2.5550 -0.1621 -1.8398 -0.0496 1.6987 6.5395 0.1609 0.1866 -2.9223 0.1435 3.0498 15.0527 -1.4990 -3.3288 6.3412 4.2369 -0.6517 -3.5084 0.8072 -2.7216 -14.8009 1.7000 0.0201 0.0904 0.0634 0.7341 -10.4390 -3.8107 -0.6988 -10.4510 3.9408 0.6721 15.9047 -8.5167 -36.3741 -23.8877 -58.0843 0.2210 0.7696 -118.8114 -29.9602 50.5714 7.3333 -14.8236 10.3423 14.7466 -59.3695 1.5371 1.8895 -2.5152 15.6065 22.1106 62.6753 -31.3113 18.2025 -0.1494 0.5290 83.7962 49.8334 -87.5914 -40.4562 15.7252 8.5344 -16.4898 49.8922 -3.3183 -4.7075 9.5630 -17.0303 11.2655 -0.1298 28.0663 -0.0434 -8.7012 -9.7794 -6.2446 1.6964 0.3408 -1.9622 -7.0264 -17.8029 -10.3857 0.2943 27.8374 0.5435 7.4325 -9.3007 3.4085 -1.3987 0.8596 0.9961
-1.8837 96.4147 -2.4689 -0.1347 -1.8296 -0.3422 1.6949 6.5259 0.1169 0.1893 -2.9291 0.0925 3.1061 15.0249 -1.5610 -3.4129 6.3554 4.2509 -0.6665 -3.5099 0.8819 -2.7844 -15.0897 1.8878 0.0182 0.0850 0.0773 0.7273 -10.4334 -3.7983 -0.6960 -10.4427 3.9568 0.8423 15.8029 -8.7341 -35.8151 -24.6966 -57.6462 0.3296 0.8187 -117.7410 -30.3125 50.2982 6.7326 -14.8939 10.3718 14.7570 -59.3949 1.5965 1.8446 -2.4454 15.7726 22.0023 63.2719 -29.9978 19.9935 0.0045 0.5229 85.0417 29.0307 -87.4487 -20.6486 15.5668 8.5899 -16.4938 49.9737 -3.2929 -4.7296 9.4611 -17.1778 11.7765 -0.1414 28.4958 -0.0792 -8.6686 -10.0559 -6.4183 1.6967 0.4259 -1.9537 -7.1720 -17.9710 -10.1941 0.2953 28.0843 0.5664 7.4714 -9.4102 3.5192 -1.3966 0.9207 0.9912
-1.6330 96.3725 -2.3603 -0.0528 -1.7953 -0.7245 1.6641 6.5095 0.0644 0.2002 -2.9519 0.0053 3.0999 14.9607 -1.6476 -3.5559 6.4503 4.3052 -0.6769 -3.5260 0.9925 -2.8285 -15.2763 2.0734 0.0175 0.0783 0.0798 0.7213 -10.4314 -3.7958 -0.6917 -10.4359 3.9604 0.9673 15.6658 -8.9019 -35.2709 -25.4086 -56.5980 0.3373 0.9126 -116.9531 -30.6336 49.6491 5.8517 -14.9786 10.3618 14.7395 -59.3508 1.6363 1.8161 -2.3220 15.9506 21.7485 63.8040 -28.1086 21.3897 0.1663 0.4584 87.0392 9.2469 -86.4130 -2.1496 15.4349 8.6042 -16.4661 50.0237 -3.2841 -4.7572 9.2546 -17.2309 12.2957 -0.1553 28.8175 -0.1165 -8.5885 -10.3241 -6.4847 1.6963 0.4551 -1.9291 -7.4260 -18.1353 -9.8964 0.2780 28.2482 0.5801 7.5556 -9.4924 3.6538 -1.3977 0.9392 0.9877
-1.3103 96.3436 -2.2402 0.0654 -1.7393 -1.2091 1.6134 6.4860 0.0140 0.2131 -2.9783 -0.1008 3.0685 14.8902 -1.7671 -3.7594 6.5259 4.3575 -0.6649 -3.5386 1.1533 -2.8950 -15.3899 2.2777 0.0190 0.0733 0.0724 0.7165 -10.4384 -3.8041 -0.6840 -10.4405 3.9529 1.0171 15.5601 -9.0060 -34.5775 -25.8867 -55.3283 0.3536 1.0111 -116.3887 -30.9468 48.8809 4.8929 -15.0590 10.3449 14.7311 -59.3097 1.6458 1.8108 -2.1640 16.1313 21.4092 64.2926 -25.7666 22.3084 0.3811 0.3239 89.6063 -3.1832 -84.7295 8.8414 15.3365 8.5835 -16.3811 49.9748 -3.2833 -4.7403 8.9603 -17.2312 12.8366 -0.1620 29.0956 -0.1263 -8.4757 -10.5770 -6.4705 1.6994 0.4619 -1.9101 -7.7559 -18.3189 -9.5008 0.2554 28.3514 0.5831 7.7079 -9.5029 3.7973 -1.4016 0.9220 0.9818
-0.8962 96.3182 -2.0967 0.2129 -1.6750 -1.7678 1.5484 6.4647 -0.0316 0.2201 -2.9917 -0.2273 3.0243 14.7940 -1.8963 -4.0342 6.5732 4.4115 -0.6011 -3.5450 1.3441 -3.0106 -15.4615 2.5230 0.0211 0.0732 0.0616 0.7168 -10.4492 -3.8177 -0.6806 -10.4504 3.9447 0.9918 15.4249 -9.0637 -33.8148 -26.0380 -54.0109 0.3968 1.0941 -115.9559 -31.2096 48.0261 4.0056 -15.0824 10.3155 14.7162 -59.2233 1.6472 1.8171 -1.9843 16.2696 21.0336 64.6711 -23.0467 22.7597 0.5985 0.1940 92.5441 -10.5423 -82.4424 14.7525 15.2548 8.5286 -16.2280 49.8167 -3.2997 -4.7131 8.5934 -17.1768 13.3689 -0.1627 29.3368 -0.1193 -8.3557 -10.8270 -6.3876 1.7030 0.4672 -1.9027 -8.1557 -18.5055 -9.0062 0.2433 28.4111 0.5889 7.8966 -9.4635 3.9286 -1.4083 0.8535 0.9826
-0.4352 96.2947 -1.9681 0.3649 -1.6086 -2.3731 1.4771 6.4499 -0.0822 0.2344 -2.9951 -0.3309 2.9909 14.7086 -2.0347 -4.3863 6.5725 4.4883 -0.5216 -3.5470 1.4751 -3.0951 -15.5517 2.8200 0.0227 0.0793 0.0494 0.7188 -10.4523 -3.8330 -0.6802 -10.4522 3.9350 0.9542 15.2897 -9.0895 -32.9659 -25.9765 -52.8044 0.4670 1.2294 -115.6907 -31.3158 46.8576 3.3370 -15.0559 10.2907 14.6924 -59.1204 1.6203 1.8131 -1.8228 16.3913 20.6519 64.8246 -20.0188 22.8959 0.6894 0.0855 95.7945 -15.5450 -79.8100 18.2465 15.2600 8.4417 -16.0710 49.6409 -3.3216 -4.6990 8.1837 -17.1053 13.8661 -0.1517 29.5824 -0.1000 -8.2102 -11.0711 -6.2240 1.7047 0.4602 -1.9063 -8.5990 -18.6825 -8.4885 0.2424 28.4061 0.5987 8.1356 -9.3946 4.0745 -1.4128 0.7479 0.9813
0.0611 96.2834 -1.8453 0.5018 -1.5578 -3.0062 1.3972 6.4378 -0.1056 0.2622 -3.0017 -0.4255 2.9681 14.6676 -2.1744 -4.7712 6.5431 4.5450 -0.4442 -3.5391 1.6090 -3.1430 -15.6763 3.1478 0.0238 0.0848 0.0453 0.7250 -10.4604 -3.8400 -0.6847 -10.4547 3.9340 0.9410 15.1495 -9.1139 -32.1251 -25.7868 -51.7097 0.5122 1.3352 -115.5430 -31.1333 45.5416 2.9783 -15.0540 10.2793 14.6853 -58.9824 1.5833 1.8127 -1.6696 16.5468 20.2978 64.7765 -16.8851 22.6929 0.7444 -0.0397 99.0454 -19.3638 -77.0963 20.5594 15.2364 8.3566 -15.9533 49.4735 -3.3430 -4.6793 7.7614 -16.9852 14.3141 -0.1451 29.7837 -0.1002 -8.0209 -11.2979 -5.9645 1.7056 0.4455 -1.9254 -9.0404 -18.7904 -7.9672 0.2377 28.2810 0.6014 8.3937 -9.2562 4.2417 -1.4150 0.6472 0.9777
0.5537 96.2950 -1.7155 0.5976 -1.5241 -3.6516 1.3224 6.4243 -0.1380 0.2899 -3.0012 -0.4996 2.9826 14.6696 -2.3088 -5.1826 6.4926 4.6052 -0.3874 -3.5414 1.7679 -3.1507 -15.7712 3.4668 0.0249 0.0859 0.0391 0.7342 -10.4631 -3.8463 -0.6922 -10.4520 3.9284 0.9546 15.0373 -9.1025 -31.3194 -25.5649 -50.8620 0.5755 1.3964 -115.4861 -30.6388 44.3273 2.9745 -15.0636 10.2695 14.6409 -58.9023 1.5686 1.7793 -1.5502 16.7542 20.0328 64.5507 -13.7839 22.3474 0.6388 -0.1804 101.9834 -22.4003 -74.5640 22.0567 15.2340 8.3019 -15.8752 49.4947 -3.3677 -4.7028 7.3685 -16.8009 14.6959 -0.1258 29.8860 -0.0855 -7.7966 -11.5120 -5.6723 1.7027 0.4480 -1.9372 -9.4235 -18.7821 -7.4869 0.2395 27.9764 0.6140 8.6630 -9.0618 4.3797 -1.4163 0.5533 0.9761
1.0158 96.3272 -1.6034 0.6526 -1.4845 -4.2511 1.2565 6.4120 -0.1703 0.3186 -3.0074 -0.5497 3.0193 14.6923 -2.4150 -5.5817 6.4180 4.6653 -0.3361 -3.5395 1.9438 -3.1158 -15.7815 3.7111 0.0251 0.0835 0.0352 0.7426 -10.4695 -3.8486 -0.7010 -10.4546 3.9236 1.0504 14.8676 -9.0992 -30.6834 -25.4506 -50.1479 0.5584 1.4122 -115.5099 -29.9441 43.1546 3.2209 -15.0644 10.2707 14.5934 -58.8381 1.5979 1.7395 -1.4648 16.9869 19.8225 64.2978 -10.9023 21.8222 0.5111 -0.3315 104.4962 -24.9696 -72.2784 23.0804 15.2481 8.2634 -15.8223 49.5002 -3.4168 -4.7230 7.0250 -16.5818 14.9977 -0.1089 29.8621 -0.0830 -7.5918 -11.6672 -5.3496 1.7003 0.4718 -1.9473 -9.7395 -18.6991 -7.0714 0.2378 27.5238 0.6295 8.9512 -8.8038 4.5123 -1.4163 0.4663 0.9700
1.4174 96.3979 -1.5021 0.6531 -1.4526 -4.8223 1.2245 6.4116 -0.1868 0.3423 -3.0150 -0.6054 3.0715 14.7223 -2.4809 -5.9431 6.3350 4.7471 -0.2929 -3.5365 2.1154 -3.0651 -15.6973 3.8832 0.0257 0.0789 0.0362 0.7491 -10.4799 -3.8487 -0.7064 -10.4630 3.9279 1.2595 14.6921 -9.1261 -30.2464 -25.4191 -49.6364 0.5554 1.4457 -115.5288 -29.3064 42.2232 3.6065 -15.0821 10.2982 14.5749 -58.8164 1.6364 1.6962 -1.4129 17.2031 19.6988 64.2164 -8.3795 21.1706 0.3965 -0.3983 106.5547 -27.5415 -70.4572 24.1880 15.2691 8.2381 -15.7774 49.4695 -3.4627 -4.7395 6.7794 -16.3362 15.2767 -0.0971 29.7351 -0.0790 -7.4074 -11.7758 -5.0930 1.6973 0.4758 -1.9568 -9.9592 -18.5121 -6.6850 0.2304 26.9184 0.6203 9.2447 -8.5223 4.6264 -1.4158 0.3828 0.9691
1.7788 96.4875 -1.3913 0.6093 -1.4336 -5.3473 1.2082 6.4213 -0.2312 0.3656 -3.0184 -0.6305 3.1274 14.7679 -2.5207 -6.2196 6.2417 4.8224 -0.2809 -3.5422 2.2781 -2.9904 -15.5978 3.9925 0.0263 0.0746 0.0303 0.7541 -10.4867 -3.8553 -0.7109 -10.4701 3.9223 1.6041 14.5052 -9.1317 -29.9052 -25.4629 -49.4747 0.6084 1.4514 -115.5859 -28.8332 41.5266 4.0536 -15.1205 10.3224 14.5602 -58.8852 1.6410 1.6711 -1.4334 17.4117 19.6199 64.4169 -6.2952 20.5662 0.2430 -0.4233 108.3489 -30.4016 -69.0326 25.7489 15.3248 8.2563 -15.7223 49.4720 -3.4662 -4.7523 6.6109 -16.0799 15.4863 -0.0890 29.5578 -0.0821 -7.1864 -11.8199 -4.8728 1.6949 0.4549 -1.9593 -10.0881 -18.2501 -6.4047 0.2289 26.2142 0.6242 9.4532 -8.2253 4.7501 -1.4132 0.2967 0.9611
2.0829 96.5633 -1.2809 0.5466 -1.4199 -5.8991 1.1946 6.4511 -0.2591 0.3849 -3.0101 -0.6454 3.1755 14.7929 -2.5253 -6.4127 6.1223 4.8877 -0.2811 -3.5312 2.4697 -2.8851 -15.4926 4.0528 0.0282 0.0738 0.0207 0.7608 -10.4917 -3.8671 -0.7140 -10.4756 3.9148 2.0554 14.3222 -9.1530 -29.6073 -25.5873 -49.7565 0.6807 1.5059 -115.5908 -28.5559 40.8809 4.6195 -15.1753 10.3581 14.5634 -58.9955 1.6505 1.6655 -1.5213 17.6074 19.6024 65.0048 -4.6435 20.0561 0.1254 -0.4305 110.0160 -33.4127 -67.7612 27.5799 15.3605 8.2944 -15.6839 49.4795 -3.4431 -4.7663 6.5040 -15.8274 15.6919 -0.0859 29.3800 -0.0915 -6.9661 -11.8674 -4.6517 1.6920 0.4551 -1.9611 -10.1589 -17.9879 -6.2205 0.2366 25.5012 0.6450 9.6019 -7.9574 4.9361 -1.4101 0.2360 0.9673
2.3129 96.6499 -1.1453 0.4689 -1.4350 -6.4206 1.1801 6.5303 -0.3064 0.4041 -2.9944 -0.6829 3.2016 14.7599 -2.4783 -6.5142 6.0163 4.9051 -0.2694 -3.5150 2.7222 -2.7624 -15.3520 4.1268 0.0291 0.0746 0.0269 0.7616 -10.4857 -3.8622 -0.7129 -10.4723 3.9222 2.6791 14.0732 -9.1725 -29.3850 -25.7837 -50.5708 0.6671 1.5284 -115.5521 -28.4247 40.2678 5.3094 -15.2158 10.4055 14.5964 -59.1800 1.6447 1.6692 -1.7304 17.8159 19.6260 66.1684 -3.3650 19.6848 0.1072 -0.4436 111.7780 -36.6279 -66.5862 29.6201 15.3823 8.3544 -15.6677 49.5010 -3.4126 -4.7716 6.4674 -15.5538 15.9166 -0.0979 29.1938 -0.1166 -6.7631 -11.9231 -4.4725 1.6928 0.4637 -1.9644 -10.1853 -17.7372 -6.1929 0.2498 24.8647 0.6702 9.6943 -7.7637 5.2182 -1.4080 0.2224 0.9764
2.5406 96.6936 -0.9883 0.4117 -1.4800 -6.9872 1.1533 6.6690 -0.3460 0.4242 -2.9529 -0.7427 3.1896 14.6745 -2.4616 -6.5699 5.9195 4.9198 -0.2369 -3.4939 2.9850 -2.5839 -15.2126 4.2829 0.0311 0.0786 0.0377 0.7593 -10.4772 -3.8536 -0.7064 -10.4631 3.9336 3.4974 13.8114 -9.2446 -29.0149 -26.0041 -52.0234 0.7392 1.4599 -115.4198 -28.1912 39.4107 6.3491 -15.2464 10.4544 14.6565 -59.3637 1.6040 1.7105 -2.1636 18.0766 19.6276 67.9493 -2.3323 19.6940 0.0951 -0.4680 113.7320 -40.0889 -65.6510 32.0162 15.4011 8.4192 -15.6996 49.6106 -3.3290 -4.7988 6.4575 -15.3069 16.2087 -0.1153 29.1611 -0.1479 -6.5836 -12.0640 -4.3673 1.6943 0.4415 -1.9527 -10.2225 -17.5961 -6.2684 0.2706 24.4703 0.7126 9.8076 -7.6673 5.5858 -1.4068 0.1986 0.9945
2.7315 96.6884 -0.8266 0.3811 -1.5287 -7.6098 1.1242 6.8398 -0.3739 0.4341 -2.8917 -0.8118 3.1371 14.5464 -2.5008 -6.5556 5.8268 4.9201 -0.2036 -3.4741 3.2625 -2.3661 -15.0715 4.4884 0.0321 0.0862 0.0528 0.7525 -10.4576 -3.8386 -0.6975 -10.4439 3.9479 4.3768 13.5070 -9.4572 -28.4686 -26.4086 -53.9246 0.7677 1.3484 -115.0341 -27.7515 38.0537 7.6123 -15.3135 10.5201 14.7450 -59.6344 1.5715 1.7821 -2.7708 18.3034 19.5021 70.1162 -1.4064 19.9147 0.1935 -0.4647 115.7891 -43.5183 -65.1963 34.8306 15.4005 8.4618 -15.7714 49.7914 -3.2548 -4.8214 6.4440 -15.1172 16.4891 -0.1261 29.3220 -0.1702 -6.4407 -12.3095 -4.1853 1.6960 0.3553 -1.9501 -10.2967 -17.6078 -6.3770 0.2977 24.3526 0.7582 9.9597 -7.6664 6.0450 -1.4086 0.1360 1.0066
2.9486 96.6262 -0.6260 0.3591 -1.5627 -8.3399 1.0825 7.0456 -0.4006 0.4321 -2.8234 -0.9482 3.0499 14.4352 -2.6258 -6.5055 5.6896 4.9638 -0.1419 -3.4556 3.5787 -2.1980 -14.9285 4.7978 0.0320 0.0898 0.0624 0.7431 -10.4477 -3.8281 -0.6880 -10.4345 3.9559 5.2864 13.2349 -9.8122 -27.7698 -27.1177 -55.9707 0.8103 1.1335 -114.3248 -27.0465 36.4036 8.9498 -15.4630 10.5843 14.8437 -60.0711 1.5715 1.8187 -3.4457 18.5151 19.2197 72.2867 -0.4097 20.2724 0.4210 -0.4424 117.8514 -46.3122 -65.1589 37.5220 15.4100 8.4803 -15.8837 50.0277 -3.1928 -4.9011 6.4288 -15.0969 16.7450 -0.1347 29.8680 -0.1880 -6.2981 -12.7386 -3.9150 1.6964 0.2072 -1.9640 -10.3831 -17.8701 -6.4712 0.3291 24.6633 0.8019 10.1159 -7.8065 6.6321 -1.4135 0.0647 0.9988
3.1741 96.4664 -0.4129 0.3117 -1.5766 -9.1875 1.0139 7.2952 -0.4611 0.4200 -2.7415 -1.1682 2.9452 14.3587 -2.8284 -6.4159 5.4529 5.0477 -0.0428 -3.4335 3.9686 -2.1040 -14.7913 5.2382 0.0311 0.0957 0.0642 0.7364 -10.4298 -3.8228 -0.6828 -10.4196 3.9544 6.2483 13.0151 -10.3161 -26.9912 -28.1237 -57.8001 0.8019 0.8523 -113.2612 -25.9463 34.3144 10.3040 -15.6433 10.6538 14.9736 -60.5674 1.6001 1.8335 -4.0751 18.6596 18.7179 74.2499 0.7915 20.5178 0.8346 -0.4192 119.9080 -47.7037 -65.3974 39.2138 15.3837 8.4121 -16.0025 50.2036 -3.1763 -5.0126 6.4593 -15.3183 16.9444 -0.1391 30.9190 -0.2050 -6.1624 -13.3881 -3.5284 1.6984 0.0186 -1.9968 -10.4595 -18.3981 -6.4240 0.3561 25.4427 0.8160 10.1984 -8.1251 7.2710 -1.4234 0.0015 0.9726
3.3973 96.1718 -0.2205 0.1851 -1.5740 -10.1274 0.9055 7.6118 -0.5278 0.4038 -2.6484 -1.4991 2.8700 14.3210 -3.1388 -6.3059 5.1136 5.1531 0.1102 -3.4264 4.4399 -2.0980 -14.6577 5.8615 0.0309 0.1038 0.0595 0.7373 -10.4231 -3.8243 -0.6837 -10.4166 3.9464 7.2960 12.9037 -10.9549 -25.9268 -29.2685 -59.1745 0.6842 0.5521 -111.8565 -24.4915 31.4441 11.4346 -15.8056 10.6866 15.0980 -61.0000 1.6163 1.8109 -4.5658 18.7807 17.9210 75.8714 2.2445 20.4616 1.3851 -0.4185 122.0816 -46.4557 -65.5800 38.6179 15.3869 8.2906 -16.1599 50.4107 -3.1983 -5.1279 6.5848 -15.9069 17.0308 -0.1379 32.6666 -0.1962 -5.9754 -14.3036 -3.0461 1.7007 -0.1306 -2.0315 -10.4748 -19.2580 -6.2531 0.3791 26.8260 0.8099 10.1886 -8.6970 7.9346 -1.4348 -0.0095 0.9448
3.6408 95.6877 -0.0167 -0.0275 -1.5537 -11.0519 0.7455 8.0072 -0.6067 0.3887 -2.5390 -1.9201 2.8506 14.3372 -3.5840 -6.1919 4.6877 5.2506 0.3201 -3.4418 4.9670 -2.1839 -14.5887 6.6969 0.0311 0.1137 0.0560 0.7440 -10.4290 -3.8266 -0.6896 -10.4319 3.9424 8.5017 12.9355 -11.7051 -24.4655 -30.3788 -59.8450 0.4861 0.3055 -110.2216 -22.7902 27.4924 12.0348 -15.8745 10.6558 15.2017 -61.1486 1.6019 1.8017 -4.8676 18.9001 16.7610 77.1006 3.9190 19.9878 1.8879 -0.4490 124.4411 -42.0615 -65.3492 35.0804 15.4044 8.1294 -16.2955 50.5158 -3.2398 -5.2297 6.7938 -16.8772 16.9468 -0.1239 35.1281 -0.1592 -5.7355 -15.5123 -2.4672 1.6978 -0.1547 -2.0578 -10.4228 -20.5088 -6.0768 0.4095 28.9273 0.8036 10.0194 -9.5548 8.6124 -1.4465 0.0416 0.9225
3.8692 94.9931 0.1613 -0.2938 -1.5300 -11.8896 0.5334 8.4646 -0.6715 0.3591 -2.4270 -2.4185 2.8923 14.4569 -4.1766 -6.0900 4.1673 5.3460 0.5952 -3.4813 5.5482 -2.3237 -14.6366 7.6704 0.0302 0.1163 0.0604 0.7573 -10.4554 -3.8252 -0.7042 -10.4726 3.9519 9.9460 13.1252 -12.4871 -22.8865 -31.4839 -59.2704 0.1989 0.1388 -108.7413 -20.8589 22.6332 11.9873 -15.8359 10.5889 15.2991 -60.9619 1.5656 1.7778 -4.9805 19.1001 15.2524 77.9939 5.7411 18.8704 2.2571 -0.4702 126.9196 -35.9252 -64.6453 29.9460 15.4502 7.9894 -16.3475 50.5817 -3.2875 -5.2456 7.0570 -18.2428 16.7514 -0.0955 38.3159 -0.0986 -5.4510 -17.0436 -1.8221 1.6921 -0.0417 -2.0807 -10.3639 -22.1389 -6.0277 0.4704 31.7479 0.8378 9.7206 -10.7210 9.4655 -1.4574 0.1265 0.9004
4.0580 94.1169 0.3776 -0.5731 -1.5605 -12.5604 0.3252 8.9345 -0.7772 0.3161 -2.2726 -2.8915 2.9845 14.7134 -4.8833 -6.1171 3.5677 5.4338 0.9071 -3.5486 6.1654 -2.4685 -14.8508 8.6820 0.0274 0.1095 0.0580 0.7658 -10.4949 -3.8310 -0.7184 -10.5238 3.9546 11.5101 13.4638 -13.1661 -21.9608 -32.6310 -56.6950 0.0069 0.1123 -108.1880 -18.8532 17.9151 11.3122 -15.7747 10.5260 15.3515 -60.6537 1.5493 1.7425 -4.8373 19.4196 13.4972 78.5713 7.6909 16.9056 2.4122 -0.4224 129.5497 -29.2605 -63.5330 24.3673 15.4814 7.8730 -16.3467 50.7059 -3.3339 -5.2665 7.3375 -19.7946 16.5521 -0.0565 41.9446 -0.0389 -5.1533 -18.7873 -1.1954 1.6799 0.2028 -2.0761 -10.3802 -23.9305 -6.0671 0.5467 35.0001 0.8856 9.4769 -12.0835 10.4571 -1.4613 0.1836 0.8796
4.2239 93.1803 0.6062 -0.7450 -1.6468 -12.9945 0.1859 9.3231 -0.8352 0.2861 -2.1482 -3.3296 3.0724 15.1209 -5.5406 -6.3687 2.9364 5.5037 1.1901 -3.6249 6.7254 -2.5731 -15.1851 9.4906 0.0224 0.0861 0.0486 0.7701 -10.5439 -3.8483 -0.7334 -10.5833 3.9573 12.7123 13.8923 -13.5841 -22.9089 -33.6351 -51.5269 -0.0052 0.3055 -109.2308 -16.8475 14.1140 10.3307 -15.6992 10.4812 15.3528 -60.3419 1.5749 1.7227 -4.1611 19.8224 11.8538 78.6237 9.6648 14.0531 2.2957 -0.2439 132.1447 -23.5667 -62.3496 19.9094 15.4582 7.7482 -16.3201 50.8545 -3.3742 -5.2671 7.5348 -21.1665 16.5195 -0.0201 45.3739 0.0043 -4.9335 -20.5062 -0.8004 1.6621 0.5415 -2.0491 -10.6274 -25.5227 -5.8778 0.6134 38.2113 0.9092 9.4307 -13.5466 11.2533 -1.4607 0.2207 0.8647
4.3116 92.3965 0.9765 -0.6648 -1.8111 -12.8116 0.1430 9.4963 -0.8838 0.2723 -2.0623 -3.6677 3.0929 15.5960 -6.0431 -6.8616 2.3551 5.5544 1.4103 -3.7008 7.0727 -2.6205 -15.5666 9.8859 0.0153 0.0567 0.0333 0.7681 -10.5829 -3.8684 -0.7473 -10.6268 3.9514 13.0071 14.4042 -13.6246 -26.6197 -33.6748 -43.8521 0.1395 0.6754 -112.2106 -14.6209 11.0635 9.2268 -15.7257 10.4251 15.3463 -60.1905 1.6836 1.7855 -2.7764 20.2955 10.5217 78.0946 11.2140 10.4964 2.0004 0.0735 134.2531 -20.3022 -61.4319 17.8963 15.5128 7.6700 -16.2371 51.0599 -3.3546 -5.2335 7.5213 -21.9465 16.6595 -0.0093 47.8560 0.0164 -4.7578 -21.8306 -1.0422 1.6457 0.9188 -1.9980 -11.2528 -26.4509 -5.3751 0.6507 40.8709 0.9275 9.6807 -14.9781 11.2972 -1.4550 0.2586 0.8584
4.2507 91.9966 1.5712 -0.2380 -2.0934 -11.4365 0.2308 9.4174 -0.9331 0.2937 -2.0802 -3.8755 2.9990 15.9118 -6.2280 -7.4006 2.0748 5.5726 1.4748 -3.7280 6.8808 -2.4971 -15.8870 9.4729 0.0061 0.0387 0.0219 0.7642 -10.6321 -3.8830 -0.7633 -10.6815 3.9486 12.2550 15.1002 -13.2079 -32.7062 -31.2046 -35.2764 0.4250 0.8810 -116.5405 -12.6788 8.2652 8.0034 -15.7413 10.3851 15.3277 -60.2932 1.8511 1.9152 -0.9735 20.8828 9.5870 77.4582 11.6246 6.8225 1.7724 0.3551 135.1841 -20.7847 -60.8557 19.1517 15.7432 7.6294 -16.1106 51.4475 -3.3173 -5.1737 7.1917 -21.8175 16.6572 -0.0558 48.7933 -0.0688 -4.5559 -22.4696 -2.2039 1.6351 1.3505 -1.9635 -12.2875 -26.2015 -4.9274 0.6589 42.4997 0.9339 10.2438 -16.2500 10.1318 -1.4509 0.3372 0.8402
3.9956 92.2490 2.4164 0.3891 -2.4182 -8.1663 0.5058 9.1206 -1.0032 0.3976 -2.1248 -3.7806 2.8907 15.6267 -6.0706 -7.5504 2.2930 5.4382 1.3171 -3.6907 5.8586 -2.0170 -15.9855 7.8737 -0.0028 0.0369 0.0294 0.7537 -10.6891 -3.8818 -0.7707 -10.7567 3.9671 10.7631 15.7453 -12.1343 -39.6533 -24.4348 -28.8071 0.6905 0.6647 -121.0964 -12.1595 5.5351 6.7940 -15.7890 10.3750 15.3722 -60.5446 1.9548 2.1476 1.1253 21.4032 9.3423 76.7843 10.3682 3.7694 1.6949 0.3814 134.4774 -24.3691 -59.5872 22.1929 16.1799 7.5714 -16.0229 51.7234 -3.3094 -5.1073 6.5833 -20.6796 15.6677 -0.1545 47.4867 -0.2464 -4.3365 -21.8987 -4.0224 1.6439 1.7379 -1.9614 -13.4018 -24.0552 -5.2039 0.5705 41.9145 0.8397 11.1123 -16.8984 7.3223 -1.4543 0.4410 0.8038
3.5988 93.2707 3.3468 0.9891 -2.4533 -2.6624 0.9160 8.6062 -1.0068 0.6117 -2.2040 -3.3088 3.0082 14.6730 -5.3276 -6.8113 2.8828 5.0346 0.7855 -3.5953 3.6747 -0.9786 -15.7568 4.6175 -0.0121 0.0407 0.0323 0.7278 -10.7728 -3.8864 -0.7622 -10.8653 3.9815 9.0956 16.0466 -10.1482 -45.9158 -14.2228 -26.1025 0.7261 0.0572 -124.7128 -13.7402 3.7085 6.3756 -15.9255 10.2734 15.5077 -60.7732 1.8154 2.3035 3.2255 21.1829 9.9811 75.1144 7.9201 2.0820 1.3793 0.2129 132.6172 -28.9381 -56.7317 24.6150 16.6763 7.3850 -16.0090 51.8620 -3.4538 -4.9638 5.7442 -18.9963 12.9029 -0.2353 43.7807 -0.4073 -4.0062 -19.8720 -6.0416 1.6630 1.9587 -1.9267 -14.1724 -20.2258 -6.9900 0.3819 38.5174 0.6087 12.2723 -16.4774 3.1487 -1.4607 0.4478 0.7920
3.1837 94.8193 4.2513 1.4107 -1.9994 4.1479 1.4022 7.8383 -0.9074 0.8285 -2.3473 -2.2551 3.2936 13.2890 -3.8814 -4.8297 3.6783 4.2685 -0.2486 -3.4296 0.9149 0.4369 -14.8356 -0.3413 -0.0258 0.0557 0.0680 0.6770 -10.8351 -3.8655 -0.7367 -10.9465 4.0385 7.9038 15.6713 -7.3471 -51.0269 -3.5617 -25.0011 -0.1275 0.1557 -126.7824 -15.3358 4.0147 6.9961 -16.0491 10.1817 15.8632 -60.6621 1.4811 2.4362 4.5370 20.3003 11.5977 70.9739 4.6890 0.9882 0.8368 -0.0573 130.1377 -30.8951 -52.2003 22.2713 16.5068 7.1973 -16.0907 51.3066 -3.7433 -4.8049 4.9786 -17.2708 8.7357 -0.2889 38.1880 -0.5127 -3.8653 -16.4771 -7.9391 1.6738 1.6393 -1.8943 -14.4772 -15.9192 -10.1899 0.2322 33.0999 0.3333 13.2778 -14.3331 -1.2151 -1.4766 0.2932 0.7969
2.8159 96.4326 5.0041 1.6262 -1.0036 11.2365 1.9558 6.9339 -0.6594 0.9676 -2.6126 -0.5463 3.6098 11.6969 -1.9061 -2.0922 4.5321 3.1997 -1.5761 -3.3950 -2.1611 2.1032 -13.3873 -6.1896 -0.0296 0.0746 0.0712 0.6574 -10.7916 -3.8363 -0.7218 -10.8868 4.0141 7.0593 14.9041 -3.5452 -53.3343 5.7294 -22.3826 -2.2081 1.0041 -128.7927 -14.8653 4.7826 7.2635 -15.6965 10.3592 16.1097 -60.4628 1.4055 2.3576 4.0773 19.0437 13.8936 64.5630 0.6177 -1.9287 -0.3350 -0.0326 127.1577 -29.1366 -47.1207 14.8479 15.7109 6.9329 -15.8758 49.4723 -4.1021 -4.7480 4.4194 -15.9277 4.1305 -0.2898 31.7300 -0.5831 -4.0558 -12.6573 -9.4319 1.6698 1.1105 -1.8276 -14.3456 -12.3880 -14.4315 0.1411 27.1834 0.2302 13.9539 -10.7623 -4.2166 -1.4676 -0.0227 0.8959
2.5136 97.8207 5.4833 1.4619 0.3628 17.2874 2.6751 6.1661 -0.2126 0.9944 -2.8427 1.3494 3.8371 10.0709 0.1563 0.4056 4.8196 2.0748 -2.6585 -3.6128 -5.5615 3.5758 -11.9282 -11.1234 -0.0214 0.0614 0.0168 0.6696 -10.6793 -3.8423 -0.7142 -10.7376 3.9022 5.8024 14.5181 0.6094 -51.6516 12.8443 -16.6268 -3.6979 1.5649 -131.7480 -13.1993 4.0152 5.8431 -15.1043 10.6894 16.3255 -60.1279 1.4383 2.2800 1.9831 17.3761 16.3818 56.0438 -5.8665 -8.8571 -1.4610 -0.1861 122.1777 -24.2582 -41.8836 4.8326 14.3013 6.7063 -15.4323 47.3740 -4.2726 -4.7051 4.4007 -15.0781 0.2723 -0.2338 25.3445 -0.5366 -4.4216 -8.9635 -10.5733 1.6805 0.4984 -1.7720 -13.6118 -10.2139 -18.5197 0.0571 22.2520 0.1857 14.2675 -6.9517 -5.6038 -1.4494 -0.4839 1.0464
2.1978 98.9172 5.5659 1.2052 2.1571 21.7135 3.4190 5.7053 0.3444 0.9379 -3.1204 3.1580 3.7226 8.6132 2.0415 2.3074 4.2423 1.4417 -3.5136 -3.8736 -9.0229 4.7249 -10.9980 -15.3691 -0.0167 0.0326 -0.0234 0.6885 -10.6104 -3.8608 -0.7226 -10.6406 3.8303 3.5120 14.6869 4.3702 -47.0467 16.7034 -7.1441 -3.8200 1.6320 -134.7147 -11.1000 1.2431 2.5563 -14.9148 10.7245 16.4953 -59.6074 1.2639 2.3483 -0.8537 15.5378 18.9329 46.5337 -14.8379 -16.6139 -2.1016 -0.3648 111.9289 -17.9978 -34.0296 -4.2500 13.6852 7.3115 -15.7913 47.7419 -3.9013 -4.6777 4.7284 -15.0051 -2.4605 -0.1970 19.7034 -0.4655 -4.9314 -5.5467 -11.6203 1.6892 -0.3560 -1.7942 -12.4561 -9.2858 -21.5410 0.0366 18.1688 0.1187 14.2538 -3.7381 -6.5041 -1.4369 -0.9533 1.0934
1.8718 99.6541 5.4216 1.0496 4.0119 24.8806 4.1526 5.5939 1.0890 0.8703 -3.3227 4.5446 3.1534 7.3731 3.5735 3.1894 3.4160 1.4876 -4.2358 -4.1624 -12.3426 5.7488 -10.2812 -19.4296 -0.0197 -0.0016 -0.0371 0.6789 -10.6097 -3.8723 -0.7202 -10.6368 3.8114 0.2874 14.8769 7.5027 -42.3137 16.6654 3.3267 -2.9043 1.2250 -135.2201 -7.8193 -0.7078 -1.6066 -14.9710 10.6619 16.3020 -59.7280 1.1686 2.1789 -4.0843 14.2055 21.6672 36.2307 -23.0903 -20.0830 -2.0935 -1.6358 93.0276 -11.9199 -22.8239 -10.0756 14.2426 7.9385 -16.4120 49.3900 -3.3166 -4.7350 5.1201 -15.6036 -4.1293 -0.1491 15.4492 -0.4135 -5.5736 -3.0647 -12.5646 1.6959 -1.0335 -1.8549 -11.3020 -9.0679 -23.3990 0.0312 14.8957 0.0801 14.3731 -1.6018 -7.1347 -1.4371 -1.1470 1.0977
1.5615 99.9791 5.2004 0.7037 5.2223 27.2195 5.0389 5.8016 1.8163 0.8073 -3.3356 5.5900 2.5139 6.4517 4.6093 3.2122 3.0881 1.9853 -4.8202 -4.4814 -15.1809 6.2512 -9.5714 -22.9091 -0.0268 -0.0405 -0.0276 0.6395 -10.6880 -3.8756 -0.6979 -10.7385 3.8320 -2.6505 14.4834 9.6103 -40.8226 15.5612 11.4855 -2.0331 1.0094 -133.0099 -4.7242 -0.2615 -5.2795 -15.0168 10.6779 15.9639 -60.2586 1.2035 1.9219 -7.4890 13.7197 24.4281 25.5045 -27.4296 -17.3491 -0.5093 -2.2464 65.5593 -6.0269 -11.4990 -13.6920 15.2180 7.9386 -16.7317 50.3333 -3.2310 -4.8300 5.7006 -16.4401 -4.7724 -0.0823 13.2161 -0.3966 -6.0759 -1.7934 -13.8722 1.6992 -1.1371 -1.8790 -10.1977 -8.3727 -24.5257 0.0443 12.0423 0.1348 14.3121 -0.4523 -7.8357 -1.4383 -1.1334 1.0462
1.2537 99.9693 5.0918 0.4982 5.7547 29.5994 5.8118 6.0606 2.2886 0.8321 -3.1908 6.1002 1.8786 5.8374 5.5161 2.9599 3.0558 2.5016 -5.1017 -4.8284 -17.4619 5.9476 -8.9815 -25.3662 -0.0184 -0.0867 -0.1149 0.6113 -10.8340 -3.9858 -0.6560 -10.9254 3.7593 -4.6070 13.7335 10.6872 -42.1885 15.9354 15.7911 -1.7007 0.6037 -130.6473 -2.4517 0.8679 -7.7355 -15.4088 10.6554 15.6682 -60.6405 1.3997 1.8523 -10.3581 13.6435 26.1483 15.8041 -26.2080 -9.5260 1.0681 -1.8141 34.9361 -0.9851 -4.6645 -15.8402 15.9425 8.0147 -16.9801 50.8158 -3.3731 -4.9025 6.0515 -17.4258 -4.7720 -0.0768 12.7334 -0.4171 -6.5451 -1.4017 -16.0196 1.6909 -0.7612 -1.8565 -9.4733 -6.9521 -25.4584 0.0736 9.3221 0.1786 13.8998 -0.1509 -9.3314 -1.4366 -0.9035 1.0140
0.8592 99.7640 5.1860 0.8869 5.9986 33.0456 6.2422 6.1817 2.6224 0.8668 -3.0400 6.3613 1.0570 5.5459 5.8657 2.9794 2.8472 2.7175 -5.5680 -4.9547 -19.2274 5.9813 -9.0276 -27.5772 -0.0126 -0.1152 -0.1643 0.6298 -10.8793 -4.0380 -0.6656 -10.9890 3.7120 -5.2314 13.1898 10.9931 -45.3906 17.6312 16.1126 -1.5576 0.3769 -129.0036 -1.6959 2.6808 -9.7101 -15.5865 10.4316 15.4461 -60.5629 1.5188 2.0498 -12.1065 13.4836 26.4421 11.5695 -23.7795 -5.7822 2.6059 -1.3419 17.0167 1.4054 -2.7614 -15.9358 15.7297 8.0119 -16.6497 50.3149 -3.3047 -4.9582 5.8118 -18.8169 -5.3492 -0.0880 13.3737 -0.4664 -7.1711 -1.2243 -18.6108 1.6690 -0.2907 -1.8628 -9.3152 -5.3814 -27.1307 0.0795 6.9972 0.1567 13.3928 -0.9195 -11.7106 -1.4434 0.0612 1.0095
0.4770 99.5049 5.4115 1.4180 6.1573 37.0598 6.3490 6.0243 2.7211 0.8055 -3.0781 6.4387 0.5426 5.6098 5.7482 3.3508 2.6450 2.3712 -5.8819 -4.8239 -19.9789 6.0791 -9.4983 -29.4539 -0.0228 -0.1012 -0.0498 0.6540 -10.8398 -3.9261 -0.7122 -10.9661 3.8353 -5.2627 13.3649 10.5307 -47.7841 18.4887 15.0325 -1.9863 0.2611 -127.7424 -2.2913 5.1094 -11.4420 -15.5537 10.2579 15.4892 -60.2686 1.6254 2.1833 -12.0313 12.9339 25.3456 10.6944 -23.2203 -6.2403 2.6170 -1.0034 13.2358 0.2371 -5.4679 -12.2543 15.7642 8.0170 -16.8018 50.2422 -3.5011 -5.0743 5.4796 -20.2191 -6.5855 -0.0904 14.1898 -0.4954 -7.6271 -0.8871 -21.1097 1.6498 0.0363 -1.8657 -9.2273 -4.0897 -29.0655 0.0301 5.5693 0.1717 12.6539 -1.8008 -14.0957 -1.4517 0.8216 1.0187
0.2147 99.2965 5.6519 1.7638 6.2844 40.1738 6.3823 5.7859 2.6967 0.7433 -3.1865 6.4023 0.3165 5.8031 5.6297 3.7540 2.6191 1.9315 -6.1030 -4.7513 -20.2572 6.1344 -9.7068 -30.6897 -0.0249 -0.0938 0.0323 0.6757 -10.7680 -3.8374 -0.7390 -10.8970 3.9143 -5.2620 13.6358 10.1139 -49.0022 19.1480 13.5745 -1.8244 0.3340 -127.3931 -2.9133 6.9547 -12.8139 -15.4833 10.1810 15.6354 -59.9944 1.6473 2.3333 -11.0401 12.6194 24.3601 10.3494 -23.0496 -7.1699 1.9221 -0.8985 13.3538 -1.5721 -7.7643 -8.0864 15.6556 7.9904 -17.0478 50.1481 -3.6393 -5.1271 5.2997 -21.1973 -7.7149 -0.0881 14.6970 -0.4943 -7.9514 -0.6769 -22.8268 1.6464 0.1826 -1.8519 -9.0783 -3.2066 -30.7522 -0.0226 4.7157 0.1524 11.9109 -2.3826 -15.8285 -1.4556 1.2342 1.0363
0.0976 99.1846 5.8099 1.8322 6.3576 41.8252 6.4626 5.6147 2.6558 0.7204 -3.2492 6.4207 0.3339 5.9690 5.6131 3.9365 2.7407 1.6906 -6.2672 -4.7816 -20.4062 6.1641 -9.6010 -31.2334 -0.0251 -0.1008 0.0639 0.6875 -10.7250 -3.7955 -0.7512 -10.8503 3.9375 -5.4173 13.7314 9.9622 -49.4209 19.4264 12.6660 -1.6591 0.5022 -127.7389 -3.1708 8.1679 -13.6661 -15.4592 10.1410 15.7399 -59.8116 1.6674 2.4266 -10.1995 12.5851 23.8983 10.1760 -22.8630 -7.6519 1.3252 -0.8024 13.6560 -2.7356 -7.9182 -6.0595 15.4504 7.9317 -16.9807 49.9537 -3.6421 -5.0601 5.3696 -21.7272 -8.4996 -0.0881 15.0227 -0.5039 -8.1719 -0.6709 -23.6206 1.6473 0.2189 -1.8204 -8.8941 -2.7736 -31.8735 -0.0528 4.3999 0.1095 11.4592 -2.5824 -16.5934 -1.4521 1.4067 1.0409
0.0975 99.1572 5.9054 1.7675 6.3682 42.2266 6.5068 5.5221 2.6473 0.7437 -3.2725 6.4300 0.4247 6.1197 5.7373 4.0005 2.9622 1.6431 -6.3847 -4.8344 -20.4622 6.1938 -9.3683 -31.2639 -0.0233 -0.1135 0.0689 0.6908 -10.7365 -3.7851 -0.7510 -10.8576 3.9371 -5.5717 13.7590 9.9606 -49.4081 19.3458 12.1590 -1.5280 0.5084 -128.4382 -2.9345 8.7838 -14.0856 -15.5298 10.1264 15.7919 -59.8259 1.6594 2.4503 -9.8835 12.6555 23.7814 10.3382 -22.7174 -7.6691 0.8550 -0.7302 13.5718 -3.6282 -6.3924 -5.3731 15.2713 7.8787 -16.7637 49.7249 -3.6513 -4.9421 5.5224 -21.9502 -8.9226 -0.1018 15.3789 -0.5366 -8.3608 -0.7810 -23.6507 1.6552 0.1766 -1.7858 -8.7710 -2.5937 -32.4472 -0.0470 4.2661 0.0810 11.2411 -2.5791 -16.6640 -1.4495 1.4541 1.0188
0.1249 99.1558 5.9124 1.6640 6.3833 41.8645 6.4939 5.4578 2.6648 0.7808 -3.2759 6.4452 0.5093 6.2394 5.9051 3.9703 3.2894 1.7316 -6.4115 -4.8987 -20.4766 6.2582 -9.1031 -31.0069 -0.0193 -0.1271 0.0543 0.6885 -10.7732 -3.8019 -0.7399 -10.8880 3.9243 -5.6898 13.7869 9.9415 -49.0604 19.0859 11.6874 -1.4175 0.2947 -128.9757 -2.4568 9.2429 -14.2824 -15.6190 10.1153 15.8045 -59.9358 1.6446 2.4671 -9.8682 12.7423 23.8909 10.5543 -22.3727 -7.3259 0.5997 -0.6969 13.3951 -4.0102 -4.0982 -5.1987 15.3096 7.8172 -16.5932 49.7187 -3.6311 -4.8989 5.7227 -22.0328 -9.1668 -0.1112 15.7356 -0.5709 -8.6159 -0.9395 -23.2488 1.6629 0.0731 -1.7742 -8.6933 -2.5728 -32.6860 -0.0364 4.1148 0.0585 11.1737 -2.5285 -16.3811 -1.4510 1.4553 0.9833
0.1437 99.1807 5.9227 1.5224 6.4188 41.1246 6.4566 5.4062 2.6793 0.7936 -3.2826 6.4430 0.6149 6.3427 6.0585 3.8977 3.6269 1.8211 -6.3246 -4.9388 -20.4043 6.3311 -8.8505 -30.5611 -0.0145 -0.1348 0.0276 0.6792 -10.8203 -3.8347 -0.7206 -10.9276 3.9006 -5.7535 13.8399 9.8934 -48.6699 18.7860 11.0509 -1.4031 0.1066 -129.1611 -1.9604 9.4869 -14.3364 -15.6450 10.1412 15.7910 -60.1084 1.6334 2.4543 -9.8677 12.7641 24.1495 10.6571 -22.0248 -6.7814 0.4319 -0.6814 13.3410 -4.0830 -1.8732 -4.9477 15.4808 7.7939 -16.5065 49.9188 -3.5888 -4.9188 5.9960 -22.1057 -9.4473 -0.1102 16.1628 -0.5748 -8.8182 -1.1277 -22.5998 1.6688 -0.0143 -1.7809 -8.5959 -2.6784 -32.7248 -0.0275 4.0135 0.0467 11.1759 -2.4815 -15.9794 -1.4541 1.4067 0.9404
0.1746 99.1885 5.8823 1.3576 6.4345 40.3056 6.4240 5.3765 2.6927 0.7973 -3.2931 6.3979 0.7339 6.4449 6.1532 3.8159 3.9284 1.8656 -6.1594 -4.9360 -20.2426 6.3514 -8.6621 -30.0232 -0.0101 -0.1363 0.0000 0.6762 -10.8611 -3.8663 -0.7083 -10.9636 3.8733 -5.7516 13.9061 9.8040 -48.4051 18.5471 10.3576 -1.4545 -0.0057 -129.1695 -1.5496 9.6427 -14.2711 -15.6225 10.1706 15.7776 -60.2400 1.6153 2.4128 -9.8162 12.8109 24.4423 10.5878 -21.8148 -6.2010 0.3602 -0.6974 13.4606 -4.1990 -0.2618 -4.6049 15.5979 7.8197 -16.4462 50.0833 -3.5501 -4.9276 6.2811 -22.1656 -9.6995 -0.1113 16.6110 -0.5826 -8.8452 -1.3030 -22.0010 1.6704 -0.0533 -1.7905 -8.4856 -2.8000 -32.5898 -0.0156 3.9884 0.0374 11.1928 -2.4663 -15.6099 -1.4582 1.3617 0.9179
0.1811 99.1785 5.8139 1.2136 6.4076 39.6017 6.3859 5.3547 2.6842 0.7947 -3.2944 6.3505 0.8460 6.5481 6.1427 3.7672 4.1968 1.8944 -6.0145 -4.9049 -20.0498 6.3960 -8.5162 -29.5226 -0.0078 -0.1292 -0.0222 0.6739 -10.8730 -3.8891 -0.7015 -10.9703 3.8515 -5.6897 13.9488 9.6914 -48.2769 18.3606 9.6911 -1.5809 0.0046 -129.1254 -1.2088 9.7882 -14.1748 -15.5540 10.1967 15.7663 -60.3061 1.6248 2.3631 -9.7378 12.8672 24.7483 10.5116 -21.7163 -5.7307 0.2976 -0.7126 13.6387 -4.4501 0.6465 -4.2315 15.6763 7.8599 -16.4052 50.2175 -3.5077 -4.9236 6.4975 -22.1824 -9.8792 -0.1132 16.9864 -0.5805 -8.7843 -1.4604 -21.5118 1.6680 -0.0537 -1.8044 -8.4132 -2.8922 -32.4177 -0.0027 3.9890 0.0503 11.1934 -2.4736 -15.3411 -1.4618 1.3393 0.9065
0.2364 99.1651 5.7173 1.1196 6.3382 39.0623 6.3624 5.3454 2.6265 0.7874 -3.3067 6.3183 0.9359 6.6736 6.0931 3.7549 4.4182 1.9172 -5.9170 -4.8759 -19.8470 6.4244 -8.4259 -29.1194 -0.0064 -0.1203 -0.0323 0.6745 -10.8770 -3.8988 -0.6991 -10.9713 3.8407 -5.6384 14.0194 9.5742 -48.2043 18.1275 9.0419 -1.6937 0.0362 -129.1619 -0.9513 9.9231 -14.0819 -15.5116 10.1801 15.7351 -60.3102 1.6185 2.3231 -9.6594 12.8675 25.0227 10.4018 -21.5230 -5.3876 0.1759 -0.7190 13.8563 -4.7931 1.1336 -3.9579 15.6533 7.8845 -16.3504 50.2545 -3.4768 -4.8763 6.6012 -22.1806 -9.9368 -0.1051 17.2905 -0.5614 -8.6900 -1.5537 -21.1751 1.6684 -0.0778 -1.8277 -8.4068 -2.9242 -32.2173 0.0103 3.9474 0.0529 11.1456 -2.4806 -15.2038 -1.4647 1.3479 0.9011
0.2746 99.1542 5.6168 1.0859 6.2611 38.6843 6.3240 5.3123 2.5586 0.7961 -3.3267 6.2859 0.9980 6.8168 6.0133 3.7596 4.6057 1.8884 -5.8553 -4.8454 -19.6276 6.4715 -8.3127 -28.8443 -0.0061 -0.1193 -0.0412 0.6784 -10.8747 -3.9045 -0.7025 -10.9654 3.8289 -5.6131 14.1578 9.4418 -48.1652 17.8828 8.4494 -1.7548 0.0565 -129.3389 -0.6648 10.1263 -14.0381 -15.5064 10.1704 15.7269 -60.3203 1.6130 2.2993 -9.5585 12.8692 25.2308 10.2909 -21.4176 -5.2211 0.0188 -0.7280 14.1554 -5.2057 1.4107 -3.7545 15.5582 7.8801 -16.3146 50.1780 -3.4938 -4.8603 6.6037 -22.1519 -9.9234 -0.1004 17.4585 -0.5485 -8.5931 -1.5819 -21.0310 1.6713 -0.0932 -1.8476 -8.4536 -2.9357 -32.0526 0.0178 3.8669 0.0499 11.0778 -2.4676 -15.1779 -1.4671 1.3515 0.8916
0.3218 99.1478 5.4984 1.0910 6.1774 38.4350 6.2785 5.2709 2.5247 0.8115 -3.3584 6.2367 1.0515 6.9678 5.9199 3.7663 4.7519 1.8515 -5.8307 -4.8172 -19.4155 6.5109 -8.1872 -28.6806 -0.0061 -0.1229 -0.0434 0.6834 -10.8704 -3.9023 -0.7075 -10.9574 3.8231 -5.6305 14.3241 9.3195 -48.1939 17.6337 7.8741 -1.7761 0.0867 -129.5423 -0.4203 10.4117 -14.0036 -15.4999 10.1931 15.7398 -60.3774 1.6270 2.2953 -9.4539 12.8685 25.3885 10.2034 -21.3822 -5.2007 -0.1163 -0.7429 14.5145 -5.5998 1.6075 -3.6577 15.4507 7.8495 -16.2948 50.0724 -3.5364 -4.8795 6.5263 -22.1154 -9.8779 -0.0962 17.5422 -0.5382 -8.5457 -1.5668 -20.9250 1.6717 -0.0887 -1.8649 -8.5397 -2.9502 -31.9396 0.0247 3.7836 0.0257 11.0023 -2.4443 -15.2044 -1.4672 1.3508 0.8795
0.3668 99.1583 5.3296 1.1018 6.1068 38.2245 6.2488 5.2316 2.5138 0.8348 -3.3868 6.1939 1.1166 7.1018 5.8658 3.7493 4.8944 1.8223 -5.7999 -4.7941 -19.2743 6.5434 -8.0419 -28.5639 -0.0060 -0.1246 -0.0445 0.6910 -10.8775 -3.9048 -0.7152 -10.9634 3.8238 -5.6978 14.4636 9.2469 -48.2431 17.4295 7.2923 -1.7453 0.1005 -129.6968 -0.2280 10.7532 -14.0298 -15.4796 10.2244 15.7628 -60.4707 1.6532 2.2975 -9.3714 12.8693 25.5169 10.0712 -21.3582 -5.2921 -0.1472 -0.7651 14.8447 -5.9161 1.7391 -3.6427 15.3597 7.8360 -16.2988 50.0249 -3.5830 -4.8707 6.4330 -22.0901 -9.7986 -0.0930 17.5751 -0.5263 -8.4756 -1.5160 -20.8655 1.6698 -0.0974 -1.8782 -8.6268 -2.9853 -31.8364 0.0313 3.7268 0.0107 10.9761 -2.3946 -15.2477 -1.4660 1.3249 0.8739
0.3973 99.1380 5.1827 1.1244 6.0382 38.1056 6.2387 5.1885 2.5044 0.8587 -3.4177 6.1689 1.1773 7.2237 5.8285 3.7266 5.0527 1.7842 -5.7909 -4.7829 -19.1928 6.5970 -7.9257 -28.4946 -0.0079 -0.1224 -0.0361 0.6936 -10.8687 -3.8967 -0.7215 -10.9504 3.8330 -5.7896 14.5845 9.1573 -48.3465 17.1905 6.8183 -1.7846 0.1240 -129.7567 -0.0377 11.1129 -14.0915 -15.5075 10.2624 15.7861 -60.6182 1.6688 2.2672 -9.3252 12.8472 25.5931 9.9820 -21.1970 -5.3911 -0.1625 -0.7787 15.0468 -6.0745 1.6995 -3.5797 15.3573 7.8142 -16.3308 50.0590 -3.6316 -4.8922 6.3180 -22.0538 -9.7272 -0.0888 17.5532 -0.5282 -8.4246 -1.4631 -20.7975 1.6667 -0.0869 -1.8930 -8.7168 -3.0138 -31.7561 0.0322 3.6737 -0.0094 10.9463 -2.3702 -15.3401 -1.4628 1.3018 0.8679
0.4170 99.1389 5.0286 1.1356 5.9833 38.0250 6.2598 5.1515 2.5336 0.8766 -3.4376 6.1576 1.2321 7.3162 5.7943 3.7050 5.2392 1.7925 -5.7933 -4.7689 -19.1990 6.6815 -7.8539 -28.4660 -0.0091 -0.1165 -0.0268 0.6929 -10.8638 -3.8892 -0.7232 -10.9441 3.8453 -5.9463 14.7186 9.0848 -48.3592 16.8736 6.4532 -1.8218 0.1397 -129.8140 0.1275 11.4385 -14.1383 -15.5112 10.2567 15.7937 -60.6138 1.6650 2.2352 -9.2817 12.8652 25.6402 9.8181 -20.9288 -5.4781 -0.1169 -0.7991 15.1079 -6.1514 1.5062 -3.4818 15.3970 7.8070 -16.3756 50.1389 -3.6531 -4.8917 6.2237 -22.0548 -9.6819 -0.0830 17.5528 -0.5185 -8.3598 -1.4259 -20.7321 1.6619 -0.0846 -1.9045 -8.7837 -3.0666 -31.7000 0.0303 3.6786 -0.0296 10.9563 -2.3539 -15.3696 -1.4591 1.2519 0.8715
0.4323 99.1245 4.8591 1.1365 5.9363 38.0171 6.3006 5.1177 2.5064 0.8921 -3.4565 6.1677 1.2871 7.4022 5.7698 3.6803 5.4020 1.7934 -5.8229 -4.7616 -19.2259 6.7720 -7.7791 -28.5084 -0.0095 -0.1121 -0.0253 0.6948 -10.8498 -3.8857 -0.7258 -10.9311 3.8436 -6.1180 14.8283 9.0326 -48.4124 16.4924 6.0922 -1.8880 0.1596 -129.7929 0.2689 11.6910 -14.1548 -15.5458 10.2575 15.7988 -60.6338 1.6533 2.2300 -9.2263 12.8836 25.6967 9.5855 -20.5374 -5.5097 -0.0649 -0.8190 14.9781 -6.1264 1.3128 -3.3313 15.4452 7.7921 -16.3862 50.2290 -3.6506 -4.8708 6.1406 -22.0763 -9.6652 -0.0737 17.5472 -0.5052 -8.3285 -1.4117 -20.7693 1.6566 -0.0983 -1.9038 -8.8299 -3.1334 -31.7204 0.0372 3.7231 -0.0237 10.9367 -2.3473 -15.4072 -1.4524 1.2286 0.8641
0.4192 99.0971 4.6941 1.1267 5.8996 38.0332 6.3612 5.0811 2.4926 0.9138 -3.4626 6.1703 1.3204 7.4568 5.7710 3.6708 5.5887 1.8304 -5.8712 -4.7754 -19.3223 6.8101 -7.7134 -28.5894 -0.0085 -0.1097 -0.0296 0.6951 -10.8457 -3.8886 -0.7238 -10.9296 3.8371 -6.3004 14.9145 8.9664 -48.4503 16.0988 5.7253 -1.9567 0.2018 -129.7280 0.3729 11.9019 -14.1653 -15.5946 10.2191 15.7930 -60.5957 1.6300 2.2327 -9.1800 12.9243 25.7762 9.3540 -19.9646 -5.5716 0.0041 -0.8173 14.7768 -6.0693 1.1444 -3.1908 15.5016 7.7681 -16.3880 50.2845 -3.6450 -4.8670 6.0769 -22.1024 -9.6134 -0.0701 17.5347 -0.5037 -8.3223 -1.4044 -20.8649 1.6529 -0.1005 -1.8939 -8.8667 -3.2358 -31.7081 0.0463 3.8498 -0.0329 10.9098 -2.3989 -15.4399 -1.4470 1.2165 0.8619
0.4607 99.0793 4.5374 1.1036 5.8508 38.1059 6.4202 5.0391 2.4591 0.9383 -3.4696 6.1666 1.3523 7.5085 5.7732 3.6592 5.7886 1.8708 -5.9155 -4.8063 -19.4454 6.8020 -7.6206 -28.6356 -0.0058 -0.1121 -0.0414 0.6960 -10.8550 -3.9013 -0.7193 -10.9390 3.8245 -6.4433 15.0076 8.8665 -48.5161 15.7173 5.3119 -2.0136 0.2057 -129.6551 0.5605 12.1559 -14.2271 -15.7001 10.1767 15.8015 -60.6196 1.6015 2.2490 -9.1506 12.9633 25.8216 9.1514 -19.2554 -5.5852 -0.0112 -0.8277 14.5655 -5.9989 1.0059 -3.0314 15.5296 7.7802 -16.4030 50.3504 -3.6311 -4.9042 6.0314 -22.1245 -9.5732 -0.0660 17.5287 -0.4992 -8.3234 -1.4063 -21.0267 1.6519 -0.1027 -1.8731 -8.8900 -3.3063 -31.7153 0.0523 3.9942 -0.0311 10.8668 -2.4835 -15.5102 -1.4433 1.2074 0.8530
0.4698 99.0703 4.4134 1.0781 5.7994 38.2169 6.4602 4.9887 2.4491 0.9580 -3.4928 6.1440 1.3897 7.5803 5.7635 3.6876 5.9842 1.8776 -5.9288 -4.8389 -19.5658 6.7340 -7.5933 -28.6480 -0.0036 -0.1195 -0.0451 0.6947 -10.8729 -3.9053 -0.7133 -10.9541 3.8189 -6.5110 15.1173 8.7247 -48.6055 15.3820 4.8162 -2.0208 0.1913 -129.6438 0.7786 12.3481 -14.2640 -15.8012 10.1399 15.8120 -60.6429 1.5762 2.2842 -9.1213 13.0162 25.8583 8.9493 -18.6244 -5.6137 -0.0453 -0.8553 14.3554 -5.9394 0.9048 -2.8697 15.5528 7.7998 -16.4005 50.4069 -3.6199 -4.9373 6.0001 -22.1503 -9.5643 -0.0739 17.5350 -0.5217 -8.3411 -1.3984 -21.1563 1.6510 -0.1086 -1.8468 -8.9095 -3.3637 -31.7001 0.0532 4.1856 -0.0457 10.8426 -2.5877 -15.5917 -1.4434 1.1914 0.8442
0.5008 99.0471 4.3010 1.0569 5.7238 38.3212 6.4835 4.9451 2.4563 0.9855 -3.5026 6.0843 1.4441 7.6387 5.7752 3.7139 6.1651 1.8966 -5.9428 -4.8754 -19.6905 6.6261 -7.5765 -28.6557 0.0002 -0.1220 -0.0536 0.6934 -10.8857 -3.9156 -0.7042 -10.9633 3.8111 -6.5248 15.2408 8.5980 -48.7258 15.0356 4.2016 -2.0780 0.1648 -129.5803 0.9494 12.5828 -14.2991 -15.8691 10.1217 15.8379 -60.6560 1.5718 2.2982 -9.0870 13.0490 25.9151 8.7668 -18.1688 -5.6795 -0.0592 -0.8739 14.1749 -5.9005 0.8564 -2.6061 15.5499 7.8410 -16.3659 50.4403 -3.5719 -4.9399 5.9669 -22.1514 -9.5673 -0.0772 17.5537 -0.5411 -8.3541 -1.3531 -21.2803 1.6544 -0.1081 -1.8269 -8.9510 -3.4397 -31.6460 0.0516 4.4584 -0.0656 10.8758 -2.7302 -15.6908 -1.4464 1.2078 0.8445
0.5352 99.0503 4.1936 1.0325 5.6334 38.3976 6.4998 4.9256 2.4511 0.9968 -3.5136 6.0300 1.5164 7.6961 5.8069 3.7458 6.3400 1.9220 -5.9437 -4.9002 -19.8316 6.5125 -7.6190 -28.6775 0.0051 -0.1210 -0.0707 0.6952 -10.9025 -3.9369 -0.6961 -10.9765 3.7952 -6.4958 15.3522 8.4954 -48.8402 14.7242 3.4984 -2.1487 0.2056 -129.5231 1.0970 12.7435 -14.2444 -15.8862 10.1165 15.8597 -60.6646 1.5554 2.2746 -9.0667 13.1065 26.0084 8.6101 -17.9706 -5.7778 0.0231 -0.8948 13.9932 -5.9306 0.8079 -2.2375 15.5422 7.8643 -16.3628 50.4140 -3.5587 -4.9523 5.9428 -22.1335 -9.5988 -0.0827 17.6029 -0.5499 -8.3535 -1.3476 -21.3398 1.6561 -0.1121 -1.8177 -8.9945 -3.5303 -31.5650 0.0525 4.7982 -0.0873 10.9256 -2.8800 -15.7269 -1.4497 1.1987 0.8430
0.5406 99.0294 4.0882 1.0179 5.5094 38.4071 6.5050 4.9318 2.4593 1.0161 -3.5129 5.9785 1.5934 7.7676 5.8494 3.7801 6.5038 1.9398 -5.9506 -4.9232 -19.9856 6.3900 -7.7343 -28.6837 0.0108 -0.1135 -0.0932 0.6972 -10.8963 -3.9593 -0.6868 -10.9645 3.7691 -6.4408 15.4049 8.4228 -48.9410 14.5220 2.7526 -2.1958 0.2569 -129.4201 1.2082 12.9134 -14.1725 -15.8920 10.1268 15.8565 -60.7415 1.5496 2.2512 -9.0605 13.1745 26.1037 8.4782 -17.8110 -5.8269 0.1052 -0.8892 13.8294 -5.9817 0.5125 -1.8241 15.5617 7.8753 -16.3489 50.4206 -3.5274 -4.9107 5.9166 -22.0873 -9.5931 -0.0888 17.6712 -0.5385 -8.3618 -1.3736 -21.3909 1.6573 -0.1027 -1.8217 -9.0762 -3.6370 -31.4093 0.0524 5.2099 -0.0907 11.0497 -3.0553 -15.7538 -1.4522 1.1938 0.8544
0.5454 99.0113 3.9860 1.0197 5.3638 38.3503 6.4957 4.9731 2.4356 1.0203 -3.5126 5.9846 1.6693 7.8625 5.8623 3.7988 6.6640 1.9418 -5.9297 -4.9243 -20.0971 6.2879 -7.8848 -28.6556 0.0147 -0.1060 -0.1093 0.7003 -10.8920 -3.9765 -0.6823 -10.9575 3.7507 -6.3460 15.4356 8.3798 -49.0244 14.3122 2.0265 -2.2537 0.3113 -129.3508 1.2559 13.1263 -14.0690 -15.9056 10.1310 15.8443 -60.7970 1.5260 2.2269 -9.0634 13.2191 26.1943 8.3633 -17.7292 -5.8429 0.2012 -0.8810 13.7683 -6.0529 -0.0542 -1.3291 15.5545 7.8825 -16.3622 50.3974 -3.5017 -4.9034 5.8605 -22.0099 -9.5146 -0.0887 17.7341 -0.5190 -8.3778 -1.4271 -21.4227 1.6557 -0.1105 -1.8409 -9.1745 -3.8121 -31.1876 0.0552 5.7520 -0.0770 11.1692 -3.2653 -15.7310 -1.4534 1.1554 0.8661
0.5042 98.9825 3.8936 1.0308 5.2049 38.1871 6.4695 5.0370 2.4198 1.0357 -3.5033 5.9948 1.7328 7.9671 5.8578 3.8143 6.8002 1.9269 -5.8940 -4.9037 -20.1462 6.2218 -8.0495 -28.6227 0.0139 -0.0996 -0.1056 0.6998 -10.8835 -3.9722 -0.6837 -10.9466 3.7541 -6.2322 15.4762 8.3798 -49.1264 14.0991 1.3317 -2.3108 0.3854 -129.2866 1.2586 13.4813 -14.0167 -15.8780 10.1629 15.8637 -60.8596 1.5281 2.2334 -9.0566 13.2924 26.2806 8.2687 -17.8134 -5.8377 0.3506 -0.8656 13.8309 -6.2125 -0.7721 -0.7579 15.5008 7.8603 -16.3526 50.3647 -3.4905 -4.9021 5.7823 -21.9269 -9.3398 -0.0839 17.8325 -0.4951 -8.3994 -1.5052 -21.4058 1.6546 -0.1144 -1.8594 -9.2904 -4.0637 -30.8781 0.0538 6.4175 -0.0532 11.2911 -3.5104 -15.6703 -1.4525 1.1004 0.8872
0.4810 98.9539 3.8017 1.0331 5.0504 37.9418 6.4285 5.1236 2.4131 1.0414 -3.4938 5.9914 1.7852 8.0762 5.8359 3.8785 6.9319 1.8922 -5.8661 -4.8692 -20.0987 6.1887 -8.2062 -28.5807 0.0094 -0.0955 -0.0866 0.6953 -10.8759 -3.9510 -0.6889 -10.9372 3.7733 -6.0556 15.5414 8.4143 -49.3079 13.8773 0.6672 -2.3672 0.4608 -129.3232 1.2266 14.0239 -13.9815 -15.8519 10.2094 15.8982 -60.9312 1.5367 2.2402 -9.0574 13.4255 26.3228 8.2692 -18.0824 -5.8662 0.4819 -0.8768 14.0871 -6.3972 -1.5391 -0.1547 15.4127 7.8277 -16.3583 50.2942 -3.4946 -4.8991 5.7080 -21.8736 -9.1111 -0.0800 17.9990 -0.4837 -8.4004 -1.6197 -21.3765 1.6516 -0.1078 -1.8738 -9.3972 -4.3690 -30.5116 0.0413 7.1777 -0.0413 11.3865 -3.7756 -15.5658 -1.4493 1.0437 0.8985
0.4462 98.9223 3.6751 1.0312 4.9226 37.5758 6.3664 5.2139 2.4081 1.0444 -3.4749 5.9861 1.8334 8.1723 5.8206 3.9784 7.0680 1.8180 -5.8641 -4.8459 -19.9835 6.1613 -8.3066 -28.4578 0.0046 -0.0943 -0.0621 0.6924 -10.8678 -3.9246 -0.6957 -10.9271 3.7994 -5.8865 15.6560 8.4556 -49.5132 13.6070 0.0288 -2.3929 0.5269 -129.4275 1.1477 14.5459 -13.9957 -15.8301 10.2153 15.9514 -60.9091 1.5441 2.2834 -9.0661 13.5457 26.3039 8.3711 -18.4773 -5.9479 0.5629 -0.8978 14.6262 -6.6192 -2.1827 0.4122 15.3468 7.7956 -16.3635 50.2508 -3.5125 -4.8918 5.6416 -21.8409 -8.7781 -0.0813 18.1853 -0.4780 -8.3724 -1.7324 -21.3590 1.6511 -0.1327 -1.8903 -9.4897 -4.7571 -30.0995 0.0330 8.0096 -0.0318 11.4433 -4.0647 -15.3879 -1.4462 0.9961 0.9148
0.4273 98.8705 3.5530 1.0034 4.7954 37.1331 6.2907 5.3148 2.3781 1.0509 -3.4435 5.9483 1.8872 8.2761 5.8124 4.1504 7.2121 1.7518 -5.8818 -4.8474 -19.8482 6.1141 -8.3368 -28.2164 0.0020 -0.0921 -0.0534 0.6952 -10.8632 -3.9174 -0.7036 -10.9215 3.8102 -5.6922 15.7792 8.4654 -49.7726 13.3026 -0.5740 -2.3832 0.6197 -129.6489 1.0760 14.9951 -13.9614 -15.8465 10.2061 15.9723 -60.8748 1.5365 2.2929 -9.0866 13.6253 26.1956 8.5596 -19.0306 -6.0897 0.5390 -0.9433 15.5168 -6.7591 -2.7927 1.0232 15.2753 7.7852 -16.4052 50.2154 -3.5147 -4.9039 5.5998 -21.8117 -8.4064 -0.0759 18.3959 -0.4706 -8.3340 -1.8871 -21.3090 1.6483 -0.1446 -1.8963 -9.5658 -5.1838 -29.7166 0.0261 8.8780 -0.0252 11.4981 -4.3416 -15.1421 -1.4419 0.9830 0.9248
0.3850 98.8172 3.4011 0.9464 4.6877 36.6206 6.2017 5.4215 2.3264 1.0489 -3.4113 5.8748 1.9630 8.3851 5.7871 4.3946 7.3866 1.6787 -5.8972 -4.8538 -19.6568 6.0712 -8.3631 -27.8751 0.0008 -0.0875 -0.0535 0.6978 -10.8551 -3.9186 -0.7084 -10.9162 3.8096 -5.4711 15.9078 8.4484 -50.0740 12.9330 -1.1784 -2.3648 0.7050 -129.9430 0.9445 15.3962 -13.8018 -15.8459 10.2038 16.0067 -60.8324 1.5481 2.2787 -9.0929 13.6784 26.0109 8.7770 -19.6562 -6.3025 0.4843 -1.0073 16.8233 -6.8423 -3.4518 1.7323 15.2344 7.7708 -16.4644 50.1946 -3.5055 -4.9397 5.5972 -21.7947 -8.0482 -0.0678 18.6246 -0.4436 -8.2549 -2.0790 -21.2095 1.6444 -0.1447 -1.8909 -9.5988 -5.6852 -29.3590 0.0231 9.8245 -0.0162 11.5259 -4.6255 -14.8124 -1.4371 1.0012 0.9253
0.3675 98.7711 3.2320 0.8697 4.5857 36.0095 6.0906 5.5565 2.2934 1.0461 -3.3648 5.7506 2.0428 8.4825 5.7276 4.7140 7.5799 1.6152 -5.9003 -4.8607 -19.3745 6.0269 -8.3874 -27.4336 0.0015 -0.0855 -0.0589 0.7020 -10.8602 -3.9281 -0.7107 -10.9225 3.8087 -5.1811 16.0504 8.4108 -50.3758 12.4939 -1.8302 -2.3185 0.7688 -130.3015 0.8034 15.7704 -13.4804 -15.8317 10.2034 16.0439 -60.7813 1.5414 2.2242 -9.0679 13.7590 25.7708 9.0004 -20.4235 -6.6823 0.4351 -1.1021 18.6848 -6.9257 -4.0747 2.5281 15.1917 7.7541 -16.5218 50.1350 -3.5112 -4.9837 5.6155 -21.7817 -7.6441 -0.0682 18.8958 -0.4365 -8.1442 -2.3298 -21.0353 1.6431 -0.1254 -1.8937 -9.6245 -6.2410 -28.9810 0.0211 10.8326 -0.0010 11.5201 -4.9069 -14.3658 -1.4338 1.0333 0.9302
0.3487 98.7244 3.0548 0.7760 4.4841 35.3192 5.9618 5.7229 2.2138 1.0372 -3.3063 5.6417 2.1461 8.5795 5.6019 5.0750 7.7942 1.5236 -5.8417 -4.8562 -19.0013 5.9758 -8.4222 -26.8006 0.0019 -0.0829 -0.0666 0.7051 -10.8721 -3.9427 -0.7123 -10.9342 3.8060 -4.7990 16.1648 8.3481 -50.6913 11.9176 -2.5126 -2.3592 0.8357 -130.6948 0.6797 16.2187 -13.0106 -15.8211 10.1926 16.0825 -60.7167 1.5309 2.1810 -9.0505 13.8297 25.4381 9.2746 -21.4112 -7.2897 0.4246 -1.2283 21.2027 -6.9594 -4.9070 3.4921 15.1206 7.7190 -16.5677 50.0432 -3.5112 -5.0028 5.6508 -21.7596 -7.2530 -0.0693 19.1553 -0.4295 -7.9974 -2.5790 -20.7999 1.6411 -0.1112 -1.8853 -9.6367 -6.8450 -28.6159 0.0277 11.8897 0.0211 11.4534 -5.1738 -13.8232 -1.4293 1.0791 0.9326
0.3299 98.6709 2.8817 0.6778 4.3829 34.5278 5.8015 5.9276 2.1151 1.0274 -3.2546 5.4964 2.2541 8.6964 5.4340 5.4801 8.0200 1.3715 -5.6974 -4.8240 -18.4946 5.9458 -8.4456 -26.0168 -0.0012 -0.0805 -0.0603 0.7021 -10.8748 -3.9403 -0.7148 -10.9363 3.8165 -4.3040 16.2293 8.2375 -50.9752 11.2757 -3.3656 -2.4064 0.9670 -131.1360 0.4527 16.6958 -12.4600 -15.8208 10.1987 16.1530 -60.7008 1.5378 2.1683 -9.0140 13.8923 25.0264 9.6074 -22.5854 -8.3332 0.5603 -1.4086 24.6831 -7.0131 -6.0629 4.7199 15.0717 7.6543 -16.5452 49.9178 -3.4772 -4.9965 5.6741 -21.7037 -6.7788 -0.0716 19.3834 -0.4366 -7.8450 -2.8348 -20.5023 1.6421 -0.1024 -1.8681 -9.6490 -7.4803 -28.2186 0.0343 12.9356 0.0430 11.3077 -5.3953 -13.1910 -1.4261 1.0979 0.9305
0.3229 98.6403 2.6604 0.5967 4.2732 33.6715 5.5983 6.1656 2.0082 1.0142 -3.2090 5.2853 2.3619 8.8557 5.2064 5.9514 8.2121 1.1792 -5.4951 -4.7499 -17.8554 5.9037 -8.4851 -25.0193 -0.0036 -0.0739 -0.0552 0.6967 -10.8781 -3.9404 -0.7130 -10.9375 3.8273 -3.6642 16.3040 8.0588 -51.1761 10.5874 -4.5403 -2.4117 1.1196 -131.7357 0.1793 17.2833 -11.7796 -15.8956 10.1538 16.1763 -60.6398 1.5366 2.1455 -8.9613 14.0266 24.5051 10.1213 -24.0386 -10.0640 0.9600 -1.7098 29.5189 -7.1309 -7.6852 6.2523 14.9411 7.5594 -16.5066 49.6375 -3.4506 -4.9777 5.6712 -21.6469 -6.2617 -0.0841 19.6321 -0.4554 -7.6956 -3.0945 -20.1492 1.6467 -0.0905 -1.8457 -9.6922 -8.1616 -27.8259 0.0423 14.0177 0.0403 11.1305 -5.6465 -12.4439 -1.4253 1.0953 0.9265
0.3081 98.5932 2.4599 0.5629 4.1659 32.7283 5.3509 6.4210 1.8826 1.0172 -3.1538 5.0042 2.4464 9.0685 4.9479 6.3778 8.3557 0.9709 -5.2371 -4.6537 -17.0788 5.8523 -8.6121 -23.8489 -0.0031 -0.0658 -0.0557 0.6949 -10.8660 -3.9471 -0.7090 -10.9244 3.8326 -2.9620 16.3355 7.7735 -51.2591 9.9114 -6.1669 -2.3716 1.2355 -132.4980 -0.1079 17.9972 -11.1814 -16.0486 10.0494 16.1854 -60.5655 1.5207 2.1888 -8.9302 14.2215 23.8791 10.9144 -25.3863 -12.4875 1.5082 -2.1284 35.7305 -7.1773 -10.2115 8.2955 14.7471 7.4450 -16.4143 49.3191 -3.3997 -4.9379 5.6200 -21.5899 -5.7225 -0.0999 19.8834 -0.4717 -7.6013 -3.3730 -19.6661 1.6539 -0.0806 -1.8264 -9.7861 -8.9060 -27.4455 0.0575 15.0968 0.0406 10.9475 -5.9171 -11.5956 -1.4284 1.0669 0.9325
0.3577 98.5242 2.2261 0.5582 4.0323 31.6039 5.0803 6.6994 1.7487 1.0289 -3.0833 4.6457 2.5125 9.3665 4.6251 6.6525 8.4494 0.8223 -4.9106 -4.5376 -16.1343 5.7742 -8.8517 -22.5451 0.0005 -0.0557 -0.0701 0.6992 -10.8452 -3.9670 -0.7055 -10.9038 3.8232 -2.2765 16.2390 7.3413 -51.2611 9.4451 -8.4356 -2.2511 1.3609 -133.3712 -0.6051 18.8438 -10.7712 -16.2343 9.9359 16.1813 -60.5821 1.5152 2.2178 -8.8569 14.5145 23.1904 12.0789 -26.4492 -15.2127 1.8596 -2.6141 42.9220 -7.1040 -13.9549 10.8084 14.5732 7.4011 -16.3481 49.1265 -3.3181 -4.9070 5.5487 -21.5576 -5.2031 -0.1190 20.3008 -0.4751 -7.4865 -3.7061 -18.9714 1.6609 -0.0370 -1.8252 -9.9460 -9.7379 -26.9577 0.0677 16.2831 -0.0007 10.8506 -6.2314 -10.6400 -1.4341 1.0390 0.9245
0.4408 98.3911 1.9381 0.5242 3.8269 30.1727 4.8207 7.0089 1.6153 1.0434 -3.0151 4.2734 2.5810 9.7783 4.2379 6.6853 8.5212 0.8053 -4.5731 -4.4229 -15.0143 5.6947 -9.2792 -21.1910 0.0029 -0.0468 -0.0763 0.7064 -10.8341 -3.9796 -0.7078 -10.8925 3.8237 -1.6836 16.0023 6.7116 -51.1167 9.2384 -11.5025 -2.0113 1.4243 -134.0885 -1.6105 20.1822 -10.5292 -16.4373 9.7863 16.1471 -60.6444 1.4794 2.2073 -8.7119 14.8895 22.5216 13.7413 -27.4253 -17.5918 1.7944 -2.9560 50.0244 -6.9774 -18.7130 13.4525 14.4218 7.3980 -16.2703 49.0110 -3.2686 -4.9008 5.5324 -21.5697 -4.6578 -0.1361 21.0398 -0.4534 -7.2702 -4.1933 -18.0506 1.6617 -0.0012 -1.8328 -10.1361 -10.6937 -26.2987 0.0734 17.7068 -0.0314 10.8607 -6.6663 -9.4999 -1.4391 1.0121 0.9267
0.5132 98.1852 1.6525 0.4491 3.4628 28.3417 4.5539 7.3654 1.4632 1.0388 -2.9307 3.9489 2.7062 10.3134 3.8244 6.4218 8.6279 0.8990 -4.2449 -4.3057 -13.7421 5.5904 -9.8997 -19.7544 0.0041 -0.0352 -0.0705 0.7121 -10.8154 -3.9764 -0.7115 -10.8744 3.8351 -1.1904 15.6936 5.8721 -50.7736 9.1053 -15.4579 -1.6796 1.4807 -134.3135 -3.4589 22.2126 -10.3133 -16.6310 9.6678 16.1078 -60.7741 1.4422 2.1653 -8.5166 15.2816 21.9922 16.2036 -28.7219 -19.2597 1.4122 -3.0966 56.0693 -6.8219 -24.1684 15.8085 14.2756 7.4807 -16.1718 48.9746 -3.2275 -4.9301 5.5758 -21.5534 -3.9849 -0.1561 22.1827 -0.4326 -6.9005 -4.9528 -16.9948 1.6639 0.0457 -1.8557 -10.3722 -11.7165 -25.4225 0.0910 19.4565 -0.0167 10.9403 -7.2338 -8.1393 -1.4438 0.9410 0.9453
0.5677 97.8663 1.3599 0.3462 2.9087 26.1528 4.2587 7.7810 1.3118 1.0147 -2.8219 3.6314 2.8854 10.9512 3.4425 5.8412 8.8380 1.0339 -3.8795 -4.1853 -12.3461 5.4183 -10.7391 -18.1668 0.0047 -0.0161 -0.0583 0.7195 -10.7906 -3.9639 -0.7185 -10.8504 3.8514 -0.7305 15.4267 4.8254 -50.0867 8.5923 -19.9629 -1.2437 1.4382 -133.9290 -6.0974 24.2129 -10.0558 -16.7032 9.5944 16.0155 -60.8291 1.4129 2.1313 -8.3186 15.6143 21.6598 19.6696 -30.3967 -20.1803 0.8249 -3.1171 60.9369 -6.5295 -30.6434 17.6686 14.1606 7.7084 -16.0481 49.2493 -3.0973 -4.9647 5.6649 -21.5392 -3.1242 -0.1680 23.8248 -0.4025 -6.4114 -6.0627 -15.9009 1.6604 0.0982 -1.8874 -10.6726 -12.8198 -24.3891 0.1303 21.5858 0.0523 10.9932 -7.9638 -6.5474 -1.4444 0.8497 0.9827
0.6343 97.4206 1.0294 0.2605 2.2291 23.6135 3.9316 8.2292 1.1617 0.9834 -2.6796 3.3155 3.0480 11.6327 3.0569 4.9868 9.0743 1.2103 -3.5085 -4.0694 -10.8315 5.1372 -11.8169 -16.3913 0.0074 0.0017 -0.0423 0.7286 -10.7527 -3.9451 -0.7228 -10.8134 3.8682 -0.2074 15.2098 3.6818 -49.1659 7.1461 -24.1830 -1.1311 1.3146 -133.0776 -8.5526 24.7453 -9.5838 -16.6475 9.6197 15.9122 -60.7433 1.4126 2.1611 -8.0672 15.8407 21.5171 24.1648 -32.3946 -20.4169 0.2442 -2.8101 65.2339 -6.3207 -37.9117 19.2509 14.2387 7.9523 -15.9233 49.8098 -2.9793 -4.9922 5.7501 -21.5792 -2.0058 -0.1796 25.9416 -0.3833 -5.8538 -7.4858 -14.7651 1.6571 0.1583 -1.9286 -11.0304 -14.0356 -23.1782 0.1883 23.9812 0.1564 11.0019 -8.8534 -4.7801 -1.4418 0.7807 1.0224
0.7099 96.8691 0.7159 0.1574 1.4995 20.7223 3.5817 8.6829 1.0427 0.9487 -2.5151 2.9815 3.1966 12.3195 2.6825 3.9278 9.3009 1.4132 -3.1207 -3.9625 -9.2368 4.7124 -13.0986 -14.4570 0.0164 0.0162 -0.0404 0.7367 -10.7006 -3.9375 -0.7129 -10.7664 3.8648 0.3515 15.0073 2.4351 -48.0033 4.7568 -27.8033 -1.3712 1.1168 -132.0546 -10.2884 23.5963 -8.6712 -16.4848 9.7467 15.8498 -60.5516 1.4534 2.2679 -7.5509 15.9139 21.5763 29.3479 -34.5166 -19.9062 -0.3336 -2.1241 69.4506 -6.2831 -44.8730 20.9514 14.5494 8.0654 -15.7939 50.2416 -2.9522 -4.9538 5.8890 -21.7311 -0.6713 -0.1904 28.4822 -0.3805 -5.3222 -9.1338 -13.5718 1.6575 0.2667 -1.9411 -11.3445 -15.3825 -21.7950 0.2595 26.5755 0.3018 10.9280 -9.8393 -2.8754 -1.4408 0.7721 1.0615
0.7800 96.2367 0.3942 0.0082 0.7513 17.5446 3.2189 9.1173 0.9473 0.9288 -2.3430 2.6139 3.3647 13.0161 2.3196 2.7483 9.5115 1.6874 -2.7490 -3.8698 -7.6831 4.1825 -14.5242 -12.4346 0.0264 0.0347 -0.0481 0.7445 -10.6524 -3.9378 -0.7001 -10.7199 3.8481 1.0008 14.7958 1.0641 -46.5631 1.6492 -31.0806 -1.7805 0.9694 -130.9851 -11.4001 21.1869 -7.3407 -16.2727 9.9624 15.8178 -60.4366 1.5244 2.4154 -6.5443 15.8743 21.8521 34.7317 -36.7326 -18.5894 -0.8419 -1.3239 73.6871 -6.5050 -51.0894 23.1429 14.8710 7.9969 -15.7454 50.1357 -3.0417 -4.9368 6.1609 -21.9790 0.8065 -0.2081 31.3580 -0.4105 -4.9525 -10.9622 -12.3269 1.6583 0.4316 -1.9350 -11.5545 -16.8866 -20.3108 0.3233 29.4109 0.4357 10.7737 -10.8913 -0.8658 -1.4453 0.8418 1.0829
0.8623 95.5226 0.1266 -0.1650 -0.0551 14.2711 2.8478 9.4783 0.8132 0.8996 -2.1892 2.2415 3.5871 13.7344 1.9465 1.5347 9.7642 2.0812 -2.4144 -3.8179 -6.3257 3.5418 -15.9296 -10.3472 0.0376 0.0577 -0.0798 0.7496 -10.6122 -3.9640 -0.6817 -10.6762 3.8073 1.7190 14.5629 -0.3728 -44.7832 -1.8526 -34.4395 -2.1753 0.9533 -129.6197 -12.2578 18.1198 -5.9612 -16.1187 10.2041 15.8120 -60.4829 1.6148 2.5277 -4.9297 15.7258 22.3316 39.8943 -38.8576 -16.2864 -1.2390 -0.6094 77.4509 -7.3372 -56.8022 26.4821 15.0455 7.8189 -15.7358 49.6233 -3.1650 -4.9321 6.5745 -22.1598 2.1962 -0.2341 34.2989 -0.4620 -4.7698 -12.8703 -11.0362 1.6617 0.6353 -1.9096 -11.6980 -18.3293 -18.7807 0.3736 32.2707 0.5533 10.5254 -11.9257 1.0540 -1.4543 0.9782 1.0936
0.9467 94.7981 -0.1035 -0.2971 -0.9560 11.0530 2.4689 9.7443 0.6752 0.8527 -2.0662 1.8098 3.8349 14.5296 1.5785 0.3365 10.0759 2.5476 -2.1078 -3.8040 -5.1711 2.7676 -17.1422 -8.2968 0.0431 0.0817 -0.0993 0.7465 -10.5899 -3.9775 -0.6662 -10.6410 3.7798 2.4153 14.3507 -1.8646 -42.3936 -5.1878 -38.2715 -2.1361 1.1928 -127.8695 -13.1492 15.2365 -4.8542 -16.0584 10.4434 15.8681 -60.6542 1.6908 2.6162 -2.7717 15.5730 22.9495 44.4693 -40.7980 -13.0375 -1.5097 -0.1997 80.1820 -9.0487 -61.9377 31.2828 15.1446 7.6265 -15.7400 49.0092 -3.2916 -4.9222 7.0293 -22.1710 3.3309 -0.2556 37.1843 -0.4838 -4.7057 -14.7347 -9.6801 1.6648 0.8415 -1.8901 -11.8424 -19.6105 -17.1894 0.4013 35.1046 0.6350 10.1646 -12.8871 2.7658 -1.4633 1.0944 1.0935
1.0848 94.0550 -0.2377 -0.3131 -1.9633 7.9505 2.0767 9.8820 0.4971 0.7811 -1.9697 1.3492 4.0853 15.4147 1.2330 -0.8506 10.4553 2.9846 -1.7778 -3.8174 -4.1785 1.8503 -18.0653 -6.2685 0.0413 0.0996 -0.1012 0.7358 -10.5879 -3.9765 -0.6584 -10.6250 3.7736 3.0899 14.1595 -3.3441 -39.2654 -8.1342 -42.7723 -1.6328 1.5727 -125.6860 -14.1317 13.4921 -4.1902 -16.1020 10.6618 15.8677 -60.9671 1.7587 2.6080 -0.3707 15.3417 23.5714 48.1080 -42.2670 -9.0272 -1.7335 0.0058 81.3230 -10.8577 -65.1354 36.1790 15.3805 7.5304 -15.7749 48.7508 -3.3490 -4.9103 7.3999 -21.9188 4.1852 -0.2715 39.9264 -0.4831 -4.7133 -16.5016 -8.2018 1.6671 0.9989 -1.8887 -12.0952 -20.6474 -15.4892 0.4422 37.7939 0.7240 9.6657 -13.8306 4.1488 -1.4690 1.1563 1.0776
1.2625 93.3235 -0.3187 -0.2171 -3.0452 5.0017 1.6918 9.9114 0.3247 0.7070 -1.8920 0.9063 4.3180 16.2917 0.8727 -2.0181 10.8916 3.3138 -1.4502 -3.8191 -3.2496 0.8886 -18.8027 -4.3589 0.0320 0.1139 -0.0560 0.7220 -10.5846 -3.9293 -0.6629 -10.6080 3.8188 3.6294 14.0785 -4.7313 -35.2149 -10.4713 -47.9687 -0.8237 2.0028 -123.1972 -15.4997 13.2016 -3.9887 -16.2196 10.9536 15.8843 -61.3230 1.8247 2.5195 2.0934 15.0672 24.2112 50.9194 -43.3306 -5.0355 -1.9450 0.1548 80.7687 -12.4561 -66.9627 40.5560 15.6440 7.5692 -15.8519 48.7546 -3.3422 -4.8936 7.6348 -21.3771 4.8273 -0.2694 42.3846 -0.4582 -4.7360 -18.1084 -6.6187 1.6761 1.0767 -1.9111 -12.4764 -21.3869 -13.6635 0.4881 40.2124 0.8129 9.1098 -14.7087 5.2301 -1.4690 1.0913 1.0422
1.4570 92.6488 -0.3076 -0.0971 -4.0477 2.2691 1.3537 9.8357 0.1723 0.6577 -1.8458 0.4555 4.5400 17.0315 0.4830 -3.1050 11.3128 3.5194 -1.1911 -3.8127 -2.3878 0.0231 -19.4472 -2.7354 0.0210 0.1184 -0.0157 0.7101 -10.5753 -3.8796 -0.6724 -10.5940 3.8518 4.0659 14.0660 -5.9347 -31.1803 -12.5798 -52.7775 -0.4428 1.8858 -121.0907 -17.0854 13.6064 -3.7934 -16.3709 11.1570 15.8496 -61.5580 1.8457 2.2927 4.1521 14.8530 24.7900 53.1653 -43.8264 -1.7170 -2.2485 0.4180 79.1377 -13.1475 -68.7540 43.5327 16.0290 7.6986 -15.9941 49.1024 -3.2298 -4.8635 7.7641 -20.7469 5.2716 -0.2555 44.5647 -0.4227 -4.7905 -19.4954 -5.0799 1.6902 1.0801 -1.9422 -12.8281 -21.8908 -11.9393 0.5356 42.2549 0.9150 8.5163 -15.4928 6.0408 -1.4620 0.9478 0.9686
1.7017 92.0808 -0.2443 -0.0212 -4.8322 -0.1363 1.1553 9.7411 0.0168 0.6285 -1.8060 0.0827 4.7090 17.5552 0.0663 -4.0214 11.4351 3.6041 -1.0947 -3.8096 -1.6577 -0.5470 -19.7888 -1.6039 0.0138 0.1016 -0.0272 0.7037 -10.5515 -3.8750 -0.6799 -10.5777 3.8230 4.5530 13.6551 -6.7822 -28.8004 -14.6669 -55.9839 -0.6235 1.3111 -119.5889 -17.8233 13.5979 -3.2468 -16.2886 11.1327 15.7602 -61.4010 1.7754 2.1260 5.3686 14.6896 25.2602 54.6162 -43.4734 0.7747 -2.5534 0.7556 77.4929 -11.8189 -69.9942 43.6076 16.3040 7.7847 -16.2548 49.5774 -3.1958 -4.9636 7.9096 -20.2690 5.6907 -0.2446 46.4399 -0.3943 -4.9366 -20.5424 -3.8936 1.7113 1.0846 -1.9728 -13.0136 -22.2963 -10.6341 0.5388 43.8620 0.9336 8.0074 -16.0444 6.5735 -1.4533 0.6630 0.8860
