HIERARCHY
ROOT Hips
{
	OFFSET 0.0000 0.0000 0.0000
	CHANNELS 6 Xposition Yposition Zposition Zrotation Xrotation Yrotation
	JOINT Spine1
	{
		OFFSET -0.0137 5.0038 -0.0537
		CHANNELS 3 Zrotation Xrotation Yrotation
		JOINT Spine2
		{
			OFFSET -0.0000 7.1253 -0.0298
			CHANNELS 3 Zrotation Xrotation Yrotation
			JOINT Chest
			{
				OFFSET -0.0000 7.5501 -0.8160
				CHANNELS 3 Zrotation Xrotation Yrotation
				JOINT Neck1
				{
					OFFSET -0.1817 26.3113 -0.5533
					CHANNELS 3 Zrotation Xrotation Yrotation
					JOINT Neck2
					{
						OFFSET -0.0000 7.7094 2.3026
						CHANNELS 3 Zrotation Xrotation Yrotation
						JOINT Head
						{
							OFFSET -0.0000 6.1289 1.9537
							CHANNELS 3 Zrotation Xrotation Yrotation
							JOINT Jaw
							{
								OFFSET 0.0026 0.4756 3.0949
								CHANNELS 3 Zrotation Xrotation Yrotation
								End Site
								{
									OFFSET 0.0 1.0 0.0
								}
							}
							JOINT LeftEye
							{
								OFFSET 3.2064 5.3802 7.5869
								CHANNELS 3 Zrotation Xrotation Yrotation
								End Site
								{
									OFFSET 0.0 1.0 0.0
								}
							}
							JOINT RightEye
							{
								OFFSET -3.2224 5.3619 7.5582
								CHANNELS 3 Zrotation Xrotation Yrotation
								End Site
								{
									OFFSET 0.0 1.0 0.0
								}
							}
						}
					}
				}
				JOINT LeftShoulder
				{
					OFFSET 1.6217 23.2372 5.1134
					CHANNELS 3 Zrotation Xrotation Yrotation
					JOINT LeftArm
					{
						OFFSET 14.9198 0.0000 -5.5023
						CHANNELS 3 Zrotation Xrotation Yrotation
						JOINT LeftForeArm
						{
							OFFSET 28.7393 0.0000 -0.0026
							CHANNELS 3 Zrotation Xrotation Yrotation
							JOINT LeftHand
							{
								OFFSET 27.0940 -0.0000 0.0026
								CHANNELS 3 Zrotation Xrotation Yrotation
								JOINT LeftHandThumbEnd
								{
									OFFSET 12.2686 -3.2202 4.8331
									CHANNELS 3 Zrotation Xrotation Yrotation
									End Site
									{
										OFFSET 0.0 1.0 0.0
									}
								}
								JOINT LeftHandMiddleEnd
								{
									OFFSET 19.0120 -0.3129 -0.0340
									CHANNELS 3 Zrotation Xrotation Yrotation
									End Site
									{
										OFFSET 0.0 1.0 0.0
									}
								}
							}
						}
					}
				}
				JOINT RightShoulder
				{
					OFFSET -1.3801 23.1803 5.2142
					CHANNELS 3 Zrotation Xrotation Yrotation
					JOINT RightArm
					{
						OFFSET -15.0372 0.0000 -5.5456
						CHANNELS 3 Zrotation Xrotation Yrotation
						JOINT RightForeArm
						{
							OFFSET -28.7366 0.0000 -0.0026
							CHANNELS 3 Zrotation Xrotation Yrotation
							JOINT RightHand
							{
								OFFSET -27.1336 -0.0000 0.0026
								CHANNELS 3 Zrotation Xrotation Yrotation
								JOINT RightHandThumbEnd
								{
									OFFSET -12.2642 -3.2115 4.8040
									CHANNELS 3 Zrotation Xrotation Yrotation
									End Site
									{
										OFFSET 0.0 1.0 0.0
									}
								}
								JOINT RightHandMiddleEnd
								{
									OFFSET -19.0006 -0.3066 -0.0316
									CHANNELS 3 Zrotation Xrotation Yrotation
									End Site
									{
										OFFSET 0.0 1.0 0.0
									}
								}
							}
						}
					}
				}
			}
		}
	}
	JOINT LeftLeg
	{
		OFFSET 10.0432 -8.4345 2.5957
		CHANNELS 3 Zrotation Xrotation Yrotation
		JOINT LeftShin
		{
			OFFSET -0.0000 -43.2218 -0.8029
			CHANNELS 3 Zrotation Xrotation Yrotation
			JOINT LeftFoot
			{
				OFFSET 0.0000 -42.1551 -3.4815
				CHANNELS 3 Zrotation Xrotation Yrotation
				JOINT LeftToeBase
				{
					OFFSET 0.0000 -5.0595 13.2315
					CHANNELS 3 Zrotation Xrotation Yrotation
					End Site
					{
						OFFSET 0.0 1.0 0.0
					}
				}
			}
		}
	}
	JOINT RightLeg
	{
		OFFSET -10.0473 -8.2953 2.6203
		CHANNELS 3 Zrotation Xrotation Yrotation
		JOINT RightShin
		{
			OFFSET 0.0000 -43.3622 -0.8056
			CHANNELS 3 Zrotation Xrotation Yrotation
			JOINT RightFoot
			{
				OFFSET 0.0000 -42.1174 -3.4784
				CHANNELS 3 Zrotation Xrotation Yrotation
				JOINT RightToeBase
				{
					OFFSET -0.0000 -5.0796 13.2842
					CHANNELS 3 Zrotation Xrotation Yrotation
					End Site
					{
						OFFSET 0.0 1.0 0.0
					}
				}
			}
		}
	}
}
MOTION
Frames: 100
Frame Time: 0.033333
-1.7006 98.6510 -1.3527 -1.2761 -5.1796 -0.2739 0.0121 -0.0860 -0.1587 -0.6131 -5.0310 -0.4363 -0.8664 11.3850 -2.9225 4.6684 4.0575 1.4448 -1.1158 -3.5057 -1.2203 -2.4863 -9.8039 -0.5306 0.0119 0.0519 -0.0952 0.7239 -10.4981 -3.9689 -0.6963 -10.5168 3.7727 -13.2849 13.5300 -10.6632 -59.9207 -2.8009 -19.3922 0.2651 0.1645 -23.2582 -1.4380 0.2198 3.0932 -15.7829 10.5738 15.6110 -60.4266 1.4953 2.3479 16.3795 13.6922 11.3392 58.5888 1.2760 27.8989 0.3727 -0.1247 24.7702 -6.2336 3.6841 -6.0342 15.7938 7.2595 -16.1740 50.2701 -3.6454 -5.2253 8.8630 6.4240 -3.5321 -0.0233 6.5266 -0.0675 -10.9604 -8.1930 3.6088 1.6221 -0.2881 -2.2041 -7.6498 3.1070 -13.5364 0.0264 6.8248 0.0757 7.8027 -4.1492 1.2371 -1.3986 0.0954 0.9022
-1.6984 98.6963 -1.4279 -1.3477 -5.0632 -0.1483 0.0537 -0.0224 -0.1808 -0.5987 -5.0092 -0.4227 -0.9137 11.2471 -2.9868 4.7617 4.0985 1.4176 -1.0873 -3.5001 -1.1995 -2.4857 -9.6989 -0.5920 0.0113 0.0459 -0.0768 0.7206 -10.4785 -3.9473 -0.6938 -10.5037 3.7873 -13.1582 13.5660 -10.8049 -59.8897 -3.0260 -19.1178 0.1515 0.1226 -23.3901 -1.7096 0.8710 3.2232 -15.8041 10.5845 15.6237 -60.4140 1.5519 2.2763 16.2978 13.7845 11.3346 58.6471 1.1632 27.9206 0.3782 -0.1336 24.7892 -6.0825 3.4706 -6.0451 15.8460 7.2182 -16.1498 50.3147 -3.6631 -5.2326 8.9058 5.9327 -3.9132 -0.0390 7.1477 -0.0997 -11.0031 -8.4259 3.9048 1.6242 -0.2984 -2.2044 -7.4583 2.8572 -13.4977 0.0224 7.0201 0.0632 7.6493 -4.2597 1.0345 -1.4095 0.1344 0.8754
-1.6003 98.7067 -1.6199 -1.3645 -4.9883 0.0234 0.0706 0.0671 -0.2025 -0.6017 -4.9929 -0.4277 -0.9850 11.1918 -3.0419 4.9025 4.2042 1.3941 -1.0829 -3.5161 -1.2027 -2.4464 -9.6056 -0.6869 0.0112 0.0456 -0.0711 0.7169 -10.4791 -3.9402 -0.6905 -10.5004 3.7897 -13.0033 13.5639 -10.9823 -59.8153 -3.1981 -18.8323 0.0707 0.0915 -23.6669 -2.0921 1.2184 3.4212 -15.8310 10.5998 15.6576 -60.4260 1.5778 2.3304 16.1817 13.8504 11.3408 58.7177 1.1011 27.9609 0.3641 -0.1449 24.9359 -6.0324 3.3332 -6.1131 15.8786 7.1924 -16.0911 50.2898 -3.6604 -5.2456 8.8987 5.3169 -4.3042 -0.0400 7.9967 -0.1175 -11.0065 -8.7061 4.0512 1.6296 -0.3528 -2.1923 -7.3692 2.4790 -13.5654 0.0199 7.4576 0.0566 7.5720 -4.4780 0.8412 -1.4158 0.1987 0.8747
-1.5350 98.6892 -1.8480 -1.3648 -4.9448 0.2377 0.0749 0.1810 -0.1957 -0.6075 -4.9658 -0.4802 -1.0611 11.1757 -3.0613 5.0640 4.3785 1.3521 -1.0802 -3.5299 -1.1977 -2.3767 -9.6504 -0.7750 0.0093 0.0464 -0.0747 0.7143 -10.4912 -3.9426 -0.6915 -10.5081 3.7852 -12.8579 13.5693 -11.1997 -59.6618 -3.3860 -18.5643 0.0344 0.0805 -23.9793 -2.4562 1.3687 3.5906 -15.8290 10.5832 15.6587 -60.3916 1.5740 2.4028 16.0240 13.9528 11.3308 58.7668 1.0755 28.0552 0.3308 -0.1420 25.2057 -5.9305 3.1760 -6.1357 15.8576 7.1618 -16.0276 50.1637 -3.6746 -5.2394 8.8918 4.5737 -4.5623 -0.0404 9.0524 -0.1320 -10.9866 -9.0565 4.0455 1.6370 -0.4639 -2.1728 -7.3380 2.0222 -13.7117 0.0130 8.0622 0.0431 7.5194 -4.7434 0.7137 -1.4189 0.2258 0.8740
-1.5111 98.6480 -2.0717 -1.3835 -4.9360 0.5690 0.0790 0.3154 -0.1871 -0.6163 -4.9189 -0.5431 -1.1479 11.1859 -3.0988 5.2767 4.6104 1.2783 -1.0613 -3.5322 -1.2124 -2.2929 -9.8076 -0.8314 0.0085 0.0523 -0.0774 0.7120 -10.4969 -3.9460 -0.6908 -10.5097 3.7827 -12.6412 13.6179 -11.4506 -59.4836 -3.7266 -18.2743 -0.0144 0.0757 -24.2319 -2.7307 1.4359 3.6844 -15.8088 10.5705 15.6420 -60.3462 1.5561 2.4487 15.8331 14.0966 11.2679 58.7638 1.0583 28.2226 0.3254 -0.1455 25.5301 -5.8082 3.0362 -6.1204 15.8049 7.1437 -15.9718 50.0369 -3.6730 -5.2382 8.9075 3.7065 -4.7582 -0.0368 10.3157 -0.1433 -10.9512 -9.5006 3.8377 1.6416 -0.5852 -2.1490 -7.3544 1.5421 -13.9813 0.0098 8.7709 0.0419 7.5371 -5.0294 0.6307 -1.4215 0.2425 0.8809
-1.4019 98.5721 -2.3438 -1.4285 -4.9431 0.9487 0.0699 0.4703 -0.1886 -0.6269 -4.8430 -0.6025 -1.2145 11.1741 -3.1697 5.5255 4.9348 1.1842 -1.0297 -3.5393 -1.2528 -2.2049 -10.0199 -0.8739 0.0074 0.0621 -0.0840 0.7069 -10.4984 -3.9528 -0.6876 -10.5082 3.7766 -12.3459 13.6920 -11.7130 -59.3166 -4.1636 -18.0381 -0.0339 0.0616 -24.3504 -2.9878 1.4507 3.7452 -15.7689 10.5716 15.6441 -60.2834 1.5612 2.4826 15.6208 14.2593 11.1542 58.7039 1.0243 28.3962 0.3345 -0.1486 25.8491 -5.7631 3.0037 -6.1086 15.7715 7.1342 -15.9422 49.9693 -3.6756 -5.2081 8.9294 2.7044 -4.8673 -0.0400 11.8093 -0.1611 -10.8798 -10.0682 3.4789 1.6457 -0.7001 -2.1335 -7.3994 0.9881 -14.3187 0.0083 9.6211 0.0510 7.6118 -5.3350 0.5680 -1.4234 0.2653 0.8892
-1.1908 98.4625 -2.6380 -1.4744 -4.9807 1.3477 0.0325 0.6642 -0.1993 -0.6368 -4.7518 -0.6757 -1.2627 11.1463 -3.2362 5.8093 5.3264 1.0571 -1.0092 -3.5503 -1.2700 -2.1296 -10.2802 -0.9144 0.0072 0.0682 -0.0857 0.7014 -10.5063 -3.9554 -0.6822 -10.5124 3.7764 -11.9801 13.7668 -11.9786 -59.1436 -4.5728 -17.9823 -0.0256 0.0522 -24.4344 -3.2079 1.3757 3.8023 -15.7207 10.5921 15.6454 -60.2432 1.5836 2.5072 15.3737 14.4028 11.0000 58.6214 1.0187 28.5657 0.3749 -0.1600 26.1864 -5.8578 3.0518 -6.1172 15.7445 7.1227 -15.9330 49.9148 -3.6703 -5.1893 8.9102 1.6077 -4.8902 -0.0512 13.4983 -0.1906 -10.7606 -10.7224 3.0025 1.6505 -0.8182 -2.1188 -7.5231 0.3255 -14.6305 0.0087 10.7006 0.0609 7.7857 -5.6921 0.5143 -1.4239 0.2765 0.8937
-0.8745 98.3197 -2.9449 -1.5085 -5.0382 1.6997 -0.0375 0.9078 -0.2117 -0.6471 -4.6474 -0.7246 -1.2877 11.1060 -3.3219 6.1176 5.7568 0.9267 -1.0115 -3.5581 -1.3280 -2.0814 -10.5971 -0.9322 0.0053 0.0719 -0.0925 0.6942 -10.5292 -3.9638 -0.6786 -10.5297 3.7715 -11.5547 13.8758 -12.2465 -58.9826 -5.0332 -17.9344 -0.0000 0.0498 -24.5968 -3.3222 1.2681 3.8565 -15.6991 10.6002 15.6612 -60.2309 1.5912 2.5192 15.0566 14.5593 10.8495 58.5054 0.9668 28.7242 0.4194 -0.1809 26.5067 -6.0136 3.0955 -6.1216 15.7329 7.1418 -15.9392 49.9315 -3.6434 -5.1496 8.8199 0.4300 -4.8320 -0.0659 15.3563 -0.2261 -10.5980 -11.4562 2.5179 1.6534 -0.9165 -2.1084 -7.7406 -0.5397 -14.8340 0.0103 12.1293 0.0646 7.9915 -6.0859 0.4809 -1.4229 0.2269 0.8903
-0.3675 98.1436 -3.2832 -1.4931 -5.0866 1.9052 -0.1690 1.2281 -0.2142 -0.6564 -4.5125 -0.7807 -1.2829 11.0290 -3.3863 6.4051 6.1424 0.7839 -1.0332 -3.5592 -1.3641 -2.0949 -10.9836 -0.9125 0.0023 0.0761 -0.1028 0.6862 -10.5479 -3.9764 -0.6767 -10.5450 3.7643 -11.0599 14.0079 -12.4860 -58.9173 -5.5966 -17.7412 0.0362 0.0602 -24.9287 -3.2665 1.0894 3.8606 -15.6807 10.6170 15.7069 -60.2674 1.6059 2.5460 14.6588 14.6935 10.6687 58.3261 0.8187 28.8697 0.4977 -0.1972 26.8114 -6.2143 3.0671 -6.0859 15.7137 7.1592 -15.9272 49.9445 -3.6327 -5.1004 8.5643 -0.8468 -4.6999 -0.0814 17.3643 -0.2543 -10.3154 -12.2661 2.1417 1.6576 -1.0005 -2.0991 -8.0894 -1.7745 -14.8345 0.0177 14.0782 0.0805 8.2947 -6.5091 0.5284 -1.4220 0.1583 0.8794
0.3215 97.9329 -3.7662 -1.3978 -5.0977 1.8302 -0.3646 1.6447 -0.2119 -0.6582 -4.3183 -0.8370 -1.2427 10.8974 -3.4050 6.5604 6.4103 0.6577 -1.0237 -3.5667 -1.3288 -2.1859 -11.4462 -0.8278 0.0002 0.0794 -0.1126 0.6836 -10.5595 -3.9899 -0.6783 -10.5522 3.7590 -10.4693 14.0970 -12.6570 -59.0946 -6.3349 -17.1422 0.0647 0.0794 -25.4715 -3.0221 0.7798 3.7847 -15.6732 10.6277 15.7715 -60.2831 1.6137 2.5630 14.1273 14.8027 10.4941 58.0987 0.4682 29.0491 0.5695 -0.1996 27.0775 -6.5328 2.9670 -5.9732 15.6994 7.1682 -15.9073 49.9111 -3.6508 -5.0479 8.1279 -2.2428 -4.3804 -0.1022 19.4390 -0.2916 -9.8942 -13.0204 1.8466 1.6651 -1.0767 -2.0887 -8.5907 -3.5897 -14.5639 0.0360 16.7461 0.1055 8.6506 -6.8345 0.7696 -1.4253 0.0345 0.8853
1.2507 97.6888 -4.4126 -1.1983 -5.0865 1.3142 -0.6406 2.2661 -0.2376 -0.6243 -4.0637 -0.7815 -1.1686 10.7210 -3.3735 6.5881 6.4982 0.5418 -1.0210 -3.5006 -1.1210 -2.4235 -12.1349 -0.5988 0.0053 0.1031 -0.0656 0.6898 -10.5729 -3.9547 -0.6752 -10.5673 3.8165 -9.7779 14.1575 -12.8165 -59.4664 -7.1406 -16.2103 0.1763 0.1203 -26.3726 -2.7056 0.2150 3.6797 -15.7189 10.5606 15.8286 -60.3336 1.5724 2.5647 13.3998 14.8644 10.2603 57.8745 -0.1956 29.2473 0.6067 -0.1894 27.3279 -7.1648 2.7929 -5.7486 15.6293 7.1694 -15.8971 49.9247 -3.6374 -4.9984 7.4702 -3.8153 -3.7983 -0.1480 21.7458 -0.3643 -9.2790 -13.8205 1.7437 1.6584 -1.0871 -2.0659 -9.3346 -6.3906 -14.1749 0.0843 20.6396 0.1749 9.0591 -6.7619 1.4811 -1.4406 -0.5143 0.9002
2.3766 97.3925 -5.3055 -0.9592 -4.9995 0.1868 -0.8620 3.0457 -0.2242 -0.5861 -3.7388 -0.7505 -1.0870 10.5888 -3.2656 6.2866 6.4153 0.5736 -0.9849 -3.5168 -0.9289 -2.6348 -13.0121 -0.1187 0.0070 0.1036 -0.0752 0.6921 -10.5646 -3.9655 -0.6746 -10.5575 3.8081 -9.0217 14.1456 -12.8642 -59.9815 -7.9931 -14.8246 0.1717 0.2135 -27.4927 -2.0855 -0.4922 3.4501 -15.6619 10.5784 15.8817 -60.2771 1.5670 2.5318 12.3901 14.8763 10.2137 57.6921 -1.3658 29.3573 0.6342 -0.1831 27.6038 -8.0583 2.5204 -5.5724 15.5588 7.2270 -15.9270 49.9386 -3.6070 -4.9238 6.6783 -5.6360 -2.9302 -0.1602 24.2629 -0.3703 -8.4806 -14.5193 1.8288 1.6612 -1.1291 -2.0657 -10.2388 -10.3509 -13.5001 0.1645 25.8345 0.3198 9.3298 -6.0011 3.0207 -1.4522 -1.4248 0.9520
3.6313 96.9957 -6.3817 -0.8177 -4.9305 -1.3906 -0.9545 4.0343 -0.2779 -0.5107 -3.3563 -0.7058 -1.0148 10.5508 -3.0904 5.6844 6.1629 0.7189 -0.9292 -3.5359 -0.7659 -2.8404 -14.0041 0.5684 0.0092 0.0992 -0.0835 0.6990 -10.5604 -3.9750 -0.6777 -10.5460 3.7990 -8.2379 14.2054 -12.8094 -60.3039 -8.8595 -13.4572 0.0853 0.2979 -28.7265 -1.4418 -1.0607 3.1390 -15.6490 10.5948 15.9380 -60.2911 1.5144 2.5023 11.1816 14.9333 10.2927 57.5243 -3.0153 29.4189 0.6072 -0.1776 27.9872 -9.1841 2.2108 -5.3632 15.5135 7.2885 -15.9709 49.9716 -3.5246 -4.8952 5.9379 -7.6170 -1.8397 -0.1619 27.0407 -0.3339 -7.6334 -15.2669 2.1005 1.6699 -1.0922 -2.0904 -11.1409 -15.1413 -12.5616 0.2914 31.9080 0.5433 9.4377 -4.1041 5.3025 -1.4599 -3.0702 0.9800
4.8702 96.4379 -7.6249 -0.9155 -4.9845 -3.1138 -0.8522 5.1546 -0.3388 -0.4281 -2.8415 -0.5917 -0.9912 10.7038 -3.0269 4.9012 5.7051 1.1475 -0.8868 -3.5911 -0.6202 -2.9229 -14.9843 1.0331 0.0076 0.0824 -0.1085 0.7033 -10.5630 -3.9946 -0.6860 -10.5353 3.7682 -7.4135 14.2416 -12.6768 -60.2425 -9.7255 -12.0958 -0.0758 0.3479 -30.0395 -0.7853 -1.3232 2.8490 -15.7317 10.6066 15.9333 -60.4576 1.4940 2.5178 10.0084 15.0244 10.6288 57.3523 -4.8968 29.2699 0.5400 -0.1524 28.6704 -10.5680 1.9213 -4.8597 15.6369 7.2905 -16.0721 49.8517 -3.4919 -4.9167 5.4567 -9.8048 -0.6966 -0.1673 30.3623 -0.3080 -6.7250 -16.1587 2.3599 1.6597 -0.9245 -2.0740 -11.8019 -20.1385 -11.3932 0.4680 38.1248 0.8726 9.3521 -0.9233 7.9176 -1.4470 -4.5967 0.9330
5.9332 95.6373 -8.9141 -1.2660 -5.1610 -4.4860 -0.6573 6.3787 -0.3448 -0.3619 -2.4066 -0.5802 -0.9059 11.1114 -2.8296 4.1049 5.3674 1.5210 -0.8209 -3.6092 -0.5353 -3.0799 -15.7486 1.3053 0.0137 0.0684 -0.1044 0.7185 -10.5726 -3.9852 -0.6895 -10.5454 3.7626 -6.6014 14.2671 -12.6166 -59.3428 -10.2594 -11.2707 -0.2646 0.2801 -31.7159 -0.3112 -1.6615 2.6289 -15.7656 10.6725 16.0012 -60.5458 1.5313 2.4691 9.0587 15.2012 10.9211 57.0234 -6.5212 29.0587 0.5011 -0.1637 29.9159 -11.6815 1.5244 -4.5446 15.6416 7.3526 -16.1535 49.9073 -3.4444 -4.9304 5.4227 -12.3937 0.1875 -0.1610 34.5508 -0.2874 -6.1612 -17.4134 2.3817 1.6501 -0.7409 -2.0828 -11.8769 -24.5774 -10.2034 0.6243 43.8460 1.0951 9.5569 0.3553 10.4225 -1.4392 -4.2561 0.9147
6.7848 94.5298 -10.1717 -1.7031 -5.4997 -5.2520 -0.4639 7.6534 -0.3217 -0.3293 -2.0004 -0.5612 -0.8747 11.7413 -2.6854 3.5323 5.2171 1.7988 -0.7941 -3.6115 -0.5710 -3.2098 -16.3840 1.3859 0.0161 0.0602 -0.1136 0.7301 -10.5782 -3.9849 -0.6967 -10.5442 3.7425 -5.7451 14.3428 -12.6233 -57.6956 -10.6842 -10.9657 -0.4493 0.2009 -33.6061 0.1940 -2.0945 2.3304 -15.7097 10.7517 16.0930 -60.5819 1.5615 2.3886 8.4106 15.4643 11.1556 56.6203 -7.8421 28.7848 0.4671 -0.1827 31.4960 -12.8340 1.0803 -4.2481 15.6635 7.3975 -16.2097 49.9955 -3.4134 -4.9162 5.6651 -15.2292 0.6067 -0.1825 39.3616 -0.3013 -5.8438 -18.8738 2.2085 1.6475 -0.6306 -2.0762 -11.3668 -28.2877 -9.7639 0.7844 49.3767 1.2982 10.6841 -0.7377 13.2948 -1.4522 -3.8830 0.9102
7.4659 93.1166 -11.4483 -2.0662 -5.8633 -5.5233 -0.2998 8.9284 -0.2762 -0.3267 -1.6348 -0.5252 -0.9282 12.5636 -2.5267 3.1030 5.1744 1.9271 -0.8158 -3.6135 -0.6778 -3.2980 -16.8040 1.2534 0.0188 0.0481 -0.1158 0.7342 -10.5799 -3.9764 -0.6958 -10.5412 3.7285 -4.8775 14.4116 -12.6607 -55.4257 -11.0642 -11.2149 -0.5914 0.1230 -35.5640 0.6966 -2.4791 2.0296 -15.6339 10.8249 16.1911 -60.5369 1.5468 2.3173 7.9474 15.7167 11.2825 56.2000 -8.9591 28.2282 0.5068 -0.1975 33.3787 -14.2285 0.4677 -3.7695 15.6617 7.4229 -16.2810 50.0730 -3.3769 -4.8592 5.9652 -18.3002 0.5872 -0.2314 44.5045 -0.3370 -5.7169 -20.4924 1.9460 1.6462 -0.5512 -2.0614 -10.4853 -31.4681 -10.0672 0.9280 54.6252 1.4442 11.6360 -2.8905 15.7708 -1.4677 -3.8091 0.9200
7.9797 91.3855 -12.7478 -2.2532 -6.1526 -5.3998 -0.1777 10.1927 -0.2008 -0.3247 -1.2830 -0.4600 -1.0882 13.4771 -2.3855 2.7621 5.1858 1.9858 -0.9099 -3.6241 -0.9103 -3.3110 -16.8593 0.8927 0.0210 0.0302 -0.1117 0.7340 -10.5718 -3.9579 -0.6915 -10.5332 3.7169 -4.0781 14.4923 -12.7445 -52.6864 -11.4634 -11.9058 -0.6042 0.1414 -37.4432 1.0633 -2.8026 1.9025 -15.5096 10.8821 16.2451 -60.4683 1.5332 2.2645 7.6051 15.8950 11.3433 55.8071 -9.8977 27.3189 0.5707 -0.1704 35.5511 -15.9749 -0.3378 -3.0235 15.6480 7.3710 -16.3292 50.0288 -3.3785 -4.8499 6.1582 -21.6147 0.2987 -0.2871 49.8113 -0.3762 -5.6955 -22.2283 1.6081 1.6483 -0.5538 -2.0482 -9.5409 -34.2706 -10.8914 1.0589 59.3475 1.5347 11.8674 -4.9701 17.5061 -1.4692 -3.9751 0.9245
8.3800 89.3353 -14.1104 -2.2923 -6.3757 -5.0193 -0.0857 11.4388 -0.1009 -0.3332 -0.9209 -0.3855 -1.3211 14.4723 -2.2832 2.5136 5.2428 2.0672 -1.0348 -3.6357 -1.1971 -3.3336 -16.4884 0.3752 0.0230 0.0099 -0.1091 0.7311 -10.5508 -3.9366 -0.6849 -10.5142 3.6998 -3.3836 14.5767 -12.8352 -49.5695 -11.9603 -12.8068 -0.6418 0.2195 -39.1689 1.3643 -3.1003 1.9371 -15.4294 10.9337 16.2708 -60.4285 1.5759 2.1883 7.4308 15.9951 11.4477 55.3743 -10.7964 26.0481 0.6787 -0.1124 37.8151 -18.2002 -1.1092 -1.9240 15.6036 7.2643 -16.3598 49.8722 -3.4111 -4.8313 6.2793 -25.2007 -0.1062 -0.3410 55.3321 -0.4043 -5.7406 -24.0612 1.1134 1.6524 -0.6414 -2.0390 -8.6490 -36.8171 -11.9895 1.1443 63.6194 1.5611 11.3249 -6.8106 18.5108 -1.4582 -4.3578 0.9065
8.6164 86.9079 -15.4815 -2.1803 -6.5577 -4.4521 -0.0445 12.6618 -0.0331 -0.3775 -0.5200 -0.2879 -1.5507 15.5230 -2.1823 2.3433 5.4096 2.1659 -1.1389 -3.6486 -1.5543 -3.3864 -15.7031 -0.1525 0.0257 -0.0064 -0.1114 0.7245 -10.5219 -3.9163 -0.6726 -10.4895 3.6723 -2.7187 14.6232 -12.9849 -46.2423 -12.4430 -13.8312 -0.6309 0.3138 -40.8595 1.5909 -3.5322 2.0874 -15.4110 10.9598 16.2707 -60.4515 1.6323 2.1412 7.3449 16.0861 11.6222 54.9008 -11.8721 24.4723 0.7757 -0.0560 40.0092 -20.9062 -1.5723 -0.5969 15.5808 7.1508 -16.3839 49.7514 -3.4306 -4.7727 6.3315 -29.0610 -0.5762 -0.3905 61.1017 -0.4440 -5.8150 -26.0375 0.3772 1.6475 -0.7292 -2.0262 -7.9345 -39.0981 -13.1193 1.1396 67.4763 1.4659 9.4926 -8.5435 18.2876 -1.4426 -5.1998 0.8578
8.6851 84.0253 -16.8331 -1.9362 -6.6314 -3.8357 -0.0503 13.8015 0.0803 -0.4439 -0.1358 -0.3064 -1.7293 16.6612 -1.9849 2.2656 5.6671 2.1217 -1.2443 -3.6181 -1.8532 -3.4078 -14.5991 -0.6626 0.0285 -0.0096 -0.0815 0.7308 -10.4829 -3.8691 -0.6727 -10.4437 3.6825 -1.9943 14.5609 -13.2061 -42.8389 -12.3817 -15.1268 -0.3824 0.4577 -42.7485 1.6323 -4.3647 2.2499 -15.4365 11.0019 16.2951 -60.3965 1.6131 1.9293 7.4271 16.2820 11.8735 54.0977 -13.0698 22.9313 0.7387 -0.0126 42.0842 -23.9238 -1.8326 0.7384 15.3864 7.1103 -16.4170 49.6930 -3.4155 -4.7102 6.3729 -33.3662 -1.1769 -0.4342 67.2759 -0.4847 -5.8908 -28.2335 -0.7252 1.6425 -0.7017 -2.0452 -7.5411 -41.1923 -13.7767 0.9780 71.1960 1.1205 5.5893 -11.6688 16.5411 -1.4508 -6.7553 0.8377
8.5722 80.8153 -18.1583 -1.5335 -6.7241 -3.1540 -0.1764 14.9292 0.1140 -0.5439 0.3267 -0.1647 -1.8474 17.6291 -1.8700 2.2133 6.0934 2.0730 -1.3175 -3.5874 -1.9598 -3.4812 -13.5531 -1.0213 0.0316 -0.0204 -0.0688 0.7357 -10.4594 -3.8416 -0.6709 -10.4156 3.6792 -0.9289 14.4450 -13.3518 -39.5373 -12.1984 -16.2962 -0.4100 0.5837 -44.9420 1.5007 -5.7581 2.3491 -15.5038 10.9826 16.3438 -60.3862 1.5161 1.9327 7.2904 16.3047 12.1620 53.5329 -14.2084 21.2188 0.5880 0.0964 44.0860 -26.8457 -1.5708 1.9278 15.3448 6.9999 -16.4629 49.6288 -3.4107 -4.7192 6.3626 -37.8861 -1.8544 -0.8208 73.7232 -0.9143 -5.7491 -30.4136 -1.9454 1.6413 -1.0240 -2.0256 -7.5669 -43.6734 -13.9855 1.0314 75.5101 1.1106 2.3218 -17.5673 14.5727 -1.4745 -5.4183 0.8151
8.4117 77.1527 -19.5396 -1.2256 -6.9261 -2.5193 -0.2018 16.1149 0.2430 -0.5722 0.8072 -0.0617 -1.9350 18.7276 -1.7982 1.9506 6.4234 2.1713 -1.2166 -3.6044 -2.1793 -3.5724 -12.2935 -1.3268 0.0493 -0.0751 -0.1104 0.7463 -10.4409 -3.8731 -0.6465 -10.4038 3.6262 0.3923 14.1995 -13.3084 -36.2306 -12.0001 -17.3581 -0.6127 0.7694 -47.4184 1.1114 -7.7329 2.5525 -15.3089 10.9903 16.3825 -60.3154 1.4958 2.0274 7.0249 16.3289 12.6407 52.7484 -15.3717 19.3936 0.4082 0.1595 46.1215 -29.9651 -0.9539 2.8278 15.2796 6.8477 -16.5153 49.3477 -3.3993 -4.8008 6.7156 -42.6882 -2.7588 -1.6138 80.6030 -1.7598 -5.7641 -32.5775 -2.9848 1.6821 -1.1475 -1.9899 -7.6818 -46.8283 -13.8709 1.3422 80.5479 1.4573 0.0026 -23.2982 13.3413 -1.4957 -3.5242 0.8704
8.1858 73.2216 -20.9229 -1.0777 -7.2816 -1.9318 -0.1941 17.2343 0.2884 -0.6100 1.3481 0.0228 -1.7643 19.9810 -1.5706 1.4866 6.8155 2.3433 -1.2891 -3.6530 -2.1522 -3.5414 -11.0077 -1.6720 0.0281 -0.0863 -0.0452 0.7229 -10.4675 -3.8084 -0.6652 -10.4247 3.7019 1.5449 14.0249 -13.4423 -32.8353 -11.6675 -18.0011 -0.5727 0.9139 -50.5931 0.7748 -10.1583 2.9331 -15.4720 11.0567 16.3916 -60.2947 1.3831 2.0139 6.7475 16.3065 13.1661 51.4224 -16.6670 17.4026 0.5267 0.2028 48.1021 -32.7715 0.6516 3.1251 15.3624 6.8275 -16.6796 49.5790 -3.5419 -4.8443 7.7273 -47.5368 -4.1897 -8.7174 87.4592 -8.8475 -5.3690 -34.3720 -4.5666 1.6654 -1.6547 -2.0322 -8.0881 -51.1582 -13.6463 4.7569 87.0196 4.9300 -1.5238 -26.3717 12.7516 -1.4797 -2.9926 0.8217
7.8672 68.9323 -22.3033 -0.8366 -7.9671 -1.2589 -0.2070 18.4325 0.2913 -0.5955 1.9672 0.0089 -1.7257 21.4446 -1.4601 0.8839 7.2427 2.5635 -1.3001 -3.6846 -2.1801 -3.6404 -9.6145 -1.9132 0.0338 -0.1188 -0.0502 0.7218 -10.4713 -3.8203 -0.6517 -10.4310 3.7029 2.8293 13.5712 -13.5385 -29.2161 -11.3738 -18.1241 -0.6332 1.1295 -54.2849 0.2287 -13.1456 3.3746 -15.3884 11.0253 16.3484 -60.1105 1.2152 2.0824 6.3530 16.3225 13.8201 49.9231 -18.0930 15.0762 0.6168 0.3188 50.0993 -35.9540 2.3480 3.0747 15.5375 6.7583 -16.7945 49.7183 -3.6225 -4.9698 8.9096 -52.5487 -5.8471 -174.0380 85.3095 -174.1945 -5.2449 -35.9614 -5.9105 1.6624 -1.6685 -1.9926 -9.1156 -55.7885 -13.0276 176.2044 85.9424 176.3892 -2.7729 -28.6782 12.7588 -1.4718 -2.7057 0.8149
7.5151 64.3746 -23.6812 -0.3877 -9.0551 -0.6748 -0.2234 19.6146 0.3281 -0.6456 2.6751 -0.0576 -1.8034 23.0616 -1.4676 0.1780 7.8581 2.9035 -1.3428 -3.7024 -2.2550 -3.7359 -8.1045 -2.2395 0.0500 -0.1341 -0.0642 0.7315 -10.4653 -3.8450 -0.6289 -10.4219 3.6964 4.1147 13.1419 -13.8375 -25.5029 -11.3628 -17.4533 -0.5759 1.3523 -58.5148 -0.3657 -16.9201 3.7742 -15.2910 10.9446 16.2932 -59.9473 1.0710 2.1848 5.7823 16.3603 14.4345 48.3460 -19.4953 12.7123 0.5625 0.4365 51.8473 -39.1068 3.7079 2.7518 15.7679 6.7775 -16.9002 49.9937 -3.7013 -5.1364 10.1548 -57.3950 -7.4240 -177.0229 78.3562 -177.2005 -4.9415 -37.0484 -7.5188 1.6664 -1.6900 -1.9724 -11.1297 -60.3068 -11.3871 178.6528 78.8974 178.8301 -3.9548 -30.5604 12.8439 -1.4692 -2.5364 0.7901
7.0784 59.5829 -25.0898 0.2044 -10.6438 -0.1500 -0.2025 20.7853 0.3503 -0.7180 3.4616 -0.1521 -2.0083 24.8833 -1.6150 -0.6843 8.6579 3.2796 -1.3436 -3.6967 -2.4085 -3.8144 -6.6154 -2.5812 0.0711 -0.1358 -0.0833 0.7504 -10.4535 -3.8730 -0.6044 -10.3998 3.6799 5.1967 12.6464 -14.3905 -21.8797 -12.3276 -15.8331 -0.5270 1.5825 -62.6297 -0.3506 -21.2331 3.7998 -15.1950 10.8427 16.2587 -59.7798 0.9694 2.3386 5.0114 16.4032 14.9690 47.0072 -20.9853 10.1274 0.3597 0.5891 53.2172 -42.5072 4.5852 2.3630 15.9937 6.8586 -16.9650 50.3076 -3.7454 -5.3538 11.5223 -62.0397 -9.1242 -177.7798 71.5861 -177.9793 -4.5978 -37.5373 -9.1157 1.6777 -1.7697 -1.9721 -14.5188 -64.5378 -8.2687 179.2403 71.9233 179.4124 -4.9494 -32.0375 12.7789 -1.4666 -2.3702 0.7402
6.7268 54.7142 -26.4714 0.7320 -12.8887 0.2664 -0.0962 21.9089 0.3848 -0.7705 4.3293 -0.2837 -2.2590 27.0184 -1.8989 -1.6022 9.6339 3.6144 -1.3172 -3.6767 -2.5656 -3.8978 -5.2334 -2.9096 0.0964 -0.1288 -0.0991 0.7765 -10.4256 -3.8891 -0.5807 -10.3652 3.6586 5.9256 12.2214 -15.1411 -18.9469 -14.9785 -13.4551 -0.3723 1.8331 -65.6461 1.1316 -25.3434 3.2851 -15.1785 10.7695 16.2125 -59.8287 0.9505 2.4415 4.1443 16.3972 15.4344 46.1578 -22.5512 7.3240 0.0695 0.7044 53.9522 -46.0420 4.9080 2.2661 16.0222 7.0558 -16.9690 50.5417 -3.7309 -5.5279 13.4336 -66.1308 -11.3369 -178.1794 65.2157 -178.3867 -4.3795 -37.4828 -10.3990 1.6869 -1.8449 -2.0058 -19.2293 -68.0602 -3.6152 179.4995 65.3212 179.6744 -5.7048 -32.9732 12.5160 -1.4633 -2.2851 0.6905
6.4389 49.8785 -27.8098 1.1142 -15.8682 0.5632 0.0744 22.9341 0.3939 -0.8240 5.2966 -0.4258 -2.4770 29.4731 -2.2666 -2.4036 10.8884 3.8249 -1.2450 -3.6590 -2.6823 -4.0692 -4.0706 -3.1091 0.1384 -0.1097 -0.1251 0.8207 -10.3743 -3.9059 -0.5396 -10.3134 3.6093 6.3177 12.0170 -16.0144 -17.2461 -19.3519 -10.7534 -0.1537 2.0286 -66.7362 4.8524 -28.6348 2.1130 -15.1357 10.7168 16.1160 -59.9639 0.9926 2.5508 3.3456 16.3150 15.8021 45.8265 -23.8443 4.7765 -0.3939 0.8226 53.9237 -49.2023 4.7797 2.5654 15.8023 7.2747 -16.9095 50.5733 -3.7548 -5.6131 16.0981 -69.3834 -14.2330 -178.4113 59.3027 -178.6252 -4.2696 -37.1133 -11.4202 1.6869 -1.7026 -2.0349 -25.0156 -70.6744 2.2167 179.5604 59.1794 179.7235 -6.3141 -33.2993 12.1748 -1.4539 -2.2848 0.6826
6.1808 45.1393 -28.9658 1.3046 -19.6921 0.7517 0.2690 23.8750 0.3757 -0.8764 6.2539 -0.6431 -2.5778 32.2947 -2.5081 -2.9061 12.4961 3.8273 -1.2820 -3.5712 -2.6096 -4.3588 -2.9177 -3.3633 0.1929 -0.0828 -0.1318 0.8875 -10.3393 -3.9016 -0.4966 -10.2721 3.5714 6.3788 12.2882 -16.9226 -17.0719 -24.9232 -8.1176 0.0105 2.2012 -65.6657 10.8417 -30.6791 0.7007 -15.0982 10.5904 15.9265 -60.0870 0.9609 2.6662 2.9567 16.2487 15.9517 45.4038 -24.3183 3.2142 -0.6999 0.9067 53.0155 -51.5888 4.2528 3.7082 15.3206 7.4604 -16.8601 50.3610 -3.7688 -5.6557 19.6387 -71.4851 -17.9154 -178.5817 53.7890 -178.7532 -4.1117 -36.9131 -12.2961 1.6657 -1.4240 -2.0298 -31.2795 -72.2729 8.3659 179.5595 53.5499 179.6456 -6.5911 -33.4304 11.8713 -1.4461 -2.2439 0.7152
6.0900 40.5997 -29.9324 1.3311 -24.1668 0.5682 0.4984 24.4782 0.5389 -0.9070 7.3198 -0.7863 -2.4692 35.2421 -2.7048 -3.1915 15.0556 4.0029 -1.1615 -3.6153 -2.7168 -4.6969 -1.7585 -3.4992 0.2682 -0.0659 -0.1722 0.9391 -10.2592 -3.9228 -0.3962 -10.2005 3.4874 6.4521 12.9326 -17.7818 -19.1966 -30.0716 -5.2816 0.3044 2.4675 -62.7121 16.8454 -31.6421 -0.7179 -14.8581 10.6798 15.8140 -60.0195 1.2298 2.7741 2.8521 16.3160 16.1803 45.5247 -23.5250 2.8539 -1.0382 1.0087 51.4726 -53.1640 4.4117 4.3681 15.2725 7.4816 -16.9227 50.3377 -3.9039 -5.6256 23.8869 -72.6875 -21.9667 -178.8940 48.9028 -179.0631 -3.8973 -35.7755 -13.1864 1.6486 -1.1740 -2.0561 -36.7854 -73.2412 14.0154 179.3878 48.7023 179.4357 -7.4029 -32.2855 11.7173 -1.4258 -2.1868 0.8066
5.9126 36.4343 -30.7293 1.2852 -28.9537 0.2767 0.6914 24.8659 0.6423 -0.8885 8.1689 -0.9195 -2.1497 38.0414 -2.6464 -3.0930 18.1578 4.0195 -1.1255 -3.6040 -2.8555 -5.1959 0.0718 -3.5831 0.2971 -0.0680 -0.1664 0.9749 -10.2478 -3.8957 -0.3720 -10.1818 3.4603 6.3769 14.0826 -18.1044 -23.3155 -33.8069 -2.2483 0.3349 2.6867 -59.4947 20.4902 -32.2596 -1.5400 -14.7662 10.6719 15.7412 -59.7132 1.2452 2.9782 3.3639 16.6093 16.0166 45.8828 -21.4977 3.7297 -0.7568 1.0372 49.4186 -54.0408 4.5114 5.7059 15.2525 7.4334 -16.9700 50.2220 -4.0080 -5.6683 28.5884 -73.2052 -26.4681 -179.1137 44.6395 -179.2475 -3.3204 -34.2643 -13.8702 1.6359 -1.3376 -2.0983 -41.5881 -73.8419 19.0434 179.2976 44.4683 179.2791 -7.8816 -30.8668 11.0137 -1.4054 -2.1089 0.8413
5.6406 32.8615 -31.4591 1.2236 -33.2879 -0.0880 0.8376 25.0585 0.7327 -0.8228 8.7446 -1.0609 -1.6142 40.1078 -2.4660 -2.7792 21.5960 4.1058 -1.1037 -3.6189 -3.0815 -5.5928 2.0818 -3.8302 0.3045 -0.0854 -0.1514 1.0039 -10.2691 -3.8555 -0.3845 -10.1858 3.4467 6.1010 15.3808 -17.8572 -29.2094 -34.5538 1.3069 0.1421 2.6978 -57.3008 21.2528 -32.2058 -1.6388 -14.7202 10.6481 15.6776 -59.4907 1.2214 3.1205 4.1907 16.9821 15.7993 47.5419 -18.5257 4.8020 -0.3369 1.1102 47.5132 -54.9568 4.7551 7.0643 15.2543 7.3651 -17.0036 50.1777 -4.0880 -5.6608 33.3922 -73.6059 -31.1205 -179.2372 41.3132 -179.3472 -2.5816 -32.3104 -14.2420 1.6301 -1.6187 -2.0993 -45.5155 -74.6768 23.6499 179.2640 41.1702 179.1756 -8.1299 -28.9296 9.8905 -1.3922 -2.0704 0.8378
5.3301 29.8472 -32.2725 1.3662 -37.0318 -0.5835 0.9084 25.2214 0.7453 -0.7638 9.1057 -1.2169 -1.0666 41.4291 -2.2367 -2.3536 24.6665 4.1896 -1.0710 -3.6351 -3.3407 -6.0767 4.0089 -4.1938 0.3064 -0.0977 -0.1401 1.0368 -10.3218 -3.8393 -0.4101 -10.2237 3.4497 5.4731 16.7261 -17.3994 -35.4125 -32.4341 4.8084 -0.4180 2.4885 -55.9890 19.8602 -31.0896 -1.0722 -14.6765 10.5940 15.6581 -59.3835 1.0626 3.2428 5.0990 17.3444 15.4706 50.5687 -15.3175 5.6300 -0.0332 1.1505 45.9287 -56.6019 5.0976 8.3223 15.1901 7.3436 -16.9830 50.1685 -4.1406 -5.6314 38.1268 -74.0277 -35.5876 -179.3035 38.8717 -179.4052 -1.8615 -30.0633 -14.4821 1.6325 -2.0068 -2.0769 -48.7376 -75.8504 27.9864 179.2707 38.6775 179.1463 -8.3639 -26.7818 8.2520 -1.3863 -2.0979 0.8410
5.0305 27.2579 -33.1769 1.7909 -40.3250 -1.2590 0.9506 25.3987 0.7303 -0.7374 9.2901 -1.3932 -0.6154 42.2363 -2.0890 -1.9558 27.0945 4.1800 -1.0154 -3.6565 -3.6018 -6.6434 5.7636 -4.6131 0.3214 -0.1031 -0.1393 1.0808 -10.3664 -3.8440 -0.4215 -10.2438 3.4491 4.4953 17.9732 -16.9514 -40.8649 -28.2062 7.4007 -1.0983 2.1543 -54.4069 17.2600 -28.8033 -0.0411 -14.5995 10.5559 15.6030 -59.5957 0.9180 3.2978 5.7867 17.6347 15.0441 54.5688 -12.2170 6.2373 0.0400 1.1386 44.5303 -59.4585 5.3645 9.8607 14.9569 7.3936 -16.9169 50.1647 -4.1245 -5.5419 42.7703 -74.3600 -39.6882 -179.3513 37.1787 -179.4351 -1.1790 -27.6312 -14.7982 1.6361 -2.4701 -2.0552 -51.6229 -77.3121 32.2554 179.3059 36.9379 179.1660 -8.5900 -24.4992 6.1636 -1.3802 -2.1332 0.8689
4.7319 25.0418 -34.1933 2.3721 -43.3762 -1.9987 0.9697 25.6026 0.6172 -0.7000 9.3705 -1.5621 -0.2396 42.6209 -2.0115 -1.7112 28.9678 4.0496 -1.0348 -3.6781 -3.8598 -7.2986 7.4419 -5.0196 0.3460 -0.1079 -0.1433 1.1288 -10.3945 -3.8630 -0.4175 -10.2543 3.4494 3.4054 19.0949 -16.4585 -45.8029 -23.4236 8.8953 -1.7378 1.8697 -51.4660 14.5376 -25.0133 1.1483 -14.5313 10.6198 15.5704 -60.0629 0.8389 3.2517 6.0321 17.8511 14.5684 58.8367 -9.2667 7.2866 -0.0965 1.0761 42.7777 -63.1518 5.4654 11.2526 14.7321 7.4796 -16.8685 50.1416 -4.0734 -5.4395 47.1994 -74.4868 -43.4250 -179.4093 36.1967 -179.4677 -0.4882 -24.9722 -15.2813 1.6379 -2.9099 -2.0275 -53.7517 -78.9331 35.7760 179.3429 35.8943 179.1891 -8.8950 -21.9643 3.7829 -1.3739 -2.2076 0.9181
4.4206 23.1007 -35.4257 3.1358 -46.3751 -2.8663 1.0094 25.8220 0.4730 -0.6640 9.3560 -1.7112 0.1147 42.6842 -1.9166 -1.6241 30.5386 3.8644 -1.1336 -3.7080 -4.1462 -7.9286 9.1466 -5.4543 0.3606 -0.1162 -0.1431 1.1620 -10.4092 -3.8742 -0.4196 -10.2499 3.4540 2.5368 20.0286 -15.8787 -51.0389 -19.1564 9.7912 -2.2153 1.6478 -46.9999 12.5868 -19.8858 2.2664 -14.5626 10.6846 15.5473 -60.3950 0.8365 3.0644 5.8437 18.0853 14.1117 62.8704 -6.6605 9.1175 -0.2808 0.9661 40.4174 -67.3384 5.4422 11.8044 14.5247 7.5427 -16.8949 50.0677 -4.0010 -5.3901 50.7920 -74.3703 -46.1063 -179.5068 35.9180 -179.5445 0.1351 -22.0721 -15.9032 1.6415 -3.4062 -1.9911 -54.5445 -80.5538 37.8435 179.3825 35.5424 179.2197 -9.2763 -19.0328 1.2583 -1.3659 -2.3305 0.9745
4.0454 21.2999 -36.8862 4.0255 -49.3715 -3.8714 1.1111 26.0584 0.3455 -0.6099 9.2560 -1.8208 0.5156 42.4589 -1.7107 -1.6675 31.9889 3.5735 -1.3137 -3.7364 -4.3882 -8.4252 10.8789 -5.8805 0.3534 -0.1298 -0.1341 1.1761 -10.4242 -3.8716 -0.4455 -10.2482 3.4694 2.0136 20.7901 -15.1240 -57.0430 -15.8853 10.8094 -2.2884 1.4740 -42.0400 12.1175 -14.7698 3.0589 -14.6997 10.7493 15.5055 -60.5007 0.8770 2.7607 5.1714 18.3600 13.8096 66.5898 -4.5047 11.7073 -0.4049 0.8715 37.6643 -71.8707 5.0268 10.7947 14.3198 7.6178 -16.9971 49.9650 -3.9222 -5.3809 53.2760 -74.1125 -47.6317 -179.6261 36.2085 -179.6620 0.4631 -19.0608 -16.4140 1.6448 -3.9605 -1.9513 -52.5636 -82.0948 36.8744 179.4408 35.8016 179.2661 -9.8251 -15.7785 -1.1950 -1.3619 -2.5432 1.0300
3.7149 19.7735 -38.6532 5.1094 -52.3422 -5.0464 1.2324 26.3250 0.1948 -0.5179 9.1161 -1.8407 0.9347 41.9272 -1.3747 -1.7294 33.2456 3.2451 -1.4807 -3.7553 -4.6126 -8.7768 12.4871 -6.2003 0.3274 -0.1492 -0.1240 1.1729 -10.4532 -3.8684 -0.4919 -10.2687 3.4936 1.6611 21.3609 -14.2182 -63.2318 -13.3147 12.2992 -2.0751 1.3230 -38.0947 12.7611 -10.9736 2.9800 -14.8902 10.7318 15.3844 -60.3780 0.8639 2.4401 4.1036 18.7060 13.6683 69.9048 -2.8202 14.4967 -0.2259 0.7586 35.3523 -76.0149 4.3153 8.1527 14.3328 7.6233 -17.1149 49.8526 -3.9040 -5.3481 53.8456 -73.7300 -47.3220 -179.7603 37.1288 -179.8367 0.3255 -15.9995 -16.6409 1.6547 -4.5422 -1.9126 -46.2321 -83.1192 31.1198 179.4855 36.7397 179.2829 -10.5109 -12.5144 -3.3544 -1.3689 -2.7618 1.0748
3.3560 18.2927 -40.5501 6.4030 -55.4498 -6.3660 1.4089 26.6661 0.0613 -0.4171 8.9166 -1.8437 1.3346 41.3205 -0.9382 -1.7880 34.2983 2.7876 -1.6599 -3.7323 -4.7042 -8.9140 13.9085 -6.4725 0.2832 -0.1626 -0.1061 1.1533 -10.4431 -3.8398 -0.5615 -10.2556 3.5169 1.4348 21.7218 -13.0575 -68.6763 -10.5263 13.7476 -1.6887 1.1969 -36.5600 13.7566 -8.2817 1.9310 -15.0385 10.6558 15.2621 -60.2998 0.7993 2.1789 2.6854 19.0708 13.6671 72.8677 -1.0821 17.1761 0.2887 0.5728 34.6596 -79.6221 3.4668 4.1918 14.5238 7.5831 -17.1807 49.8418 -3.9101 -5.2922 52.2969 -73.1935 -45.0778 -179.8539 38.4957 -179.9980 -0.2761 -13.0340 -16.5016 1.6679 -5.0387 -1.8992 -36.2539 -83.3474 21.2410 179.5532 38.0826 179.3131 -11.3239 -9.4498 -5.1311 -1.3900 -3.0236 1.1337
3.0667 16.8926 -42.6108 7.9884 -58.7914 -7.8890 1.5556 26.9711 -0.1409 -0.2286 8.6686 -1.7308 1.6731 40.7214 -0.4729 -1.7849 35.2120 2.1550 -1.8475 -3.7183 -4.6793 -8.9576 15.2551 -6.5921 0.2389 -0.1786 -0.0889 1.1313 -10.4067 -3.8097 -0.6299 -10.2291 3.5378 1.3151 21.9395 -11.6244 -72.8107 -7.0877 13.9482 -1.0624 1.3202 -37.2697 14.4833 -6.2476 0.2294 -15.2245 10.5860 15.1040 -60.5090 0.7770 1.8943 1.0306 19.4836 13.7912 75.4941 1.1497 19.7714 1.1277 0.3070 36.2587 -82.9731 2.4273 -1.3237 14.9198 7.6013 -17.1358 50.0551 -3.8311 -5.1317 48.8524 -72.3866 -41.0849 -179.8704 40.2022 179.9299 -1.1326 -10.1516 -16.0058 1.6787 -5.3592 -1.9170 -25.5416 -82.6870 10.1972 179.6767 39.7389 179.3771 -12.1769 -6.6937 -6.6408 -1.4219 -3.3434 1.1959
2.7621 15.5069 -44.7094 10.1045 -62.4864 -9.7584 1.6576 27.1357 -0.4042 -0.0458 8.2878 -1.6351 1.9662 40.1920 0.0829 -1.7695 36.1784 1.4059 -2.0124 -3.6964 -4.4842 -8.8618 16.6306 -6.5886 0.1763 -0.1994 -0.0678 1.1017 -10.3829 -3.7826 -0.7294 -10.2188 3.5762 1.2800 22.2194 -9.9314 -75.3171 -3.2966 12.2229 -0.3210 1.7027 -39.6722 14.7033 -4.7785 -1.6232 -15.4423 10.5676 14.9864 -60.7886 0.8058 1.6202 -0.5908 20.0475 14.0241 77.6997 4.2206 22.3282 2.0394 -0.0241 40.6043 -85.5682 1.4510 -8.0385 15.5338 7.6652 -16.9920 50.5201 -3.6029 -4.8488 43.6318 -71.0352 -35.4296 -179.8517 42.1792 179.9518 -1.9986 -7.4598 -15.2946 1.6844 -5.5355 -1.9569 -18.9910 -80.8634 2.9624 179.8235 41.6431 179.4329 -12.6801 -4.4943 -7.8428 -1.4628 -3.7257 1.2557
2.6393 14.2875 -46.6283 13.2839 -66.7971 -12.3875 1.4607 27.2547 -0.8000 0.0885 7.8311 -1.5008 2.3280 39.5831 0.5213 -1.9504 37.4188 0.7128 -2.1555 -3.6115 -4.1289 -8.6734 17.8571 -6.6268 0.0580 -0.1831 -0.0293 1.0538 -10.4407 -3.7876 -0.9225 -10.2655 3.6964 1.3298 22.7360 -8.0887 -76.5513 0.2135 9.0214 0.1729 2.3245 -42.5521 14.7889 -4.0798 -3.7291 -15.6792 10.5513 14.8816 -61.0717 1.0482 1.4493 -1.8891 20.4218 14.2289 79.3817 8.6867 25.7224 2.2146 -0.3218 47.3251 -86.7711 0.4717 -15.7799 16.0760 7.5450 -16.7868 50.8667 -3.4266 -4.5730 36.3964 -68.6121 -27.7601 -179.8237 44.5225 -179.9587 -2.1458 -4.7814 -14.2708 1.6950 -5.6551 -1.9167 -15.6656 -77.7329 -1.4416 179.8618 43.9077 179.4380 -12.8855 -2.9148 -9.2923 -1.5082 -4.4352 1.2417
2.5110 13.0782 -48.3864 18.2153 -71.4589 -16.7211 1.5234 26.8256 -1.1068 0.0571 7.0977 -1.2589 2.6667 39.1253 0.7824 -2.1219 39.2952 0.1563 -2.3376 -3.4824 -3.9615 -8.5586 19.0679 -6.4621 -0.0252 -0.2131 -0.0006 0.9974 -10.4166 -3.7509 -1.0353 -10.2625 3.7491 1.6385 23.3999 -6.3800 -76.7823 3.6038 4.6652 0.3635 2.9427 -45.9920 14.6006 -3.2306 -5.0630 -15.5660 10.6839 15.0385 -60.9976 1.2257 1.2690 -2.5839 21.2213 13.8279 79.8618 13.1969 27.4290 2.6046 -0.7696 55.2717 -86.0779 1.7624 -24.0494 16.6996 7.5671 -16.5081 51.1712 -3.2853 -4.4051 30.1190 -64.9380 -21.3081 -179.9023 47.3253 -179.9113 -2.6063 -1.8458 -14.2045 1.7482 -5.5171 -1.9487 -15.8457 -73.2668 -2.3466 179.8572 46.7906 179.3128 -12.1223 -1.9365 -9.6993 -1.5626 -4.8111 1.2842
2.4216 12.2299 -50.0137 27.2245 -76.0932 -24.9050 1.3113 25.9154 -1.4473 0.1704 6.0724 -0.9689 2.5240 38.5912 0.6840 -2.5103 41.5644 -0.3716 -2.5677 -3.2961 -3.5263 -8.5484 20.1498 -6.2911 -0.0686 -0.2201 0.0503 1.0037 -10.4262 -3.7077 -1.1318 -10.3010 3.8221 2.2354 23.9753 -4.6927 -76.2580 6.8318 -0.5223 0.3668 3.4333 -49.0257 14.4530 -1.6066 -5.9364 -15.2898 10.6231 15.2099 -60.7277 1.2810 1.5107 -2.6545 22.0354 13.2698 79.3824 17.9995 28.9550 2.4060 -1.1410 63.3991 -83.7886 2.9617 -31.6790 17.0158 7.6559 -15.9726 51.3307 -3.0647 -3.9778 24.2047 -60.1991 -15.6699 -179.9572 51.0007 -179.8724 -3.7424 1.7924 -12.7780 1.7916 -5.0515 -1.9482 -16.7549 -68.0175 -2.2262 179.9477 50.4009 179.3716 -10.6709 -1.1308 -10.0962 -1.6000 -5.6136 1.3237
2.3672 11.5606 -51.6256 44.1012 -80.0142 -40.8550 0.9024 24.7462 -1.6676 0.1253 5.0426 -0.6589 2.3640 37.3953 0.4058 -2.9120 43.7928 -0.7473 -2.5791 -3.2329 -2.6648 -8.3526 20.2180 -5.9817 -0.1464 -0.2540 0.1477 0.9164 -10.5253 -3.6192 -1.2026 -10.3749 3.9556 2.7600 23.9233 -3.6422 -75.4753 10.2832 -6.2215 0.7226 4.0554 -51.1189 13.7173 -0.0605 -6.1148 -15.0282 10.7216 15.3511 -60.5982 1.3376 1.5112 -2.9059 22.7993 12.2031 78.6634 21.9191 30.3674 1.6456 -1.2783 69.9843 -80.6372 4.7012 -38.8456 17.2322 7.7842 -15.7142 51.3771 -3.0935 -3.8510 19.0385 -55.4413 -11.0155 -179.8817 55.9149 -179.7895 -5.1326 7.0402 -11.1949 1.8201 -4.6869 -1.8664 -17.4822 -62.3560 -1.8123 179.7644 55.0526 179.1469 -8.7963 1.0703 -10.4170 -1.6434 -6.1047 1.2305
2.2758 10.8883 -53.1670 75.3599 -82.0543 -70.9418 0.5536 23.4374 -1.6177 -0.0283 4.0393 -0.3632 1.5824 35.7598 -0.2075 -3.1817 45.1570 -0.8180 -2.4353 -3.1239 -1.3637 -8.1969 18.6875 -5.5512 -0.1990 -0.2666 0.2740 0.8650 -10.6111 -3.5072 -1.2602 -10.4499 4.1169 3.1787 23.3458 -3.1870 -74.3820 13.7820 -11.9988 1.3650 4.4555 -52.3173 12.0757 1.2926 -5.6448 -14.9356 10.8277 15.4094 -60.6182 1.2733 1.6131 -4.5324 23.4231 10.6253 78.5665 23.9928 31.8154 1.0680 -1.2662 74.5918 -76.7991 6.0747 -44.0226 17.3251 8.0068 -15.6823 51.2401 -3.0731 -3.8226 13.5719 -50.3750 -6.7311 -179.6728 61.6672 -179.5671 -7.4927 12.6445 -10.0912 1.8325 -4.3373 -1.7852 -17.5140 -56.5673 -0.9039 179.5312 59.7901 178.9405 -7.1100 2.3188 -11.1583 -1.7283 -6.4543 1.1113
2.3104 10.3072 -54.7139 109.4421 -81.0573 -103.8788 0.3713 22.0747 -1.3781 -0.1003 3.2469 -0.0145 0.4138 33.9718 -0.9195 -3.1575 45.4001 -0.4669 -2.1573 -3.0296 -0.2647 -8.0555 15.0248 -4.7593 -0.1673 -0.2565 0.3544 0.9145 -10.7625 -3.4906 -1.2467 -10.6017 4.2506 2.9856 22.4129 -3.3612 -72.7513 16.6271 -16.2530 1.6898 4.1174 -52.7649 9.8073 3.0293 -4.5864 -15.1579 11.0818 15.4227 -60.5913 1.1927 1.6568 -7.6157 23.7028 9.0311 79.4208 24.2019 34.5400 0.1319 -0.9579 77.0250 -72.0491 6.8054 -47.7376 17.2403 8.2306 -15.9267 50.8999 -3.0735 -3.9785 8.1364 -44.9168 -3.3045 -179.4472 67.4393 -179.4075 -10.4629 17.0274 -9.1262 1.8696 -4.0120 -1.6347 -17.0612 -50.6407 0.3104 179.0846 64.0155 178.5794 -4.9126 3.4225 -11.8494 -1.8151 -6.6854 1.0544
2.2630 9.8929 -56.3652 133.9758 -78.1011 -127.0775 0.0321 20.4786 -1.4239 -0.1228 2.4003 0.1692 -0.7752 32.4978 -1.3679 -2.7599 45.9317 0.4132 -1.8946 -2.8828 0.2884 -8.2759 10.3215 -4.2538 -0.0826 -0.2027 0.3914 0.9784 -11.0791 -3.5487 -1.1418 -10.9445 4.3521 2.5698 21.7334 -3.4382 -70.4078 18.1917 -19.4626 1.4216 2.9943 -52.4505 6.9695 6.1245 -2.7947 -15.5026 10.9929 15.2340 -60.6077 1.1695 1.8181 -10.5159 24.0164 7.4120 78.8615 23.5020 38.7873 -0.7767 -0.6339 77.4984 -65.1734 7.1092 -49.3785 17.5486 8.3672 -16.0138 50.8883 -3.0811 -4.0041 3.0781 -38.6147 -1.9503 -178.7753 72.5012 -178.7745 -12.9919 19.3748 -8.0436 1.8844 -3.7345 -1.6254 -17.2370 -44.4405 1.9876 178.7414 67.9076 178.1890 -3.1017 3.7727 -12.1494 -1.8486 -6.9990 1.0319
2.1849 9.6881 -57.9212 148.8187 -74.5957 -141.1072 -0.0805 18.6205 -1.4646 -0.0077 1.6227 0.0766 -1.5510 30.6056 -1.6802 -2.3390 47.0961 0.8470 -2.0386 -2.7861 0.3755 -8.9368 5.8403 -3.3529 0.0039 -0.1613 0.3525 0.9282 -11.3802 -3.6692 -0.9173 -11.2760 4.3599 2.1697 21.0239 -3.9555 -69.0211 19.0204 -21.9782 1.0763 1.8494 -50.4812 4.2861 10.7446 -0.4934 -16.0091 11.0064 14.9442 -60.4122 1.1959 1.8074 -12.3312 24.3796 6.0075 76.2744 22.7616 44.0087 -2.0742 -0.4510 76.2228 -56.3811 7.8555 -49.5836 18.1080 8.3013 -16.1101 51.4835 -3.1714 -4.2168 -0.8745 -32.5449 -2.2091 -178.0418 76.8253 -178.1007 -15.1850 20.3377 -6.2431 1.9314 -3.4986 -1.5875 -17.0171 -38.5809 1.9944 178.3995 71.5698 177.8663 -1.0923 5.9855 -11.9154 -1.7743 -7.1091 1.0828
2.0229 9.5924 -59.4775 158.1360 -71.3658 -149.9102 -0.1696 16.6327 -1.4763 0.1771 0.7859 -0.2056 -1.9960 28.0957 -1.8334 -1.9699 47.9812 0.5503 -2.6667 -2.6795 0.5208 -9.8261 2.2258 -1.8597 0.0612 -0.1457 0.2812 0.7843 -11.4074 -3.7335 -0.6580 -11.3479 4.2533 2.7180 20.2082 -4.6401 -69.4864 18.9534 -24.7356 0.5349 1.2490 -46.8272 1.8595 14.7873 1.5816 -16.4081 10.9072 14.6511 -60.0330 1.1082 1.8725 -13.5148 25.0426 5.6274 72.9347 21.0596 48.2528 -3.4026 -0.8185 71.1611 -45.9220 7.4262 -46.0833 18.2742 8.2265 -16.1628 52.1600 -3.1732 -4.4168 -3.6822 -27.4840 -3.0302 -177.1030 80.0439 -177.1763 -16.9640 19.9917 -4.3407 1.9735 -3.2046 -1.6172 -17.0789 -33.4128 0.8376 178.0377 75.1049 177.5477 0.6406 9.8021 -11.7586 -1.6634 -6.9486 1.1304
1.6403 9.5103 -61.1369 163.8750 -69.1624 -155.3641 -0.2470 14.8737 -1.4443 0.3991 -0.0949 -0.4240 -2.3921 25.2604 -1.9463 -0.7874 46.8008 0.2761 -3.4879 -2.6901 0.9754 -11.0126 -0.9158 0.1366 0.1457 -0.1656 0.2787 0.6737 -11.1470 -3.6416 -0.3761 -11.1191 4.1166 4.5427 18.8507 -5.6778 -72.0241 18.2014 -27.8228 0.0192 1.0590 -42.0343 -0.7834 18.1033 3.1335 -16.6629 10.6237 14.3946 -59.7812 1.0976 1.7077 -14.0801 25.1444 7.0034 70.3326 17.4251 50.3955 -3.7597 -1.4018 60.0218 -34.7369 3.8146 -39.8579 17.8385 7.9793 -16.2295 51.5481 -3.3936 -4.6323 -5.4562 -24.2548 -3.5923 -177.4256 81.2056 -177.5928 -16.7772 18.9465 -2.6278 1.9379 -3.2149 -1.7277 -17.3491 -29.5500 -1.0379 177.6117 78.3481 177.0803 1.7114 13.4828 -11.6080 -1.6147 -6.4816 1.0200
1.1459 9.3674 -62.8993 166.9266 -68.0999 -158.5587 -0.1781 13.4705 -1.1892 0.5166 -0.6103 -0.4949 -2.4186 22.3224 -1.8886 1.0585 42.3838 0.2349 -4.7568 -3.0974 1.2497 -11.3757 -4.8160 3.2343 0.1615 -0.1826 0.1344 0.5414 -10.8049 -3.6323 -0.2164 -10.8111 3.8029 6.2761 17.3677 -7.2956 -74.5310 17.3506 -29.5191 -0.2233 1.1545 -37.3615 -3.5850 20.7808 4.9145 -16.8602 10.4434 14.2254 -60.1204 1.2717 1.2474 -14.0461 24.3123 10.1054 68.8880 11.6516 49.6008 -1.8310 -1.1197 43.6649 -24.2344 -2.1153 -34.3387 17.2170 7.4827 -16.1843 50.1399 -3.5637 -4.9363 -5.5548 -22.6136 -4.1348 -178.3318 82.0734 -178.6504 -15.4211 20.0038 -2.9480 1.9383 -2.8876 -1.6860 -17.4996 -26.8534 -3.3185 176.7996 80.6736 176.2833 1.7414 16.0003 -11.6592 -1.5710 -6.1055 0.9807
0.5530 8.9462 -64.5525 167.5486 -68.0040 -159.2417 -0.2525 12.5522 -1.1351 0.3654 -1.0198 -0.2029 -2.1886 20.0696 -1.4615 3.3622 35.7568 0.0293 -5.7862 -3.5428 1.8845 -11.5366 -9.6485 6.1154 0.2050 -0.1989 0.0597 0.5964 -10.4925 -3.6365 -0.1909 -10.5101 3.6397 7.7122 16.2565 -8.5487 -75.7127 16.4462 -29.7429 -0.2470 1.1288 -34.6230 -5.3587 22.4546 7.0399 -16.6499 10.3691 14.0442 -60.2677 1.6147 0.9040 -13.6806 23.1679 13.7223 68.0925 6.4728 46.9801 -0.7312 -0.5988 30.2178 -17.7485 -6.2341 -31.5725 16.2179 7.2703 -16.0844 48.8600 -3.6570 -5.0627 -5.0217 -22.5386 -4.2279 -179.0253 81.7125 -179.4682 -14.4939 21.1860 -3.4928 1.8623 -2.9118 -1.6951 -18.1124 -26.0389 -4.8532 176.9109 81.4072 176.2741 0.9258 16.9877 -12.1648 -1.5564 -5.7096 0.8853
0.1286 8.6015 -65.8961 167.5395 -68.2851 -159.3454 -0.2137 11.9392 -1.1730 0.3335 -1.2765 0.1023 -2.0490 18.4908 -0.9721 5.2968 30.2868 -0.4377 -6.4298 -3.7673 2.5090 -11.1987 -13.3716 8.0829 0.2109 -0.1914 0.0003 0.6437 -10.3344 -3.7580 -0.2289 -10.2973 3.6387 8.4273 15.6998 -9.0601 -75.3099 16.0296 -29.5544 -0.2120 0.9701 -34.4094 -5.9080 22.0804 9.1120 -16.5407 10.5644 14.0536 -60.4901 1.8362 0.7707 -13.4579 22.2508 16.1737 67.5289 2.7307 42.7097 -1.5579 -0.0436 24.0520 -15.3889 -7.0341 -30.1222 15.7010 7.3638 -16.0603 48.4885 -3.6333 -5.2925 -4.1756 -23.0152 -4.2022 -178.8563 81.3131 -179.3107 -14.1391 21.7648 -4.3486 1.8140 -2.9001 -1.6963 -18.9203 -26.1943 -5.7757 177.9490 80.9729 177.1868 0.1811 17.4239 -13.0106 -1.5266 -5.4395 0.8721
-0.1859 8.5625 -66.9334 167.4938 -68.8055 -159.5080 -0.1178 11.5648 -1.2779 0.4781 -1.4754 0.3886 -2.0262 17.0759 -0.4964 6.9689 26.2491 -1.0434 -6.7647 -3.8695 3.0959 -11.0039 -15.8714 9.2493 0.2418 -0.1773 -0.0329 0.6717 -10.2408 -3.8602 -0.1966 -10.1335 3.6606 8.8886 15.2843 -9.1986 -74.5680 16.2771 -29.9061 -0.3194 0.7511 -35.6122 -6.1715 19.9534 10.5626 -16.3943 10.9032 14.3427 -60.8221 2.0656 0.7709 -13.2109 21.4163 17.5633 67.5374 0.3909 37.3708 -3.6872 0.6590 23.5825 -14.8746 -5.9393 -29.2655 15.6307 7.4982 -16.3185 48.6637 -3.5604 -5.6068 -3.1294 -23.6343 -3.8811 -178.9382 81.3845 -179.3895 -13.6890 21.8568 -5.1657 1.7946 -2.8787 -1.6891 -19.8348 -26.6983 -6.5067 179.1157 80.4852 178.2902 -0.1394 17.6782 -13.8659 -1.4994 -5.3373 0.8893
-0.4269 8.5714 -67.8255 167.6214 -69.5960 -159.7618 -0.1239 11.1995 -1.4712 0.5663 -1.7937 0.6365 -2.0099 15.8359 -0.0353 8.6713 22.9366 -1.8765 -7.0097 -3.9122 3.7931 -10.9767 -17.3350 10.1840 0.3578 -0.1842 -0.0500 0.7870 -10.2923 -3.9455 -0.0783 -10.0833 3.6707 9.7174 15.0253 -9.3601 -74.2873 16.7266 -31.1033 -0.8114 0.3383 -36.9524 -6.5793 17.6821 11.2487 -16.2452 11.0482 14.6013 -60.7467 2.1411 0.8391 -12.7990 20.7205 18.5319 67.7363 -0.4355 31.8074 -5.6549 1.4349 26.7443 -14.6840 -4.2542 -28.7021 15.6780 7.6662 -16.7118 49.0044 -3.5504 -5.7289 -2.3892 -24.4799 -3.1552 179.9065 81.6451 179.4594 -12.9030 21.0804 -5.2971 1.7603 -2.8897 -1.6785 -20.9982 -27.5907 -6.9790 179.9905 80.3836 179.0260 -0.3381 18.2366 -14.6765 -1.4782 -5.1307 0.7711
-0.4602 8.6500 -68.4662 168.4412 -70.6108 -161.0355 -0.0009 10.8054 -1.6395 0.6903 -1.9334 0.8130 -1.8442 14.7727 0.2192 10.1940 19.7400 -2.5681 -7.1268 -3.9712 4.3642 -10.7287 -18.3520 10.8866 0.4104 -0.2131 -0.0984 0.7523 -10.3390 -3.9735 0.0610 -10.0441 3.5783 10.2147 15.2081 -9.5826 -73.6175 17.0772 -33.2057 -0.9212 0.0214 -37.7343 -7.8023 15.6419 11.2517 -16.0129 11.0848 14.7963 -60.9187 2.1547 0.9242 -12.3009 19.6862 19.0205 67.7469 0.5961 27.3980 -6.6413 2.2163 31.4062 -14.0625 -2.8880 -28.7917 15.9762 7.8587 -17.0023 49.3848 -3.4840 -5.8793 -1.4819 -25.2435 -2.6799 179.3610 82.2398 178.9446 -11.6790 21.4137 -5.2065 1.6842 -2.5535 -1.5950 -21.8295 -28.4182 -7.6591 -178.7731 80.8619 -179.7163 -1.0774 19.4862 -15.1583 -1.4156 -4.9729 0.7254
-0.4780 8.5549 -68.8829 169.9215 -71.5730 -163.0633 0.2911 10.4028 -1.7346 0.5477 -1.9624 0.9555 -1.4678 13.8536 0.3058 11.7346 16.7207 -3.3501 -7.2689 -3.9597 4.9049 -11.0466 -19.0126 11.3491 0.4588 -0.2236 -0.1407 0.7544 -10.3031 -3.9650 0.1561 -10.0030 3.4709 10.8881 15.4037 -10.1864 -73.2608 17.5287 -35.6869 -0.8931 -0.2282 -38.1587 -9.5846 13.3863 10.6569 -15.6963 11.1254 15.0539 -60.9387 2.1999 1.2001 -11.7841 18.6801 19.2503 67.3726 2.8138 23.9436 -6.8493 3.0831 36.1642 -12.6917 -1.4839 -29.4277 16.1886 7.8581 -17.0509 49.5972 -3.5410 -5.8533 -0.6499 -26.0132 -2.5944 178.1140 82.9260 177.6505 -11.1845 21.5993 -4.7747 1.6748 -2.2223 -1.6013 -22.1907 -29.1280 -8.6443 -177.7389 81.8249 -178.6596 -1.5335 20.3264 -14.6023 -1.4481 -4.4243 0.6834
-0.3911 8.4418 -69.0932 171.8785 -72.3407 -165.4384 0.4892 10.0138 -1.8115 0.4353 -2.0337 1.0064 -1.1263 13.1857 0.2914 12.6264 14.5949 -4.3094 -7.4554 -3.9859 5.2417 -10.8097 -19.6477 12.0120 0.4923 -0.2043 -0.1477 0.7078 -10.2451 -3.9382 0.2659 -9.8457 3.4249 11.7096 15.3440 -11.0498 -73.4174 17.7661 -37.6468 -0.9225 -0.5774 -38.2619 -11.0937 12.1790 9.9246 -15.7926 11.2947 15.0850 -60.8754 2.1629 1.1494 -11.4403 18.1888 19.3095 66.6990 4.4850 20.5191 -6.3800 3.1382 39.6530 -11.8792 1.1736 -30.0552 16.3130 7.8950 -16.9434 49.9829 -3.3564 -5.7653 -0.0546 -26.4532 -2.5501 175.8176 84.0400 175.2977 -11.3064 21.4910 -4.5366 1.7266 -2.3160 -1.6495 -22.5454 -30.0709 -9.7491 -176.7716 82.3121 -177.7394 -2.5951 21.8274 -14.7545 -1.4841 -3.9249 0.6773
-0.1283 8.0852 -69.2271 174.4231 -72.8733 -168.0573 0.4244 9.5824 -1.8774 0.4836 -2.2228 0.9003 -1.0518 13.2013 0.3811 13.4923 12.6633 -4.7454 -7.4617 -4.1739 5.5726 -10.3024 -19.8423 12.6318 0.5153 -0.2510 -0.1794 0.6874 -10.3543 -3.9432 0.3314 -9.7634 3.3503 12.6936 15.3445 -11.6091 -73.1841 17.4197 -39.1854 -1.2890 -0.5911 -38.3042 -12.7440 11.4012 9.4180 -15.7687 11.1924 14.9574 -60.8916 2.2675 1.1907 -10.9741 17.2843 18.8050 65.5882 6.7600 17.9354 -5.8535 3.0254 41.7466 -10.4950 2.8289 -30.7206 16.6869 7.8628 -16.9764 50.3155 -3.4200 -5.9728 0.0732 -26.7575 -2.3357 174.9841 84.9056 174.6289 -11.0252 21.5929 -3.7677 1.7354 -2.1321 -1.6550 -23.3111 -31.1112 -10.7441 -176.3752 82.8087 -177.4903 -4.1265 23.6269 -15.2987 -1.5015 -4.0286 0.6156
0.1468 7.8132 -69.1707 177.4991 -73.2185 -171.6094 0.5792 9.2386 -1.8882 0.6451 -2.2241 0.7336 -0.9347 13.0909 0.2558 14.2848 10.7606 -5.2836 -7.9271 -4.3458 6.0103 -10.1644 -19.6205 12.7792 0.4671 -0.2764 -0.1841 0.5833 -10.2588 -3.8688 0.3382 -9.6284 3.2867 13.4728 15.2536 -12.4094 -73.4429 17.0770 -39.8628 -1.3018 -0.1354 -37.8049 -14.2601 10.9552 8.7448 -15.6178 11.4410 15.0022 -61.1979 2.3728 0.8848 -10.6378 16.3788 18.5634 65.1303 9.3444 15.3939 -4.8414 3.0366 42.2210 -9.5590 4.0635 -32.0265 16.6629 7.7745 -16.8423 50.3480 -3.6125 -5.9684 0.6039 -26.7510 -2.0846 172.4009 86.2186 172.0762 -11.1938 22.4400 -2.8833 1.7823 -2.0075 -1.6170 -23.8324 -31.9236 -11.8157 -176.5891 83.1743 -177.6087 -3.2174 23.9588 -15.1175 -1.4658 -3.6436 0.7443
0.5104 7.4696 -69.1281 -179.9912 -73.6085 -174.4237 0.7295 8.9857 -1.8945 0.6171 -2.3357 0.7383 -0.7736 12.9645 0.1015 14.5645 8.9356 -5.7631 -7.8913 -4.4830 6.0844 -9.9214 -19.5579 13.0852 0.5245 -0.3114 -0.2121 0.6403 -10.2480 -3.8686 0.3991 -9.5660 3.2177 14.4341 15.3556 -12.9248 -74.0622 16.2846 -40.1294 -1.3206 0.1725 -37.1717 -15.1256 10.9504 8.3606 -15.6124 11.5297 14.9925 -61.5225 2.5318 0.6867 -10.3404 15.8749 18.4339 64.8325 11.7179 12.8120 -3.4934 2.4772 41.2200 -8.3233 6.3509 -34.0726 16.6959 7.7836 -16.7880 50.5644 -3.7253 -5.8231 0.9016 -26.8071 -1.1395 164.0820 87.7531 163.6953 -10.7039 24.1820 -1.8254 1.7424 -2.1743 -1.7002 -24.7419 -32.8924 -13.1604 -175.9766 83.7660 -176.9768 -2.4641 23.7216 -15.5095 -1.4526 -3.2505 0.7161
0.8637 7.2305 -69.1809 -177.7026 -74.1325 -176.9329 0.8857 8.6172 -1.9365 0.6499 -2.4051 0.7391 -0.6790 12.7886 0.0073 14.8494 7.3292 -6.1290 -7.8065 -4.6151 6.2184 -9.8456 -19.4739 13.3451 0.5588 -0.3316 -0.2293 0.6677 -10.2813 -3.8753 0.4418 -9.5385 3.1823 15.2147 15.4725 -13.3899 -74.7900 15.4805 -40.2090 -1.2556 0.3983 -36.5737 -15.8121 10.9758 8.1783 -15.5546 11.4413 14.9472 -61.5889 2.5767 0.6425 -10.1815 15.6757 18.1654 64.7363 13.5816 11.0909 -2.1882 1.9094 39.3064 -7.0277 8.3843 -35.3759 16.8533 7.6551 -16.6770 50.6458 -3.7856 -5.6790 1.1269 -26.5442 -0.1825 91.4346 89.3138 90.9903 -10.1262 26.0151 -0.9474 1.7326 -2.2488 -1.7733 -25.7189 -33.4830 -14.7838 -174.3216 84.7525 -175.3177 -2.1405 23.3808 -16.1059 -1.4565 -3.0416 0.6819
1.2589 6.9591 -69.3050 -175.5528 -74.6102 -179.3182 1.0120 8.2460 -1.9915 0.6947 -2.4647 0.7292 -0.5156 12.5893 -0.0080 14.8455 6.1227 -6.4986 -7.5215 -4.7330 6.3484 -9.7395 -19.5072 13.4531 0.5772 -0.3435 -0.2428 0.6870 -10.3770 -3.9019 0.4595 -9.5757 3.1777 15.7464 15.6810 -13.8230 -75.3567 14.7271 -40.5268 -1.0391 0.5124 -36.0684 -16.6090 10.7863 7.9636 -15.3934 11.3297 14.9013 -61.5677 2.6174 0.6710 -10.2002 15.4835 17.7056 64.9228 15.1976 10.3952 -1.3438 1.4953 37.6240 -5.7773 9.9946 -35.7315 16.9488 7.5401 -16.6582 50.5914 -3.8425 -5.6367 1.4597 -25.8570 0.5830 17.0828 87.4740 16.5983 -9.8237 27.5991 -0.0256 1.7403 -2.2016 -1.8331 -26.5076 -33.8384 -16.6318 -170.4716 86.0428 -171.4763 -2.2348 22.9189 -16.9233 -1.4788 -2.9731 0.6724
1.5939 6.6486 -69.4547 -173.8263 -75.0673 178.6888 1.1340 7.8448 -2.0559 0.7357 -2.5346 0.7185 -0.3521 12.4405 -0.0042 14.7980 5.2342 -6.8006 -7.2009 -4.8161 6.4741 -9.6022 -19.7195 13.4854 0.5836 -0.3624 -0.2627 0.6944 -10.4368 -3.9227 0.4673 -9.5927 3.1571 16.1079 15.9248 -14.1421 -75.7870 13.9236 -40.7764 -0.8495 0.5342 -35.5780 -17.3087 10.5828 7.7410 -15.2512 11.1604 14.8296 -61.4547 2.6230 0.6976 -10.2787 15.2443 17.2859 65.2948 16.5835 10.3805 -0.9282 1.2404 36.4132 -4.7741 11.3077 -35.6936 17.0629 7.4096 -16.6286 50.4759 -3.9314 -5.6232 1.8575 -24.8023 1.3294 8.8466 84.7439 8.3913 -10.0049 29.0105 1.1534 1.7506 -2.1192 -1.8523 -26.9780 -34.1821 -18.7390 -159.7396 87.5409 -160.7993 -2.2725 22.2733 -17.7467 -1.4936 -2.9252 0.6826
1.8886 6.3579 -69.6322 -172.2963 -75.5424 176.9020 1.2672 7.4034 -2.0937 0.8012 -2.6205 0.6879 -0.2527 12.3677 0.0268 14.7703 4.5572 -7.0064 -6.9361 -4.8715 6.5149 -9.3828 -20.0830 13.3966 0.5928 -0.3725 -0.2843 0.7215 -10.4993 -3.9440 0.4605 -9.6154 3.1311 16.3066 16.1426 -14.4260 -76.1128 13.1027 -40.8809 -0.6663 0.5120 -35.0939 -17.8439 10.3047 7.4908 -15.1550 10.9980 14.7915 -61.3835 2.6047 0.7614 -10.3590 15.0269 16.8651 65.7377 17.7093 10.5991 -0.8981 1.0677 35.7171 -3.9869 12.6354 -35.4476 17.2628 7.3087 -16.6270 50.4336 -4.0078 -5.6662 2.3919 -23.5012 2.0566 5.5948 81.2130 5.1937 -10.5180 30.1333 2.4865 1.7423 -2.0023 -1.8730 -27.2446 -34.4642 -21.2538 -101.3543 88.9105 -102.5123 -2.2646 21.6295 -18.6536 -1.4919 -2.8825 0.6616
2.0815 6.1359 -69.8802 -171.6203 -76.1458 175.9834 1.4193 6.9154 -2.0289 0.8170 -2.7733 0.6852 -0.1625 12.3224 0.0964 14.6603 4.0308 -7.0987 -6.5626 -4.9121 6.4101 -9.0970 -20.5448 13.2567 0.6139 -0.3743 -0.3022 0.7564 -10.5767 -3.9642 0.4710 -9.6733 3.1072 16.4253 16.2919 -14.7572 -76.5527 12.2959 -41.0122 -0.5851 0.4428 -34.3992 -18.1308 10.1646 7.0952 -15.1102 10.8631 14.7568 -61.3691 2.6266 0.8277 -10.3711 14.8903 16.5965 66.3217 18.5809 10.9147 -1.1420 0.8718 35.2377 -3.3963 14.0228 -35.1661 17.5229 7.1822 -16.5880 50.4333 -4.0980 -5.7171 3.1077 -21.9471 2.9480 3.7432 76.3469 3.4064 -11.3699 31.0517 4.0827 1.7308 -1.9280 -1.8573 -27.2629 -34.7124 -24.0918 -26.8560 87.2039 -28.1705 -1.6671 20.7538 -19.3077 -1.4414 -2.7118 0.6331
2.1713 5.9152 -70.2179 -171.9999 -76.8934 176.1430 1.6162 6.4205 -1.8819 0.7982 -2.9651 0.7157 -0.0719 12.2306 0.2173 14.6347 3.7265 -7.1082 -6.3322 -4.8991 6.1723 -8.7379 -20.9666 13.0954 0.6402 -0.3732 -0.3108 0.7797 -10.6340 -3.9651 0.5027 -9.7231 3.0810 16.4509 16.2728 -15.1735 -77.2721 11.5966 -41.2824 -0.5550 0.3201 -33.2645 -18.3207 9.9494 6.6349 -15.0051 10.7641 14.7924 -61.2625 2.6565 0.9042 -10.3667 14.7084 16.4808 67.0618 19.2108 10.9572 -1.3918 0.6236 34.6877 -3.2880 15.0915 -34.8751 17.7315 7.0730 -16.5722 50.4081 -4.2264 -5.8050 3.9469 -19.8699 3.7779 2.7021 69.6971 2.4176 -12.2184 31.7425 6.0566 1.7185 -1.9413 -1.7912 -27.1633 -34.9919 -27.1078 -14.0432 84.2084 -15.6361 -0.3611 19.9110 -19.6718 -1.3374 -2.5093 0.5468
2.1766 5.7359 -70.5373 -173.7772 -77.9207 177.6340 1.8582 5.8459 -1.6232 0.7567 -3.1873 0.8148 0.0618 11.9607 0.3725 14.4964 3.6962 -7.0019 -6.0479 -4.8739 5.7140 -8.4456 -21.2269 12.9793 0.6599 -0.3710 -0.3104 0.8037 -10.7141 -3.9617 0.5213 -9.8137 3.0679 16.2738 16.1477 -15.5764 -78.1237 11.0591 -41.7367 -0.5029 0.0995 -31.7566 -18.5346 9.4827 6.3202 -14.8216 10.7229 14.8584 -61.2142 2.7166 0.8907 -10.3672 14.3602 16.3983 67.8797 19.6723 10.6074 -1.3785 0.3218 34.0463 -4.1335 15.6129 -34.7514 17.7607 7.0171 -16.4333 50.4195 -4.3133 -5.7200 4.8452 -17.2189 4.4561 2.0069 60.9143 1.7500 -12.7041 31.7867 7.8201 1.7186 -2.1145 -1.7448 -26.8158 -35.3572 -30.4128 -9.4205 80.9995 -11.4355 1.8617 19.0808 -19.5805 -1.1538 -2.3756 0.3713
2.1781 5.5697 -70.8540 -178.0654 -78.9310 -178.5755 2.2880 5.3487 -1.2953 0.7594 -3.4140 1.0631 0.1309 11.5176 0.4787 14.1441 3.7646 -6.8260 -6.0011 -4.8043 5.1903 -7.6423 -21.4606 12.3406 0.6527 -0.3211 -0.2950 0.8510 -10.8042 -3.9474 0.4622 -9.9541 3.0910 16.0728 15.8750 -15.9569 -79.1335 10.8067 -42.2925 -0.6775 -0.1237 -30.0850 -18.7181 8.6361 5.9481 -14.8112 10.9615 14.9653 -61.3197 2.6190 0.7202 -10.3918 14.3775 16.8219 68.9228 19.6852 9.8008 -1.0169 0.2394 33.1412 -5.9419 14.7841 -34.7624 17.3974 7.1827 -16.4025 50.3802 -4.2759 -5.4135 5.8125 -13.4241 4.6543 1.6318 50.0820 1.2815 -12.4037 30.6980 9.8622 1.6744 -2.3669 -1.7555 -25.9347 -35.6762 -33.6488 -8.0582 78.1926 -10.5071 6.7380 18.3265 -19.2034 -0.8527 -2.0541 0.2597
2.1464 5.4049 -71.1949 175.5620 -80.0312 -172.7296 2.7602 4.5914 -0.9363 0.9003 -3.7500 1.2532 0.0056 11.4037 0.8053 14.1927 4.2847 -6.6356 -5.8403 -4.8245 4.9126 -7.0143 -21.5612 12.0107 0.6577 -0.2866 -0.2851 0.8627 -10.8872 -3.9498 0.4635 -9.9914 3.1059 15.9019 15.7718 -15.8177 -79.6678 10.3642 -42.5664 -0.8312 -0.2760 -28.9203 -19.0919 7.7513 5.8094 -14.6763 11.0968 15.1553 -61.5306 2.5208 0.6573 -10.5615 14.3149 17.1767 70.1554 19.6699 9.2066 -0.8881 -0.0186 32.1306 -7.2512 14.0087 -34.7946 17.2085 7.2332 -16.3036 50.2964 -4.3396 -5.4120 6.7542 -9.6246 4.9031 1.1922 39.2628 1.0110 -11.5549 28.5840 10.9832 1.6708 -2.9202 -1.8415 -24.9520 -36.7779 -36.5690 -7.2556 76.7798 -10.2051 9.8299 17.8244 -18.8199 -0.5875 -2.0942 0.1700
2.0970 5.3608 -71.4580 167.5913 -80.8681 -165.1487 3.2057 3.9715 -0.6245 1.0214 -3.9961 1.4924 -0.2265 11.1426 1.1492 14.3465 4.8543 -6.3766 -5.5748 -4.8845 4.7508 -6.8447 -21.4061 11.8392 0.6720 -0.2618 -0.2802 0.8566 -10.9027 -3.9512 0.5016 -9.9808 3.1083 15.6661 15.4460 -15.4155 -80.0672 10.5345 -42.9052 -0.8727 -0.4458 -28.5455 -19.6197 7.2595 5.6359 -14.7344 11.3453 15.3477 -62.1553 2.5605 0.4598 -10.7191 14.3376 17.7326 71.2712 19.6334 8.6874 -0.9133 -0.3172 31.3135 -8.1292 13.5806 -35.0057 17.0815 7.2278 -16.2699 50.3105 -4.3584 -5.4276 7.4965 -6.5290 5.7296 0.9350 30.5389 0.8988 -10.9874 26.4981 12.0337 1.6582 -3.3596 -1.9154 -24.0206 -37.8465 -38.8574 -6.6090 75.9264 -9.9551 12.1310 17.5009 -18.0677 -0.4110 -2.0858 0.0994
2.0977 5.4676 -71.6886 159.4540 -81.3660 -157.2799 3.5280 3.5499 -0.3913 1.1858 -4.1752 1.7230 -0.4793 10.8533 1.4923 14.4175 5.3842 -6.1283 -5.3981 -4.9519 4.6969 -6.7019 -21.2497 11.5851 0.6736 -0.2450 -0.2704 0.8337 -10.8846 -3.9387 0.5283 -9.9598 3.1153 15.4295 15.1257 -14.8573 -80.2997 10.9382 -43.4080 -0.7254 -0.5988 -28.6267 -20.2014 6.8755 5.4576 -14.8190 11.4933 15.4835 -62.6468 2.5893 0.2528 -10.9034 14.4054 18.2834 72.1856 19.5871 8.2605 -0.9883 -0.5675 30.7390 -8.7962 13.4591 -35.2531 17.0029 7.2047 -16.2130 50.3676 -4.3455 -5.4846 8.0466 -4.2202 6.9120 0.8208 24.1908 0.8960 -10.6570 24.9675 13.2997 1.6566 -3.6752 -1.9662 -23.3037 -38.7911 -40.6201 -6.1151 75.4340 -9.7594 13.9361 17.2654 -17.1158 -0.3172 -2.0785 0.0624
2.1797 5.4977 -71.8326 150.7637 -81.5625 -148.5753 3.6346 3.1891 -0.2080 1.1683 -4.4841 2.0013 -0.5744 10.7938 1.8714 14.5884 5.8672 -5.9063 -5.1725 -5.0726 4.6505 -6.7758 -21.0335 11.5138 0.6812 -0.2743 -0.2628 0.8529 -11.0619 -3.9612 0.5258 -10.1216 3.1517 15.5804 14.7505 -14.1071 -80.5770 11.0456 -43.7964 -1.0219 -0.9664 -28.6989 -20.3569 6.7544 5.2271 -14.8282 11.4798 15.4098 -62.8033 2.5351 0.1331 -11.1011 14.7249 18.9827 72.8231 19.2802 7.5869 -1.0097 -0.8752 30.0368 -9.5600 13.6278 -35.3219 16.9959 7.1704 -16.0635 50.7053 -4.1848 -5.4375 8.2056 -2.8295 8.6959 0.9179 20.2183 1.0097 -10.2576 24.5416 15.3562 1.5922 -4.0285 -1.9823 -22.8115 -40.0142 -41.6843 -6.3872 75.2929 -10.3125 15.3958 17.4912 -16.1501 -0.3342 -2.0124 -0.0012
2.2326 5.4665 -72.0716 145.1997 -81.7389 -143.0815 3.7624 2.9257 -0.1019 1.2740 -4.6083 2.1594 -0.7483 10.6659 2.1122 14.7389 6.3559 -5.6575 -5.1026 -5.0903 4.5777 -6.5348 -20.8941 11.2221 0.6425 -0.2600 -0.2423 0.7986 -11.0084 -3.9234 0.5035 -10.0555 3.1686 15.4074 14.5803 -13.3919 -80.3258 11.4295 -44.3943 -0.9420 -1.1893 -29.1038 -20.7890 6.4775 5.0982 -14.9289 11.4894 15.4050 -63.0642 2.4875 0.0466 -11.1476 14.8079 19.3143 73.1957 19.3187 7.4740 -0.9473 -1.0598 29.8119 -10.1867 13.3750 -35.3995 17.0952 7.2145 -16.0990 50.8450 -4.1927 -5.5763 8.4082 -2.1342 10.0754 0.8164 17.6091 1.0960 -9.8165 24.0257 16.9797 1.5216 -4.1026 -1.9632 -22.3768 -40.7425 -42.6441 -6.2977 75.0602 -10.4020 16.4702 17.6574 -15.3971 -0.3211 -2.0739 -0.0192
2.3184 5.3837 -72.2021 141.2620 -81.8337 -139.1884 3.8450 2.7398 -0.0331 1.3541 -4.6847 2.2848 -0.8634 10.5289 2.2758 14.7661 6.7524 -5.3729 -5.0779 -5.0980 4.4692 -6.2838 -20.8214 10.8815 0.5981 -0.2456 -0.2235 0.7505 -10.9773 -3.8935 0.4624 -10.0230 3.1928 15.2269 14.4552 -12.7581 -79.9839 11.7196 -44.8679 -0.9019 -1.3117 -29.4428 -21.1523 6.2857 4.9936 -15.0215 11.5138 15.3742 -63.3538 2.4697 -0.0525 -11.1564 14.7588 19.6412 73.3153 19.4803 7.1927 -0.7522 -1.2361 29.7054 -10.7801 13.1884 -35.5106 17.1333 7.2723 -16.1203 50.9946 -4.1743 -5.6774 8.5265 -1.8153 11.4191 0.7422 16.0200 1.2064 -9.2994 23.7584 18.1038 1.4663 -4.0690 -1.9354 -22.1629 -41.3629 -43.3743 -6.2839 74.9570 -10.5655 17.2491 17.9045 -14.7294 -0.3131 -2.0573 -0.0513
2.3658 5.2803 -72.3608 138.3136 -81.9027 -136.2407 3.8881 2.6246 0.0080 1.3796 -4.7371 2.4154 -0.8991 10.3564 2.3788 14.7472 7.0185 -5.1577 -5.0439 -5.1120 4.3412 -6.0332 -20.7353 10.6001 0.5666 -0.2432 -0.2133 0.7156 -10.9546 -3.8727 0.4348 -10.0002 3.2054 15.0478 14.2583 -12.2071 -79.8050 12.0007 -45.4236 -0.7474 -1.3218 -29.5888 -21.4299 6.0357 4.8677 -15.0525 11.5599 15.3930 -63.5515 2.4864 -0.1543 -11.1565 14.6650 19.8518 73.3121 19.6873 7.0239 -0.5340 -1.3581 29.4846 -11.2089 13.0056 -35.4662 17.1644 7.2961 -16.1643 51.0415 -4.2138 -5.6911 8.5421 -1.6692 12.6991 0.6813 14.8828 1.3202 -8.4946 23.4349 19.0637 1.4234 -4.0410 -1.9076 -22.0170 -41.9265 -44.0077 -6.2432 74.8792 -10.7017 17.8947 18.1535 -14.1857 -0.3224 -2.0642 -0.0809
2.4718 5.1443 -72.4598 136.2967 -82.0818 -134.2603 3.9130 2.4180 0.0375 1.4384 -4.7715 2.4599 -0.8431 10.2354 2.4538 14.6412 7.0689 -4.9199 -4.8211 -5.1831 3.9517 -5.8765 -20.6369 10.3971 0.5439 -0.2791 -0.2219 0.7090 -10.9778 -3.8644 0.3970 -10.0357 3.1888 14.7011 14.3717 -11.8218 -79.3192 12.0470 -46.1220 -0.5053 -1.2943 -29.6019 -21.7443 5.5483 4.8151 -14.8562 11.6834 15.3998 -64.0077 2.5177 -0.3116 -11.2675 14.3664 19.9173 73.4008 20.2414 7.4625 -0.4379 -1.1733 29.3314 -11.2159 12.3417 -35.5422 17.0525 7.2918 -16.0412 50.8999 -4.1979 -5.6691 8.5603 -1.8842 13.6287 0.6420 14.4700 1.4438 -6.9996 22.4333 20.5946 1.3343 -3.8909 -1.7791 -21.7579 -42.3411 -44.7338 -6.4555 74.6039 -11.0423 18.4265 18.6903 -13.6589 -0.2537 -2.0623 -0.1288
2.6212 5.0685 -72.5533 135.1357 -82.1646 -133.1188 3.9981 2.3489 0.0602 1.4471 -4.8059 2.5209 -0.8815 10.1144 2.4954 14.6884 7.1351 -4.8427 -4.8605 -5.1798 3.8967 -5.7592 -20.5538 10.2233 0.5255 -0.2754 -0.2178 0.6887 -10.9492 -3.8505 0.3813 -10.0229 3.1928 14.5127 14.2707 -11.5328 -79.1996 12.3372 -46.9611 -0.2621 -1.2528 -29.5957 -21.8404 4.9914 4.6670 -14.8942 11.7154 15.4328 -64.1891 2.5421 -0.3438 -11.2674 14.2970 19.9744 73.3945 20.5161 7.7876 -0.3806 -1.2509 29.1610 -11.2879 11.9594 -35.4555 16.9755 7.2301 -15.9843 50.7475 -4.1679 -5.6745 8.5234 -1.9332 14.7287 0.6211 13.8367 1.5794 -6.2956 21.7523 21.2662 1.2989 -3.8067 -1.7503 -21.7141 -42.6494 -45.1704 -6.3915 74.4355 -11.0502 18.8251 19.1023 -13.3954 -0.2715 -2.0460 -0.1507
2.7539 5.0657 -72.5517 134.3053 -82.2550 -132.3095 4.0643 2.3307 0.0922 1.4703 -4.8426 2.5483 -0.8636 10.0000 2.5247 14.7146 7.1617 -4.7932 -4.8555 -5.1860 3.8341 -5.7325 -20.5636 10.1408 0.5261 -0.2715 -0.2193 0.6910 -10.9188 -3.8491 0.3811 -9.9956 3.1896 14.3316 14.1693 -11.3102 -79.1308 12.5596 -47.8133 0.0103 -1.2108 -29.5488 -21.9240 4.6255 4.4680 -14.9076 11.7407 15.4410 -64.2363 2.5503 -0.3345 -11.3137 14.2386 19.9707 73.3709 20.7797 8.2243 -0.4100 -1.3449 28.9981 -11.3279 11.6365 -35.3158 16.8831 7.1999 -15.9247 50.5900 -4.1769 -5.6340 8.4781 -2.0382 15.7154 0.6160 13.4585 1.7227 -5.7007 21.2886 21.8025 1.2849 -3.6780 -1.7280 -21.6923 -42.9628 -45.5712 -6.3878 74.2907 -11.1329 19.0803 19.5376 -13.1702 -0.2886 -2.0580 -0.1670
2.8887 5.0277 -72.5973 133.6257 -82.3500 -131.6546 4.0974 2.3100 0.1294 1.4831 -4.8651 2.5709 -0.8042 9.8935 2.5392 14.6683 7.1238 -4.7692 -4.8470 -5.1943 3.7940 -5.7543 -20.6204 10.1240 0.5198 -0.2666 -0.2180 0.6848 -10.8558 -3.8365 0.3747 -9.9415 3.1835 14.1845 14.1131 -11.1206 -79.0577 12.7449 -48.5877 0.2578 -1.1710 -29.4918 -22.0052 4.3653 4.3560 -14.8880 11.7515 15.4628 -64.2024 2.5628 -0.3005 -11.3570 14.1366 19.9122 73.3447 21.0442 8.7106 -0.4848 -1.4296 28.7974 -11.3524 11.4294 -35.1283 16.8655 7.1846 -15.8715 50.5292 -4.1523 -5.6551 8.4300 -2.1726 16.5800 0.6199 13.1804 1.8599 -5.1599 20.8691 22.3297 1.2762 -3.5546 -1.7068 -21.6681 -43.2124 -45.9050 -6.3140 74.0858 -11.1318 19.2571 20.0188 -13.0162 -0.2999 -2.0797 -0.1840
3.0199 4.9990 -72.5634 132.8826 -82.4509 -130.9541 4.1239 2.2740 0.1616 1.4991 -4.8842 2.5807 -0.7319 9.7808 2.5498 14.5941 7.0545 -4.7820 -4.8699 -5.1978 3.7892 -5.7798 -20.6784 10.1264 0.5176 -0.2632 -0.2186 0.6817 -10.7861 -3.8242 0.3730 -9.8827 3.1729 14.0391 14.0868 -10.9725 -78.9229 12.8694 -49.2131 0.3727 -1.1930 -29.4048 -22.0380 4.2047 4.2815 -14.8559 11.7649 15.4897 -64.2051 2.5692 -0.2764 -11.3729 14.0093 19.8412 73.2708 21.3270 9.1733 -0.5483 -1.5385 28.6503 -11.4765 11.3314 -34.9469 16.8254 7.1754 -15.8213 50.4729 -4.1418 -5.6870 8.3702 -2.3677 17.3631 0.6414 13.0193 2.0003 -4.6982 20.3909 22.7980 1.2708 -3.4316 -1.6846 -21.6267 -43.4484 -46.1781 -6.2321 73.9120 -11.1225 19.4159 20.4429 -12.8785 -0.2988 -2.0513 -0.1992
3.1387 4.9674 -72.5289 131.8746 -82.5606 -129.9467 4.1157 2.2420 0.1959 1.5320 -4.9157 2.5910 -0.6764 9.6972 2.5614 14.5138 6.9915 -4.7851 -4.9427 -5.1947 3.8323 -5.8113 -20.7856 10.1511 0.5089 -0.2643 -0.2174 0.6808 -10.7347 -3.8177 0.3577 -9.8325 3.1730 13.9552 14.0221 -10.8612 -78.8508 12.9904 -49.6803 0.4481 -1.1515 -29.3658 -22.0639 4.0762 4.3106 -14.8074 11.7311 15.4769 -64.1070 2.5853 -0.2303 -11.3905 13.8905 19.7585 73.2197 21.6114 9.6031 -0.6662 -1.5884 28.5511 -11.5754 11.3425 -34.7969 16.7745 7.1806 -15.8154 50.4010 -4.1373 -5.7272 8.3015 -2.6008 18.0975 0.6720 12.9358 2.1285 -4.3178 20.0720 23.1661 1.2649 -3.3245 -1.6680 -21.5374 -43.7166 -46.4438 -6.1426 73.7475 -11.0783 19.6330 20.8191 -12.7342 -0.2986 -2.0435 -0.2081
3.2245 4.9505 -72.4658 131.2413 -82.5758 -129.2970 4.1642 2.2947 0.2159 1.5208 -4.9503 2.6581 -0.7092 9.5971 2.5357 14.5348 6.9241 -4.8708 -5.2450 -5.1421 4.0896 -5.7790 -20.8868 10.1624 0.4945 -0.2320 -0.2012 0.6646 -10.6875 -3.8103 0.3442 -9.7869 3.2060 13.9961 13.7050 -10.7919 -79.0880 13.2516 -50.0201 0.3309 -1.2323 -29.2676 -21.7905 3.9686 4.2559 -14.9266 11.6637 15.4438 -63.7040 2.5673 -0.2498 -11.3605 14.0415 19.7258 72.9982 21.4922 9.3806 -0.6375 -1.8122 28.4601 -12.0238 11.6977 -34.5380 16.7774 7.1609 -15.8675 50.4465 -4.1729 -5.7440 8.2304 -2.5165 18.8296 0.6498 12.3844 2.1873 -4.3569 20.4635 22.9433 1.3427 -3.3409 -1.7500 -21.6775 -44.0159 -46.4058 -6.0024 73.8123 -10.9579 19.8118 20.9039 -12.6393 -0.3774 -2.0075 -0.1849
3.3150 4.9176 -72.4329 130.5937 -82.7182 -128.6981 4.0933 2.1921 0.2352 1.6201 -4.9341 2.6193 -0.6280 9.5255 2.5372 14.3734 6.8005 -4.7366 -5.0511 -5.2174 3.8790 -5.9709 -20.9671 10.2282 0.4984 -0.2677 -0.2204 0.6820 -10.7109 -3.8254 0.3358 -9.8048 3.1792 13.7504 13.9385 -10.6693 -78.6675 13.2339 -50.4553 0.5152 -1.1964 -29.1845 -21.9836 3.6479 4.3081 -14.7015 11.8188 15.5015 -63.9107 2.6104 -0.3163 -11.3600 13.6902 19.5263 72.9410 21.9495 10.0798 -0.7880 -1.6337 28.2198 -11.9336 11.4381 -34.5852 16.6838 7.2030 -15.7957 50.4175 -4.1369 -5.7354 8.1755 -2.9108 19.0423 0.6606 12.8973 2.2913 -3.6341 19.5271 23.8380 1.2412 -3.1134 -1.6422 -21.4702 -44.1082 -46.6911 -6.0052 73.5006 -11.0004 19.9290 21.3563 -12.5500 -0.3031 -2.0368 -0.2129
3.4001 4.9394 -72.4213 129.8828 -82.7774 -127.9941 4.1110 2.1155 0.2487 1.6716 -4.9193 2.6267 -0.6696 9.5018 2.5139 14.3484 6.7699 -4.7129 -5.1966 -5.2162 3.9192 -6.0007 -21.0770 10.2148 0.4773 -0.2628 -0.2192 0.6654 -10.6845 -3.8169 0.3088 -9.7899 3.1833 13.6940 13.9746 -10.5709 -78.5578 13.2522 -50.6910 0.5227 -1.2266 -29.0052 -21.9124 3.3719 4.3316 -14.7020 11.8327 15.5511 -63.9473 2.5873 -0.3016 -11.3976 13.6681 19.3959 72.7953 21.9395 10.1411 -0.8793 -1.5687 28.0556 -12.0396 11.5483 -34.5098 16.6168 7.1819 -15.7111 50.4378 -4.0772 -5.7091 8.0907 -3.0578 19.3935 0.6320 12.9257 2.3469 -3.3440 18.9971 24.1784 1.2236 -3.0053 -1.6378 -21.4652 -44.2819 -46.7438 -5.8970 73.4357 -10.8988 20.0618 21.4750 -12.5288 -0.3146 -2.0620 -0.2142
3.4184 4.9254 -72.3796 129.1848 -82.8288 -127.3225 4.1196 2.0773 0.2639 1.7114 -4.9256 2.6347 -0.6708 9.4604 2.4875 14.2791 6.7573 -4.6588 -5.2526 -5.2221 3.9319 -6.0190 -21.1697 10.2030 0.4638 -0.2581 -0.2205 0.6559 -10.6708 -3.8136 0.2911 -9.7773 3.1827 13.6292 13.9344 -10.4553 -78.4352 13.2711 -50.8365 0.4653 -1.2623 -28.8438 -21.8683 3.3079 4.2809 -14.6989 11.8208 15.5542 -63.8805 2.5773 -0.3147 -11.3797 13.6427 19.2454 72.5392 21.9288 10.1241 -0.9255 -1.5533 27.9357 -12.2149 11.6602 -34.3928 16.6131 7.1742 -15.6713 50.5008 -4.0480 -5.6722 8.0228 -3.2185 19.7002 0.5971 12.9917 2.3914 -3.0361 18.6628 24.4195 1.1991 -2.9058 -1.6338 -21.4361 -44.4559 -46.8070 -5.8054 73.4143 -10.7987 20.1112 21.6689 -12.4707 -0.3247 -2.0843 -0.2118
3.4640 4.9433 -72.4168 128.4104 -82.8714 -126.5625 4.0938 2.0524 0.2787 1.7424 -4.9211 2.6359 -0.6472 9.3942 2.4586 14.1891 6.7880 -4.6001 -5.3207 -5.2182 3.9641 -5.9933 -21.2954 10.1566 0.4481 -0.2518 -0.2200 0.6456 -10.6731 -3.8109 0.2692 -9.7790 3.1875 13.5380 13.8448 -10.3467 -78.4067 13.3602 -50.9570 0.4287 -1.2622 -28.7471 -21.8398 3.2120 4.3273 -14.7483 11.7758 15.5465 -63.8515 2.5788 -0.2958 -11.3846 13.5837 19.1230 72.2844 21.9093 10.0499 -0.9698 -1.5402 27.8085 -12.3334 11.8024 -34.2547 16.6179 7.1631 -15.6468 50.5616 -4.0406 -5.6360 7.9469 -3.4015 19.9310 0.5709 13.1519 2.4174 -2.8084 18.4104 24.6047 1.1776 -2.7994 -1.6175 -21.4233 -44.6347 -46.8423 -5.7398 73.4093 -10.7489 20.0897 21.8194 -12.4581 -0.3232 -2.0892 -0.2207
3.5127 4.9302 -72.4314 127.5973 -82.9117 -125.7783 4.0759 2.0136 0.2749 1.7530 -4.9282 2.6333 -0.6204 9.3306 2.4245 14.0856 6.8150 -4.5367 -5.3422 -5.2149 3.9994 -5.9285 -21.3203 10.1404 0.4357 -0.2483 -0.2200 0.6419 -10.6749 -3.8140 0.2472 -9.7740 3.1958 13.4558 13.7814 -10.2546 -78.3674 13.4656 -51.0043 0.3592 -1.2416 -28.6450 -21.7458 3.1479 4.3458 -14.7608 11.7710 15.5375 -63.8372 2.5938 -0.2902 -11.3694 13.5061 19.0312 71.9790 21.8253 9.8741 -0.9669 -1.5550 27.6024 -12.4100 11.9442 -34.0164 16.6102 7.1486 -15.6036 50.5471 -4.0456 -5.6191 7.8652 -3.5761 20.0875 0.5525 13.3037 2.4298 -2.6731 18.1582 24.7539 1.1756 -2.7803 -1.6072 -21.3749 -44.7815 -46.9107 -5.7157 73.3654 -10.7718 20.0749 21.9424 -12.4633 -0.3309 -2.0439 -0.2391
3.4964 4.9059 -72.3355 126.9556 -82.9382 -125.1350 4.0569 1.9891 0.2774 1.7009 -4.9291 2.6239 -0.5595 9.2661 2.3905 13.9229 6.8195 -4.4987 -5.3134 -5.2095 4.0683 -5.9020 -21.2510 10.1185 0.4300 -0.2481 -0.2180 0.6401 -10.6784 -3.8157 0.2385 -9.7768 3.2039 13.3879 13.7101 -10.1502 -78.3783 13.5464 -51.0758 0.2951 -1.1438 -28.5583 -21.7370 2.9951 4.3741 -14.7077 11.7227 15.5089 -63.7518 2.5886 -0.2610 -11.3240 13.3942 18.9531 71.6470 21.7788 9.7172 -0.9442 -1.5595 27.3979 -12.4094 12.1087 -33.8246 16.5914 7.1271 -15.5665 50.5403 -4.0249 -5.6364 7.7726 -3.7129 20.2288 0.5554 13.4507 2.4583 -2.5280 17.9002 24.7796 1.1705 -2.7927 -1.5965 -21.3539 -44.9209 -46.9452 -5.6634 73.2871 -10.7528 20.0672 22.0473 -12.5058 -0.3296 -1.9964 -0.2496
3.5066 4.9097 -72.2793 126.2218 -82.9585 -124.3574 3.9746 1.9626 0.2916 1.7232 -4.9405 2.5977 -0.5601 9.1907 2.3609 13.7881 6.7876 -4.4835 -5.2968 -5.2095 4.1459 -5.8999 -21.0890 10.1367 0.4193 -0.2461 -0.2121 0.6314 -10.6409 -3.8037 0.2237 -9.7424 3.2100 13.3097 13.6737 -10.0713 -78.4157 13.6453 -51.1233 0.3173 -1.1187 -28.4575 -21.7228 2.8225 4.3976 -14.6479 11.6863 15.4667 -63.7137 2.6076 -0.2458 -11.2535 13.2679 18.8712 71.3289 21.7504 9.5616 -0.9903 -1.5183 27.2115 -12.3497 12.2541 -33.6596 16.5391 7.1334 -15.5456 50.5005 -4.0278 -5.6014 7.6937 -3.8374 20.3779 0.5608 13.5724 2.4761 -2.4430 17.7338 24.7770 1.1875 -2.8145 -1.6057 -21.3258 -45.0540 -47.0051 -5.5871 73.1615 -10.7097 20.0495 22.1151 -12.4811 -0.3451 -1.9695 -0.2612
3.5343 4.9156 -72.1551 125.3959 -82.9770 -123.5461 3.9316 1.9238 0.3144 1.7039 -4.9443 2.5826 -0.5240 9.1009 2.3498 13.6117 6.7512 -4.5024 -5.2447 -5.1988 4.1851 -5.8764 -20.9274 10.1194 0.4077 -0.2441 -0.2044 0.6271 -10.6268 -3.7978 0.2043 -9.7341 3.2248 13.2331 13.6454 -10.0054 -78.4050 13.7633 -51.1496 0.2840 -1.0802 -28.3572 -21.7511 2.6584 4.3508 -14.5210 11.6683 15.4838 -63.5608 2.5865 -0.2236 -11.2123 13.1472 18.7751 71.0761 21.7227 9.5086 -1.0039 -1.4897 27.0085 -12.2908 12.3403 -33.5016 16.4521 7.1461 -15.4880 50.4557 -4.0196 -5.5387 7.6364 -3.9449 20.5241 0.5814 13.6064 2.5030 -2.2882 17.6285 24.7009 1.2209 -2.8027 -1.6119 -21.2755 -45.1835 -47.0656 -5.4808 73.0551 -10.6317 20.0505 22.2354 -12.4531 -0.3619 -1.9426 -0.2678
3.6204 4.9433 -72.0121 124.6334 -83.0193 -122.7934 3.8885 1.8746 0.3110 1.7056 -4.9436 2.5690 -0.5242 9.0303 2.3386 13.4949 6.6758 -4.5018 -5.2302 -5.1872 4.1894 -5.7889 -20.7429 10.0545 0.3952 -0.2430 -0.1954 0.6221 -10.6057 -3.7845 0.1837 -9.7145 3.2344 13.1912 13.6643 -9.9339 -78.3690 13.8495 -51.0967 0.2374 -1.1013 -28.2743 -21.8410 2.6297 4.3375 -14.4644 11.6395 15.4775 -63.4669 2.5834 -0.2542 -11.1747 13.0337 18.6543 70.8614 21.7240 9.5489 -1.0459 -1.4254 26.8619 -12.2068 12.4022 -33.3929 16.4031 7.1809 -15.4536 50.4569 -3.9769 -5.4724 7.5669 -4.0310 20.6253 0.5882 13.6235 2.5308 -2.1287 17.5483 24.5982 1.2567 -2.7844 -1.6173 -21.2427 -45.3216 -47.1478 -5.3476 73.0094 -10.5110 20.1005 22.3392 -12.3602 -0.3654 -1.9530 -0.2648
3.6180 4.9878 -71.9434 123.6869 -83.0785 -121.8684 3.8370 1.8084 0.3063 1.7481 -4.9502 2.5497 -0.5478 8.9587 2.3085 13.3834 6.5750 -4.4576 -5.1924 -5.1626 4.1644 -5.6722 -20.5649 9.9676 0.3861 -0.2404 -0.1881 0.6211 -10.5725 -3.7714 0.1656 -9.6835 3.2388 13.1753 13.6581 -9.8530 -78.3639 13.9598 -51.0336 0.1721 -1.1194 -28.2480 -21.8653 2.6387 4.3095 -14.4495 11.6331 15.4855 -63.4133 2.5771 -0.3137 -11.1636 12.9677 18.5680 70.6937 21.6926 9.5789 -1.0889 -1.3193 26.7392 -12.1159 12.4058 -33.2945 16.4105 7.1665 -15.4045 50.4231 -3.9692 -5.4555 7.5357 -4.1331 20.7264 0.5916 13.6080 2.5589 -1.9814 17.4585 24.5489 1.2821 -2.7280 -1.6179 -21.1363 -45.4351 -47.2819 -5.2393 72.9196 -10.4120 20.1894 22.5038 -12.2816 -0.3716 -1.9469 -0.2591
3.5944 5.0195 -71.8322 122.8603 -83.1387 -121.0744 3.8391 1.7512 0.2800 1.7586 -4.9666 2.5339 -0.5829 8.8809 2.2797 13.3662 6.4826 -4.3346 -5.1527 -5.1443 4.0804 -5.5149 -20.3891 9.8579 0.3838 -0.2438 -0.1849 0.6276 -10.5475 -3.7607 0.1541 -9.6444 3.2342 13.1551 13.6318 -9.7646 -78.3345 14.1090 -50.8558 0.0498 -1.2117 -28.2569 -21.8161 2.7280 4.3495 -14.4716 11.6297 15.4922 -63.4012 2.5791 -0.3637 -11.1116 12.8959 18.5147 70.4927 21.6867 9.5848 -1.0948 -1.2542 26.6188 -12.0553 12.3946 -33.1735 16.4251 7.1736 -15.3484 50.4891 -3.9262 -5.4053 7.5388 -4.2260 20.7154 0.6169 13.6353 2.5811 -1.9125 17.3850 24.5288 1.3097 -2.7405 -1.6258 -21.0730 -45.5136 -47.3655 -5.0722 72.8613 -10.2661 20.2874 22.6232 -12.2018 -0.3712 -1.9345 -0.2524
3.6108 5.0750 -71.7505 122.1290 -83.1946 -120.3600 3.8259 1.7137 0.2556 1.8014 -4.9662 2.5112 -0.6483 8.7931 2.2473 13.3898 6.3393 -4.2220 -5.0924 -5.1201 3.9835 -5.3423 -20.2200 9.7642 0.3888 -0.2457 -0.1857 0.6431 -10.5352 -3.7575 0.1486 -9.6104 3.2263 13.1695 13.6031 -9.6567 -78.3140 14.2207 -50.5965 -0.1198 -1.2546 -28.3057 -21.7583 2.7278 4.4784 -14.4920 11.5852 15.4710 -63.3383 2.5766 -0.4170 -11.0800 12.8272 18.4427 70.3735 21.6994 9.7339 -1.2033 -1.1681 26.4941 -11.8547 12.3489 -33.1323 16.4413 7.1455 -15.3223 50.4626 -3.9526 -5.3730 7.5337 -4.3040 20.6430 0.6181 13.6955 2.5649 -1.9198 17.3705 24.5737 1.3326 -2.7535 -1.6187 -21.0258 -45.5680 -47.4267 -4.9481 72.8015 -10.1509 20.4453 22.7800 -12.1214 -0.3617 -1.9583 -0.2385
3.6057 5.1293 -71.6604 121.7684 -83.2151 -120.0027 3.8053 1.6825 0.2150 1.8435 -4.9491 2.4816 -0.7026 8.7241 2.2239 13.3671 6.1607 -4.0733 -4.9916 -5.1039 3.8656 -5.0735 -20.0963 9.6460 0.3871 -0.2464 -0.1861 0.6576 -10.5519 -3.7602 0.1293 -9.5890 3.2264 13.2013 13.5731 -9.5357 -78.3191 14.3266 -50.3313 -0.2538 -1.3267 -28.3668 -21.7625 2.7646 4.5368 -14.6024 11.6226 15.5010 -63.3800 2.5981 -0.4052 -11.0878 12.7751 18.4049 70.3343 21.7172 9.9863 -1.3334 -1.1154 26.3448 -11.6629 12.1869 -33.1349 16.4930 7.1019 -15.2811 50.4798 -3.9658 -5.3283 7.5729 -4.3292 20.4737 0.5869 13.8126 2.5055 -2.0057 17.3499 24.6618 1.3648 -2.7889 -1.6033 -21.0479 -45.5669 -47.4319 -4.7780 72.6804 -9.9740 20.5312 22.9158 -12.0586 -0.3426 -1.9886 -0.2275
3.6157 5.2049 -71.5777 121.6265 -83.2445 -119.8432 3.8428 1.6584 0.1674 1.8109 -4.9302 2.4421 -0.7550 8.7120 2.2155 13.3400 5.9140 -3.9615 -4.9154 -5.1029 3.7694 -4.7720 -20.0619 9.5845 0.3700 -0.2511 -0.1852 0.6550 -10.5782 -3.7547 0.0987 -9.5737 3.2269 13.3263 13.5708 -9.3694 -78.3086 14.3304 -50.1059 -0.4103 -1.4278 -28.4225 -21.7486 2.9379 4.6663 -14.7044 11.6195 15.4826 -63.4017 2.6488 -0.3398 -11.0838 12.7499 18.3900 70.3265 21.6505 10.1189 -1.4825 -1.0448 26.1969 -11.5216 12.1876 -33.2541 16.6220 7.0369 -15.2501 50.4824 -3.9753 -5.2985 7.6017 -4.3445 20.1815 0.5291 13.9952 2.4007 -2.1037 17.3674 24.8701 1.3997 -2.8568 -1.5831 -21.1048 -45.4834 -47.3713 -4.6562 72.5304 -9.8379 20.6519 22.9621 -12.0134 -0.3247 -2.0828 -0.2223
3.6700 5.2461 -71.4573 121.5664 -83.2929 -119.7556 3.8121 1.6240 0.0775 1.8057 -4.9577 2.3814 -0.7887 8.7372 2.1869 13.3026 5.6336 -3.7496 -4.8622 -5.1037 3.5946 -4.6016 -20.0801 9.6419 0.3297 -0.2575 -0.1763 0.6334 -10.6440 -3.7529 0.0371 -9.5906 3.2556 13.4245 13.5300 -9.1774 -78.3114 14.4101 -49.9538 -0.5573 -1.5509 -28.5158 -21.7455 3.1463 4.7937 -14.8127 11.6562 15.4976 -63.4216 2.6350 -0.1877 -11.1544 12.8922 18.4262 70.3423 21.3740 10.1671 -1.6168 -0.9700 26.1320 -11.4530 12.2116 -33.5916 16.7817 7.0184 -15.2701 50.5504 -3.9586 -5.2540 7.6527 -4.3946 19.8453 0.4767 14.2341 2.2521 -2.2470 17.5059 25.0893 1.4528 -2.9973 -1.5401 -21.1297 -45.4365 -47.1774 -4.5926 72.4281 -9.7054 20.7916 22.9490 -12.0653 -0.3145 -2.2407 -0.2101
