HIERARCHY
ROOT Hips
{
	OFFSET 0.0000 0.0000 0.0000
	CHANNELS 6 Xposition Yposition Zposition Zrotation Xrotation Yrotation
	JOINT Spine1
	{
		OFFSET -0.0137 5.0038 -0.0537
		CHANNELS 3 Zrotation Xrotation Yrotation
		JOINT Spine2
		{
			OFFSET -0.0000 7.1253 -0.0298
			CHANNELS 3 Zrotation Xrotation Yrotation
			JOINT Chest
			{
				OFFSET -0.0000 7.5501 -0.8160
				CHANNELS 3 Zrotation Xrotation Yrotation
				JOINT Neck1
				{
					OFFSET -0.1817 26.3113 -0.5533
					CHANNELS 3 Zrotation Xrotation Yrotation
					JOINT Neck2
					{
						OFFSET -0.0000 7.7094 2.3026
						CHANNELS 3 Zrotation Xrotation Yrotation
						JOINT Head
						{
							OFFSET -0.0000 6.1289 1.9537
							CHANNELS 3 Zrotation Xrotation Yrotation
							JOINT Jaw
							{
								OFFSET 0.0026 0.4756 3.0949
								CHANNELS 3 Zrotation Xrotation Yrotation
								End Site
								{
									OFFSET 0.0 1.0 0.0
								}
							}
							JOINT LeftEye
							{
								OFFSET 3.2064 5.3802 7.5869
								CHANNELS 3 Zrotation Xrotation Yrotation
								End Site
								{
									OFFSET 0.0 1.0 0.0
								}
							}
							JOINT RightEye
							{
								OFFSET -3.2224 5.3619 7.5582
								CHANNELS 3 Zrotation Xrotation Yrotation
								End Site
								{
									OFFSET 0.0 1.0 0.0
								}
							}
						}
					}
				}
				JOINT LeftShoulder
				{
					OFFSET 1.6217 23.2372 5.1134
					CHANNELS 3 Zrotation Xrotation Yrotation
					JOINT LeftArm
					{
						OFFSET 14.9198 0.0000 -5.5023
						CHANNELS 3 Zrotation Xrotation Yrotation
						JOINT LeftForeArm
						{
							OFFSET 28.7393 0.0000 -0.0026
							CHANNELS 3 Zrotation Xrotation Yrotation
							JOINT LeftHand
							{
								OFFSET 27.0940 -0.0000 0.0026
								CHANNELS 3 Zrotation Xrotation Yrotation
								JOINT LeftHandThumbEnd
								{
									OFFSET 12.2686 -3.2202 4.8331
									CHANNELS 3 Zrotation Xrotation Yrotation
									End Site
									{
										OFFSET 0.0 1.0 0.0
									}
								}
								JOINT LeftHandMiddleEnd
								{
									OFFSET 19.0120 -0.3129 -0.0340
									CHANNELS 3 Zrotation Xrotation Yrotation
									End Site
									{
										OFFSET 0.0 1.0 0.0
									}
								}
							}
						}
					}
				}
				JOINT RightShoulder
				{
					OFFSET -1.3801 23.1803 5.2142
					CHANNELS 3 Zrotation Xrotation Yrotation
					JOINT RightArm
					{
						OFFSET -15.0372 0.0000 -5.5456
						CHANNELS 3 Zrotation Xrotation Yrotation
						JOINT RightForeArm
						{
							OFFSET -28.7366 0.0000 -0.0026
							CHANNELS 3 Zrotation Xrotation Yrotation
							JOINT RightHand
							{
								OFFSET -27.1336 -0.0000 0.0026
								CHANNELS 3 Zrotation Xrotation Yrotation
								JOINT RightHandThumbEnd
								{
									OFFSET -12.2642 -3.2115 4.8040
									CHANNELS 3 Zrotation Xrotation Yrotation
									End Site
									{
										OFFSET 0.0 1.0 0.0
									}
								}
								JOINT RightHandMiddleEnd
								{
									OFFSET -19.0006 -0.3066 -0.0316
									CHANNELS 3 Zrotation Xrotation Yrotation
									End Site
									{
										OFFSET 0.0 1.0 0.0
									}
								}
							}
						}
					}
				}
			}
		}
	}
	JOINT LeftLeg
	{
		OFFSET 10.0432 -8.4345 2.5957
		CHANNELS 3 Zrotation Xrotation Yrotation
		JOINT LeftShin
		{
			OFFSET -0.0000 -43.2218 -0.8029
			CHANNELS 3 Zrotation Xrotation Yrotation
			JOINT LeftFoot
			{
				OFFSET 0.0000 -42.1551 -3.4815
				CHANNELS 3 Zrotation Xrotation Yrotation
				JOINT LeftToeBase
				{
					OFFSET 0.0000 -5.0595 13.2315
					CHANNELS 3 Zrotation Xrotation Yrotation
					End Site
					{
						OFFSET 0.0 1.0 0.0
					}
				}
			}
		}
	}
	JOINT RightLeg
	{
		OFFSET -10.0473 -8.2953 2.6203
		CHANNELS 3 Zrotation Xrotation Yrotation
		JOINT RightShin
		{
			OFFSET 0.0000 -43.3622 -0.8056
			CHANNELS 3 Zrotation Xrotation Yrotation
			JOINT RightFoot
			{
				OFFSET 0.0000 -42.1174 -3.4784
				CHANNELS 3 Zrotation Xrotation Yrotation
				JOINT RightToeBase
				{
					OFFSET -0.0000 -5.0796 13.2842
					CHANNELS 3 Zrotation Xrotation Yrotation
					End Site
					{
						OFFSET 0.0 1.0 0.0
					}
				}
			}
		}
	}
}
MOTION
Frames: 100
Frame Time: 0.033333
-5.2954 89.4341 2.8937 4.4498 -3.9093 -0.5205 -0.6309 10.2507 0.2322 -0.6524 -1.8331 -0.0770 -1.6501 14.9508 -2.1017 2.5625 38.7827 1.4590 0.9249 -3.6269 3.5686 0.6475 7.4625 3.4427 -0.1464 -0.1551 0.0929 0.5841 -10.6606 -3.6873 -0.8850 -10.6189 3.9333 -5.8152 14.3237 -9.0037 -68.9058 -29.3222 11.9854 -0.6202 -1.0318 -100.1047 25.4042 8.3207 3.5715 -14.8923 11.0263 15.6360 -59.4879 1.9388 2.3311 6.4511 16.4834 10.4310 60.2431 -18.0954 -2.9793 1.4461 0.4759 120.2381 -22.0516 8.3801 -2.3613 15.7128 7.0757 -15.7095 49.6130 -3.7124 -4.7551 2.5792 -33.3993 31.8835 -0.1550 47.9173 -0.1941 -6.5721 -7.7570 1.7916 1.6316 -2.5722 -2.0088 -22.8131 -14.8814 -25.8134 0.5727 46.3112 1.0978 16.2559 -27.6835 -8.5111 -1.4544 -2.0592 0.8141
-5.1844 89.5506 3.4471 4.4953 -3.7111 -0.4950 -0.7406 10.1613 0.1855 -0.6443 -1.8707 -0.0157 -1.7395 14.8774 -2.0673 2.7722 38.7448 1.5148 0.9523 -3.6236 3.8130 0.9243 7.7315 3.5010 -0.1989 -0.1666 0.1215 0.5374 -10.6630 -3.6605 -0.9440 -10.6037 3.9822 -5.7641 14.3586 -8.9649 -68.7486 -29.5817 11.9677 -0.6577 -1.0559 -100.1030 25.4184 8.0990 3.4849 -15.0674 10.9829 15.5186 -59.6336 1.9091 2.3126 6.5100 16.4752 10.2380 60.9868 -17.8166 -3.5380 1.4509 0.4295 120.1763 -22.4052 8.3295 -2.2284 15.7660 7.1459 -15.8221 49.6617 -3.6980 -4.7612 2.5709 -33.2367 31.7220 -0.2041 47.9851 -0.2400 -6.7540 -8.0883 1.7477 1.6426 -2.5646 -2.0299 -22.8155 -14.4363 -25.5418 0.4895 45.7220 1.0386 16.6835 -27.3536 -9.0735 -1.4572 -2.1957 0.8447
-5.0558 89.6195 3.9986 4.5678 -3.5004 -0.4997 -0.8417 10.0438 0.1645 -0.6706 -1.8788 0.0418 -1.7584 14.8285 -2.0437 2.9915 38.8244 1.5776 0.9185 -3.6306 3.9633 1.0370 8.0105 3.5929 -0.2223 -0.1659 0.1320 0.5230 -10.6751 -3.6552 -0.9752 -10.6104 4.0027 -5.8574 14.4349 -8.9382 -68.6132 -29.7253 12.0236 -0.7084 -1.0669 -100.1140 25.3306 7.7711 3.3738 -15.1154 10.9728 15.5142 -59.6919 1.8953 2.3285 6.7104 16.5297 10.1590 61.6185 -17.5230 -4.1994 1.4406 0.3300 119.9389 -22.8978 8.4476 -1.8612 15.8148 7.1648 -15.8720 49.6653 -3.7040 -4.7873 2.5215 -33.0879 31.6001 -0.2128 48.1039 -0.2551 -6.8866 -8.4553 1.7220 1.6517 -2.5476 -2.0467 -22.9002 -14.0868 -25.2759 0.4692 45.2700 1.0229 17.0328 -27.1557 -9.4756 -1.4567 -2.2836 0.8583
-4.9266 89.6628 4.5608 4.6450 -3.2816 -0.5549 -0.9278 9.9346 0.1837 -0.6999 -1.9085 0.0651 -1.7627 14.8221 -2.0160 3.1719 38.9271 1.6262 0.8591 -3.6285 4.0739 1.1010 8.1327 3.6927 -0.2320 -0.1606 0.1361 0.5188 -10.6806 -3.6565 -0.9897 -10.6182 4.0140 -6.0349 14.5432 -8.8754 -68.4684 -29.7641 12.1176 -0.7520 -1.0986 -100.0757 25.1491 7.5438 3.2525 -15.0966 10.9711 15.5295 -59.7160 1.8910 2.3321 7.0366 16.6626 10.0939 62.1229 -17.2454 -4.8509 1.4654 0.1940 119.5050 -23.3759 8.6143 -1.2674 15.8039 7.1816 -15.9092 49.6615 -3.7068 -4.8032 2.4473 -32.9469 31.5516 -0.2070 48.2928 -0.2505 -7.0489 -8.8645 1.8245 1.6530 -2.5234 -2.0522 -23.0136 -13.7836 -24.9526 0.4431 44.8730 0.9831 17.3294 -27.0134 -9.8093 -1.4564 -2.3360 0.8686
-4.8078 89.6777 5.0898 4.7222 -3.0683 -0.6633 -0.9958 9.8548 0.2046 -0.7215 -1.9420 0.0786 -1.7649 14.8670 -1.9978 3.3269 39.0108 1.6694 0.8040 -3.6227 4.1770 1.1384 8.2169 3.7722 -0.2482 -0.1572 0.1439 0.5068 -10.6742 -3.6486 -1.0098 -10.6161 4.0278 -6.2781 14.6989 -8.7706 -68.3569 -29.8008 12.3632 -0.7840 -1.1462 -100.0418 24.8779 7.3201 3.1587 -15.0791 10.9617 15.5236 -59.6781 1.8918 2.3169 7.4193 16.8358 10.0445 62.6123 -17.0036 -5.5391 1.5007 0.0428 118.9459 -23.7458 8.7878 -0.5236 15.7662 7.2330 -15.9372 49.6602 -3.7089 -4.7989 2.3718 -32.8359 31.5760 -0.1996 48.5820 -0.2458 -7.2254 -9.3174 2.0079 1.6493 -2.4666 -2.0451 -23.1451 -13.5079 -24.5343 0.4214 44.5669 0.9646 17.6584 -26.8731 -10.1665 -1.4570 -2.3409 0.8798
-4.7238 89.6429 5.6478 4.8036 -2.8366 -0.8180 -1.0512 9.8027 0.2169 -0.7307 -1.9699 0.0729 -1.7778 14.9353 -1.9928 3.4453 39.0709 1.7107 0.7559 -3.6185 4.2139 1.1571 8.2389 3.8412 -0.2616 -0.1561 0.1503 0.4935 -10.6722 -3.6436 -1.0234 -10.6116 4.0405 -6.5653 14.8614 -8.6471 -68.3140 -29.7924 12.8320 -0.7712 -1.1795 -100.0073 24.5275 7.0498 3.1150 -15.0713 10.9770 15.5112 -59.6840 1.9040 2.2862 7.8139 16.9923 9.9987 63.1023 -16.7512 -6.2016 1.5079 -0.1033 118.3178 -23.9473 8.9573 0.3093 15.6829 7.2761 -15.9424 49.6410 -3.6900 -4.7823 2.2667 -32.7970 31.6459 -0.1948 48.9943 -0.2447 -7.3980 -9.8260 2.2271 1.6472 -2.4028 -2.0423 -23.2886 -13.2980 -24.0532 0.4208 44.3813 0.9833 17.9790 -26.7685 -10.5303 -1.4565 -2.3307 0.8913
-4.6234 89.5754 6.1572 4.8892 -2.6058 -0.9825 -1.0901 9.7709 0.2255 -0.7360 -1.9727 0.0605 -1.7890 15.0125 -2.0238 3.5314 39.1421 1.7614 0.7296 -3.6107 4.1941 1.1193 8.1940 3.8728 -0.2647 -0.1558 0.1527 0.4888 -10.6808 -3.6483 -1.0255 -10.6222 4.0517 -6.9243 14.9895 -8.5231 -68.3134 -29.6906 13.4530 -0.7503 -1.1434 -99.9283 24.1619 6.7395 3.1445 -15.0825 10.9720 15.4805 -59.6911 1.8936 2.2530 8.2668 17.1432 9.9808 63.5174 -16.5158 -6.8457 1.5367 -0.2687 117.6084 -24.1343 9.1933 1.2544 15.6218 7.2967 -15.9464 49.6802 -3.6552 -4.7723 2.1830 -32.8006 31.7265 -0.2007 49.4718 -0.2476 -7.5976 -10.3169 2.4862 1.6465 -2.3738 -2.0327 -23.4474 -13.0932 -23.5472 0.4299 44.2245 1.0298 18.3265 -26.6839 -10.9240 -1.4540 -2.3452 0.8991
-4.4835 89.5154 6.6508 4.9942 -2.3655 -1.1280 -1.1251 9.7582 0.2462 -0.7381 -1.9682 0.0370 -1.7853 15.1172 -2.0763 3.6017 39.2542 1.7777 0.7096 -3.6053 4.1040 1.0120 8.0620 3.8800 -0.2593 -0.1501 0.1494 0.5003 -10.6885 -3.6606 -1.0256 -10.6347 4.0556 -7.3234 15.1001 -8.4270 -68.2861 -29.5017 14.1277 -0.7071 -1.1407 -99.8290 23.7960 6.5066 3.2739 -15.0546 10.9538 15.4544 -59.6653 1.8924 2.2328 8.7144 17.2922 9.9715 63.9288 -16.3077 -7.5250 1.5711 -0.4566 116.8891 -24.3238 9.3490 2.3287 15.5884 7.2771 -15.9468 49.6688 -3.6514 -4.7773 2.0838 -32.7997 31.8034 -0.1979 49.9532 -0.2310 -7.8366 -10.8147 2.7264 1.6463 -2.3632 -2.0221 -23.6462 -12.9022 -23.0703 0.4453 44.0857 1.0907 18.6990 -26.6379 -11.2934 -1.4511 -2.3588 0.9147
-4.3361 89.4464 7.1321 5.0954 -2.1235 -1.2299 -1.1526 9.7483 0.2459 -0.7392 -1.9523 0.0319 -1.7626 15.2679 -2.1592 3.6787 39.3896 1.7937 0.7204 -3.5981 3.9467 0.8513 7.9448 3.8446 -0.2426 -0.1460 0.1399 0.5214 -10.7092 -3.6831 -1.0129 -10.6609 4.0518 -7.7477 15.1864 -8.3310 -68.2191 -29.2291 14.7328 -0.6707 -1.1148 -99.7075 23.4328 6.3401 3.4038 -15.0389 10.9462 15.4609 -59.6571 1.8926 2.2201 9.1723 17.4663 9.9665 64.3073 -16.1143 -8.1373 1.5281 -0.5926 116.1291 -24.5220 9.4938 3.4502 15.5642 7.2829 -15.9749 49.7114 -3.6555 -4.7908 2.0004 -32.7868 31.8259 -0.2088 50.4383 -0.2297 -8.0925 -11.3311 2.9602 1.6482 -2.3547 -2.0142 -23.8375 -12.6579 -22.6083 0.4578 43.9111 1.1543 19.0723 -26.5841 -11.7063 -1.4462 -2.3988 0.9239
-4.1778 89.3848 7.7051 5.1890 -1.8946 -1.3055 -1.1671 9.7747 0.2789 -0.7383 -1.9469 -0.0119 -1.7310 15.4510 -2.2218 3.7704 39.6005 1.7503 0.6969 -3.5888 3.8270 0.7142 7.8392 3.7610 -0.2291 -0.1430 0.1326 0.5362 -10.7246 -3.6979 -1.0005 -10.6835 4.0481 -8.1380 15.2713 -8.2770 -68.1909 -28.8907 15.2631 -0.6742 -1.1569 -99.6040 23.0423 6.2261 3.5203 -15.0638 10.9352 15.4531 -59.6505 1.8964 2.1943 9.5896 17.6497 9.9828 64.6338 -15.8877 -8.6237 1.4021 -0.7272 115.2872 -24.7879 9.6605 4.5665 15.5300 7.3035 -15.9989 49.7740 -3.6536 -4.7868 1.9298 -32.7509 31.8427 -0.2274 50.9130 -0.2388 -8.3495 -11.8639 3.1534 1.6494 -2.3549 -2.0040 -24.0135 -12.3592 -22.1129 0.4568 43.7527 1.1962 19.4433 -26.5095 -12.1425 -1.4440 -2.4581 0.9547
-4.0278 89.3395 8.3656 5.2664 -1.6547 -1.3111 -1.1664 9.7699 0.2587 -0.7484 -1.9302 -0.0230 -1.6843 15.6698 -2.2749 3.9031 39.8606 1.6931 0.6567 -3.5660 3.7135 0.6142 7.7667 3.6349 -0.2180 -0.1431 0.1270 0.5411 -10.7331 -3.7046 -0.9818 -10.6958 4.0401 -8.5386 15.3620 -8.2158 -68.1278 -28.4439 15.4938 -0.6342 -1.2109 -99.4696 22.5360 5.8686 3.3952 -15.0823 10.9497 15.4803 -59.6529 1.9086 2.1873 10.0021 17.8577 9.9918 64.9682 -15.7010 -9.1198 1.3351 -0.8241 114.3232 -25.1027 9.7216 5.6218 15.4562 7.3269 -16.0371 49.8198 -3.6455 -4.7897 1.8912 -32.6631 31.7831 -0.2506 51.3058 -0.2632 -8.6448 -12.3980 3.3438 1.6507 -2.3746 -1.9956 -24.1444 -11.9820 -21.6348 0.4530 43.5466 1.2329 19.7510 -26.3298 -12.6109 -1.4422 -2.5440 0.9807
-3.8700 89.3224 9.0743 5.3216 -1.4107 -1.2466 -1.1592 9.7616 0.2389 -0.7581 -1.9156 -0.0275 -1.6184 15.9134 -2.2842 4.0563 40.1818 1.5654 0.6122 -3.5566 3.6527 0.5280 7.8024 3.5189 -0.2128 -0.1496 0.1227 0.5471 -10.7506 -3.7103 -0.9774 -10.7216 4.0344 -8.9445 15.5103 -8.2013 -68.0798 -27.9420 15.4365 -0.5602 -1.2437 -99.3116 21.9370 5.3584 3.1117 -15.0885 10.9697 15.5090 -59.6440 1.8996 2.1946 10.4396 18.1014 10.0068 65.3246 -15.5506 -9.6175 1.2785 -0.9146 113.1799 -25.4239 9.7224 6.6705 15.3382 7.3547 -16.0405 49.9156 -3.6255 -4.7694 1.8950 -32.5377 31.6544 -0.2757 51.6385 -0.2927 -9.0132 -12.9563 3.4500 1.6483 -2.4034 -1.9782 -24.1942 -11.5108 -21.1327 0.4309 43.3238 1.2434 20.0097 -26.0851 -13.1063 -1.4416 -2.7080 0.9902
-3.7370 89.3086 9.8120 5.3792 -1.1663 -1.1088 -1.1470 9.7591 0.2263 -0.7524 -1.9216 -0.0602 -1.5781 16.1792 -2.2390 4.2908 40.5603 1.4994 0.5537 -3.5474 3.6079 0.4948 7.9229 3.3537 -0.2165 -0.1571 0.1214 0.5477 -10.7634 -3.7113 -0.9860 -10.7488 4.0374 -9.3543 15.6821 -8.2176 -68.0876 -27.3878 15.2239 -0.5405 -1.2923 -99.0444 21.2120 4.7458 2.7496 -15.0713 11.0004 15.5159 -59.6465 1.9053 2.1608 10.8311 18.3162 10.0607 65.7126 -15.3922 -10.1819 1.2913 -1.0434 111.7642 -25.7851 9.5969 7.6760 15.2042 7.3552 -16.0106 50.0058 -3.5762 -4.7432 1.9415 -32.3547 31.4521 -0.3136 51.9230 -0.3449 -9.4560 -13.5611 3.5127 1.6449 -2.4479 -1.9664 -24.2127 -10.9567 -20.5606 0.3918 43.1593 1.2134 20.2198 -25.7470 -13.6048 -1.4446 -3.0087 0.9996
-3.6376 89.3031 10.5951 5.4579 -0.9188 -0.9111 -1.1269 9.7374 0.2042 -0.7382 -1.9005 -0.0417 -1.5735 16.4363 -2.1705 4.5316 40.9681 1.4388 0.4952 -3.5434 3.6045 0.5003 8.0997 3.1446 -0.2152 -0.1666 0.1174 0.5503 -10.7809 -3.7189 -0.9854 -10.7753 4.0371 -9.8101 15.8675 -8.2334 -68.0121 -26.8411 14.7345 -0.4708 -1.3034 -98.5285 20.3849 3.9161 2.3294 -15.0805 11.0318 15.5407 -59.6940 1.8880 2.1230 11.1509 18.4913 10.1520 66.0866 -15.2239 -10.6075 1.2147 -1.0969 109.9605 -26.0759 9.1287 8.5921 15.0998 7.3638 -15.9874 50.1500 -3.5455 -4.7225 2.0144 -32.1026 31.2022 -0.3600 52.1294 -0.4070 -9.9887 -14.1582 3.5251 1.6446 -2.4761 -1.9451 -24.2212 -10.4000 -19.8355 0.3563 43.2220 1.2086 20.3433 -25.1981 -14.0562 -1.4479 -3.5275 1.0086
-3.6182 89.2812 11.4221 5.5748 -0.6855 -0.7190 -1.0698 9.7018 0.2573 -0.7306 -1.9432 -0.0448 -1.6073 16.7749 -2.0094 4.7949 41.3803 1.3300 0.3182 -3.4422 3.7160 0.5880 8.1925 2.8271 -0.2479 -0.1532 0.1254 0.5222 -10.7787 -3.7183 -1.0238 -10.7691 4.0676 -10.2128 16.0249 -8.2887 -67.9502 -26.2477 14.0702 -0.4127 -1.2039 -97.7124 19.5891 3.0119 2.0661 -15.1209 11.0004 15.5742 -59.6511 1.7746 2.1065 11.3308 18.6955 10.2402 66.2777 -15.1639 -10.8607 1.2065 -1.1793 107.6106 -26.3090 8.0663 9.5121 15.1066 7.3662 -16.0535 50.3586 -3.5518 -4.7354 2.1314 -31.8136 30.8844 -0.3912 52.3892 -0.4190 -10.5846 -14.8180 3.5594 1.6396 -2.3496 -1.9278 -24.2910 -9.9317 -18.8072 0.3510 43.8129 1.1789 20.3305 -24.3269 -14.4866 -1.4694 -4.2577 0.9912
-3.6588 89.1763 12.3239 5.6824 -0.5266 -0.4637 -1.0010 9.7496 0.2685 -0.7013 -1.9303 -0.0346 -1.5955 17.0511 -1.8539 4.9202 41.8029 1.3776 0.2282 -3.4316 3.7026 0.5868 8.3092 2.5553 -0.2350 -0.1444 0.1174 0.5319 -10.7744 -3.7269 -1.0067 -10.7721 4.0561 -10.5156 16.1391 -8.3348 -67.8172 -25.5798 13.3131 -0.3175 -1.1370 -96.5600 18.8846 2.0084 1.9814 -15.1409 10.9882 15.5995 -59.6623 1.7646 2.0742 11.2631 18.8340 10.5094 66.2379 -15.1516 -10.6626 0.9448 -1.2100 104.6945 -26.2093 6.6779 9.9880 15.0871 7.3893 -16.0993 50.6566 -3.5098 -4.7731 2.3500 -31.5234 30.3937 -0.4172 52.7294 -0.4606 -11.2517 -15.4951 3.5436 1.6364 -2.2703 -1.8815 -24.4187 -9.6437 -17.7740 0.3832 44.9892 1.2777 20.0031 -23.5797 -14.3489 -1.4814 -5.2425 1.0516
-3.7574 89.0196 13.3198 5.8202 -0.4291 -0.2337 -0.8931 9.8277 0.3026 -0.6744 -1.9230 0.0079 -1.5678 17.3135 -1.7056 4.9300 42.2390 1.4878 0.1668 -3.4246 3.6007 0.5726 8.4877 2.3388 -0.2278 -0.1381 0.1141 0.5340 -10.7742 -3.7291 -0.9951 -10.7743 4.0505 -10.7389 16.2857 -8.3589 -67.6356 -24.9629 12.5197 -0.2654 -1.0289 -95.0249 18.1356 0.7569 2.1542 -15.2245 10.9594 15.6437 -59.6075 1.7596 2.0543 11.0928 18.9601 10.8458 65.7170 -15.4135 -10.0464 0.7039 -1.2054 101.0811 -25.7190 4.8762 10.1016 15.0402 7.4093 -16.1759 50.8968 -3.4714 -4.8317 2.6426 -31.1868 29.8034 -0.4388 53.1342 -0.5064 -12.0078 -16.2033 3.6644 1.6368 -2.2473 -1.8642 -24.6433 -9.5067 -16.5942 0.4421 46.6728 1.4217 19.3348 -22.8153 -13.9447 -1.4981 -6.4495 1.1048
-3.9131 88.7778 14.3805 5.9866 -0.3806 -0.0293 -0.7577 9.9018 0.3382 -0.6342 -1.9417 0.0559 -1.5405 17.6243 -1.5364 4.8142 42.7163 1.6362 0.1335 -3.4106 3.4707 0.5639 8.7431 2.1344 -0.2225 -0.1325 0.1126 0.5433 -10.7721 -3.7251 -0.9943 -10.7702 4.0440 -10.8298 16.4085 -8.3710 -67.2414 -24.2544 11.5124 -0.1337 -0.9271 -93.1975 17.2486 -0.8884 2.5517 -15.3137 10.9327 15.6880 -59.5758 1.7402 2.0362 10.8149 19.0352 11.2976 64.6354 -15.8123 -8.9629 0.5014 -1.1329 96.8562 -24.7297 2.6164 9.7633 15.0015 7.4408 -16.2626 51.0328 -3.4439 -4.8994 3.0018 -30.8498 29.0644 -0.4694 53.7225 -0.5596 -12.8407 -16.9612 3.9333 1.6387 -2.2000 -1.8589 -24.9029 -9.4035 -15.2676 0.5097 48.7149 1.5944 18.4826 -22.0424 -13.3961 -1.5221 -7.7880 1.1543
-4.0739 88.4532 15.4745 6.1742 -0.3637 0.0831 -0.6013 9.9296 0.3667 -0.5910 -1.9571 0.1461 -1.4948 17.9523 -1.3755 4.5637 43.2983 1.7613 0.0957 -3.3977 3.3361 0.5510 9.1030 1.9145 -0.2131 -0.1301 0.1107 0.5611 -10.7704 -3.7213 -0.9928 -10.7609 4.0331 -10.8224 16.5079 -8.3222 -66.6893 -23.5397 10.3828 -0.0303 -0.7951 -91.0374 16.1803 -2.7372 3.2268 -15.4096 10.9045 15.7539 -59.6373 1.7072 2.0396 10.4607 19.0776 11.8603 63.0592 -16.2801 -7.3423 0.3169 -1.0533 92.0113 -23.2606 0.3192 8.9894 15.0096 7.4953 -16.3510 51.1270 -3.3683 -4.9709 3.4389 -30.5252 28.1655 -0.5147 54.5230 -0.6296 -13.7795 -17.8074 4.3817 1.6431 -2.1561 -1.8480 -25.1657 -9.2171 -13.8391 0.5835 50.8596 1.7888 17.5374 -21.3866 -12.5908 -1.5459 -9.2912 1.1959
-4.2833 88.0225 16.5890 6.3923 -0.3664 0.1048 -0.4307 9.9024 0.4150 -0.5410 -1.9716 0.2299 -1.4224 18.2549 -1.1875 4.2022 43.9194 1.8564 0.0747 -3.3740 3.1887 0.4457 9.4468 1.6737 -0.2006 -0.1309 0.1071 0.5781 -10.7452 -3.7121 -0.9852 -10.7370 4.0127 -10.8132 16.5965 -8.1828 -65.9326 -22.8015 9.0004 0.0540 -0.6326 -88.4862 14.8904 -4.5126 3.9766 -15.4495 10.8769 15.8249 -59.6913 1.6703 2.0386 10.1598 19.0754 12.5096 61.1952 -16.6560 -5.2373 0.1510 -0.9393 86.6993 -21.6891 -1.6686 8.0921 15.0336 7.5509 -16.4222 51.2071 -3.3117 -5.0258 3.9232 -30.1470 27.1508 -0.5574 55.4300 -0.6937 -14.8256 -18.7582 5.0929 1.6466 -2.1406 -1.8343 -25.4387 -8.8522 -12.4315 0.6550 52.8391 1.9873 16.7777 -20.9469 -11.7011 -1.5714 -10.8245 1.2425
-4.5805 87.5298 17.7997 6.6011 -0.3767 0.0770 -0.2368 9.8142 0.4686 -0.5019 -1.9869 0.3448 -1.2909 18.5198 -1.0186 3.7669 44.5564 1.8848 0.0611 -3.3501 3.0363 0.2573 9.7352 1.4424 -0.1894 -0.1288 0.1016 0.5985 -10.7288 -3.7099 -0.9828 -10.7258 3.9955 -10.8284 16.6650 -7.9839 -65.1032 -22.0704 7.3764 0.1372 -0.4869 -85.5817 13.4898 -6.1469 4.5492 -15.4162 10.8866 15.9161 -59.7700 1.6683 2.0296 9.9381 19.0430 13.1728 59.4653 -16.9965 -2.9855 0.0889 -0.8505 81.3024 -20.4361 -3.1913 7.4226 15.1048 7.5916 -16.4482 51.2157 -3.2464 -5.0826 4.4758 -29.7651 25.9357 -0.5898 56.4392 -0.7420 -15.9595 -19.7746 6.0653 1.6499 -2.1075 -1.8282 -25.6597 -8.2883 -11.1993 0.7104 54.5119 2.1619 16.2301 -20.7846 -10.7926 -1.5935 -12.3343 1.2929
-4.9581 86.9796 19.1244 6.7725 -0.4145 -0.0899 -0.0320 9.7173 0.5205 -0.4699 -2.0137 0.4586 -1.0981 18.7467 -0.8193 3.2161 45.2294 1.8047 0.0851 -3.3341 2.9047 -0.0397 10.0404 1.2944 -0.1816 -0.1261 0.0961 0.6205 -10.7211 -3.7152 -0.9879 -10.7251 3.9854 -10.8790 16.7073 -7.7372 -64.3383 -21.3438 5.6200 0.1894 -0.3623 -82.3763 12.0965 -7.8316 4.8950 -15.3211 10.9201 16.0142 -59.8123 1.6644 1.9970 9.8378 19.0041 13.8541 58.0122 -17.3281 -0.7621 0.1324 -0.7589 75.9401 -19.6163 -4.4424 7.0859 15.1857 7.6030 -16.4165 51.2906 -3.2086 -5.0659 5.1097 -29.3512 24.6107 -0.6318 57.5831 -0.8053 -17.1611 -20.8320 7.2537 1.6499 -2.0656 -1.8248 -25.8141 -7.6166 -10.1073 0.7531 56.0079 2.3314 15.8698 -20.8597 -9.9319 -1.6156 -13.7356 1.3524
-5.4033 86.4044 20.5711 6.9326 -0.4274 -0.3911 0.1578 9.5754 0.6015 -0.4475 -2.0400 0.5680 -0.8685 18.9528 -0.6048 2.6678 45.8897 1.7239 0.1003 -3.3461 2.7594 -0.3073 10.4110 1.1897 -0.1746 -0.1254 0.0908 0.6410 -10.7301 -3.7273 -0.9945 -10.7353 3.9826 -11.0136 16.7103 -7.5170 -63.6994 -20.6589 3.8252 0.1840 -0.2963 -78.8139 10.5725 -9.6511 4.9652 -15.2310 10.9604 16.1308 -59.8286 1.6655 1.9449 9.9242 18.9768 14.6065 56.8715 -17.8240 1.3433 0.2792 -0.7011 70.3776 -19.2286 -5.4354 7.1043 15.2683 7.5677 -16.3292 51.2781 -3.1278 -5.0123 5.8056 -28.8763 23.2957 -0.6631 58.7599 -0.8601 -18.4809 -21.8639 8.5354 1.6507 -2.0536 -1.8094 -25.9212 -6.9567 -9.0292 0.8103 57.4864 2.5054 15.4740 -20.8986 -9.0428 -1.6466 -15.1263 1.4202
-5.8282 85.8205 22.0426 7.0951 -0.3738 -0.7914 0.3225 9.3872 0.6442 -0.4364 -2.0611 0.6931 -0.6387 19.1710 -0.3916 2.1681 46.5813 1.7110 0.1451 -3.3630 2.5355 -0.5557 10.7651 1.1147 -0.1707 -0.1297 0.0862 0.6541 -10.7305 -3.7348 -0.9983 -10.7386 3.9765 -11.2416 16.7644 -7.3294 -63.1615 -20.0930 1.9822 0.0980 -0.3025 -74.9123 8.7973 -11.4521 4.8516 -15.1168 11.0251 16.2231 -59.8070 1.6676 1.8898 10.1599 18.9279 15.4193 56.1282 -18.4814 3.2190 0.5148 -0.6283 64.6028 -19.2602 -6.0230 7.2526 15.2983 7.5304 -16.2122 51.2065 -3.0373 -4.9397 6.5152 -28.3598 22.0694 -0.6664 59.8889 -0.8789 -19.8396 -22.8397 9.7457 1.6567 -2.1323 -1.7862 -25.9839 -6.4398 -7.9369 0.9248 59.1244 2.7039 14.7498 -20.7315 -8.1310 -1.6777 -16.6310 1.4841
-6.3144 85.2410 23.5697 7.2372 -0.2737 -1.2859 0.4611 9.1466 0.7656 -0.4491 -2.1004 0.8664 -0.4077 19.4100 -0.2553 1.7074 47.3348 1.6488 0.1936 -3.3677 2.5441 -0.5387 11.1262 1.0583 -0.1985 -0.1278 0.0890 0.6334 -10.7262 -3.7431 -1.0348 -10.7100 3.9996 -11.5390 16.9789 -7.2629 -62.5840 -19.6476 0.0874 -0.0765 -0.2192 -70.7355 6.5776 -13.3106 4.7938 -15.1343 11.0920 16.2067 -59.9684 1.6919 1.8275 10.3575 18.9116 16.3210 55.9888 -19.0350 4.9286 0.5341 -0.6565 58.6251 -19.5150 -6.2909 7.5251 15.4030 7.5164 -16.0536 51.1070 -2.9945 -4.7859 7.3539 -27.6596 21.0452 -0.7446 60.8278 -0.9717 -21.3218 -23.7800 10.9085 1.6548 -2.4032 -1.7366 -25.9305 -6.0702 -6.8303 1.2070 60.8454 3.1777 13.1743 -19.8195 -7.1584 -1.7001 -18.9043 1.5018
-6.9439 84.5890 25.2671 7.4418 -0.1780 -1.7168 0.5290 8.9891 0.8009 -0.4682 -2.1115 0.9142 -0.3315 19.5737 -0.0823 1.5794 47.9871 1.7327 0.2186 -3.4055 2.4784 -0.4425 11.5360 0.9920 -0.2127 -0.1369 0.0837 0.6170 -10.7305 -3.7416 -1.0471 -10.7091 3.9962 -11.6770 17.1054 -7.2515 -61.7570 -18.8616 -2.1368 -0.1001 -0.1954 -66.6518 4.0292 -14.7345 4.8076 -15.0268 11.0993 16.1128 -59.9848 1.6525 1.7206 10.4223 18.8776 16.9905 56.3476 -19.4183 6.5075 0.6932 -0.6317 52.9961 -19.5238 -6.2152 7.6219 15.4243 7.5257 -16.0306 51.1036 -2.9295 -4.7070 8.2607 -26.9832 20.1525 -0.7914 61.8247 -1.0272 -22.8051 -24.4638 11.4583 1.6630 -2.6962 -1.7382 -25.8946 -5.9229 -5.8721 1.3845 63.0007 3.3830 11.5571 -18.8640 -6.5592 -1.7135 -20.4206 1.5142
-7.7591 83.8284 27.0764 7.6302 -0.1115 -1.9593 0.5749 8.8998 0.7947 -0.5061 -2.1338 0.9694 -0.3259 19.6728 -0.0462 1.5510 48.6163 1.7548 0.3443 -3.4464 2.5303 -0.3089 11.8915 1.0116 -0.2256 -0.1456 0.0763 0.5997 -10.7545 -3.7424 -1.0537 -10.7235 3.9863 -11.7498 17.2298 -7.3235 -60.7213 -17.9335 -4.4622 -0.0761 -0.2132 -62.8750 1.5526 -15.4333 4.7551 -14.9701 11.1441 15.9917 -60.1494 1.6339 1.5886 10.2775 18.9001 17.5137 57.0321 -19.2583 8.3736 0.5648 -0.5622 47.8625 -19.1312 -5.8140 7.3082 15.4893 7.5535 -16.0740 51.1356 -2.9125 -4.6830 9.3742 -26.3453 19.1839 -0.8747 62.9739 -1.1478 -24.2535 -24.8969 11.4715 1.6754 -3.3283 -1.7696 -25.7365 -5.8840 -5.1636 1.5927 65.5683 3.6237 9.9145 -17.6869 -6.3294 -1.7031 -21.5984 1.4843
-8.7575 82.8569 29.0441 7.7961 -0.0860 -1.9917 0.5832 8.8709 0.7750 -0.5469 -2.1401 0.9941 -0.3774 19.7583 -0.0603 1.6082 49.2044 1.5022 0.3235 -3.4383 2.8440 -0.0650 12.0303 1.0753 -0.2120 -0.1398 0.0741 0.5795 -10.7018 -3.7274 -1.0048 -10.6743 3.9626 -11.7882 17.2655 -7.4612 -59.6166 -17.0311 -6.3823 -0.1737 -0.2741 -59.8000 -0.4114 -15.5449 4.5890 -14.9335 11.0762 15.8593 -60.1686 1.5436 1.6162 9.9701 18.8910 17.8110 57.9888 -18.5866 10.3575 0.3571 -0.5010 43.4147 -18.4476 -5.1994 6.6811 15.5430 7.5178 -16.1244 51.1506 -2.9645 -4.7059 10.7855 -25.8439 17.9979 -0.8902 64.5483 -1.2215 -25.9669 -25.2114 11.1163 1.7154 -4.0094 -1.8180 -25.3767 -5.6415 -4.4425 1.7561 68.4306 3.7153 8.4440 -16.5053 -6.1894 -1.7260 -22.9556 1.5028
-10.0153 81.7162 31.2366 7.9252 -0.1203 -1.6824 0.5744 8.8231 0.7793 -0.5949 -2.1604 0.9155 -0.4377 19.8164 -0.1444 1.8360 49.7362 1.2996 0.4122 -3.4547 3.1427 0.2958 12.2012 1.2138 -0.2019 -0.1371 0.0762 0.5887 -10.7016 -3.7217 -0.9918 -10.6625 3.9569 -11.7854 17.3637 -7.6671 -58.6359 -16.2965 -7.7603 -0.2077 -0.2801 -57.6877 -1.5587 -15.4675 4.3648 -14.9059 11.1296 15.8428 -60.2275 1.5709 1.6161 9.5179 18.9528 17.8767 59.2189 -17.8431 12.1670 0.1619 -0.4643 39.5812 -17.3700 -4.1212 5.7803 15.7024 7.4568 -16.1045 51.1959 -3.0483 -4.6337 12.4790 -25.5107 16.4674 -1.0297 66.4157 -1.4161 -27.3190 -25.3643 10.1250 1.7262 -5.1441 -1.8655 -24.8512 -5.0203 -4.0296 1.9579 71.0145 3.9805 7.5494 -15.6949 -6.0771 -1.7234 -23.6350 1.4857
-11.4858 80.3387 33.6172 8.0769 -0.2194 -1.0223 0.5397 8.7450 0.8114 -0.6453 -2.2106 0.7836 -0.5340 19.8738 -0.2988 2.3366 50.2666 1.1847 0.4635 -3.4512 3.3578 0.6901 12.3389 1.3585 -0.1965 -0.1337 0.0788 0.6039 -10.6838 -3.7132 -0.9951 -10.6416 3.9534 -11.8088 17.4610 -7.8543 -57.6749 -15.8457 -8.5781 -0.2466 -0.3037 -56.3225 -2.2518 -15.3224 4.3024 -14.8506 11.1971 15.8268 -60.3307 1.6363 1.6044 9.1945 18.9919 17.7882 60.6546 -17.1130 13.4098 0.1315 -0.4618 36.3704 -16.4830 -2.9254 4.9045 15.8346 7.4049 -16.0967 51.2299 -3.1231 -4.5927 14.3692 -25.2072 14.5731 -1.2322 68.5065 -1.6711 -28.4849 -25.5612 9.0772 1.7348 -6.2701 -1.9058 -24.2150 -3.8839 -3.8051 2.1588 73.2653 4.2680 7.0501 -15.0074 -5.7389 -1.7527 -24.6391 1.5111
-13.1499 78.6755 36.1560 8.2732 -0.4119 -0.0213 0.4741 8.6447 0.8202 -0.7046 -2.2567 0.6412 -0.6277 19.8912 -0.4778 2.9854 50.8544 1.0277 0.5257 -3.4210 3.5032 1.0061 12.4937 1.4623 -0.1974 -0.1308 0.0792 0.6146 -10.6706 -3.7103 -1.0046 -10.6386 3.9522 -11.7476 17.5642 -7.9929 -56.9113 -15.7845 -8.8939 -0.3453 -0.3791 -55.4303 -2.5628 -14.9844 4.4068 -14.8579 11.2612 15.8520 -60.4423 1.6848 1.6534 8.8654 18.9931 17.5009 62.3879 -16.3871 14.1436 0.0763 -0.4741 33.7031 -15.6522 -1.8185 4.0839 15.9559 7.2888 -16.0646 51.2539 -3.2059 -4.6177 16.4443 -24.8583 12.3587 -1.5407 70.7579 -2.0447 -29.5893 -25.9290 8.0925 1.7394 -7.2203 -1.9379 -23.5027 -2.1576 -3.7324 2.3027 75.2349 4.5649 7.1276 -14.5251 -4.5395 -1.8088 -26.3262 1.5804
-15.0236 76.6980 38.8604 8.4847 -0.6758 1.3802 0.4028 8.5090 0.8199 -0.7621 -2.2945 0.4324 -0.6965 19.8359 -0.6658 3.7930 51.4395 0.7662 0.4908 -3.3735 3.5727 1.2723 12.6748 1.4507 -0.2094 -0.1294 0.0751 0.6043 -10.6264 -3.6958 -1.0166 -10.6114 3.9362 -11.6097 17.6741 -8.0908 -56.3786 -16.0769 -8.8160 -0.4629 -0.4669 -54.9419 -2.5990 -14.6233 4.6526 -14.8504 11.2961 15.9431 -60.4892 1.6849 1.7774 8.5388 18.8853 16.9486 64.4607 -15.6372 14.3320 -0.0488 -0.4548 31.5692 -14.8930 -0.9412 3.2982 16.0904 7.1593 -16.0383 51.2582 -3.2879 -4.6952 18.7799 -24.4252 9.7883 -1.9661 73.1073 -2.5294 -30.6589 -26.4273 7.0555 1.7377 -7.9083 -1.9598 -22.6641 0.1188 -3.9533 2.3212 76.9486 4.7542 7.7152 -13.9277 -2.6165 -1.8882 -28.2437 1.6737
-17.0384 74.4150 41.6510 8.7363 -0.9452 3.0866 0.3199 8.4213 0.7952 -0.8114 -2.3662 0.2367 -0.7822 19.6735 -0.8703 4.7610 51.9787 0.4447 0.3745 -3.3326 3.5366 1.2899 12.8149 1.2749 -0.2150 -0.1283 0.0691 0.5972 -10.5552 -3.6768 -1.0208 -10.5782 3.9101 -11.2793 17.7955 -8.0964 -56.1403 -16.6802 -8.4544 -0.6369 -0.5423 -54.8862 -2.5436 -14.1068 5.0444 -14.9161 11.2810 15.9952 -60.4991 1.6438 1.8680 8.1344 18.7702 16.2002 66.9503 -15.0844 13.7557 -0.2733 -0.4281 30.0118 -14.2117 -0.4585 2.7066 16.2295 7.0421 -16.0259 51.2622 -3.3086 -4.8287 21.2974 -23.9458 6.9418 -2.7682 75.4700 -3.4197 -31.7886 -27.0110 6.1236 1.7341 -8.4729 -1.9756 -21.9129 2.5683 -4.5304 2.3031 78.6018 4.9022 8.5977 -12.9978 0.0004 -1.9582 -30.0188 1.7455
-19.1322 71.8858 44.4948 9.0761 -1.1355 4.8765 0.2271 8.4167 0.7025 -0.8522 -2.4074 0.1698 -0.9354 19.4424 -1.1573 5.4891 52.1619 0.0557 0.2253 -3.3088 3.3347 1.1391 12.7610 0.9414 -0.2289 -0.1305 0.0597 0.5861 -10.4833 -3.6603 -1.0359 -10.5443 3.8805 -10.8477 17.9577 -8.0668 -56.1184 -17.7210 -7.8709 -0.8458 -0.5471 -55.0327 -2.3591 -13.3816 5.4080 -14.9802 11.2303 16.0793 -60.5183 1.6054 1.9395 7.6244 18.6899 15.3616 69.7241 -14.9593 12.0686 -0.4773 -0.4237 29.1560 -13.8106 -0.1739 2.3358 16.3602 6.9657 -16.0122 51.2125 -3.2751 -4.9726 24.0248 -23.6157 3.9023 -4.3339 78.0935 -5.0844 -32.5390 -27.1604 4.9108 1.7408 -9.4105 -2.0123 -21.4247 4.7705 -5.3647 2.4084 80.3607 5.1729 9.6729 -10.7997 3.5697 -1.9954 -31.6012 1.7605
-21.2798 68.9922 47.2914 9.5589 -1.2063 6.5613 0.2194 8.7025 0.7013 -0.8851 -2.3307 0.1389 -1.0757 19.1176 -1.4001 5.4946 51.4081 -0.3637 0.0307 -3.3893 2.5872 0.6385 12.4130 0.3242 -0.2030 -0.1433 0.0478 0.6309 -10.4954 -3.6827 -1.0269 -10.6046 3.8724 -10.3037 18.0093 -8.0512 -56.5048 -19.0603 -7.1412 -0.9087 -0.4340 -55.3576 -1.9933 -12.8868 5.7559 -15.1385 11.0823 16.0331 -60.5929 1.6208 1.8761 6.7961 18.8079 14.4279 72.6604 -15.4331 9.2249 -0.5341 -0.3919 29.1395 -13.8405 -0.1828 2.5512 16.4006 6.9015 -15.9056 51.0223 -3.2184 -5.0855 27.0616 -23.5383 0.4850 -7.2537 81.3161 -8.0487 -32.0548 -26.5398 2.7564 1.8281 -11.8696 -2.1528 -21.6119 6.1282 -6.5557 3.2782 82.9222 6.2950 10.9488 -6.5546 8.7356 -1.8896 -30.4028 1.6192
-23.4731 65.6496 49.8354 10.3579 -0.5757 7.6962 0.2246 9.1786 0.6570 -0.8144 -2.2461 0.1380 -1.3671 18.7950 -1.5768 4.2049 49.2472 -0.6370 -0.2285 -3.4820 1.5768 -0.2646 11.2039 -0.7626 -0.2434 -0.1447 0.0324 0.5997 -10.5449 -3.7173 -1.0750 -10.6470 3.8829 -9.5681 18.0779 -7.7081 -57.6566 -21.2006 -6.0920 -1.0265 -0.1731 -55.6998 -1.5099 -11.8854 6.0859 -15.3884 10.8977 16.0377 -60.7374 1.5646 2.1521 5.3973 18.9392 13.6862 74.8219 -16.1146 7.0658 -0.5421 -0.5284 29.7106 -13.8845 -0.8485 3.6202 16.2710 6.9258 -15.8045 50.6635 -3.1908 -5.1361 30.3422 -24.3336 -2.6673 -16.7709 85.0805 -17.5488 -31.7748 -25.5558 1.1933 1.8535 -13.1223 -2.1985 -22.8097 5.9014 -7.5928 7.3626 86.1958 10.6292 13.0819 -0.5608 15.0862 -1.5801 -25.7738 1.3528
-25.7202 61.9979 51.8136 11.7881 0.9691 7.9185 0.1376 9.7091 0.6058 -0.8464 -2.0977 0.2044 -1.7265 18.6051 -1.5271 1.8603 46.3171 -0.4623 -0.5907 -3.6076 0.1315 -2.1709 8.7833 -2.3364 -0.2707 -0.1602 0.0236 0.5680 -10.5880 -3.7428 -1.0998 -10.6603 3.8917 -9.1215 18.0907 -7.2856 -58.8990 -23.9421 -4.9945 -1.3598 0.0226 -55.9855 -1.0561 -11.2425 6.5043 -15.4545 10.8112 16.1386 -60.7325 1.5075 2.4756 3.9519 18.8899 13.0829 74.4119 -16.7619 7.8969 -0.4338 -0.5517 30.1624 -13.5785 -1.5034 5.1704 16.1769 6.8978 -15.7205 50.2783 -3.2207 -5.0737 33.7028 -25.9348 -4.8675 -71.4225 88.1439 -72.1806 -30.7413 -24.7269 -1.1912 1.8222 -13.1247 -2.1533 -25.4606 4.1479 -8.2479 61.9043 89.2561 65.5345 16.2192 4.6397 23.2086 -1.3743 -20.5144 1.2252
-28.0977 58.7235 53.5341 13.8374 3.4472 7.0099 0.0909 10.1341 0.4560 -1.0045 -1.7023 0.3356 -2.3947 18.8067 -1.4180 -1.4069 43.9791 0.1516 -1.3145 -3.7450 -1.5703 -4.5847 5.2686 -3.9354 -0.3141 -0.2017 0.0375 0.5037 -10.5893 -3.7210 -1.1307 -10.6354 3.9058 -10.0667 17.9973 -7.0830 -58.8782 -27.3253 -4.1926 -1.7528 0.0657 -56.3599 -0.9431 -11.5033 6.2874 -15.3712 10.7824 16.2581 -60.7239 1.4551 2.7231 3.1846 18.3484 13.3927 70.4704 -17.4527 11.5625 -0.1929 -0.4893 29.7130 -13.7315 -1.5918 6.3122 16.1517 6.8283 -15.4689 49.8892 -3.3455 -4.9035 35.9505 -27.9295 -4.5234 -139.9150 86.9586 -140.6699 -28.2753 -23.8593 -2.7041 1.7891 -11.9224 -2.0832 -28.9998 1.6960 -7.4886 158.2499 87.6391 162.2149 18.8798 5.1761 32.8485 -1.3837 -18.5858 1.1999
-30.3318 56.8981 55.6595 16.0648 7.0851 5.0190 0.2987 10.2131 0.4330 -1.1008 -1.2318 0.3603 -3.1084 19.9257 -1.6539 -6.3215 43.2814 0.8174 -2.1540 -3.7539 -4.0024 -6.4018 2.2865 -5.5378 -0.3453 -0.2445 0.0530 0.3769 -10.5028 -3.6200 -1.0774 -10.5554 3.8499 -13.4930 17.9462 -8.2410 -57.4595 -32.6657 -2.4864 -2.1780 -0.2608 -55.8818 -0.7627 -11.4954 4.3287 -15.3247 10.7274 16.3335 -60.5997 1.4506 2.6574 3.4960 18.0425 15.4175 61.8065 -18.2747 17.8191 -0.0020 -0.5644 28.0707 -14.9231 -0.5131 5.5395 16.0786 6.8992 -15.1676 49.9352 -3.3507 -4.8152 34.9626 -30.0473 -0.8592 -144.9827 86.9322 -145.5816 -23.1660 -22.0215 1.7628 1.8427 -9.4827 -1.9956 -31.8082 -1.2338 -4.5926 157.9663 87.2123 162.2026 18.9866 1.2876 43.1284 -1.5394 -20.7678 1.2106
-32.3629 56.9933 57.8162 17.7719 11.8895 3.1132 0.6484 10.2290 0.5149 -0.9728 -0.9870 0.1683 -3.0042 21.1734 -2.1862 -13.4513 44.6261 -1.0240 -2.2472 -3.6106 -6.0422 -7.0611 1.9690 -6.8767 -0.3880 -0.2570 0.0350 0.2829 -10.4938 -3.5577 -1.0719 -10.5125 3.7757 -16.0947 16.7008 -10.5344 -58.0017 -37.4698 1.8075 -2.2154 -0.5407 -55.2768 -1.1208 -11.6555 3.2373 -15.7260 10.7287 16.3298 -60.7924 1.7098 1.9043 2.1891 17.6869 17.3435 52.8824 -18.4543 24.4423 0.2708 -0.5562 26.8497 -14.5257 0.2749 2.9049 15.8376 7.0871 -15.1527 50.1564 -3.3783 -4.8442 30.7586 -31.7267 3.9760 -61.9521 88.5767 -62.3460 -17.8136 -19.1706 9.4052 1.8195 -7.5683 -1.9546 -32.1567 -4.3151 -1.4421 127.0560 88.7348 131.3988 16.9512 -1.9006 48.4141 -1.7334 -23.9649 1.3189
-34.5284 57.3195 60.1263 19.7866 16.6745 2.7885 0.9523 10.8945 0.4917 -0.6268 -0.9668 -0.2551 -2.9958 21.5985 -3.0139 -18.8654 46.3350 -5.0611 -1.9069 -3.3747 -6.8399 -7.0419 2.7446 -7.8244 -0.3333 -0.2345 -0.0189 0.3554 -10.3677 -3.5473 -1.0314 -10.3199 3.6517 -15.8738 14.7902 -12.6329 -59.1914 -40.3625 5.7012 -2.2660 -0.7770 -54.9230 -1.6287 -11.8946 3.4641 -15.7976 10.8587 16.3902 -61.0496 1.9414 1.5388 -0.4173 16.2881 17.0430 47.2941 -18.7817 28.9943 0.2212 -0.3651 28.3138 -12.2451 -0.3411 -0.2719 15.7467 7.1225 -15.3709 50.2287 -3.4545 -4.9976 25.7762 -32.2501 6.6372 -10.0353 84.5115 -10.3584 -13.8882 -16.5062 13.7108 1.7390 -6.9660 -2.1644 -32.1691 -7.4817 -0.0764 54.4307 88.9783 58.8568 15.3293 -2.3293 48.9138 -1.7060 -23.1086 1.2975
-36.7683 57.6187 62.4553 22.1052 21.0362 4.1055 1.3620 11.5234 0.3409 -0.2770 -0.9030 -0.6660 -2.8077 21.8407 -3.7947 -19.4602 46.4688 -7.7216 -1.3358 -3.2028 -6.7183 -6.6392 3.1500 -8.3635 -0.2050 -0.1825 -0.0254 0.5266 -10.2711 -3.5576 -0.9396 -10.1986 3.6213 -15.3556 12.9409 -14.9190 -57.6559 -42.8050 6.3699 -2.8297 -0.9805 -55.2074 -0.8234 -13.2444 2.3407 -15.3282 11.2137 16.4931 -61.1305 2.0943 1.5594 -1.0123 14.6282 16.8979 43.1492 -21.4702 28.2265 -0.2101 -0.3654 31.9863 -13.6895 -2.0179 -3.6511 16.0286 7.1819 -15.4214 50.7534 -3.2903 -4.8999 22.5322 -31.8041 6.2970 -4.7323 78.7313 -5.3027 -12.7358 -14.5671 11.6546 1.7544 -7.4529 -2.4004 -32.0748 -11.2415 -1.1598 33.1069 88.8637 37.6255 14.8530 0.1501 45.0780 -1.6233 -20.4260 1.2186
-38.9807 57.6774 64.9993 24.5693 25.1038 6.3514 2.0035 12.0252 0.2020 -0.0877 -0.8085 -0.9812 -2.3099 21.7510 -4.0958 -15.8579 45.2121 -8.0208 -1.0874 -3.2083 -5.8289 -5.9928 2.9449 -8.4334 -0.0732 -0.1345 0.0133 0.7032 -10.3427 -3.6097 -0.8508 -10.3195 3.7239 -14.4380 11.6426 -16.9600 -54.3246 -45.2275 3.2843 -3.5321 -1.0359 -55.6018 0.8174 -14.8505 0.4283 -14.8202 11.6676 16.6309 -61.1537 2.2560 1.4711 -0.3000 13.2178 17.4248 40.1709 -26.6650 23.7286 -0.3166 -0.5466 36.2727 -20.5813 -4.9062 -6.0836 16.1099 7.3358 -15.2575 51.3820 -3.0096 -4.6801 20.9213 -31.0119 4.5923 -3.1097 72.1173 -3.9586 -12.8302 -13.2122 7.8640 1.7742 -7.8701 -2.4110 -31.5457 -15.4859 -3.7915 25.9321 89.0480 30.4870 15.3837 4.0715 38.8601 -1.5826 -16.6823 1.1105
-40.9837 57.3157 67.7858 26.8882 28.9614 8.7752 2.7488 12.4268 0.2233 0.0466 -0.7464 -1.0381 -1.6108 21.2734 -4.0118 -11.0525 42.7882 -6.9193 -0.9349 -3.2971 -4.7494 -5.3470 2.0050 -8.0638 0.0547 -0.1046 0.0659 0.8305 -10.4624 -3.6663 -0.7191 -10.5219 3.8525 -13.0838 10.7231 -18.2850 -49.7908 -46.8244 -3.3187 -3.7886 -0.7366 -55.9593 3.0753 -16.0854 -1.4477 -14.6714 11.9973 16.7693 -61.2414 2.2083 1.2479 0.1965 12.1031 18.3935 37.7172 -31.3996 18.8415 -0.0852 -0.7801 40.8267 -28.1824 -6.1640 -7.6687 15.9974 7.4894 -15.2383 51.7719 -2.7820 -4.5152 19.9306 -30.4056 3.3226 -2.6133 65.8617 -3.8285 -12.4953 -12.0088 5.2631 1.8314 -8.3307 -2.3776 -30.7001 -19.4666 -6.7791 12.0059 88.4345 16.5646 15.9407 7.7960 32.9275 -1.5701 -14.4627 1.0659
-42.9332 56.4656 70.9052 29.0919 32.6713 11.2906 3.4485 12.7036 0.4171 0.2041 -0.7205 -0.9140 -0.8112 20.4409 -3.6588 -7.0583 39.4941 -5.4980 -0.6368 -3.3527 -3.5851 -5.0468 0.3517 -7.5774 0.1508 -0.0840 0.1083 0.8854 -10.5216 -3.7068 -0.5751 -10.6870 3.9462 -11.4405 10.1006 -18.8645 -44.2134 -47.4504 -12.6125 -3.7081 -0.4573 -56.3185 6.0672 -16.4666 -3.0244 -14.6564 12.2500 16.9148 -61.2044 2.0354 1.1069 0.1020 11.3826 19.4568 35.3121 -34.1350 14.4599 0.0564 -1.0763 46.4457 -34.0331 -4.8737 -10.0275 15.8927 7.5742 -15.4035 52.0346 -2.5583 -4.4714 19.3373 -30.3889 2.2938 -2.4444 61.4347 -4.1057 -11.7974 -11.3304 3.7185 1.8884 -8.5792 -2.3692 -29.5311 -23.0265 -9.8825 5.9499 87.0905 10.6067 16.1905 10.8707 28.1055 -1.5498 -13.5241 1.0618
-44.9289 55.0520 74.2689 31.5694 36.3259 14.3327 3.9627 12.8674 0.7529 0.3659 -0.7400 -0.6550 0.1651 19.2789 -3.1426 -3.8409 35.3247 -3.9823 -0.3421 -3.3710 -2.4958 -5.0624 -1.7754 -7.0478 0.1777 -0.0708 0.1229 0.8640 -10.5324 -3.7425 -0.4966 -10.7902 4.0008 -9.3771 9.6581 -18.7139 -37.3180 -47.0825 -24.4663 -3.6184 -0.2193 -56.6958 10.1848 -15.8412 -4.3375 -14.7176 12.3644 17.0203 -60.9881 1.8370 1.1669 -0.2889 11.0183 20.5230 33.2694 -35.1466 9.1485 0.4693 -1.7030 54.7661 -39.4804 -1.5197 -13.1587 15.9833 7.5932 -15.7400 52.2559 -2.4317 -4.5573 19.1735 -31.8061 1.1198 -2.6218 60.4121 -4.6576 -10.6314 -11.1233 2.9969 1.9435 -8.2927 -2.3589 -27.9540 -26.1812 -13.1462 3.3226 85.4410 8.1549 16.4487 13.3092 24.7649 -1.5218 -12.8348 1.0681
-47.0079 53.0016 77.9007 34.7199 39.6272 18.4062 4.2687 12.9305 1.0939 0.4427 -0.7687 -0.2729 1.2894 17.8650 -2.4608 -1.2790 30.4464 -2.4679 -0.0787 -3.3328 -1.5930 -5.4056 -4.2371 -6.3714 0.1374 -0.0644 0.1157 0.7766 -10.4576 -3.7612 -0.4871 -10.7661 4.0162 -6.8508 9.5266 -17.5548 -27.8726 -44.9455 -39.8367 -3.4232 -0.0790 -56.5285 15.5730 -13.6814 -4.7303 -14.7631 12.3593 17.0555 -60.6304 1.6433 1.3736 -0.6902 10.9983 21.7300 31.9323 -34.1032 1.6127 0.8273 -2.7609 66.9842 -45.6255 4.4931 -17.4022 16.1697 7.5598 -16.1938 52.3673 -2.3764 -4.6164 19.3881 -34.9140 -0.4446 -3.3515 63.9924 -5.6213 -8.6476 -11.7617 2.8688 1.9386 -7.3001 -2.3118 -25.9016 -28.4252 -16.8247 1.4984 83.1691 6.5963 16.9967 15.5725 22.7175 -1.5450 -12.6518 1.0724
-49.2026 50.3297 81.7048 38.5132 42.4751 23.5157 4.3973 12.7906 1.3727 0.4610 -0.8372 0.1232 2.4146 16.3656 -1.4973 0.5574 25.2907 -1.1914 0.0362 -3.2987 -0.8895 -6.2518 -6.4600 -5.3618 0.0850 -0.0624 0.1030 0.6986 -10.2969 -3.7622 -0.5124 -10.5912 4.0030 -3.9015 9.8608 -15.1685 -16.4626 -39.9529 -57.3542 -3.2128 -0.2230 -55.2665 22.1591 -9.0552 -2.4342 -14.7914 12.2797 17.0456 -60.0294 1.3847 1.8511 -1.2860 11.0819 23.0049 30.9810 -29.9666 -7.3403 0.0720 -3.6081 81.2798 -51.5059 13.1645 -21.8699 16.4814 7.6341 -16.7005 52.5658 -2.3717 -4.6012 19.9165 -39.2715 -2.3149 -5.5714 71.9309 -7.8840 -6.1449 -13.3681 4.7198 1.8638 -5.7207 -2.2268 -23.1276 -29.3855 -20.8561 0.1716 80.2985 5.5315 17.9241 17.2334 21.5873 -1.6259 -12.6635 1.0611
-51.4589 46.9596 85.6167 42.8525 45.2012 29.3893 4.4459 12.4341 1.6699 0.4963 -1.0531 0.3561 3.2300 14.7478 -0.3346 1.6227 20.7258 -0.4142 -0.2099 -3.3262 -0.3408 -7.4273 -7.5625 -3.8938 -0.0029 -0.0731 0.0759 0.5989 -10.1472 -3.7590 -0.5876 -10.3482 3.9701 -1.0164 10.3733 -11.9920 -7.1885 -33.1065 -71.9766 -3.1548 -0.7796 -54.0640 30.2541 -2.7205 3.8159 -14.9684 12.0217 16.7934 -59.5275 1.2329 2.3546 -2.3377 10.8786 23.1638 30.9013 -23.0617 -15.0821 -1.7742 -3.8300 94.4944 -58.4226 22.9683 -27.6699 17.0873 7.8620 -16.9268 53.1741 -2.2568 -4.4306 20.1611 -44.0866 -3.7169 -16.1611 82.7435 -18.5205 -3.9377 -14.4019 9.4628 1.8986 -4.6868 -2.2615 -19.6361 -28.4444 -24.7606 -0.6721 76.3395 4.6582 19.4612 17.5421 21.9772 -1.6940 -12.0235 1.0161
-53.9736 43.2392 89.8347 47.6442 48.8795 35.4525 4.2534 11.8736 2.2545 0.6628 -1.3706 0.3561 3.1916 12.9609 0.6385 1.8780 17.2055 0.0699 -0.6424 -3.3397 0.1153 -8.1273 -7.2219 -2.1461 -0.1056 -0.1051 0.0229 0.4681 -10.1416 -3.7894 -0.6668 -10.2134 3.9233 0.8105 10.4906 -9.0593 -4.1589 -27.9465 -79.2336 -2.9972 -1.6992 -55.7022 43.1414 2.0438 10.5277 -15.3610 11.5774 16.5856 -59.3057 1.2646 2.7355 -3.1903 10.2296 22.0554 32.4224 -15.4027 -19.2398 -3.5071 -4.0064 105.4531 -70.4361 31.2184 -38.1613 17.5139 8.0285 -16.6643 54.1491 -2.0198 -4.0741 18.5502 -48.7500 -2.0607 -150.5624 85.1581 -153.0161 -3.7846 -13.3830 16.1881 2.1398 -4.4387 -2.3252 -15.7573 -25.8754 -27.0505 -0.5718 70.3976 4.1447 21.5578 16.2362 22.9688 -1.7135 -10.4042 0.9150
-56.9724 39.4909 94.5499 54.2910 53.3270 42.5850 3.4555 11.1962 2.8734 0.8659 -1.6461 0.3474 2.3255 11.3535 0.9966 1.5111 13.7802 0.8495 -0.5292 -3.2758 0.4295 -8.4239 -6.1540 -0.3081 -0.0990 -0.1518 -0.0126 0.4388 -10.2034 -3.8516 -0.6307 -10.1874 3.9015 1.4657 10.9894 -6.9652 -6.8011 -24.3411 -78.6653 -2.5359 -2.6812 -62.3641 62.8990 5.1155 15.6195 -15.5297 11.1218 16.4613 -59.1266 1.4765 3.3022 -3.7952 9.4954 19.7977 36.9121 -7.6890 -19.1566 -5.0693 -4.4537 116.3863 -88.6904 35.5828 -51.1319 17.3323 7.9397 -16.4103 54.6316 -1.9856 -4.0102 13.5037 -53.5604 4.5634 -168.4046 75.7489 -170.8585 -5.8452 -10.3453 21.9127 2.3069 -4.8904 -2.2994 -12.6780 -22.9219 -26.4727 -0.0548 62.3950 3.2932 24.4048 14.1098 23.3733 -1.7729 -8.5557 0.7539
-60.3931 36.1368 99.6620 64.4601 56.7834 52.6943 1.8991 10.2914 2.7503 0.7716 -2.0679 0.3192 1.3094 10.3733 0.9100 2.0427 10.1574 2.3248 -0.0866 -3.3885 0.8163 -8.5281 -4.6946 0.7405 0.0498 -0.1875 -0.0216 0.6261 -10.2214 -3.9286 -0.5186 -10.1596 3.9096 2.2053 11.8221 -6.0348 -13.3721 -20.7106 -70.7540 -2.1416 -3.3901 -72.8580 80.6595 7.7704 14.5881 -14.9545 10.7386 16.3167 -58.8689 1.4272 3.6374 -3.8243 8.8973 16.4556 43.8571 -0.8001 -15.2821 -4.1664 -2.4818 126.5681 -104.2291 38.0003 -58.6946 16.8908 7.9422 -16.5197 54.4876 -2.1016 -3.9813 5.1030 -58.3835 15.1609 -171.0014 67.7981 -173.5788 -8.4166 -3.2243 24.3279 2.4000 -5.4447 -2.2513 -11.8880 -20.7369 -22.6875 0.4115 54.7827 0.7645 26.7294 11.4816 22.2538 -1.8139 -7.0935 0.6545
-64.1894 32.2391 104.7122 77.5642 58.1714 65.3323 0.2114 9.3092 1.9674 0.6538 -2.5566 0.1419 -0.2931 9.6854 0.5579 2.2992 6.0587 3.6030 0.3773 -3.4771 1.3425 -7.6069 -3.8932 2.4910 0.1563 -0.1614 -0.0999 0.7356 -10.0388 -4.0688 -0.4093 -9.8606 3.8467 3.5695 13.4850 -5.0878 -20.1152 -17.0038 -60.3877 -1.7272 -2.6667 -82.0367 89.6219 10.2108 9.7589 -14.5961 10.5236 16.2785 -59.1402 1.3391 3.5826 -2.5955 8.9163 13.5922 51.1286 4.9142 -11.5046 -0.2919 1.5678 135.1859 -113.1136 40.4012 -60.6557 16.3734 7.7781 -16.6998 53.4220 -2.0634 -4.1786 -5.5171 -62.7831 28.6894 -171.6743 60.7292 -174.4642 -9.8795 5.8972 24.0968 2.6799 -4.5839 -2.3119 -14.2625 -18.4432 -12.9625 0.6628 50.0216 -7.2054 27.8318 7.7448 19.6819 -1.8266 -4.8021 0.5175
-67.6710 28.1795 109.4581 91.0902 57.2009 77.9484 -1.4124 8.1378 0.8482 0.5046 -2.9580 0.0202 -1.8596 9.4472 0.0024 1.2880 1.5123 5.0203 1.0625 -3.4702 2.1703 -5.7011 -3.6807 5.1682 0.1623 -0.1319 -0.2192 0.7313 -9.7235 -4.2287 -0.3898 -9.2618 3.7561 4.8256 14.9163 -3.9555 -26.4915 -14.4429 -49.9678 -1.4240 -0.7997 -88.6621 92.0054 10.9117 1.3328 -14.1063 10.6382 16.2415 -59.3133 1.5712 3.1996 -0.3554 9.0182 11.7938 57.4617 9.6099 -10.1182 6.7744 5.6550 142.6279 -119.9090 43.6869 -59.6371 15.8802 7.3591 -16.6756 52.4488 -1.9253 -4.5270 -17.6352 -66.4041 44.0280 -171.2886 54.9539 -174.2353 -10.6465 13.5169 21.5795 3.0942 -3.0334 -2.2291 -20.6134 -11.0889 12.4360 -0.4392 46.9539 -31.9953 28.2201 3.5325 17.5577 -1.8273 -3.3141 0.3688
-70.7540 24.0853 114.0336 102.7522 54.2961 88.1287 -3.0443 6.7261 -0.3993 0.2703 -3.2280 0.0553 -3.6944 9.5726 -0.9477 -0.1957 -1.5849 6.6263 1.9355 -3.3626 3.3415 -2.9974 -3.8766 9.2042 0.1235 -0.0978 -0.3454 0.6044 -9.2910 -4.3610 -0.3387 -8.4300 3.6390 6.1527 15.7547 -2.4237 -31.9808 -12.4398 -40.6764 -0.7798 0.4772 -93.0037 91.3477 10.8826 -9.2953 -13.3784 11.0973 16.1665 -59.5151 2.0257 2.7750 2.4726 8.6720 9.4317 62.5473 13.6553 -7.7959 14.8773 8.7330 147.4858 -129.0109 46.9562 -58.9452 15.6030 6.8042 -16.3838 52.2493 -1.8762 -5.0514 -31.5577 -68.9419 60.7733 -170.5243 50.1982 -173.9664 -10.9755 20.3426 17.9376 3.5913 -1.7750 -2.0275 -22.4099 4.0916 47.7221 -1.9224 43.1353 -69.2535 28.2298 -0.6238 15.7587 -1.8962 -2.8097 0.1878
-73.2749 20.1556 118.0733 110.2234 50.2989 93.8831 -4.8459 5.0787 -1.3792 -0.2565 -3.6081 -0.1038 -5.5377 10.0479 -1.9611 1.0310 -0.7187 6.8585 2.1619 -3.3350 4.2456 -0.9583 -4.1852 11.7075 0.1802 -0.0334 -0.4540 0.4393 -8.8896 -4.4586 -0.0646 -7.9319 3.4988 8.0783 16.3832 -0.4573 -35.0297 -10.1775 -34.8939 -0.0733 0.5286 -94.9341 89.6219 10.8287 -17.8361 -13.0938 11.4564 16.0658 -60.2303 2.4336 2.4004 5.9504 9.0055 4.4621 65.0915 15.5183 -1.6700 20.5490 10.4875 147.8899 -137.5317 47.9812 -57.7974 15.7955 5.9607 -16.0189 52.0354 -2.3331 -5.3661 -43.0110 -70.4952 73.9924 -170.0112 46.4371 -174.5889 -10.4513 26.1355 15.4072 3.9061 -1.0282 -1.7692 -17.0184 11.7130 63.1736 -2.0384 38.1293 -83.7819 27.6556 -3.8362 13.5118 -1.9473 -2.5855 0.0189
-75.3322 17.3982 121.5724 113.5926 47.0284 95.7846 -6.5984 3.5701 -1.7275 -0.8608 -4.1288 -0.6548 -6.9223 10.9665 -2.3906 4.2187 3.0312 5.3049 2.0997 -3.5061 4.0022 1.0900 -4.1982 10.4081 0.3392 0.0272 -0.5522 0.2695 -8.6446 -4.6240 0.4181 -7.8419 3.4212 10.3339 17.0259 1.1193 -36.1617 -8.1879 -32.4904 0.1522 0.2348 -95.3031 88.6322 11.6503 -21.8918 -13.5924 11.4786 15.9441 -61.5407 2.8380 2.0169 8.8232 10.5652 -0.9223 64.9537 15.6939 5.7781 22.2379 10.9897 145.6256 -143.0943 47.4171 -54.3946 16.1751 5.3294 -15.6340 51.9075 -2.7704 -5.0444 -49.6780 -71.3964 81.5316 -170.2073 43.4680 -176.1291 -8.7534 29.3594 15.1589 3.8908 -0.5191 -1.5646 -12.3725 13.5526 65.2197 -2.0477 34.3483 -82.9414 27.1702 -5.4502 11.1136 -1.8450 -2.4589 -0.0297
-76.9862 15.9580 124.4117 114.6236 45.1651 95.8183 -7.6636 2.5414 -1.5705 -1.3655 -4.4226 -0.9383 -8.1112 11.9097 -2.5589 6.5743 6.0419 3.6349 2.4337 -3.5791 2.6412 3.2268 -3.5524 7.5624 0.4578 0.0507 -0.5671 0.2364 -8.3815 -4.7106 0.6842 -7.7623 3.4436 11.7524 17.5461 2.0905 -36.4286 -6.5329 -31.9749 0.2140 -0.7761 -95.0678 87.2530 14.1961 -23.9937 -13.9985 11.2164 15.7780 -62.3260 3.1022 1.9479 10.1772 11.8375 -3.8571 64.5880 16.0299 11.1118 22.3825 11.2229 142.7668 -147.9253 47.1747 -50.5212 16.3250 5.1163 -15.0351 52.0142 -2.8312 -4.5670 -52.2152 -71.8596 84.4860 -170.7425 41.5264 -177.5994 -7.3683 30.3713 15.7829 3.7391 -0.1267 -1.5562 -9.4352 13.7962 63.9184 -2.5507 32.9506 -78.8362 26.7803 -5.1397 9.5247 -1.7608 -1.9577 -0.0872
-78.2198 15.5468 126.7908 114.4941 44.5961 95.2022 -8.1806 1.9886 -1.1870 -1.6485 -4.4522 -0.9385 -8.9029 12.6625 -2.5647 7.5765 6.8433 2.7728 3.0519 -3.4602 1.0905 5.2788 -2.4275 5.1033 0.4567 0.0304 -0.5391 0.3007 -8.2162 -4.7719 0.6137 -7.6361 3.5731 12.3690 17.7830 2.7561 -37.2226 -5.2358 -32.5416 0.9444 -1.3368 -94.7486 84.3320 16.7881 -25.6540 -14.1063 10.9443 15.5453 -62.7434 3.2230 1.8738 10.1213 12.6687 -4.7198 64.9356 16.2926 14.5860 21.4573 11.5057 139.7476 -151.1226 47.6705 -46.3793 16.6694 5.1616 -14.6681 52.5913 -2.6876 -4.1759 -51.5021 -71.7531 84.2752 -171.0226 41.0803 -178.7218 -6.2622 30.2597 16.2650 3.5831 0.2166 -1.5528 -7.1038 13.7038 62.9679 -3.0902 32.5252 -75.1680 26.4840 -3.2360 9.0685 -1.6314 -1.3815 -0.1044
-79.3006 15.5158 128.8412 113.6256 44.5587 94.3265 -8.3143 1.7906 -0.9177 -1.6336 -4.3304 -0.8281 -9.3247 12.9826 -2.5125 7.6279 6.0158 2.4866 3.4342 -3.2571 -0.1551 6.9449 -1.3831 3.2458 0.3938 -0.0085 -0.5321 0.3863 -8.0767 -4.8097 0.3998 -7.4649 3.6580 12.4810 17.8663 3.1455 -38.7967 -4.6795 -33.5167 1.9748 -1.3777 -94.1812 80.3666 18.1966 -27.6173 -13.8870 10.8676 15.3881 -62.9752 3.2358 1.7459 9.3591 13.0627 -4.9281 65.8044 16.3796 16.7685 20.6459 12.0528 137.2736 -151.6481 48.0604 -41.5942 17.0048 5.2926 -14.5348 53.3096 -2.4302 -4.0696 -49.1647 -71.0586 82.1325 -171.0839 42.4432 -179.2516 -5.1438 29.7765 16.7968 3.5058 0.4008 -1.5644 -5.2523 13.3115 62.4162 -3.4602 31.8860 -71.9774 26.5112 -0.2053 9.4720 -1.4486 -0.8253 -0.0649
-80.2100 15.5841 130.4209 112.4516 44.3289 93.3787 -8.2097 1.8114 -0.9175 -1.4655 -4.1687 -0.6607 -9.5709 12.7800 -2.6851 7.4301 4.5382 2.5406 3.4194 -3.0572 -0.8010 8.3496 -0.4302 2.0417 0.2532 -0.0641 -0.4969 0.4202 -7.9333 -4.7423 0.0836 -7.2802 3.7117 12.5856 17.8877 3.0943 -40.9509 -4.9600 -33.8979 2.4900 -1.2033 -93.4709 76.9349 18.4174 -29.0956 -13.5283 10.9396 15.3162 -63.1048 3.2359 1.7069 8.4515 13.3724 -5.5894 66.8651 16.2065 18.8519 20.2511 12.5898 135.2327 -150.6127 48.7204 -36.7166 17.2442 5.3218 -14.3587 53.7593 -2.2767 -4.0948 -47.0558 -69.9443 79.5492 -170.7970 45.4897 -178.7726 -4.1451 29.5177 17.2060 3.4859 0.3906 -1.5701 -4.1492 12.6817 61.8081 -3.6253 30.7025 -69.1160 26.9336 2.9171 9.8008 -1.2832 -0.4837 -0.0025
-81.0153 15.5858 131.5626 110.9553 43.6609 92.3327 -8.0797 1.9779 -1.1012 -1.2982 -4.0350 -0.6248 -9.4911 12.1978 -2.9975 7.5592 3.2232 2.6704 3.2156 -2.9029 -1.0438 9.5504 0.5300 1.5880 0.0761 -0.1268 -0.4655 0.3981 -7.8658 -4.6399 -0.2512 -7.1552 3.7174 12.9978 17.9684 2.5061 -43.2990 -5.7371 -33.5770 2.6381 -0.7303 -92.6950 74.7777 17.5357 -29.6432 -13.4286 11.0848 15.2289 -63.3359 3.2546 1.5669 7.4245 13.6497 -7.1507 68.2131 15.8226 21.5997 20.0462 13.0244 133.3791 -148.5925 49.7243 -31.9109 17.4636 5.4110 -14.2940 54.1728 -2.1610 -4.1360 -45.6866 -68.4671 77.1908 -170.0748 49.8923 -177.3671 -2.8975 29.0914 17.9238 3.4966 0.2949 -1.5802 -3.9027 11.9136 61.0985 -3.6772 28.8390 -66.6368 27.6895 5.7116 9.2515 -1.1570 -0.3459 0.0897
-81.8061 15.4499 132.4623 109.0866 42.4025 91.0732 -7.9545 2.3241 -1.4538 -1.0975 -3.9497 -0.7906 -9.1885 11.3571 -3.4660 8.0555 2.2201 2.7798 2.9275 -2.7650 -1.0625 10.5283 1.4519 1.4158 -0.1017 -0.1835 -0.4229 0.4006 -7.8705 -4.5288 -0.6164 -7.0874 3.7333 13.7956 17.9964 1.3862 -45.8138 -6.5449 -32.8044 2.7469 -0.2311 -92.2099 73.2570 16.1035 -29.3489 -13.4608 11.1743 15.1400 -63.4911 3.2312 1.4908 6.0608 13.8586 -9.5373 70.0975 15.3319 24.8535 19.7456 13.4485 131.6215 -144.5103 50.7522 -26.0029 17.8627 5.5415 -14.4270 54.6422 -2.0026 -4.2063 -44.6431 -66.5875 74.8920 -168.6337 55.5216 -174.9349 -1.0533 27.7805 18.9117 3.4389 0.1049 -1.6620 -4.4289 11.1102 60.2138 -3.7601 26.2539 -64.3476 28.6721 8.1139 7.5787 -1.0656 -0.1280 0.1907
-82.6504 15.0865 133.0714 107.1608 40.6741 89.8880 -7.8359 2.7659 -1.8466 -0.8172 -3.8951 -1.0829 -8.7434 10.3912 -4.1488 8.6754 1.4701 2.6805 2.7595 -2.5960 -1.0571 11.3262 2.3332 1.2356 -0.2661 -0.2188 -0.3750 0.3873 -7.9187 -4.4152 -0.9398 -7.0521 3.7671 14.9062 17.9274 0.0129 -48.2770 -7.1119 -31.9661 3.0911 0.2130 -92.4059 72.1217 14.4978 -28.4606 -13.4799 11.1546 15.0600 -63.3433 3.0947 1.4888 4.2821 13.9250 -12.6398 72.3410 14.7709 28.0863 19.4686 13.9217 130.0980 -137.9362 51.1820 -18.1411 18.2970 5.7454 -14.6509 55.2179 -1.6972 -4.2651 -44.5142 -64.2830 73.2282 -166.2953 62.0248 -171.2196 0.8816 25.2979 19.7931 3.2667 -0.1381 -1.8724 -5.8721 10.3812 59.1485 -3.9463 22.7542 -61.9665 29.7897 10.2380 4.8299 -0.9966 0.1584 0.2806
-83.5848 14.8295 133.5343 105.2163 38.8874 88.8647 -7.6851 3.2353 -2.1845 -0.4405 -3.7512 -1.5138 -8.1695 9.5486 -4.8501 9.2132 1.0566 2.2523 2.9796 -2.4165 -1.0680 11.6215 3.1633 0.8876 -0.3513 -0.2137 -0.3362 0.4091 -8.0104 -4.3650 -1.1404 -7.1057 3.8203 16.1717 17.6818 -1.4207 -50.4477 -7.3457 -31.1523 3.6552 0.7719 -93.5660 71.3868 12.8451 -27.4679 -13.7165 11.0059 14.8853 -63.1780 2.9469 1.4532 2.0603 13.7150 -15.8924 74.9010 14.2468 31.2938 18.8499 14.2262 128.8579 -130.4634 51.1336 -9.4288 18.7486 5.9030 -14.8558 55.5708 -1.4070 -4.3724 -44.7438 -62.0135 71.5050 -162.7665 68.7689 -166.2646 2.4026 22.0030 20.3014 3.0243 -0.6132 -2.1747 -7.8383 9.7939 58.3313 -4.3242 18.3716 -59.3050 31.1054 12.4102 1.3181 -0.9465 -0.1226 0.3838
-84.3301 14.8283 133.7615 103.6872 37.9056 88.1952 -7.6914 3.4059 -2.2150 -0.2929 -3.4453 -1.9127 -7.2044 9.1133 -5.3494 9.5312 1.5940 1.0978 3.7165 -2.1860 -1.0694 11.4162 3.7159 0.5627 -0.2640 -0.1684 -0.4203 0.4932 -8.2598 -4.4708 -1.0488 -7.3468 3.7550 17.5270 17.5035 -2.6509 -52.1798 -6.9106 -31.0555 5.4275 1.6785 -95.6218 70.7576 11.0047 -26.7076 -14.2286 10.8406 14.5096 -63.0219 3.1541 1.3556 -1.0080 13.1388 -18.1362 77.8982 13.2924 34.4256 17.6266 13.8469 127.7614 -123.7465 51.9619 -0.4322 19.1318 5.7143 -14.8180 55.2425 -1.5677 -4.2702 -45.7814 -59.4239 70.1558 -156.4153 75.4069 -158.8042 3.4327 17.6582 20.9159 2.9581 -1.0347 -2.3769 -9.5843 10.0242 58.9463 -5.0155 12.0764 -57.2310 30.5769 16.1848 -3.2389 -0.9272 -3.9503 0.5360
-84.6645 14.8483 133.6382 102.1117 38.4908 87.1621 -7.2532 3.7052 -1.8212 -0.8450 -3.2573 -2.1224 -6.2213 9.0066 -5.2635 9.8846 3.4286 -1.1149 4.0541 -1.8881 -1.3870 10.3946 4.4440 0.5734 -0.2080 -0.1300 -0.6024 0.4362 -8.5678 -4.5945 -0.8710 -7.8035 3.4970 18.3484 17.6255 -3.3110 -52.4054 -5.7546 -31.1401 6.9488 3.1922 -97.5974 69.6679 8.9210 -27.2852 -14.0893 10.8363 14.7295 -61.7657 3.5934 1.6894 -3.9306 13.0698 -17.8705 80.8207 12.1086 36.3368 15.9567 13.0161 126.9392 -115.6978 52.4657 10.9469 18.8023 5.1978 -14.5868 54.2640 -1.7284 -3.9855 -45.5695 -57.1223 67.1988 -142.8793 80.8042 -144.6516 2.9789 12.3627 20.5121 2.8708 -1.5127 -2.8995 -8.7031 11.7569 62.1179 -4.7715 5.7347 -57.2432 30.5198 23.6066 -3.8577 -0.8843 -8.3034 0.5180
-84.7174 13.7073 133.3585 99.8487 41.5548 85.2175 -6.7275 4.0873 -0.8827 -1.0372 -2.9944 -1.4459 -5.8331 9.4676 -4.1275 9.8866 5.5103 -2.0110 4.1808 -1.8833 -2.2656 8.9820 5.4669 0.8096 -0.0841 -0.1234 -0.5829 0.7362 -8.8446 -4.6325 -0.9224 -8.3179 3.5138 18.4848 16.5639 -2.1883 -50.5698 -4.3170 -32.7301 6.6884 2.9914 -98.3175 69.4405 8.4961 -26.0036 -14.1652 10.8944 15.1633 -60.9152 3.2864 1.9118 -6.1545 11.6852 -15.8190 84.0952 12.4249 36.2740 15.4649 12.7083 125.9937 -110.4493 51.6071 20.8039 18.7367 5.4543 -14.6965 54.1305 -1.6369 -3.8400 -40.6860 -55.8669 62.5543 -132.9557 83.4391 -133.9092 4.8566 8.2608 23.3145 2.5522 -2.3785 -2.9813 -3.5237 11.7546 68.0889 -4.6168 1.8051 -60.1833 29.9467 27.6644 -2.1372 -0.9025 -6.4269 0.3977
-84.5950 12.9443 133.0051 98.4508 44.7125 83.7408 -6.5224 4.3162 0.0582 -1.1962 -3.1228 -0.6861 -5.4987 10.4307 -2.8013 9.4901 6.5385 -1.7614 4.2095 -2.0833 -1.9537 8.6312 6.1026 1.6630 -0.0357 -0.1977 -0.5183 0.7693 -9.0934 -4.5642 -0.8637 -8.6408 3.5501 17.8405 15.9200 -0.3587 -48.4863 -3.9196 -34.0002 5.3225 2.0948 -98.6574 69.2701 9.0113 -23.8570 -14.2609 10.9532 15.3064 -61.3650 2.9067 1.9393 -7.4950 10.5561 -13.5542 86.3692 12.7645 35.5397 16.0023 12.8919 125.6091 -109.0763 52.2004 25.1091 18.6098 5.7116 -14.4136 53.9872 -1.3900 -3.2209 -36.4441 -54.8812 60.7161 -129.3390 84.0339 -130.4668 5.7173 5.2667 25.7889 2.3066 -2.8292 -2.7313 0.0167 11.2134 73.2203 -4.8274 -0.2350 -62.1241 29.2300 30.8272 -0.5930 -0.8646 -4.4824 0.3678
-84.6105 12.9473 132.7871 97.6950 46.3321 82.9065 -6.1792 4.5843 0.6156 -1.2589 -3.2151 -0.1486 -5.1657 11.1997 -2.0493 8.7826 6.4680 -0.8408 4.2766 -2.2181 -1.1145 8.8113 5.4967 2.6933 -0.0579 -0.2196 -0.4264 0.6618 -9.1464 -4.4424 -0.8064 -8.6559 3.6296 17.1093 15.8765 0.5218 -47.7142 -4.1799 -34.1032 4.4309 1.1943 -99.4031 68.9244 9.3330 -23.5331 -14.3690 10.7805 15.1652 -61.4004 2.7257 1.8499 -8.1881 10.0680 -12.0047 87.3476 13.0931 34.7065 16.8406 13.0432 126.1180 -108.5859 53.7868 26.0715 18.4814 5.9062 -14.3959 53.9450 -1.2237 -3.0155 -34.1632 -53.9705 60.4009 -119.9406 84.4269 -121.3539 5.7836 3.1597 25.5816 2.1754 -3.1390 -2.6575 1.0068 10.8579 75.5805 -4.9569 -0.5651 -61.9800 29.4940 32.6539 0.1785 -0.8430 -3.5738 0.4158
-84.6917 13.3784 132.6553 97.0505 47.2334 82.3045 -5.9242 4.9027 0.7897 -1.0676 -3.1503 0.2408 -4.6983 11.6456 -1.7026 8.1503 6.0300 -0.0536 4.4692 -2.2785 -0.0953 8.3965 3.9641 3.5363 -0.0983 -0.2120 -0.3714 0.5175 -9.2021 -4.3498 -0.7442 -8.5912 3.6664 16.6437 15.9976 0.5387 -48.2345 -4.8009 -33.4176 4.2688 0.6404 -100.1301 68.3203 8.7591 -24.2248 -14.3034 10.5664 14.9407 -61.0544 2.7947 1.9759 -8.8727 10.0613 -10.9458 87.4901 13.4657 33.8696 17.5817 13.1594 127.3951 -107.9332 54.7625 26.0178 18.3641 6.0552 -14.8913 54.0547 -1.3149 -3.2922 -32.3200 -53.3907 60.1042 -106.7100 84.5236 -108.4815 5.5088 1.6397 24.0375 2.1234 -3.1022 -2.6769 1.1259 10.8088 76.8801 -4.6907 -0.7873 -61.3583 30.1062 33.9207 0.3314 -0.7744 -3.2445 0.5253
-84.6772 13.5779 132.5108 96.4963 48.1375 81.7672 -5.9604 5.1653 1.0407 -0.7933 -3.0022 0.4317 -4.3729 11.6414 -1.5235 7.9675 6.0274 0.1377 4.3812 -2.3155 0.6076 7.2227 2.8095 4.1098 -0.0747 -0.2018 -0.3517 0.4990 -9.2191 -4.3018 -0.6776 -8.5773 3.6430 16.8796 15.9637 0.4355 -49.2205 -5.1221 -32.6460 4.3137 0.6838 -100.1205 68.0780 7.7112 -25.1019 -14.1313 10.4880 14.8672 -60.6102 3.0177 2.0184 -9.4207 10.1795 -10.3470 87.4933 14.2774 33.2213 18.1066 13.4467 128.3872 -107.5445 54.3177 27.5356 18.2043 6.0304 -15.3408 53.9051 -1.4534 -3.6380 -30.9661 -53.1625 60.0340 -102.4455 84.3627 -104.4802 5.2633 0.6536 23.9145 2.1193 -2.7703 -2.7239 1.1903 11.0375 78.5200 -3.9850 -1.3807 -62.3262 30.6094 35.0881 0.6489 -0.6772 -2.5965 0.5424
-84.5460 13.4596 132.2927 96.0156 49.0359 81.2665 -6.2040 5.4147 1.2632 -0.7232 -2.8375 0.5231 -4.1359 11.2275 -1.4157 8.2912 6.6680 0.2827 4.3252 -2.3914 0.8746 6.1141 2.2445 4.5080 -0.0106 -0.2114 -0.3506 0.5560 -9.3504 -4.3260 -0.6036 -8.7138 3.6349 17.5556 15.5898 0.4831 -49.9765 -5.2564 -31.9844 3.8268 1.0095 -99.3917 68.9350 6.9915 -25.4316 -14.0447 10.7202 15.0012 -60.5221 3.2355 1.8675 -9.7194 9.8080 -9.6184 87.6475 15.6958 32.5986 18.1949 13.4115 128.7274 -108.1865 53.4224 28.9518 17.9117 5.9388 -15.6284 53.6469 -1.5594 -3.7390 -29.5722 -53.0990 59.9360 -103.0249 84.2377 -105.1410 4.7597 0.5465 24.2636 2.1715 -2.4644 -2.7426 1.6079 11.3303 80.7744 -2.9262 -2.4763 -65.4232 30.3847 36.9776 1.5961 -0.6796 -2.0030 0.4760
-84.4821 13.2757 132.3960 96.5289 49.4630 81.2306 -6.6740 5.8559 1.4249 -1.0527 -2.8690 0.9240 -3.6778 10.6767 -1.3103 8.8410 6.9870 0.9137 4.3070 -2.4617 0.6622 5.1515 2.6714 4.8460 -0.0836 -0.2231 -0.4728 0.4560 -9.3859 -4.4229 -0.6544 -8.7955 3.5184 18.1494 14.5182 -0.0207 -50.6742 -4.7471 -31.8063 3.3838 1.0979 -98.4985 69.6654 7.1161 -25.5172 -13.8447 11.0239 15.2405 -60.8588 3.4413 2.1211 -10.6919 8.0509 -9.4531 89.4838 17.7298 33.0243 18.0109 13.9756 129.0846 -110.4849 53.0708 28.3115 18.0273 5.6219 -15.3438 53.9021 -1.5539 -3.3655 -28.5592 -52.8096 59.8205 -102.9291 84.4463 -104.6258 2.8131 0.9493 22.0934 2.2551 -1.8729 -2.5474 1.9362 12.0003 82.2421 -2.4088 -3.2975 -66.7193 30.3359 39.3300 2.7447 -0.6847 -2.8935 0.5222
-84.5547 13.3325 132.6388 96.1819 50.7002 80.9016 -6.5903 5.9746 1.6295 -1.3248 -2.7501 1.1405 -3.3559 10.7693 -1.0316 8.9855 7.2176 1.4958 4.3344 -2.4541 0.8240 5.0270 3.1160 4.9612 -0.0805 -0.2232 -0.5085 0.4805 -9.5033 -4.4617 -0.6706 -8.9531 3.4824 17.9655 14.1024 0.2426 -50.3957 -4.0581 -31.4967 3.1783 0.2808 -98.1476 70.3128 8.3927 -24.9862 -13.9714 11.0558 15.2705 -61.1944 3.2273 2.2251 -10.6686 7.8456 -8.5277 89.2308 18.3714 31.9232 18.5102 14.1199 129.4053 -111.8104 52.2485 27.4183 18.1954 5.4005 -15.3739 53.9640 -1.6659 -3.2094 -27.8158 -52.5853 60.9026 -99.7542 84.2506 -101.7136 2.8260 1.2964 22.2521 2.3045 -1.8435 -2.4969 2.5929 11.9851 84.9154 -1.9738 -3.7200 -69.5847 29.7910 40.4803 3.5269 -0.7560 -2.6042 0.4770
-84.6194 13.4253 133.0471 95.9611 51.8418 80.6817 -6.5277 5.9994 1.7802 -1.4143 -2.7220 1.2765 -3.2135 10.9937 -0.6931 8.9507 7.8011 1.7355 4.3956 -2.4237 1.0934 4.9398 3.3726 5.0656 -0.0243 -0.2054 -0.4955 0.5017 -9.5717 -4.4347 -0.5755 -9.0572 3.4572 17.7664 13.9779 0.6377 -50.0293 -3.3654 -31.5935 3.3110 -0.2273 -97.8224 70.6498 9.5195 -24.1760 -14.1331 11.0328 15.2674 -61.5313 3.1335 2.1515 -10.4967 7.7782 -7.8906 88.9299 18.6935 31.4195 18.7029 14.3946 129.3396 -111.2884 51.3656 28.1095 18.3130 5.2948 -15.4366 54.0510 -1.7064 -3.0437 -27.4219 -52.3269 61.8336 -97.1869 84.1168 -99.3234 2.8927 1.4723 22.4381 2.2708 -1.9622 -2.4892 3.1068 11.9864 87.6254 -1.5986 -4.0187 -72.6100 29.5855 41.0849 4.4444 -0.7859 -2.2789 0.4569
-84.7621 13.5451 133.4404 95.8556 52.7825 80.5694 -6.4536 5.9551 1.9012 -1.5073 -2.7292 1.3807 -3.1248 11.1778 -0.4563 8.7861 8.4581 1.9695 4.5029 -2.4106 1.2953 4.9393 3.6209 5.1541 0.0051 -0.1894 -0.4941 0.4985 -9.6517 -4.4282 -0.5128 -9.1503 3.4441 17.5978 13.9710 0.9753 -49.6924 -2.7078 -31.7761 3.5262 -0.4284 -97.4872 70.7519 10.2930 -23.3064 -14.1222 11.0207 15.2638 -61.6228 3.0931 2.0404 -10.4095 7.8345 -7.4102 88.8150 18.7916 31.2860 18.5975 14.8395 129.0358 -109.3405 50.5251 29.8969 18.4032 5.2404 -15.5409 54.1242 -1.7526 -2.9451 -27.1063 -52.0429 62.6241 -94.6651 83.9454 -96.9399 2.7492 1.5736 22.4398 2.2334 -2.0436 -2.4871 3.4736 11.9881 90.1767 -1.3164 -4.1969 -75.7104 29.5446 41.5862 5.4406 -0.8005 -2.0012 0.4538
-84.8807 13.6956 133.8152 95.7228 53.4059 80.3738 -6.3963 5.9283 1.9617 -1.5300 -2.7337 1.3931 -3.1086 11.3253 -0.2916 8.5723 9.0254 2.2483 4.6325 -2.4046 1.5143 4.9552 3.7258 5.3659 0.0229 -0.1749 -0.5090 0.5112 -9.7188 -4.4567 -0.4891 -9.2057 3.4382 17.5375 13.9474 1.1534 -49.5104 -2.1208 -32.0111 3.8138 -0.4189 -97.1998 70.7465 10.7530 -22.6058 -14.1006 10.9669 15.1760 -61.6284 3.0785 1.9941 -10.3204 7.9634 -7.0139 88.6835 18.7799 31.1903 18.3415 15.1246 128.7282 -106.7586 49.8693 31.8647 18.4557 5.2588 -15.7533 54.1920 -1.8162 -2.9735 -26.7786 -51.7232 63.1220 -92.1894 83.7897 -94.5543 2.5556 1.7549 22.2835 2.2112 -2.1278 -2.4905 3.8789 12.0755 92.3478 -1.0345 -4.4389 -78.5852 29.7412 42.1352 6.5641 -0.8139 -1.8725 0.4661
-85.0231 13.8470 134.0697 95.5452 53.7341 80.1247 -6.3715 5.9388 1.9727 -1.5134 -2.7480 1.3702 -3.0884 11.4296 -0.2002 8.3244 9.4330 2.5287 4.7118 -2.4142 1.7246 4.9380 3.6441 5.6753 0.0440 -0.1596 -0.5233 0.5356 -9.7464 -4.4937 -0.4712 -9.2250 3.4370 17.5151 13.9632 1.2087 -49.3791 -1.8152 -32.2016 4.0390 -0.4432 -96.8675 70.6763 10.9867 -22.2167 -14.0309 10.9294 15.1052 -61.6354 3.0800 1.9700 -10.2693 8.0975 -6.6688 88.6360 18.7516 31.1309 18.0873 15.3238 128.4797 -103.8090 49.3635 33.9561 18.6224 5.1893 -15.8304 54.2046 -1.8629 -3.0253 -26.4095 -51.4385 63.3147 -89.3089 83.6663 -91.7255 2.3813 1.9658 21.9830 2.1985 -2.1542 -2.5198 4.2210 12.1404 93.9106 -0.8728 -4.7405 -80.8537 30.1793 42.6891 7.7566 -0.8192 -1.8018 0.4871
-85.1866 13.9702 134.3474 95.4429 53.8514 79.8665 -6.3864 6.0036 1.9428 -1.5251 -2.7558 1.3654 -3.0755 11.4445 -0.1549 8.1515 9.6691 2.7356 4.7517 -2.4321 1.9897 4.8777 3.5144 6.0369 0.0691 -0.1498 -0.5284 0.5543 -9.7501 -4.5126 -0.4387 -9.2163 3.4372 17.5358 13.9647 1.1740 -49.2992 -1.8078 -32.2183 4.0009 -0.5084 -96.5197 70.7330 10.9030 -22.0890 -13.9731 10.9178 15.0719 -61.6147 3.1110 2.0105 -10.1812 8.1742 -6.4071 88.6356 18.8837 31.0820 17.8947 15.4922 128.2988 -100.8547 49.0058 36.2393 18.8069 5.2092 -15.8609 54.3179 -1.8766 -3.0788 -26.0303 -51.1547 63.2625 -86.3067 83.5646 -88.7511 2.1792 2.1473 21.6636 2.1886 -2.1634 -2.5383 4.5809 12.2771 94.8819 -0.7120 -5.0834 -82.3744 30.5472 43.1301 8.7038 -0.8233 -1.7599 0.4946
-85.3457 14.0228 134.4514 95.4477 53.9372 79.7107 -6.4322 6.0794 1.9328 -1.5213 -2.7414 1.3639 -3.0823 11.3686 -0.1342 7.9521 9.8037 2.9361 4.7901 -2.4585 2.2705 4.7892 3.3435 6.4155 0.0948 -0.1470 -0.5218 0.5707 -9.7291 -4.5113 -0.4032 -9.1963 3.4396 17.5346 13.9345 1.1264 -49.2145 -1.9995 -32.0676 3.7539 -0.5226 -96.1718 70.8965 10.6168 -21.9874 -13.9696 10.9703 15.0838 -61.6620 3.1373 2.0618 -10.1439 8.1123 -6.1771 88.7103 19.2119 31.0055 17.7832 15.5856 128.2373 -98.2232 48.7729 38.2935 18.9636 5.2520 -15.9162 54.4310 -1.8996 -3.1700 -25.7691 -50.9336 63.2369 -83.5529 83.4543 -86.0284 1.9338 2.3284 21.3471 2.1926 -2.1283 -2.5451 4.7716 12.4488 95.4598 -0.6058 -5.3188 -83.3964 30.9576 43.4648 9.5931 -0.8155 -1.7392 0.5024
-85.5217 14.0470 134.5760 95.4558 53.9980 79.5644 -6.4512 6.1738 1.9191 -1.5848 -2.7208 1.4120 -3.0780 11.2510 -0.1323 7.7274 9.8734 3.1377 4.8222 -2.4767 2.5251 4.7873 3.1665 6.8127 0.1150 -0.1473 -0.5144 0.5850 -9.6945 -4.4986 -0.3764 -9.1709 3.4333 17.5175 13.8713 1.0816 -49.1511 -2.1887 -31.8550 3.4387 -0.6368 -95.9099 71.0268 10.2775 -22.0057 -13.9691 11.0044 15.0525 -61.6834 3.1802 2.0598 -10.1678 7.9560 -6.0264 88.8656 19.6406 31.0287 17.7115 15.6399 128.2236 -96.1345 48.6541 39.9090 19.0329 5.3108 -15.9046 54.5217 -1.9032 -3.2090 -25.5480 -50.7345 63.1844 -80.9354 83.3472 -83.4784 1.7540 2.4865 21.0805 2.2223 -2.1355 -2.5433 4.9627 12.6041 95.7836 -0.4569 -5.5278 -83.9737 31.1318 43.6207 10.1304 -0.8012 -1.6897 0.5072
-85.6245 14.0280 134.6226 95.5092 54.0499 79.4946 -6.5075 6.2337 1.9302 -1.5933 -2.7018 1.4624 -3.1127 11.1632 -0.1345 7.5351 9.9062 3.3442 4.8109 -2.4953 2.7875 4.9003 2.9162 7.2264 0.1286 -0.1440 -0.5094 0.5900 -9.6634 -4.4873 -0.3539 -9.1532 3.4236 17.4806 13.8504 1.0309 -49.0714 -2.3500 -31.6210 3.2186 -0.8789 -95.6842 71.0687 9.9795 -22.2036 -13.9585 11.0576 15.0405 -61.6813 3.2310 2.0485 -10.2292 7.7810 -5.9216 89.0071 20.0522 31.0020 17.7478 15.7076 128.3571 -94.4713 48.5569 41.0754 19.1325 5.3567 -15.8895 54.6583 -1.9543 -3.2307 -25.3500 -50.5389 63.1569 -78.4345 83.2674 -81.0481 1.5914 2.5703 20.8606 2.2582 -2.0879 -2.5349 5.0677 12.7260 95.8980 -0.3537 -5.6614 -84.1712 31.2729 43.7809 10.4907 -0.7891 -1.6678 0.5221
-85.7300 13.9439 134.6057 95.5295 54.0913 79.3792 -6.5852 6.3060 1.9543 -1.5979 -2.6767 1.5339 -3.1651 11.0798 -0.1280 7.4024 9.9967 3.5268 4.7603 -2.5097 2.9909 5.0002 2.6111 7.6633 0.1420 -0.1370 -0.5163 0.5903 -9.6233 -4.4867 -0.3280 -9.1388 3.4046 17.5449 13.8624 1.0000 -49.1269 -2.5257 -31.4511 3.0809 -1.2029 -95.5023 71.0265 9.7912 -22.5341 -13.8926 11.0929 14.9786 -61.7578 3.2914 2.0239 -10.3816 7.6511 -5.8710 89.2725 20.4105 31.1128 17.7625 15.8532 128.4614 -93.2641 48.5308 41.8689 19.1772 5.3354 -15.9094 54.6077 -2.0191 -3.2389 -25.1367 -50.3335 63.0639 -76.2885 83.2045 -78.9772 1.4316 2.5500 20.6477 2.2881 -2.0687 -2.5339 5.1185 12.8149 95.9517 -0.2820 -5.6644 -84.1891 31.3329 43.8979 10.6541 -0.7767 -1.6181 0.5259
-85.8128 13.8885 134.5103 95.6215 54.0812 79.3050 -6.6658 6.3828 1.9508 -1.6057 -2.6520 1.6235 -3.2345 10.9491 -0.0946 7.3359 10.0635 3.6886 4.7485 -2.5069 3.0876 5.1107 2.3514 8.0576 0.1316 -0.1328 -0.5263 0.5575 -9.5961 -4.4833 -0.3156 -9.1323 3.3858 17.5738 13.8733 0.9471 -49.2040 -2.6466 -31.2883 2.9136 -1.5976 -95.3070 70.9896 9.7574 -22.9761 -13.7888 11.1744 14.9658 -61.8219 3.3664 2.0371 -10.5789 7.4934 -5.9025 89.6796 20.8416 31.4190 17.7003 16.0352 128.5569 -92.2275 48.4943 42.7296 19.2315 5.2798 -15.9072 54.5438 -2.0206 -3.3029 -24.9356 -50.1471 62.9400 -74.5635 83.1479 -77.3239 1.2087 2.5241 20.3955 2.3067 -2.0398 -2.5324 5.1797 12.9380 95.9205 -0.2102 -5.6720 -84.2021 31.3959 44.0689 10.7712 -0.7689 -1.5726 0.5205
-85.8354 13.8040 134.3652 95.7106 54.0412 79.2921 -6.7161 6.4343 1.9516 -1.6503 -2.6388 1.6881 -3.2747 10.8195 -0.0369 7.3157 10.1173 3.8220 4.7782 -2.4950 3.1744 5.2412 2.1441 8.4759 0.1138 -0.1299 -0.5516 0.5197 -9.5846 -4.5030 -0.3139 -9.1350 3.3553 17.5917 13.8535 0.8799 -49.3243 -2.7337 -31.1629 2.8230 -1.9255 -95.0040 70.9402 9.7267 -23.5146 -13.6848 11.2626 14.9735 -61.8391 3.3898 2.0662 -10.7878 7.3773 -5.9437 90.1905 21.1732 31.7741 17.6172 16.3178 128.5732 -91.3993 48.3419 43.5513 19.3066 5.2138 -15.9064 54.5598 -2.0553 -3.3066 -24.8344 -50.0324 62.8234 -73.4272 83.1455 -76.2556 0.9512 2.5373 20.1599 2.3219 -2.0296 -2.5309 5.1336 13.0206 95.8051 -0.2590 -5.5905 -84.1592 31.5376 44.2350 10.8538 -0.7670 -1.5205 0.5208
-85.7986 13.7555 134.1776 95.8151 53.9921 79.2786 -6.7638 6.4666 1.9637 -1.6800 -2.6153 1.7468 -3.3480 10.6595 0.0008 7.2712 10.1914 3.9351 4.8455 -2.4674 3.1908 5.3565 2.0005 8.8006 0.1022 -0.1307 -0.5928 0.4904 -9.5709 -4.5378 -0.3100 -9.1342 3.3124 17.6564 13.7708 0.8174 -49.5906 -2.8252 -31.0553 2.6765 -2.2377 -94.5787 70.8325 9.7111 -24.1598 -13.6172 11.3104 14.9672 -61.8541 3.3672 2.0579 -11.0814 7.3052 -5.9916 90.7114 21.4665 32.1934 17.5126 16.5693 128.5708 -90.7852 48.1543 44.2536 19.3498 5.1311 -15.9074 54.5688 -2.0675 -3.3110 -24.8120 -49.9054 62.8000 -72.7113 83.1477 -75.5954 0.7208 2.5004 19.9402 2.3426 -1.9356 -2.5212 5.1434 13.1164 95.6990 -0.2750 -5.5983 -84.1222 31.6647 44.3922 10.8884 -0.7687 -1.4208 0.5150
-85.7665 13.6819 134.0768 96.0050 53.8993 79.3390 -6.7950 6.4844 1.9753 -1.7270 -2.5925 1.7892 -3.4259 10.4893 0.0300 7.2070 10.2512 4.0557 4.9404 -2.4350 3.1685 5.5040 1.8702 9.0628 0.0901 -0.1326 -0.6233 0.4690 -9.5490 -4.5606 -0.3129 -9.1098 3.2786 17.7385 13.6482 0.7407 -49.9194 -2.8880 -30.9608 2.5895 -2.5683 -94.1658 70.5979 9.7513 -24.7907 -13.5852 11.3282 14.9365 -61.9014 3.3300 2.0218 -11.3748 7.2445 -6.0811 91.1931 21.6556 32.6139 17.3862 16.8185 128.4815 -90.2666 47.9348 44.9346 19.4479 5.0412 -15.8888 54.5789 -2.0573 -3.3284 -24.8835 -49.7982 62.7938 -72.2949 83.2122 -75.1945 0.5843 2.5392 19.7948 2.3654 -1.8809 -2.5167 5.1680 13.2387 95.4944 -0.3164 -5.6440 -83.9766 31.8506 44.4639 10.8889 -0.7782 -1.3112 0.5090
-85.7037 13.6099 133.9263 96.1101 53.7811 79.3540 -6.7737 6.5168 1.9898 -1.7588 -2.5636 1.8280 -3.5480 10.3302 0.0363 7.0996 10.2957 4.1748 5.0658 -2.4038 3.0997 5.6254 1.7320 9.2314 0.0916 -0.1280 -0.6428 0.4668 -9.5290 -4.5853 -0.3074 -9.0900 3.2596 17.8343 13.5737 0.6609 -50.1998 -2.9302 -30.8710 2.5737 -2.8144 -93.7633 70.2905 9.7882 -25.2248 -13.5531 11.3522 14.9373 -61.9372 3.2692 1.9906 -11.6276 7.1994 -6.1834 91.6429 21.7949 33.1096 17.2143 17.0567 128.4066 -89.6584 47.6801 45.6605 19.5425 4.9335 -15.8960 54.5172 -2.0736 -3.3190 -24.8695 -49.6826 62.7332 -71.7782 83.2566 -74.6740 0.4805 2.5886 19.6875 2.3656 -1.8647 -2.5143 5.1420 13.3106 95.2745 -0.4270 -5.6022 -83.7360 32.0989 44.4325 10.7877 -0.7881 -1.2237 0.5153
-85.7592 13.5246 133.9387 96.2058 53.6326 79.3657 -6.7496 6.5476 2.0255 -1.7692 -2.5384 1.8688 -3.6681 10.1811 0.0274 7.0052 10.3205 4.3032 5.1064 -2.3887 2.9695 5.7527 1.6741 9.3394 0.0893 -0.1236 -0.6567 0.4666 -9.5103 -4.6058 -0.3128 -9.0762 3.2573 17.9550 13.5000 0.5437 -50.4518 -2.9552 -30.7861 2.5691 -3.1024 -93.3796 69.9177 9.8662 -25.5215 -13.5071 11.3373 14.9114 -61.9310 3.2205 1.9978 -11.8719 7.1220 -6.2889 92.1020 21.9486 33.5449 17.0189 17.2302 128.2895 -89.0414 47.4970 46.4481 19.6853 4.8463 -15.8727 54.5347 -2.0701 -3.3203 -24.9136 -49.6087 62.6657 -71.7075 83.3335 -74.5657 0.3919 2.6612 19.6246 2.3747 -1.9059 -2.5052 5.1630 13.3968 94.9380 -0.4951 -5.6203 -83.3274 32.3763 44.4062 10.6405 -0.8097 -1.1718 0.5166
-85.6799 13.4412 133.8915 96.2850 53.4780 79.3783 -6.6964 6.5746 2.0521 -1.7926 -2.5197 1.8829 -3.7722 10.0403 0.0502 6.8525 10.3667 4.3447 5.2501 -2.3668 2.9058 5.8100 1.6660 9.3423 0.1071 -0.1149 -0.6546 0.4738 -9.4839 -4.6122 -0.2829 -9.0402 3.2605 18.0570 13.3995 0.4331 -50.6536 -2.9334 -30.7370 2.5644 -3.2835 -92.9988 69.5315 9.8711 -25.6262 -13.4957 11.3342 14.8677 -62.0321 3.1829 2.0065 -12.0480 7.0229 -6.4382 92.5067 22.0836 33.9998 16.7780 17.3028 128.1331 -88.3845 47.4741 47.0645 19.8612 4.8030 -15.8959 54.5732 -2.0773 -3.3629 -24.9202 -49.5400 62.5511 -71.7837 83.4024 -74.5786 0.3332 2.7070 19.6338 2.3671 -1.9487 -2.5143 5.1933 13.4657 94.6274 -0.6357 -5.6552 -83.0101 32.8065 44.3155 10.6564 -0.8282 -1.1782 0.5268
-85.6193 13.3401 133.9015 96.3964 53.3148 79.4332 -6.6936 6.5664 2.0817 -1.7753 -2.5164 1.9072 -3.8519 9.9121 0.0701 6.7266 10.4425 4.3341 5.3162 -2.3552 2.8518 5.7451 1.6945 9.2823 0.1392 -0.1046 -0.6505 0.4918 -9.4534 -4.6219 -0.2367 -9.0075 3.2696 18.1971 13.2903 0.2653 -50.8898 -2.9281 -30.6472 2.5458 -3.3560 -92.6491 69.1360 9.7949 -25.5936 -13.4485 11.3103 14.8462 -62.0282 3.1399 1.9944 -12.2125 6.9116 -6.6550 92.8486 22.1808 34.6074 16.4058 17.3223 127.8952 -87.6672 47.4358 47.7222 20.0504 4.7788 -15.9482 54.6053 -2.0746 -3.3913 -25.0015 -49.4955 62.4823 -72.1902 83.4874 -74.9061 0.2893 2.7146 19.6297 2.3573 -2.0223 -2.5303 5.1773 13.5171 94.2906 -0.7988 -5.7120 -82.6506 33.3205 44.2147 10.8179 -0.8418 -1.2251 0.5261
-85.4580 13.2565 133.8901 96.4964 53.1510 79.4404 -6.7116 6.5745 2.1106 -1.7340 -2.5213 1.9215 -3.9308 9.7776 0.1019 6.6064 10.5695 4.2814 5.3396 -2.3641 2.8362 5.6400 1.7677 9.1860 0.1688 -0.0961 -0.6396 0.5034 -9.4233 -4.6205 -0.1878 -8.9732 3.2847 18.3488 13.1883 0.1035 -51.1365 -2.9488 -30.5834 2.4895 -3.3710 -92.2679 68.6260 9.6018 -25.6996 -13.3974 11.2827 14.8097 -62.0935 3.1319 1.9484 -12.3005 6.7693 -6.8583 93.0491 22.3095 35.1028 16.0802 17.3045 127.6939 -87.1001 47.3093 48.1835 20.1780 4.7566 -16.0316 54.5991 -2.0794 -3.4569 -25.0043 -49.4313 62.2696 -72.3323 83.5859 -74.9641 0.2027 2.7226 19.6218 2.3475 -2.0672 -2.5510 5.2469 13.6200 93.9256 -0.8643 -5.8545 -82.2840 33.7183 44.1227 10.9731 -0.8461 -1.3396 0.5254
-85.2578 13.1909 133.7807 96.6130 53.0354 79.4641 -6.7004 6.5893 2.1477 -1.7360 -2.5447 1.9348 -3.9546 9.6250 0.1417 6.4051 10.7505 4.2058 5.3531 -2.3852 2.8756 5.4856 1.8614 9.1061 0.1855 -0.0929 -0.6207 0.5112 -9.3710 -4.5906 -0.1609 -8.9263 3.2930 18.4167 13.0985 0.0124 -51.3268 -3.0528 -30.4894 2.3741 -3.3097 -91.8579 68.0385 9.2655 -25.8852 -13.3746 11.2764 14.8071 -62.2002 3.1623 1.8717 -12.3924 6.5996 -7.0769 93.1714 22.4742 35.5750 15.8190 17.1650 127.5178 -86.4570 47.2257 48.6570 20.3226 4.7241 -16.1369 54.5467 -2.1245 -3.5429 -24.9491 -49.3298 61.9758 -71.9633 83.6527 -74.5258 0.0345 2.7196 19.6277 2.3376 -2.1019 -2.5757 5.3406 13.7253 93.6485 -0.9147 -6.0199 -82.1515 34.0833 43.9779 11.2194 -0.8472 -1.4803 0.5241
-85.0529 13.1268 133.6119 96.7171 52.9847 79.4719 -6.7326 6.5933 2.1614 -1.7197 -2.5773 2.0037 -3.9550 9.4687 0.1666 6.1476 10.8941 4.1419 5.3763 -2.4147 2.8858 5.3324 1.9891 9.0447 0.2006 -0.0919 -0.5961 0.5187 -9.3423 -4.5551 -0.1367 -8.8972 3.3033 18.4470 13.0208 -0.0480 -51.5014 -3.2702 -30.2308 2.0179 -3.2566 -91.4200 67.5583 8.9041 -26.2101 -13.4125 11.2570 14.8421 -62.3555 3.1789 1.8034 -12.5192 6.4839 -7.2743 93.1594 22.5753 35.8978 15.6917 16.9801 127.3591 -85.7971 47.2168 49.1688 20.4406 4.6707 -16.2347 54.4302 -2.1524 -3.6177 -24.9136 -49.2385 61.7171 -71.8591 83.7233 -74.3619 -0.1315 2.6653 19.6682 2.3300 -2.1156 -2.5923 5.4474 13.8282 93.5324 -0.9258 -6.1569 -82.2046 34.2036 43.8571 11.2872 -0.8487 -1.5950 0.5236
-84.8111 13.0506 133.4566 96.7922 53.0051 79.4679 -6.7673 6.5710 2.2077 -1.7411 -2.6147 2.0433 -3.9214 9.3210 0.1962 5.8980 11.0814 4.1302 5.3860 -2.4513 2.8823 5.1840 2.1447 9.0584 0.2068 -0.0920 -0.5732 0.5152 -9.3222 -4.5183 -0.1202 -8.8788 3.3091 18.4750 12.9844 -0.0695 -51.6515 -3.4923 -29.9058 1.6421 -3.2294 -90.9321 67.1322 8.4145 -26.7726 -13.4642 11.2704 14.8718 -62.5668 3.2337 1.6822 -12.6862 6.3874 -7.4995 93.1770 22.6022 36.2931 15.5973 16.7975 127.1872 -85.0917 47.1934 49.6717 20.5147 4.6207 -16.3383 54.2902 -2.2216 -3.6657 -24.8192 -49.1174 61.4803 -71.6897 83.7977 -74.1396 -0.3233 2.5684 19.7112 2.3259 -2.1328 -2.5881 5.5881 13.8745 93.5795 -0.8853 -6.2773 -82.4706 34.2085 43.7518 11.2883 -0.8594 -1.6701 0.5223
-84.7289 12.9780 133.4044 96.9240 53.0897 79.5125 -6.7911 6.4978 2.2547 -1.7727 -2.6739 2.1328 -3.8801 9.1732 0.1735 5.6681 11.2313 4.1743 5.3612 -2.4925 2.8541 5.0309 2.3100 9.0809 0.1747 -0.0995 -0.5476 0.4696 -9.3204 -4.4654 -0.1388 -8.8681 3.3182 18.4961 12.9390 -0.0698 -51.8561 -3.7488 -29.5263 1.1261 -3.2250 -90.4447 66.8960 8.0563 -27.2070 -13.5051 11.3221 14.9499 -62.7272 3.2627 1.5228 -12.8974 6.3319 -7.7053 93.1833 22.6135 36.7995 15.5033 16.5659 126.9513 -84.3679 47.3527 50.1245 20.6545 4.5940 -16.4173 54.1749 -2.2144 -3.7273 -24.7532 -48.9962 61.3361 -71.6547 83.8368 -74.0789 -0.5955 2.4449 19.6674 2.3300 -2.1195 -2.5627 5.7858 13.9269 93.7568 -0.8061 -6.4397 -82.9680 34.1491 43.5691 11.3141 -0.8760 -1.6614 0.5138
-84.6163 12.9096 133.4596 97.0074 53.2093 79.6044 -6.7778 6.3643 2.3086 -1.8129 -2.7482 2.2000 -3.8269 9.0792 0.1405 5.4449 11.2940 4.2106 5.3596 -2.5088 2.8567 4.8897 2.4664 9.0683 0.1416 -0.1019 -0.5317 0.4296 -9.3216 -4.4228 -0.1657 -8.8670 3.3140 18.5104 12.8797 -0.0640 -52.0003 -3.7422 -29.2593 0.8219 -3.2713 -90.0432 66.8021 7.7763 -27.6065 -13.5193 11.3805 15.0227 -62.8255 3.2721 1.3706 -13.1276 6.3310 -7.8984 93.2894 22.4859 37.5452 15.2987 16.2770 126.5886 -83.7478 47.6103 50.3164 20.7171 4.5522 -16.4291 54.0484 -2.2391 -3.6859 -24.7879 -48.9668 61.3867 -72.3667 83.8831 -74.7893 -0.8254 2.3235 19.6741 2.3109 -2.0484 -2.5147 5.9608 13.8824 93.9757 -0.7295 -6.6008 -83.5313 34.0344 43.3669 11.4206 -0.8965 -1.5715 0.5056
-84.5127 12.8347 133.6197 97.0475 53.4513 79.7166 -6.7078 6.1809 2.3185 -1.8899 -2.8494 2.2306 -3.7397 9.0213 0.1678 5.2630 11.3068 4.2651 5.2710 -2.5082 2.8245 4.8892 2.6525 9.0256 0.1066 -0.1118 -0.5610 0.4084 -9.3347 -4.4224 -0.2152 -8.8631 3.2700 18.5488 12.6894 -0.0193 -52.2054 -3.4876 -29.1273 0.6943 -3.2039 -89.7103 66.8965 7.3723 -27.7601 -13.4867 11.4455 15.0847 -62.8108 3.2571 1.2561 -13.4167 6.3256 -8.0533 93.3954 22.3157 38.4058 15.0708 15.9401 126.1807 -83.5031 47.9409 49.8903 20.7204 4.5405 -16.5193 53.8666 -2.2559 -3.6350 -24.8837 -49.0481 61.6591 -74.1654 83.9203 -76.6055 -1.1026 2.1715 19.6355 2.2816 -1.9980 -2.4686 6.1940 13.7279 94.4227 -0.6663 -6.8080 -84.5368 34.0166 43.2220 11.9034 -0.9128 -1.5645 0.4929
-84.4366 12.7770 133.8926 96.8335 53.8107 79.6978 -6.5820 5.9829 2.2366 -1.9610 -2.9539 2.1680 -3.6024 9.0045 0.3034 5.2214 11.2326 4.3742 5.0003 -2.5038 2.8419 4.9016 2.7763 9.1311 0.1292 -0.1304 -0.5966 0.4922 -9.3792 -4.4577 -0.2544 -8.8737 3.2281 18.6405 12.3883 0.0727 -52.4942 -3.0814 -28.9187 0.6599 -2.9170 -89.3172 67.0812 6.5904 -27.9866 -13.4430 11.4051 15.0207 -62.6059 3.1419 1.1399 -13.7999 6.3456 -8.0172 93.3948 22.0478 39.0435 14.9942 15.6670 126.0111 -84.0187 48.1193 48.5414 20.6818 4.5827 -16.5939 53.7550 -2.2167 -3.5818 -24.9964 -49.1724 62.1596 -77.1216 83.8525 -79.7057 -1.2411 1.8550 19.5411 2.2212 -1.8911 -2.4680 6.4349 13.3349 95.3508 -0.7458 -6.8571 -86.0536 34.3665 43.0160 12.7212 -0.9191 -1.7318 0.4852
