HIERARCHY
ROOT Hips
{
	OFFSET 0.0000 0.0000 0.0000
	CHANNELS 6 Xposition Yposition Zposition Zrotation Xrotation Yrotation
	JOINT Spine1
	{
		OFFSET -0.0137 5.0038 -0.0537
		CHANNELS 3 Zrotation Xrotation Yrotation
		JOINT Spine2
		{
			OFFSET -0.0000 7.1253 -0.0298
			CHANNELS 3 Zrotation Xrotation Yrotation
			JOINT Chest
			{
				OFFSET -0.0000 7.5501 -0.8160
				CHANNELS 3 Zrotation Xrotation Yrotation
				JOINT Neck1
				{
					OFFSET -0.1817 26.3113 -0.5533
					CHANNELS 3 Zrotation Xrotation Yrotation
					JOINT Neck2
					{
						OFFSET -0.0000 7.7094 2.3026
						CHANNELS 3 Zrotation Xrotation Yrotation
						JOINT Head
						{
							OFFSET -0.0000 6.1289 1.9537
							CHANNELS 3 Zrotation Xrotation Yrotation
							JOINT Jaw
							{
								OFFSET 0.0026 0.4756 3.0949
								CHANNELS 3 Zrotation Xrotation Yrotation
								End Site
								{
									OFFSET 0.0 1.0 0.0
								}
							}
							JOINT LeftEye
							{
								OFFSET 3.2064 5.3802 7.5869
								CHANNELS 3 Zrotation Xrotation Yrotation
								End Site
								{
									OFFSET 0.0 1.0 0.0
								}
							}
							JOINT RightEye
							{
								OFFSET -3.2224 5.3619 7.5582
								CHANNELS 3 Zrotation Xrotation Yrotation
								End Site
								{
									OFFSET 0.0 1.0 0.0
								}
							}
						}
					}
				}
				JOINT LeftShoulder
				{
					OFFSET 1.6217 23.2372 5.1134
					CHANNELS 3 Zrotation Xrotation Yrotation
					JOINT LeftArm
					{
						OFFSET 14.9198 0.0000 -5.5023
						CHANNELS 3 Zrotation Xrotation Yrotation
						JOINT LeftForeArm
						{
							OFFSET 28.7393 0.0000 -0.0026
							CHANNELS 3 Zrotation Xrotation Yrotation
							JOINT LeftHand
							{
								OFFSET 27.0940 -0.0000 0.0026
								CHANNELS 3 Zrotation Xrotation Yrotation
								JOINT LeftHandThumbEnd
								{
									OFFSET 12.2686 -3.2202 4.8331
									CHANNELS 3 Zrotation Xrotation Yrotation
									End Site
									{
										OFFSET 0.0 1.0 0.0
									}
								}
								JOINT LeftHandMiddleEnd
								{
									OFFSET 19.0120 -0.3129 -0.0340
									CHANNELS 3 Zrotation Xrotation Yrotation
									End Site
									{
										OFFSET 0.0 1.0 0.0
									}
								}
							}
						}
					}
				}
				JOINT RightShoulder
				{
					OFFSET -1.3801 23.1803 5.2142
					CHANNELS 3 Zrotation Xrotation Yrotation
					JOINT RightArm
					{
						OFFSET -15.0372 0.0000 -5.5456
						CHANNELS 3 Zrotation Xrotation Yrotation
						JOINT RightForeArm
						{
							OFFSET -28.7366 0.0000 -0.0026
							CHANNELS 3 Zrotation Xrotation Yrotation
							JOINT RightHand
							{
								OFFSET -27.1336 -0.0000 0.0026
								CHANNELS 3 Zrotation Xrotation Yrotation
								JOINT RightHandThumbEnd
								{
									OFFSET -12.2642 -3.2115 4.8040
									CHANNELS 3 Zrotation Xrotation Yrotation
									End Site
									{
										OFFSET 0.0 1.0 0.0
									}
								}
								JOINT RightHandMiddleEnd
								{
									OFFSET -19.0006 -0.3066 -0.0316
									CHANNELS 3 Zrotation Xrotation Yrotation
									End Site
									{
										OFFSET 0.0 1.0 0.0
									}
								}
							}
						}
					}
				}
			}
		}
	}
	JOINT LeftLeg
	{
		OFFSET 10.0432 -8.4345 2.5957
		CHANNELS 3 Zrotation Xrotation Yrotation
		JOINT LeftShin
		{
			OFFSET -0.0000 -43.2218 -0.8029
			CHANNELS 3 Zrotation Xrotation Yrotation
			JOINT LeftFoot
			{
				OFFSET 0.0000 -42.1551 -3.4815
				CHANNELS 3 Zrotation Xrotation Yrotation
				JOINT LeftToeBase
				{
					OFFSET 0.0000 -5.0595 13.2315
					CHANNELS 3 Zrotation Xrotation Yrotation
					End Site
					{
						OFFSET 0.0 1.0 0.0
					}
				}
			}
		}
	}
	JOINT RightLeg
	{
		OFFSET -10.0473 -8.2953 2.6203
		CHANNELS 3 Zrotation Xrotation Yrotation
		JOINT RightShin
		{
			OFFSET 0.0000 -43.3622 -0.8056
			CHANNELS 3 Zrotation Xrotation Yrotation
			JOINT RightFoot
			{
				OFFSET 0.0000 -42.1174 -3.4784
				CHANNELS 3 Zrotation Xrotation Yrotation
				JOINT RightToeBase
				{
					OFFSET -0.0000 -5.0796 13.2842
					CHANNELS 3 Zrotation Xrotation Yrotation
					End Site
					{
						OFFSET 0.0 1.0 0.0
					}
				}
			}
		}
	}
}
MOTION
Frames: 100
Frame Time: 0.033333
3.1106 89.6251 -4.0743 0.7862 -17.3584 -0.1774 -0.9596 7.1836 0.2154 -1.0128 -2.5830 0.2062 -3.7751 20.0088 -1.7126 2.3891 45.0107 2.2159 -0.4564 -3.7035 1.0777 1.1258 -3.5842 0.0770 0.0021 -0.0052 -0.0062 0.7021 -10.6907 -3.8682 -0.6972 -10.7164 3.8590 -9.7498 18.4459 -9.5619 -65.6967 -4.6741 -4.8953 0.5327 0.2240 -33.1683 16.0607 11.2713 1.8268 -15.6953 10.6385 15.7449 -60.3727 1.6007 2.2004 9.5039 19.5260 9.2935 63.9171 0.5863 1.1700 -0.8637 0.3084 44.8512 -20.3928 10.4874 -13.4016 16.0991 7.1131 -16.2696 50.1184 -3.7317 -5.2605 17.1364 -11.8779 12.6349 -0.4177 41.4325 -0.5607 -11.0185 -16.0796 -13.0995 1.6107 -0.0143 -2.0011 -19.2147 -15.0655 -32.6106 0.3629 48.1287 0.3274 5.7264 -20.0597 0.8131 -1.4521 1.1276 0.8485
2.9932 89.8118 -4.1224 0.4411 -17.0566 -0.2042 -0.8796 7.4391 0.1212 -0.9291 -2.5550 0.2363 -3.4336 19.9262 -1.7090 2.2498 42.4171 2.0487 -0.2930 -3.6621 0.6536 0.9208 -4.5201 -0.2623 -0.0418 -0.0259 0.0297 0.6578 -10.6766 -3.8326 -0.7418 -10.6747 3.9107 -9.5640 18.4752 -9.6203 -65.9607 -3.9202 -4.6815 0.3282 0.0839 -33.7425 16.5355 11.1487 1.1865 -15.8110 10.5531 15.7683 -60.3197 1.4966 2.0110 10.8795 19.5389 9.3405 62.7724 0.0813 -0.1944 -0.5429 0.3420 44.2664 -20.8269 8.6657 -11.7534 16.0401 7.1675 -16.2736 50.2921 -3.5613 -5.0881 17.4594 -12.1916 12.5623 -0.4682 41.2258 -0.6342 -10.8572 -15.9789 -12.8473 1.6244 -0.1330 -1.9820 -18.4093 -14.7603 -32.3534 0.3341 47.7640 0.2839 5.4948 -19.8334 0.4929 -1.4570 1.0274 0.8913
2.8592 89.9196 -4.2340 0.1422 -16.5824 -0.2298 -0.8024 7.8086 0.0545 -0.8862 -2.4984 0.2247 -3.0051 19.8878 -1.7041 2.3432 39.3791 2.0472 -0.4069 -3.6521 -0.1432 0.4862 -5.9311 -0.9028 -0.0622 -0.0409 0.0560 0.6391 -10.6568 -3.8082 -0.7651 -10.6476 3.9455 -9.3266 18.5294 -9.7545 -66.3502 -3.0482 -4.5934 0.2500 -0.0478 -34.6072 16.9419 10.6251 0.5145 -15.8981 10.5211 15.8609 -60.2474 1.3873 1.9751 12.3109 19.4741 9.5394 61.6154 -0.4694 -1.5811 -0.2680 0.3056 43.3037 -20.8748 6.8024 -10.2341 15.9812 7.1584 -16.2337 50.3221 -3.4765 -4.9562 17.6870 -12.8555 12.4023 -0.4973 41.1594 -0.6717 -10.7002 -15.7477 -12.4999 1.6350 -0.1481 -1.9388 -17.4948 -14.8616 -32.1275 0.3032 47.5963 0.2340 5.1996 -19.6948 0.1621 -1.4584 1.0786 0.9276
2.6874 89.9966 -4.5325 -0.1164 -15.9350 -0.3371 -0.6938 8.2683 0.0098 -0.8403 -2.4210 0.1993 -2.5750 19.9189 -1.7294 2.5340 36.2618 2.1657 -0.7643 -3.6559 -1.1677 -0.1059 -7.6509 -1.7854 -0.0593 -0.0508 0.0604 0.6377 -10.5968 -3.7903 -0.7575 -10.5855 3.9332 -9.0730 18.6288 -9.9354 -66.8594 -2.2909 -4.6662 0.2972 -0.0916 -35.3564 17.3769 10.0796 -0.1538 -15.9370 10.4702 15.8746 -60.1626 1.3237 1.9562 13.5179 19.3271 9.8885 60.5822 -0.9047 -2.3933 -0.1212 0.3019 41.9867 -20.4614 5.4670 -9.4651 15.9669 7.1051 -16.1599 50.2693 -3.4233 -4.8583 17.8399 -13.7563 12.2346 -0.5102 41.0861 -0.6908 -10.7013 -15.4203 -12.0147 1.6340 -0.0835 -1.9170 -16.4863 -15.2833 -31.9543 0.2387 47.4671 0.1457 4.8400 -19.5520 -0.1556 -1.4609 1.1691 0.9263
2.5034 90.0359 -4.9393 -0.2892 -15.2545 -0.5832 -0.5531 8.7983 -0.0235 -0.7741 -2.3350 0.1329 -2.1977 20.0701 -1.8030 2.6229 33.5619 2.2344 -1.1771 -3.6795 -2.1967 -0.7437 -9.2904 -2.7106 -0.0461 -0.0549 0.0522 0.6460 -10.5126 -3.7748 -0.7388 -10.4994 3.8930 -8.7905 18.8019 -10.1815 -67.4717 -1.7371 -4.9644 0.3645 -0.1161 -35.7470 17.7768 9.6590 -0.6809 -15.9544 10.4400 15.8514 -60.1309 1.3181 1.9186 14.2861 19.1698 10.2595 59.7036 -1.1801 -2.4649 -0.0494 0.2584 40.5740 -19.6656 4.6138 -9.1215 16.0062 7.0667 -16.1097 50.2388 -3.4058 -4.8340 17.8989 -14.7896 12.1798 -0.5264 41.1271 -0.7254 -10.7691 -15.0882 -11.4558 1.6266 0.0568 -1.9155 -15.5124 -15.9963 -31.8169 0.1855 47.5327 0.0618 4.4427 -19.4336 -0.3395 -1.4629 1.2417 0.9051
2.3654 89.9917 -5.4331 -0.3312 -14.6408 -0.9874 -0.4090 9.2926 -0.0653 -0.6908 -2.2320 0.0394 -1.9030 20.2525 -1.9446 2.5694 31.6918 2.1475 -1.4983 -3.7116 -2.9961 -1.2381 -10.5214 -3.5641 -0.0416 -0.0545 0.0580 0.6444 -10.4321 -3.7473 -0.7276 -10.4202 3.8721 -8.5905 18.9960 -10.4785 -67.9800 -1.2993 -5.6968 0.4520 -0.0975 -35.6341 17.7975 9.3876 -0.8918 -16.0126 10.4280 15.8042 -60.1993 1.3734 1.8888 14.6659 19.0204 10.5316 58.9089 -1.3137 -1.9910 -0.0269 0.2574 39.4465 -18.6467 3.9851 -8.7816 16.0502 7.0203 -16.0476 50.1776 -3.4516 -4.8095 17.8703 -15.8229 12.3987 -0.5338 41.2929 -0.7478 -10.8609 -14.7837 -11.0200 1.6231 0.2453 -1.9152 -14.7344 -16.9060 -31.7040 0.1674 47.7721 0.0239 4.1026 -19.3199 -0.3572 -1.4668 1.3166 0.8934
2.2622 89.8615 -5.9468 -0.2269 -14.2031 -1.5118 -0.2685 9.7225 -0.0988 -0.6028 -2.1387 -0.1323 -1.6847 20.4702 -2.1308 2.5462 30.7310 1.9657 -1.7257 -3.7480 -3.6395 -1.6082 -11.3737 -4.3122 -0.0419 -0.0501 0.0706 0.6378 -10.3880 -3.7211 -0.7212 -10.3808 3.8686 -8.5322 19.1977 -10.7723 -68.3461 -0.9528 -6.6801 0.5839 -0.0466 -35.2744 17.4660 9.1591 -0.9176 -16.0942 10.4240 15.7374 -60.3068 1.4725 1.8529 14.7572 18.9124 10.7098 58.1288 -1.3545 -1.3177 0.0318 0.2290 38.8110 -17.8842 3.4488 -8.2464 16.1339 6.9995 -16.0194 50.1883 -3.5149 -4.7800 17.7655 -16.7882 12.8694 -0.5579 41.6973 -0.7791 -10.9803 -14.6048 -10.6949 1.6242 0.4187 -1.9060 -14.2659 -17.9485 -31.5503 0.1667 48.3268 0.0057 3.8689 -19.2981 -0.1487 -1.4709 1.3425 0.8943
2.2177 89.6136 -6.3771 -0.0109 -14.0410 -2.1307 -0.1083 10.0273 -0.1212 -0.5165 -2.0631 -0.3134 -1.4851 20.7267 -2.3386 2.7357 30.5946 1.7385 -1.8690 -3.7747 -4.2615 -1.8954 -11.8941 -4.9487 -0.0431 -0.0422 0.0775 0.6279 -10.3792 -3.7092 -0.7127 -10.3774 3.8686 -8.6220 19.4141 -11.0242 -68.5618 -0.8137 -7.5326 0.6812 0.0065 -34.8654 17.0772 8.7118 -1.0401 -16.0970 10.4051 15.6602 -60.3307 1.5507 1.8330 14.6829 18.8325 10.7796 57.3302 -1.4250 -0.6201 0.0769 0.1870 38.3740 -17.5078 3.0983 -7.6858 16.2644 6.9859 -16.0195 50.1998 -3.5716 -4.7511 17.6471 -17.5283 13.4900 -0.5693 42.3484 -0.7936 -11.0729 -14.6139 -10.3782 1.6260 0.5819 -1.9109 -14.1480 -18.9440 -31.3095 0.1767 49.1332 -0.0062 3.7006 -19.3618 0.2568 -1.4755 1.3669 0.8908
2.2109 89.2414 -6.7030 0.2723 -14.2641 -2.7528 0.0623 10.1847 -0.1525 -0.4328 -2.0083 -0.5271 -1.2437 21.0384 -2.5248 3.1876 31.2460 1.4491 -1.9244 -3.7963 -4.8361 -2.0927 -12.0939 -5.5294 -0.0400 -0.0367 0.0673 0.6190 -10.4105 -3.7239 -0.6969 -10.4178 3.8611 -8.7582 19.6329 -11.1406 -68.6842 -0.9014 -8.1749 0.7266 0.0107 -34.2996 16.9378 8.0720 -1.3333 -16.0737 10.3995 15.6606 -60.2934 1.5956 1.8401 14.5240 18.8141 10.6980 56.4345 -1.6175 0.2261 0.1136 0.1132 37.7182 -17.4192 2.8673 -7.3057 16.3523 6.9886 -16.0430 50.2224 -3.6013 -4.7318 17.6148 -17.9338 14.1155 -0.5959 43.2833 -0.8253 -11.1100 -14.8627 -10.0492 1.6313 0.7103 -1.9148 -14.4164 -19.7347 -30.9108 0.1965 50.2630 -0.0070 3.6661 -19.5823 0.7183 -1.4797 1.4401 0.8860
2.2381 88.7635 -6.8915 0.6112 -14.9282 -3.3388 0.2419 10.1923 -0.1728 -0.3516 -1.9809 -0.7943 -0.9473 21.3534 -2.6826 3.8640 32.6900 1.0481 -1.8924 -3.8130 -5.3259 -2.1720 -11.9791 -6.0964 -0.0251 -0.0355 0.0375 0.6221 -10.4684 -3.7673 -0.6685 -10.4878 3.8391 -8.8310 19.9112 -11.1154 -68.7581 -1.1632 -8.7350 0.7530 0.0123 -33.5155 16.9775 7.4460 -1.5984 -16.0317 10.4054 15.6863 -60.2180 1.6037 1.8501 14.2997 18.8408 10.4884 55.5406 -1.9489 1.2144 0.1749 0.0441 36.6207 -17.5013 2.7546 -7.2112 16.3883 6.9930 -16.0594 50.2468 -3.6025 -4.7178 17.6819 -17.8932 14.6720 -0.6339 44.4435 -0.8745 -11.0487 -15.3428 -9.6985 1.6372 0.8106 -1.9206 -15.0690 -20.1534 -30.2979 0.2183 51.6103 0.0045 3.7572 -19.9270 1.1234 -1.4854 1.5961 0.8998
2.2972 88.1908 -6.9548 1.0004 -16.0678 -3.8388 0.4354 10.0234 -0.2580 -0.2653 -1.9903 -1.0762 -0.5744 21.6501 -2.8070 4.7484 34.8985 0.5304 -1.8204 -3.8319 -5.7677 -2.1588 -11.5035 -6.6704 0.0012 -0.0401 -0.0045 0.6449 -10.5598 -3.8321 -0.6353 -10.5953 3.8088 -8.8033 20.2692 -10.9374 -68.7707 -1.4941 -9.4389 0.7701 0.0136 -32.4421 17.0182 6.8843 -1.7461 -15.9889 10.4143 15.7109 -60.1568 1.5887 1.8512 14.0343 18.8808 10.1294 54.7029 -2.3771 2.3619 0.2569 -0.0407 35.0265 -17.6174 2.8384 -7.5240 16.3801 7.0112 -16.0799 50.2700 -3.5887 -4.6644 17.8615 -17.3418 15.0733 -0.6742 45.7946 -0.9293 -10.9329 -16.0132 -9.3986 1.6411 0.8921 -1.9248 -16.1274 -20.1039 -29.4643 0.2352 53.1293 0.0223 3.9562 -20.4222 1.3592 -1.4908 1.7623 0.9135
2.3893 87.5968 -6.8741 1.4681 -17.5832 -4.2741 0.6495 9.6594 -0.3504 -0.1824 -2.0560 -1.3927 -0.1357 21.8549 -2.9124 5.7275 37.7738 -0.1422 -1.7120 -3.8618 -6.1185 -2.1576 -10.6933 -7.2038 0.0272 -0.0514 -0.0347 0.6790 -10.6517 -3.8863 -0.6142 -10.7071 3.7933 -8.6907 20.7165 -10.6773 -68.7036 -1.8395 -10.3527 0.7792 0.0617 -31.1351 16.9597 6.3021 -1.7027 -15.9219 10.4346 15.7083 -60.0759 1.5742 1.8145 13.7978 18.8979 9.7188 53.9326 -2.7875 3.6019 0.4353 -0.1095 33.1013 -17.6160 3.1716 -8.2487 16.3669 7.0032 -16.0854 50.2483 -3.5606 -4.6330 18.0810 -16.2376 15.3344 -0.7200 47.1084 -0.9825 -10.8120 -16.8058 -9.0554 1.6420 0.9187 -1.9348 -17.5243 -19.5879 -28.4198 0.2512 54.6543 0.0422 4.2391 -21.0092 1.4095 -1.4970 1.8745 0.9223
2.4734 87.0243 -6.6923 2.0075 -19.3054 -4.6899 0.8480 9.0896 -0.4802 -0.1079 -2.1815 -1.7133 0.3768 21.9240 -3.0192 6.6555 41.1132 -0.9765 -1.6057 -3.8950 -6.3013 -2.2041 -9.5359 -7.6120 0.0553 -0.0650 -0.0603 0.7276 -10.7359 -3.9371 -0.6018 -10.8055 3.7814 -8.4549 21.1922 -10.3583 -68.5515 -2.1470 -11.5382 0.7259 0.1060 -29.6665 16.7194 5.9292 -1.4801 -15.8926 10.4539 15.7285 -60.0512 1.5623 1.7842 13.6579 18.8607 9.3337 53.1170 -2.9917 5.0793 0.6018 -0.1570 31.0176 -17.1353 3.6742 -9.3113 16.3846 6.9757 -16.0986 50.2429 -3.5777 -4.6399 18.2433 -14.7213 15.4394 -0.7462 48.2905 -1.0056 -10.7071 -17.6472 -8.6993 1.6425 0.9126 -1.9390 -19.0711 -18.7095 -27.1987 0.2734 56.0720 0.0810 4.6081 -21.6241 1.2132 -1.5028 1.9007 0.9266
2.5962 86.4822 -6.4925 2.6299 -21.1477 -5.1388 1.0204 8.3200 -0.6344 -0.0682 -2.3624 -2.0640 1.0076 21.8799 -3.0865 7.3507 44.7065 -1.9965 -1.5125 -3.9072 -6.2988 -2.3185 -8.1285 -7.9051 0.0737 -0.0825 -0.0694 0.7768 -10.8005 -3.9635 -0.6112 -10.8711 3.7839 -8.1234 21.6524 -10.1259 -68.3247 -2.3867 -12.9728 0.6364 0.1123 -28.1817 16.3612 5.7195 -1.0826 -15.9138 10.4747 15.7902 -60.0499 1.5416 1.8231 13.7364 18.7442 8.9930 52.1532 -3.0282 6.6260 0.7205 -0.2116 28.9152 -16.2108 4.3459 -10.5400 16.3944 6.9324 -16.0943 50.2652 -3.6039 -4.6715 18.3377 -12.8696 15.5467 -0.7609 49.2170 -0.9954 -10.6579 -18.4611 -8.4532 1.6405 0.8840 -1.9239 -20.7113 -17.5664 -25.8798 0.3169 57.3081 0.1577 5.0651 -22.2563 0.8991 -1.5069 1.8983 0.9212
2.7818 85.9974 -6.3093 3.3149 -22.9215 -5.6364 1.1636 7.4413 -0.8018 -0.0729 -2.6165 -2.4462 1.7061 21.6709 -3.1824 7.7603 48.1382 -3.1275 -1.4627 -3.8927 -6.1758 -2.5293 -6.5741 -8.0320 0.0730 -0.0894 -0.0558 0.8094 -10.8250 -3.9551 -0.6415 -10.8877 3.8025 -7.7014 21.9549 -9.9825 -68.0685 -2.5104 -14.5428 0.4812 0.1083 -26.8079 15.7822 5.7863 -0.7127 -15.9034 10.5008 15.8514 -60.0590 1.5263 1.8852 14.0662 18.4512 8.7760 51.1543 -3.0667 7.6463 0.7643 -0.2685 27.0986 -15.2634 5.1093 -11.5983 16.4246 6.9070 -16.0764 50.2894 -3.6322 -4.7147 18.3707 -10.9245 15.6808 -0.7644 49.9109 -0.9709 -10.7666 -19.1806 -8.3508 1.6377 0.8337 -1.9230 -22.2979 -16.3497 -24.5870 0.3674 58.3394 0.2437 5.5230 -22.9091 0.6339 -1.5134 1.8985 0.9163
2.9957 85.5674 -6.1909 4.0599 -24.5537 -6.2196 1.2497 6.4917 -0.9506 -0.1077 -2.9279 -2.8372 2.4300 21.3208 -3.3931 7.9506 50.9990 -4.2595 -1.4280 -3.8679 -6.0213 -2.8514 -5.0717 -8.0371 0.0666 -0.0911 -0.0383 0.8338 -10.8139 -3.9325 -0.6778 -10.8701 3.8201 -7.2642 22.0655 -10.0078 -67.7393 -2.5402 -16.1374 0.2783 0.0817 -25.6712 14.7835 6.0118 -0.5815 -15.8899 10.5195 15.8910 -60.0810 1.5407 1.9413 14.6826 17.9825 8.6095 50.1816 -3.3736 7.6906 0.5700 -0.3115 26.0001 -15.0096 5.7929 -12.4247 16.4909 6.9868 -16.1172 50.4461 -3.6302 -4.7703 18.2815 -9.0687 15.8493 -0.7392 50.4357 -0.9098 -11.0321 -19.8035 -8.2742 1.6381 0.7387 -1.9288 -23.7680 -15.2288 -23.3357 0.4047 59.1845 0.3215 5.8895 -23.5222 0.4389 -1.5167 1.9159 0.8915
3.2394 85.1815 -6.1094 4.8379 -25.9875 -6.8260 1.2767 5.5249 -1.0473 -0.1698 -3.3027 -3.2593 3.0683 20.7957 -3.7149 7.9449 52.9084 -5.4646 -1.4466 -3.8399 -5.7472 -3.1996 -3.7170 -7.9740 0.0573 -0.0890 -0.0189 0.8462 -10.7999 -3.9107 -0.7086 -10.8515 3.8443 -6.9022 22.0266 -10.3348 -67.3154 -2.5096 -17.5057 0.1299 0.0802 -24.8895 13.3211 6.3359 -0.9459 -15.8146 10.5258 15.9397 -60.0314 1.5223 2.0183 15.4646 17.3527 8.3495 49.4525 -3.9098 6.6734 0.1469 -0.3234 26.1602 -15.7212 5.9057 -12.7416 16.5106 7.1609 -16.2307 50.6481 -3.5632 -4.8342 18.0837 -7.3732 16.0298 -0.7077 50.7856 -0.8579 -11.5505 -20.3490 -8.2494 1.6425 0.6230 -1.9520 -25.0883 -14.2680 -22.1968 0.4298 59.8745 0.4004 6.0560 -24.1246 0.2952 -1.5198 1.9728 0.8591
3.5229 84.8420 -6.1340 5.5869 -27.2216 -7.3460 1.2460 4.5684 -1.1168 -0.2528 -3.6848 -3.6653 3.5613 20.0318 -4.1575 7.7774 53.5648 -6.5904 -1.5202 -3.8173 -5.3642 -3.4128 -2.5950 -7.8875 0.0409 -0.0885 0.0066 0.8384 -10.8092 -3.8883 -0.7331 -10.8456 3.8816 -6.8278 21.8310 -10.9032 -66.6084 -2.3703 -18.4845 0.1267 0.1122 -24.5020 11.4263 6.4985 -1.8575 -15.6500 10.4880 15.9485 -59.8789 1.4802 2.1523 16.3772 16.6130 7.9370 48.9944 -4.2829 4.8447 -0.3231 -0.3074 27.9812 -17.0233 5.1943 -12.3026 16.4206 7.3479 -16.3791 50.7746 -3.4641 -4.9522 17.7713 -5.8885 16.1451 -0.6759 51.0294 -0.8210 -12.1664 -20.8495 -8.2543 1.6547 0.4838 -1.9688 -26.2458 -13.4754 -21.2104 0.4634 60.4467 0.5018 6.0417 -24.7002 0.0769 -1.5244 2.0245 0.8237
3.7708 84.5471 -6.2112 6.2367 -28.4034 -7.7742 1.1804 3.6132 -1.1829 -0.3697 -4.0612 -4.0193 3.9151 19.0802 -4.6893 7.4639 53.0342 -7.5102 -1.6126 -3.7883 -4.9030 -3.5262 -1.6737 -7.7714 0.0129 -0.0880 0.0423 0.8108 -10.8579 -3.8619 -0.7621 -10.8648 3.9373 -7.2218 21.5840 -11.5712 -65.4975 -2.2970 -18.8460 0.1359 0.1423 -24.2753 9.7046 6.6152 -3.0517 -15.4759 10.4726 15.9964 -59.5959 1.4627 2.3390 17.4379 15.9536 7.5179 48.5272 -4.0265 2.9073 -0.5927 -0.3348 30.8874 -18.0837 4.5489 -11.4682 16.2194 7.4196 -16.5010 50.7759 -3.3858 -5.1019 17.5288 -4.5494 16.2331 -0.6654 51.2301 -0.8214 -12.7253 -21.3189 -8.5012 1.6662 0.3037 -1.9777 -27.2358 -12.6436 -20.3563 0.5008 60.8844 0.6242 5.8819 -25.2551 -0.2059 -1.5292 2.0474 0.7828
3.9895 84.3024 -6.2607 6.7686 -29.5842 -8.1590 1.0688 2.6636 -1.2221 -0.5102 -4.4237 -4.2552 4.1543 17.9670 -5.2358 6.9337 51.4882 -8.2714 -1.7057 -3.7658 -4.3671 -3.5177 -0.9092 -7.5988 -0.0250 -0.0813 0.0826 0.7631 -10.8917 -3.8251 -0.7918 -10.8595 3.9930 -8.1280 21.2561 -12.1719 -64.1052 -2.2185 -18.6412 0.1573 0.1901 -24.0841 8.5103 6.5453 -4.1693 -15.3468 10.4896 16.0847 -59.3484 1.4899 2.5176 18.4528 15.4290 7.1702 47.9907 -2.8291 1.4696 -0.6556 -0.3702 33.7208 -18.4982 4.8758 -11.1161 16.1000 7.3777 -16.5966 50.7312 -3.3283 -5.2365 17.4008 -3.2192 16.2479 -0.6464 51.2952 -0.8193 -13.1408 -21.7381 -8.9483 1.6729 0.0387 -2.0079 -28.0714 -11.6978 -19.6733 0.5092 61.1296 0.7064 5.4215 -25.7233 -0.3546 -1.5351 1.9862 0.7078
4.1084 84.0176 -6.3022 7.0979 -30.8350 -8.4837 0.9524 1.7688 -1.1899 -0.6881 -4.7877 -4.4187 4.2764 16.7987 -5.6421 6.3663 49.2140 -8.8596 -1.7930 -3.7720 -3.7498 -3.3836 -0.2370 -7.4302 -0.0741 -0.0624 0.1320 0.6954 -10.9079 -3.7700 -0.8232 -10.8397 4.0503 -9.2242 20.8345 -12.5760 -62.7350 -2.1023 -17.9862 0.1768 0.2037 -23.9767 7.7874 6.4305 -5.0781 -15.2683 10.5731 16.2177 -59.2119 1.5626 2.5989 19.2460 15.0715 6.9104 47.6982 -1.1587 0.2440 -0.5992 -0.4080 35.6897 -18.6594 5.8969 -11.3190 16.0838 7.3309 -16.6416 50.7220 -3.2917 -5.2983 17.4970 -1.9967 16.0891 -0.6410 51.4889 -0.8257 -13.4540 -22.1196 -9.4928 1.6725 -0.2655 -2.0769 -28.7071 -10.6950 -19.1844 0.4746 61.4240 0.7112 4.6031 -26.1797 -0.2420 -1.5433 1.8353 0.6143
4.2009 83.6443 -6.4521 7.2123 -32.0259 -8.7775 0.8172 0.9893 -1.1494 -0.8513 -5.0889 -4.4391 4.2861 15.6353 -5.9026 5.9005 46.1734 -9.0742 -1.7238 -3.7735 -3.2082 -3.1863 0.2162 -7.2015 -0.1123 -0.0443 0.1668 0.6227 -10.8995 -3.7247 -0.8298 -10.7986 4.0855 -10.1999 20.2836 -12.6748 -61.7721 -1.9328 -16.9337 0.1453 0.1853 -24.0254 7.6079 6.6689 -5.6717 -15.2606 10.6710 16.3696 -59.1784 1.6003 2.6337 19.8410 14.8685 6.7396 47.7535 0.6011 -0.8894 -0.6263 -0.4108 36.7391 -18.9198 7.0727 -11.9771 16.1235 7.3379 -16.6324 50.7901 -3.2353 -5.3343 17.7917 -1.0965 15.7168 -0.6304 51.9434 -0.8206 -13.8549 -22.4508 -9.9377 1.6647 -0.5336 -2.1520 -29.0831 -9.8685 -18.8447 0.4525 61.8626 0.7235 3.6208 -26.5882 0.1451 -1.5492 1.7189 0.5284
4.2484 83.1407 -6.8036 7.1341 -33.0753 -9.0999 0.6966 0.3413 -1.0980 -0.9914 -5.3524 -4.3727 4.1954 14.6356 -6.0036 5.7153 42.5694 -8.6982 -1.5776 -3.7777 -2.9379 -2.9082 0.4468 -7.0275 -0.1427 -0.0270 0.1951 0.5515 -10.8779 -3.6749 -0.8216 -10.7653 4.1023 -10.8976 19.7809 -12.4212 -61.2235 -1.6472 -15.8210 0.1126 0.1306 -24.3626 7.8743 7.2285 -5.9739 -15.2442 10.8132 16.5067 -59.2916 1.6203 2.6187 20.2224 14.7938 6.5993 48.2141 2.0724 -2.2023 -0.5839 -0.3932 37.3553 -19.4267 7.9204 -12.4115 16.1950 7.3818 -16.6071 50.8978 -3.1734 -5.3917 18.1795 -0.6821 15.0938 -0.6277 52.8465 -0.8340 -14.2851 -22.8191 -10.1895 1.6491 -0.7484 -2.2316 -29.1368 -9.3972 -18.4882 0.3958 62.6345 0.6649 2.6437 -26.9929 0.6802 -1.5468 1.6246 0.4758
4.3213 82.5077 -7.4045 6.8831 -34.0019 -9.3886 0.5871 -0.1529 -1.0564 -1.0890 -5.5395 -4.2179 3.9799 13.8446 -6.0275 5.6970 38.9678 -7.8312 -1.4318 -3.8070 -2.8470 -2.5572 0.4465 -6.9595 -0.1673 -0.0198 0.2328 0.5030 -10.8748 -3.6207 -0.8253 -10.7596 4.1330 -11.2550 19.3727 -11.8623 -61.0361 -1.0488 -15.0503 0.0805 0.0942 -24.9577 8.4233 7.7242 -5.9402 -15.2375 10.9243 16.5974 -59.3985 1.6370 2.6331 20.4185 14.8527 6.4027 49.1023 3.1192 -3.8246 -0.3850 -0.3551 38.0969 -20.2631 7.9042 -12.1145 16.2015 7.4258 -16.5807 51.0476 -3.1337 -5.3938 18.5955 -0.7799 14.2561 -0.6247 54.2178 -0.8572 -14.5878 -23.1592 -10.2200 1.6378 -0.9307 -2.2898 -28.9281 -9.3306 -18.1213 0.3791 63.7220 0.6555 1.7162 -27.2837 1.1358 -1.5416 1.5868 0.4651
4.4530 81.7084 -8.2834 6.5247 -34.7767 -9.7308 0.5079 -0.4790 -1.0161 -1.1434 -5.6417 -4.0066 3.7082 13.2435 -5.9179 5.7086 35.6445 -6.6311 -1.3106 -3.8520 -2.8726 -2.2103 0.2491 -6.9295 -0.1792 -0.0151 0.2807 0.4782 -10.8920 -3.5684 -0.8264 -10.7753 4.1801 -11.3789 19.0233 -11.0992 -61.2192 -0.0992 -14.6268 0.0975 0.0926 -25.6543 9.2162 7.8763 -5.6480 -15.2145 11.0211 16.6392 -59.5488 1.6958 2.6378 20.4641 15.0166 6.3041 50.3168 3.8587 -5.6098 0.0052 -0.3788 38.8969 -21.1536 7.2638 -11.0346 16.1427 7.4626 -16.5979 51.1580 -3.1241 -5.4311 18.9605 -1.4160 13.1666 -0.6176 56.0884 -0.8805 -14.6910 -23.4885 -9.9542 1.6314 -1.0944 -2.3336 -28.4874 -9.7791 -17.6610 0.3671 65.1615 0.6378 0.8360 -27.4327 1.6227 -1.5333 1.5248 0.4767
4.6953 80.6530 -9.5328 6.1367 -35.3995 -10.2284 0.5051 -0.5652 -0.9532 -1.1735 -5.6581 -3.7824 3.4144 12.8438 -5.6630 5.6452 32.7563 -5.3647 -1.2669 -3.8783 -2.9145 -1.9463 -0.1904 -6.8344 -0.1781 -0.0116 0.3175 0.4687 -10.8916 -3.5285 -0.8160 -10.7826 4.2135 -11.3184 18.8101 -10.3130 -61.7729 0.9440 -14.3935 0.0676 0.0676 -26.2299 10.2572 7.4984 -5.2078 -15.1722 11.0540 16.6668 -59.6004 1.7045 2.6603 20.2789 15.2654 6.3878 51.7927 4.6103 -6.8332 0.4275 -0.4619 39.3582 -21.5701 6.3089 -9.6680 16.1425 7.4872 -16.6553 51.3111 -3.1511 -5.4943 19.2447 -2.6264 11.8526 -0.6462 58.4924 -0.9472 -14.6242 -23.7953 -9.4628 1.6273 -1.1906 -2.3465 -27.9175 -10.9647 -17.0726 0.3562 67.1328 0.6143 0.0269 -27.3788 2.2775 -1.5229 1.4556 0.5049
5.0575 79.3343 -11.2146 5.8060 -35.9152 -10.9457 0.5400 -0.3743 -0.8928 -1.1584 -5.5318 -3.4990 3.0668 12.5584 -5.3447 5.4611 30.3478 -4.1117 -1.2691 -3.9040 -2.9673 -1.7487 -0.8410 -6.6040 -0.1677 -0.0076 0.3381 0.4699 -10.8689 -3.5049 -0.7991 -10.7765 4.2277 -11.1513 18.6748 -9.6165 -62.6408 2.1146 -14.5029 0.1312 0.0162 -26.4693 11.4570 6.3120 -4.7172 -15.1033 11.0784 16.6946 -59.6940 1.6758 2.6418 19.8797 15.5495 6.6210 53.3548 5.2191 -7.2002 0.8261 -0.5551 39.2582 -21.4599 5.0615 -8.3466 16.1392 7.4914 -16.7387 51.4667 -3.1780 -5.5638 19.4512 -4.3378 10.4792 -0.6834 61.3281 -1.0219 -14.4876 -24.0808 -8.9642 1.6198 -1.2410 -2.3520 -27.2996 -12.8841 -16.4048 0.3939 69.5482 0.6325 -0.7377 -27.1449 3.0505 -1.5096 1.3764 0.5336
5.4662 77.7835 -13.1996 5.5530 -36.4041 -11.8848 0.6120 0.0275 -0.8294 -1.1151 -5.3018 -3.1951 2.6751 12.4401 -5.0303 5.1915 28.4209 -3.0070 -1.2894 -3.9265 -2.9918 -1.6144 -1.5775 -6.2260 -0.1473 -0.0124 0.3259 0.4832 -10.8316 -3.5122 -0.7736 -10.7442 4.2045 -11.0628 18.6462 -9.0514 -63.6198 3.3347 -14.9481 0.2244 -0.0044 -26.2654 12.6277 4.7847 -4.0724 -15.0241 11.0797 16.7072 -59.7503 1.6656 2.6165 19.3665 15.8894 6.9568 54.6179 5.4160 -6.8696 1.1370 -0.6393 38.7559 -21.1075 3.9347 -7.3608 16.1281 7.4994 -16.7771 51.5495 -3.1987 -5.5835 19.7930 -6.4985 9.2576 -0.7732 64.4737 -1.1704 -14.3396 -24.2938 -8.5892 1.6106 -1.2744 -2.3523 -26.6933 -15.4009 -15.7072 0.4717 72.3026 0.6845 -1.6038 -26.7398 3.9206 -1.4980 1.2577 0.5585
5.8991 76.0005 -15.4507 5.4356 -36.8687 -13.1145 0.6874 0.5867 -0.7648 -1.0907 -4.9993 -2.9290 2.2386 12.4663 -4.7559 4.9158 26.8965 -2.1274 -1.3275 -3.9354 -2.9737 -1.5727 -2.3228 -5.7049 -0.1252 -0.0165 0.2932 0.4952 -10.7771 -3.5386 -0.7410 -10.6903 4.1560 -11.1079 18.7566 -8.5878 -64.6176 4.4884 -15.4432 0.3042 0.0104 -25.8162 13.7498 2.9904 -3.3031 -14.9300 11.0759 16.7553 -59.7323 1.6951 2.5787 18.8783 16.2163 7.3183 55.2164 5.1325 -5.7171 1.2987 -0.6165 37.9537 -20.6680 2.8720 -6.6680 16.1223 7.4930 -16.7914 51.6243 -3.2008 -5.5760 20.3820 -9.0812 8.3019 -0.9948 67.8410 -1.4656 -14.1336 -24.2785 -8.4877 1.6012 -1.3369 -2.3759 -26.1090 -18.4564 -14.9723 0.6380 75.2837 0.8245 -2.5564 -25.9831 4.8961 -1.4899 1.0847 0.5747
6.3241 73.8614 -17.9177 5.4093 -37.3261 -14.5325 0.7046 1.3175 -0.7596 -1.0536 -4.6204 -2.6931 1.7543 12.5264 -4.5746 4.7077 25.7455 -1.5150 -1.3347 -3.9496 -2.8908 -1.6371 -3.1629 -4.9264 -0.1096 -0.0216 0.2293 0.4980 -10.7185 -3.5933 -0.7145 -10.6311 4.0757 -11.0962 18.9389 -8.2206 -65.8485 5.7434 -15.6779 0.3268 0.0032 -25.5878 14.9616 0.5757 -2.6199 -14.8281 11.0358 16.7528 -59.6306 1.6652 2.5552 18.3602 16.4052 7.5222 55.0290 4.5077 -3.5057 1.2235 -0.5472 36.8984 -20.2431 2.0732 -6.3076 16.1392 7.4842 -16.7586 51.6907 -3.1800 -5.5405 21.3269 -12.2816 7.4623 -1.5007 71.5381 -2.0528 -13.9113 -23.9207 -8.7398 1.5959 -1.3824 -2.3743 -25.4266 -22.0910 -14.1890 0.9774 78.5573 1.1273 -3.5512 -24.9311 5.8265 -1.4780 0.9009 0.5838
6.6794 71.3653 -20.6373 5.5175 -37.7318 -16.1035 0.6319 2.2311 -0.7878 -1.0427 -4.1942 -2.5587 1.1762 12.6584 -4.5153 4.6480 24.8764 -1.1190 -1.3290 -3.9628 -2.7254 -1.8060 -4.2180 -3.9401 -0.0971 -0.0234 0.1536 0.4937 -10.6696 -3.6625 -0.6855 -10.5820 3.9846 -11.0293 19.2262 -7.9854 -67.2433 7.2135 -15.5687 0.2407 -0.0335 -25.9671 16.1808 -2.5695 -2.1147 -14.7563 10.9991 16.7592 -59.6405 1.6080 2.4977 18.0192 16.5349 7.5404 53.7627 3.5675 0.0525 1.0167 -0.4705 35.6782 -20.0433 1.6578 -5.8145 16.2074 7.4793 -16.7248 51.7960 -3.1262 -5.5050 22.6865 -16.2086 6.6616 -2.5306 75.5834 -3.1685 -13.7308 -23.0204 -9.4892 1.5944 -1.4764 -2.3701 -24.5928 -26.4018 -13.3867 1.4402 82.0951 1.5421 -4.6277 -23.3870 6.6027 -1.4651 0.6181 0.5982
7.0530 68.4444 -23.6164 5.7120 -38.1803 -17.6731 0.5741 3.4439 -0.7705 -1.0359 -3.7018 -2.4690 0.4153 12.8221 -4.5356 4.7282 24.1173 -1.0684 -1.3535 -3.9858 -2.4874 -1.9101 -5.5239 -3.0654 -0.0942 -0.0639 0.0826 0.4882 -10.6281 -3.7224 -0.6765 -10.5391 3.8953 -10.7432 19.5480 -7.9507 -68.7902 8.9925 -15.5369 0.1636 -0.0359 -26.9362 17.4003 -6.4048 -1.7836 -14.6888 10.9023 16.7290 -59.8094 1.5401 2.5460 17.8208 16.6615 7.2907 51.6869 2.6196 4.6722 0.6364 -0.3963 34.5205 -20.2074 1.3853 -4.6875 16.1868 7.4540 -16.8135 51.6768 -3.1001 -5.6174 24.4839 -20.8582 5.4361 -4.5343 80.1625 -5.2309 -13.9136 -21.4172 -10.6356 1.6098 -1.5857 -2.2677 -23.5888 -31.3251 -12.6377 1.6967 85.8095 1.7425 -5.5046 -21.3872 6.9566 -1.4557 0.1897 0.6904
7.5018 64.9087 -26.8805 5.8657 -38.6097 -19.0458 0.4759 4.7931 -0.8755 -1.1584 -3.1288 -2.4529 -0.2032 13.1729 -4.4346 4.8146 23.5564 -1.2133 -1.3336 -3.9434 -2.3048 -2.0891 -7.1474 -2.1143 -0.0819 -0.0506 -0.0158 0.4856 -10.5645 -3.8307 -0.6496 -10.4667 3.7960 -10.3626 19.9818 -7.7052 -70.1612 10.7803 -15.4946 0.0689 -0.0457 -28.5818 18.5401 -9.5484 -1.5145 -14.8466 10.8445 16.7629 -59.9380 1.4486 2.6407 17.2985 16.6133 7.1868 49.5597 2.1485 9.3642 0.2893 -0.3717 33.4535 -20.6928 1.8943 -3.4220 16.1865 7.4133 -16.7574 51.5105 -3.1110 -5.5557 26.6574 -26.1628 3.3497 -10.5149 84.9995 -11.2456 -13.5920 -19.2361 -12.3084 1.6008 -1.8136 -2.1694 -22.2912 -36.8362 -12.2316 5.5887 89.5315 5.5386 -6.2386 -19.4339 7.0334 -1.4564 0.0076 0.7395
8.0816 60.9773 -30.4954 5.9351 -38.9740 -20.2015 0.3762 6.0651 -1.0043 -1.2966 -2.4907 -2.3831 -0.6808 13.7859 -4.2503 4.8445 23.2951 -1.3702 -1.3070 -3.8791 -2.2567 -2.4419 -8.7349 -1.0529 -0.0726 -0.0043 -0.0964 0.4784 -10.5086 -3.9299 -0.6242 -10.4095 3.7276 -10.0427 20.5492 -7.1990 -71.0861 12.3543 -15.2400 -0.0443 -0.1125 -30.7567 19.6592 -11.7200 -1.3475 -15.2286 10.8110 16.7666 -60.0882 1.2721 2.6080 16.5789 16.4875 7.3523 47.6199 2.3215 13.3563 -0.0008 -0.3137 32.3642 -21.8975 3.0721 -2.4871 16.2405 7.3729 -16.5844 51.4274 -3.0868 -5.3641 29.2221 -31.7470 0.3840 -78.9648 88.9722 -79.6800 -12.4257 -16.6778 -13.7686 1.5734 -2.0832 -2.1016 -20.6822 -42.5773 -12.2094 -179.0331 87.1336 -179.2331 -6.9770 -17.3052 7.1805 -1.4604 -0.1089 0.7056
8.7905 56.5118 -34.4151 6.0164 -39.6117 -21.2568 0.4532 7.4990 -0.9143 -1.4476 -1.8933 -2.2618 -1.1344 14.5662 -3.8533 4.8052 23.1987 -1.3399 -1.4265 -3.8587 -2.3157 -2.8648 -9.9415 -0.4478 -0.0691 0.0106 -0.1862 0.4845 -10.4692 -4.0301 -0.6244 -10.3720 3.6436 -9.6923 20.8622 -6.4749 -71.8537 14.0940 -14.7511 -0.0828 -0.0613 -33.1475 21.0353 -13.3941 -1.4153 -15.3989 10.6948 16.6524 -59.9104 1.1087 2.5844 15.9158 16.3891 7.4264 46.1038 3.0849 16.1646 -0.2582 -0.1043 30.9031 -23.9705 4.4256 -2.1159 16.4477 7.2660 -16.5154 51.3157 -3.0697 -5.3350 32.3276 -37.2229 -3.4574 -165.8346 85.7602 -166.5070 -11.3959 -13.7457 -14.7119 1.5611 -2.1012 -2.0415 -18.7879 -48.3855 -12.4344 -178.0786 84.1009 -178.4294 -7.7142 -14.8061 7.1942 -1.4706 -0.3729 0.7526
9.6743 51.5887 -38.5119 6.1690 -40.4930 -22.2172 0.5652 8.8879 -0.7935 -1.5443 -1.3192 -1.9792 -1.5217 15.5200 -3.3817 4.5308 23.2519 -0.9064 -1.6669 -3.8762 -2.5598 -3.3953 -10.6657 -0.0124 -0.0577 0.0294 -0.2414 0.5010 -10.4488 -4.0907 -0.6185 -10.3529 3.5876 -9.4987 21.0867 -5.4715 -72.4485 15.9834 -13.7982 0.0968 0.0406 -35.9682 22.6968 -14.2723 -1.5653 -15.3840 10.7500 16.5659 -59.8689 1.0608 2.4651 15.2163 16.4445 7.5481 45.4160 4.5819 17.8271 -0.5893 0.1556 29.0821 -26.6362 5.3896 -2.1986 16.5887 7.1452 -16.4518 51.1673 -3.0862 -5.2390 36.0464 -42.4007 -8.0927 -172.5982 82.1551 -173.2136 -10.2553 -10.5783 -15.3698 1.5555 -1.9978 -2.0106 -16.5120 -54.2235 -13.2543 -177.9349 81.4855 -178.4500 -8.3186 -12.0540 7.0404 -1.4959 -0.7786 0.8084
10.5874 46.1936 -42.5380 6.5840 -41.9012 -23.2593 0.8710 10.3456 -0.5205 -1.5797 -0.8562 -1.7455 -1.9801 16.6597 -2.6202 3.8802 23.4814 -0.2707 -2.0812 -3.8634 -2.8865 -4.1231 -10.9517 0.1462 -0.0404 0.0116 -0.2751 0.5521 -10.4452 -4.1133 -0.6338 -10.3751 3.5345 -9.5545 21.4001 -4.1802 -72.8875 18.0801 -12.3660 0.5804 0.2176 -39.3648 25.1537 -14.3780 -1.7793 -15.3568 10.8355 16.4181 -59.7877 1.0041 2.4167 14.6080 16.6064 7.1738 45.5286 6.9272 18.3842 -0.8405 0.3401 27.4816 -29.8087 5.6030 -2.4297 16.6525 7.0246 -16.5770 51.0215 -3.1924 -5.3786 40.5582 -47.2001 -13.6940 -175.6725 78.7063 -176.1678 -8.7019 -7.2216 -16.2395 1.6152 -1.9418 -1.9198 -13.5703 -59.7091 -14.7566 -178.4955 79.6035 -179.1617 -7.6868 -9.8225 6.1611 -1.5364 -1.7112 1.0136
11.6503 40.9649 -46.4735 7.1901 -43.2833 -24.2502 0.9615 11.3902 -0.4890 -1.6176 -0.2862 -1.5134 -2.3522 17.7073 -1.9659 2.9949 24.1026 0.5891 -2.3425 -3.8656 -3.1181 -4.9491 -10.3736 0.1734 -0.0222 0.0426 -0.2720 0.5744 -10.4651 -4.1235 -0.6184 -10.4384 3.5431 -9.8638 21.6522 -2.2990 -73.1702 20.4503 -10.1816 1.5104 0.6876 -43.4656 28.3050 -14.3856 -2.2261 -15.3374 10.8477 16.2011 -59.8369 1.0861 2.3203 14.0096 17.0067 6.5882 46.7399 10.4468 17.4321 -1.4360 0.4764 28.4095 -33.1442 5.3050 -2.7421 16.5257 6.8626 -16.6393 50.7960 -3.3467 -5.4043 45.1142 -51.6995 -19.4202 -177.1957 75.7913 -177.6292 -7.4380 -3.8327 -16.7706 1.6088 -2.1662 -1.8854 -10.2754 -64.9108 -16.8946 -178.3437 78.6480 -179.2347 -6.2925 -7.3115 5.5272 -1.6370 -2.7739 1.0310
12.6728 35.2435 -50.1918 7.6819 -45.0509 -24.8039 1.2156 12.3563 -0.6613 -1.4173 0.2158 -1.2547 -2.6587 18.4735 -1.5411 1.6554 25.1187 1.3132 -2.4293 -3.8106 -3.3893 -5.5132 -9.3481 0.2236 -0.0107 0.0536 -0.1754 0.5900 -10.4930 -4.0284 -0.6096 -10.4946 3.6364 -10.2262 22.1293 -0.0272 -73.1052 23.2979 -7.3923 2.2809 1.2358 -49.6350 32.1233 -13.4329 -2.9333 -15.2044 10.8358 15.9853 -59.7862 0.9770 2.2224 12.5723 17.7005 5.2056 49.1128 15.3380 14.7336 -1.5227 0.7699 33.9482 -37.3239 5.7927 -3.2793 16.4601 6.9002 -16.8226 50.7725 -3.4011 -5.5357 50.4749 -55.7512 -26.3209 -178.3374 73.1970 -178.6474 -8.3622 -1.7799 -17.5749 1.6331 -2.5980 -1.8579 -6.7447 -69.5545 -19.5946 -177.9366 78.4474 -178.9682 -3.7517 -6.0725 4.5313 -1.7346 -3.9472 1.1506
13.8038 29.0817 -53.6689 8.5195 -47.2932 -25.4442 1.6147 13.3042 -0.9388 -0.9834 0.6707 -0.9985 -2.7444 19.1371 -1.2331 -0.0449 26.0189 2.0653 -2.4739 -3.7128 -3.6848 -6.0345 -7.6340 0.0669 -0.0093 0.0548 -0.0558 0.6106 -10.6120 -3.9136 -0.6277 -10.6254 3.7626 -10.8394 22.4558 2.9006 -72.1521 27.1290 -4.6970 2.5322 1.5432 -58.9971 36.7492 -10.7333 -3.6016 -15.2707 10.7425 15.6699 -59.8437 0.8894 2.1350 10.2049 18.5776 3.2665 52.0711 23.3468 11.9078 -1.2074 1.0496 45.0264 -42.2010 7.7797 -4.9903 16.3334 6.9582 -16.8620 50.7963 -3.2778 -5.4229 56.0258 -59.4617 -33.7620 -179.3619 71.3773 -179.6649 -10.9364 -0.5324 -17.9361 1.6679 -3.1749 -1.8834 -2.8857 -73.7799 -22.6986 -177.0111 78.6349 -178.0997 -1.6524 -5.5391 2.9201 -1.8225 -4.9344 1.2575
15.2232 22.5285 -57.1531 9.6753 -50.4626 -26.3079 2.3322 14.5339 -1.3072 -0.4119 1.0506 -0.7757 -2.2423 19.8531 -1.0075 -2.1017 26.6160 2.8105 -2.3767 -3.5803 -4.1024 -6.5580 -5.4532 -0.1434 -0.0188 0.0711 0.0588 0.6624 -10.7653 -3.8114 -0.7014 -10.7395 3.8972 -11.0647 22.5014 6.3296 -70.5748 31.5731 -3.3805 2.1591 1.3411 -71.6736 41.2676 -5.9927 -4.4707 -15.4266 10.5515 15.4296 -59.7968 0.8059 2.2949 6.2097 19.6244 1.0148 56.2863 33.7473 11.4258 -0.9607 1.2713 60.3288 -45.5325 11.7243 -10.4470 16.3975 6.7414 -16.6969 50.5437 -3.2745 -4.8920 59.4824 -62.1767 -39.4877 179.8356 71.8395 179.4068 -15.9300 1.6604 -16.5840 1.6700 -3.6950 -2.0097 0.5503 -76.2907 -25.6421 -175.2785 79.9513 -176.4396 -0.4667 -3.9418 0.9853 -1.9472 -5.3428 1.2981
16.8294 15.7894 -60.6301 10.9581 -54.6333 -27.2696 3.0982 15.5631 -1.9607 0.1215 1.2708 -0.5708 -1.2803 20.7869 -0.9142 -3.6030 27.7161 3.2251 -2.5615 -3.6059 -3.4921 -6.8088 -3.5119 -0.4109 -0.0290 0.0498 0.1023 0.7530 -10.6666 -3.7296 -0.8162 -10.6076 3.9053 -8.5387 22.2726 9.8719 -70.7144 34.8539 -5.0384 1.4841 0.4355 -85.1551 43.0264 2.0704 -2.6081 -15.7929 10.6834 15.5818 -59.1940 0.9425 2.4945 0.0601 19.9411 -0.7484 64.1092 44.0551 16.2044 -0.6111 1.3714 76.9862 -45.7098 17.4093 -20.7684 17.3360 5.9702 -15.8714 49.5467 -3.5434 -4.4940 57.0888 -62.7914 -40.1149 179.1121 76.3954 178.5257 -23.2130 6.7869 -12.9733 1.6767 -4.2271 -2.1225 1.9697 -76.3875 -26.8576 -171.3185 82.9408 -172.9019 -0.2311 -1.6995 0.7974 -1.9887 -5.0900 1.4731
18.3666 11.8059 -64.5006 11.4223 -60.7481 -26.5966 3.4331 15.5459 -2.6068 0.7225 1.0359 -0.6861 0.0878 22.5959 -1.3252 -3.6402 31.8273 2.8017 -2.9745 -3.6628 -2.8929 -7.2862 -1.0088 -0.6196 -0.0248 -0.0538 0.1641 0.8057 -10.6568 -3.6508 -0.8618 -10.6026 3.9594 -6.8757 22.0403 11.3740 -69.3100 34.3477 -6.7976 1.1234 -0.1938 -94.1364 42.4543 13.5485 2.9435 -16.3350 10.8701 15.9675 -59.5838 1.4594 2.7081 -3.5365 19.5631 -1.6061 69.7709 49.9564 20.1102 -0.9168 1.8101 92.1658 -49.7991 23.7612 -33.8419 17.9987 5.9013 -15.1358 49.7203 -3.4405 -4.1655 45.4030 -60.3016 -32.6821 177.2670 85.2760 176.5101 -23.8403 10.2614 -6.7986 1.6357 -3.8469 -2.0540 -0.1967 -72.4862 -24.9863 -152.7825 88.3020 -154.3057 0.6495 -4.4784 -0.8689 -1.7521 -4.1643 1.6277
19.6338 11.6076 -67.7122 14.6843 -66.8176 -27.8865 3.1217 13.6897 -2.3801 0.8147 -0.0248 -1.0098 0.6118 23.2069 -1.8190 -1.9193 40.5798 1.8396 -3.9389 -3.6069 -1.9545 -7.3296 4.0196 -0.9420 -0.0589 -0.1665 0.2708 0.7252 -10.6744 -3.5546 -0.8487 -10.6629 4.0994 -4.3186 21.1472 10.7812 -68.7116 29.1192 -6.8556 0.9305 0.2807 -94.5215 39.7517 24.6387 6.3867 -16.0768 11.1903 16.2430 -59.8789 1.8571 2.8728 -5.4733 19.2525 -0.9744 74.8250 48.9531 24.6059 -0.6851 1.1347 99.7966 -56.7917 28.3858 -53.5696 18.6522 6.1268 -14.6183 50.9087 -3.4884 -4.2434 28.9995 -54.0736 -18.9480 4.4189 82.4627 3.4130 -20.4480 9.0090 1.8426 1.5561 -3.7564 -1.8848 -6.8911 -63.5921 -18.9035 -2.6364 82.3018 -3.9480 4.1324 -6.8376 -3.8252 -1.4233 -3.8535 1.5828
20.2670 12.4117 -70.8515 21.6041 -72.3415 -32.7667 2.5466 11.6472 -1.5245 0.6436 -1.0451 -0.7833 0.2068 22.0516 -2.4775 -0.7402 47.4760 0.8627 -3.7671 -3.6115 -0.7383 -7.4544 9.6395 -0.0706 -0.0706 -0.1985 0.3421 0.6201 -10.8980 -3.5486 -0.7637 -10.9243 4.2395 -2.6395 19.7582 8.7530 -68.4633 21.7347 -3.0479 1.0751 0.4974 -89.0711 34.4207 31.4443 6.4485 -15.4696 11.4226 16.2935 -60.1361 1.5183 3.0537 -4.8900 19.5075 -0.3091 74.6419 43.6285 23.9368 0.8898 -1.4403 102.3884 -62.7585 27.8838 -71.7773 19.7753 6.7184 -14.9436 53.6306 -3.5885 -4.1725 17.4109 -45.2635 -8.5110 2.8051 70.5787 1.8613 -17.1403 4.1138 7.4329 1.5919 -4.5583 -1.9152 -9.2360 -52.4174 -16.0219 -0.3120 71.9901 -1.5033 6.8220 -8.6710 -6.0534 -1.2660 -4.0367 1.3009
20.5504 11.3517 -74.6000 34.0452 -78.3077 -42.7148 1.0996 10.9060 -1.4470 0.4757 -1.5943 -0.1041 -0.6174 21.1215 -2.1650 0.1240 46.5858 1.9963 -2.5098 -3.4960 0.7965 -6.0140 10.6239 1.2759 -0.0176 -0.1947 0.3956 0.7159 -10.9272 -3.5462 -0.7554 -10.9115 4.3336 1.3712 17.5851 6.3771 -72.9812 15.0637 1.7830 0.9406 -0.8376 -83.8831 29.1056 36.3281 4.1114 -16.0225 10.9227 15.8236 -60.5167 0.9844 3.2330 -6.6867 19.4986 1.0946 78.1285 35.6713 23.0651 2.0150 -2.5032 100.7436 -63.7268 23.4337 -80.8732 20.0976 7.1471 -15.3591 54.6080 -3.1336 -3.9748 11.1459 -38.8330 -2.7574 2.0011 65.3745 1.1961 -16.0812 -1.7428 6.6888 1.5741 -4.9128 -1.9754 -10.3661 -43.4004 -13.9076 -0.2188 66.3063 -1.3357 10.4731 -12.4918 -7.4046 -1.2547 -4.2126 1.2367
20.8688 10.2037 -77.5752 61.9235 -83.6751 -69.0874 0.5169 10.2563 -1.3885 0.5211 -1.6563 -0.0231 -1.0685 21.5707 -1.7238 1.2778 42.5190 3.9308 -2.4177 -3.3102 1.7754 -4.7840 9.1468 1.7325 0.0658 -0.1806 0.4228 0.9374 -10.7562 -3.5045 -0.8111 -10.7423 4.3225 4.2099 15.6383 4.9946 -77.3020 11.4873 8.0176 0.4814 -1.9283 -82.0862 21.4945 36.1194 -3.5854 -16.6154 10.7889 15.6009 -60.7038 0.9722 3.0416 -9.3528 19.6706 3.1128 82.4644 28.6653 22.6530 0.4444 -3.0830 98.9239 -65.2305 18.3230 -84.1832 19.0157 7.2351 -15.4123 53.5320 -2.9154 -4.3263 8.4611 -34.8794 -0.5038 2.1284 67.1893 1.3997 -18.7015 -2.5900 6.4448 1.6329 -5.1485 -1.9367 -12.1131 -37.2457 -12.7701 -0.4849 66.4814 -1.5009 13.3843 -14.5208 -9.4295 -1.2266 -4.3047 1.1541
21.1341 9.6130 -80.6644 122.7435 -84.0056 -128.5309 0.0810 10.3401 -1.2311 0.7704 -1.6917 -0.0804 -1.2568 20.7969 -1.4795 1.7198 38.0625 4.7666 -2.8906 -3.1285 2.6682 -4.2713 8.2996 2.5366 0.1693 -0.2005 0.4022 1.0702 -10.6960 -3.4850 -0.7367 -10.6767 4.2235 7.8263 13.9145 3.5296 -81.2230 11.7507 15.5355 -0.7618 -2.5380 -80.5629 14.0991 36.9065 -7.7677 -17.6675 10.6746 15.7961 -61.3728 1.0872 2.8275 -12.5470 20.3891 6.0355 86.2041 23.1024 19.8302 -0.1391 -4.0504 97.9891 -66.4752 13.6139 -87.4883 18.0682 7.0051 -15.2549 52.7087 -2.7784 -4.2449 7.1286 -31.6950 1.0590 2.6905 70.3929 1.9391 -20.7981 -1.5976 7.1712 1.5285 -5.1210 -1.9412 -14.3542 -32.9347 -11.9035 -0.5633 67.3534 -1.6332 15.0458 -14.8310 -10.6033 -1.3279 -4.2592 1.0528
21.4836 9.0225 -83.4209 147.9642 -80.5509 -152.6961 -0.0292 10.3147 -1.1218 0.8416 -1.8059 -0.2639 -1.3313 19.2988 -1.3163 2.1238 32.9754 4.9512 -3.3619 -3.0259 3.5961 -4.2479 7.5762 3.1352 0.2396 -0.2300 0.3016 1.1647 -10.5330 -3.5041 -0.6912 -10.5062 4.0137 12.0102 12.5724 1.0218 -83.6349 14.1880 24.7800 -1.9874 -2.3735 -79.2371 9.2181 41.0896 -8.5035 -18.6701 10.4477 15.6819 -62.2604 1.1228 2.6829 -15.3851 20.6742 9.3684 88.8867 19.7548 15.8264 0.5178 -5.3052 98.3930 -67.5388 9.7375 -92.6918 18.0802 6.7592 -15.0792 52.7351 -2.6300 -4.2568 7.2221 -29.7094 1.5790 3.3554 72.8520 2.5150 -22.5344 -0.2323 8.8092 1.3760 -5.1311 -1.9141 -16.0011 -30.1940 -11.6965 -0.4242 67.6714 -1.7245 16.3263 -15.2906 -11.2048 -1.3155 -4.2402 1.0209
21.7137 8.7850 -85.5009 156.1922 -77.1511 -160.1054 0.0376 10.2618 -0.9914 0.8218 -1.9332 -0.4424 -1.4267 17.3986 -1.3373 3.2344 27.0849 4.9292 -3.8139 -3.0789 4.1993 -4.6336 7.0515 3.6203 0.2708 -0.2527 0.1792 1.2227 -10.4246 -3.5656 -0.6903 -10.4231 3.8165 14.6133 11.4952 -1.7457 -83.0037 16.7542 34.0701 -1.8030 -2.0783 -79.4834 5.4007 46.2080 -9.1417 -19.0732 10.5087 15.4736 -63.2534 1.1873 2.5118 -16.7994 20.4120 11.7939 89.7694 18.3056 10.8781 2.0958 -6.9079 98.7277 -69.8276 7.9665 -96.9625 18.3221 6.6780 -15.2358 53.0963 -2.5942 -4.4838 8.2306 -28.6415 1.4124 3.8584 73.8593 2.8723 -23.5432 0.8311 11.2082 1.1953 -5.0819 -1.8502 -17.2450 -28.4732 -12.6218 -0.2018 66.9306 -1.8585 17.1987 -14.8544 -12.0114 -1.2963 -3.9885 0.9806
21.9200 8.6890 -87.4348 159.7855 -74.2414 -162.9205 0.1231 10.2149 -0.7604 0.6543 -2.0037 -0.5356 -1.3821 15.6028 -1.5130 4.3146 20.2838 4.3996 -3.9421 -3.1409 4.3894 -4.6086 6.4092 4.3718 0.2359 -0.2471 0.0446 1.2455 -10.3242 -3.6745 -0.7858 -10.3510 3.6709 15.9158 10.6783 -4.5157 -80.4566 18.3616 43.7316 -1.0800 -1.7831 -81.8692 2.8715 50.5285 -9.0386 -18.7704 10.5815 15.0728 -63.1986 1.2833 2.1907 -17.4306 19.7479 13.4742 90.0074 18.2378 5.1747 3.4479 -7.9382 99.8882 -73.5426 8.5465 -99.1633 18.0312 6.8122 -15.1740 53.1158 -2.6515 -4.6651 9.6148 -28.3840 1.0195 3.7054 73.4522 2.5501 -23.9003 1.3052 14.3067 1.0454 -4.9040 -1.7214 -18.2638 -27.6726 -14.7853 0.2360 65.1082 -1.9667 17.3154 -14.8089 -11.9504 -1.1593 -3.6049 0.8812
22.3372 8.7794 -89.4978 161.8181 -71.6504 -164.2408 0.2050 10.2312 -0.4312 0.4286 -2.0113 -0.6303 -1.2482 14.2638 -1.7872 5.3540 12.9469 3.2767 -3.5445 -3.2168 4.4051 -3.4202 5.0778 5.1749 0.1689 -0.2327 -0.0345 1.2575 -10.4207 -3.7750 -0.9319 -10.3760 3.6345 16.1482 9.9324 -7.0805 -76.7151 18.5660 53.5360 -0.6369 -1.0699 -86.2079 2.8372 52.5927 -6.9449 -17.9635 10.9578 14.9028 -62.4867 1.4327 1.7663 -17.2168 19.0716 14.6740 89.4224 19.0326 -2.5873 4.3194 -7.4389 102.3660 -76.8332 12.8314 -93.9752 17.1353 7.1632 -14.9912 52.2799 -2.9069 -4.9349 11.4567 -28.6827 0.3064 3.3780 72.3529 2.0186 -23.4847 0.7614 17.7755 0.9057 -4.6415 -1.5871 -19.0704 -28.0649 -18.1056 0.7651 63.3168 -2.1615 16.9306 -14.8023 -10.4872 -0.9189 -3.3199 0.7544
22.7365 9.3265 -91.8601 162.9719 -70.4026 -164.7171 0.2396 10.3867 -0.2405 0.3745 -2.0175 -0.7086 -1.4680 13.0745 -2.1532 6.6678 5.7596 1.9655 -2.9268 -3.4013 4.2399 -1.6539 2.4269 5.1075 0.0408 -0.2148 -0.0503 1.1517 -10.8803 -3.8400 -1.0847 -10.6715 3.7076 15.2968 9.3440 -9.2294 -72.6035 17.4300 62.0661 -0.2707 -0.0509 -91.5300 5.2050 51.7137 -3.6639 -17.2473 11.3271 14.9685 -61.9267 1.6642 1.5747 -15.6109 18.0347 15.3480 86.7363 20.4080 -13.7936 5.7157 -5.3321 103.5722 -71.1514 20.3783 -73.8432 16.1511 7.1300 -15.3983 51.0481 -3.5295 -5.4187 13.3534 -29.8382 -0.7361 2.5807 69.2863 1.0943 -22.2283 -0.3620 20.5004 0.8430 -4.3561 -1.5003 -19.1466 -30.3395 -22.4359 1.3260 62.1009 -2.5884 16.0440 -14.7726 -7.8122 -0.7327 -3.1870 0.6124
23.1074 9.7793 -94.2879 162.9669 -70.5735 -164.0452 0.1239 10.4576 -0.1934 0.3849 -2.0187 -0.6713 -1.7265 11.8279 -2.3722 7.6637 0.5771 0.9720 -2.5862 -3.6022 3.9218 -0.7963 -1.3623 4.2037 -0.0435 -0.1795 -0.0171 0.9953 -11.3627 -3.8719 -1.1035 -11.1133 3.8424 14.2926 8.8639 -10.8175 -69.2801 15.4576 68.5059 0.0733 0.5023 -95.4405 7.1061 49.9248 -1.4220 -16.8468 11.5073 14.9767 -62.0362 1.8650 1.5574 -13.6036 16.8313 15.4773 82.8353 20.6431 -25.3764 7.0591 -3.5973 101.4227 -57.8720 21.9238 -51.8119 15.2976 6.6862 -15.9946 50.0316 -3.7904 -5.3780 14.8410 -32.0203 -1.5231 1.6830 64.5635 0.1297 -20.2262 -0.9579 22.3522 0.8490 -4.1975 -1.4976 -18.6245 -34.2772 -26.7244 1.6878 62.0943 -3.3465 15.0781 -15.3110 -4.0289 -0.6840 -3.2896 0.4478
23.4318 9.8875 -96.3911 162.2947 -70.8364 -162.5560 -0.1115 10.5140 -0.1150 0.3348 -2.0000 -0.5608 -1.7539 10.7842 -2.4358 8.0079 -1.6710 0.5314 -2.5806 -3.7624 3.6876 -0.5070 -4.5021 3.2360 -0.1443 -0.1654 0.0295 0.8323 -11.7001 -3.8594 -1.1471 -11.5064 3.9713 13.5352 8.1947 -11.7057 -66.9708 13.1509 72.6874 0.2168 0.5303 -97.0856 7.4948 48.1944 -0.9039 -16.3875 11.4288 14.8685 -61.6395 1.9095 1.5643 -12.0041 15.4859 15.0533 79.6058 18.7634 -33.4426 6.9316 -2.6865 96.9993 -48.9003 19.0061 -37.8519 14.7384 6.4555 -16.0125 49.3152 -3.8590 -4.8884 15.9234 -34.2802 -1.9846 1.2876 60.7612 -0.3330 -18.1636 -1.3568 23.3265 0.8865 -4.0605 -1.5568 -18.3190 -38.4586 -30.1438 1.9829 62.6024 -4.0216 14.7845 -15.5210 0.3756 -0.7225 -3.4025 0.3321
23.6459 9.6904 -98.0411 161.9507 -70.7470 -161.4199 -0.3031 10.6924 -0.0932 0.1944 -1.9857 -0.4055 -1.5778 10.1140 -2.5078 7.7815 -2.2308 0.5759 -2.7915 -3.8721 3.3789 -0.1407 -6.3338 2.4995 -0.2576 -0.1730 0.0814 0.6908 -11.8799 -3.7854 -1.2334 -11.7461 4.0514 13.0690 7.6319 -11.9174 -65.2490 10.5650 75.6059 0.2306 -0.2605 -96.2892 6.8331 47.1768 -1.2931 -16.0160 11.0958 14.5508 -61.0487 1.8625 1.4194 -10.6523 14.1131 14.5999 77.2661 15.3348 -39.0975 6.3398 -1.9342 91.4468 -45.1202 15.8283 -29.7261 14.4924 6.3389 -15.6037 48.8328 -3.8937 -4.4499 16.9122 -36.0229 -2.5680 1.3071 59.1483 -0.3392 -16.9801 -2.1921 23.0519 0.9269 -3.8142 -1.5841 -18.4330 -42.0250 -32.5002 2.2240 62.5498 -4.5027 14.6838 -14.7392 4.2381 -0.7144 -3.5836 0.3228
23.7560 9.3572 -99.3374 161.9929 -70.4732 -160.8285 -0.4423 11.0038 -0.1769 -0.0033 -1.9835 -0.2831 -1.3106 9.8504 -2.6138 7.5320 -2.4535 0.7706 -2.9405 -3.9314 3.1442 0.3350 -7.6906 1.9356 -0.3186 -0.1853 0.1220 0.6194 -11.9564 -3.6932 -1.2804 -11.8353 4.0674 13.0902 7.4188 -11.8345 -63.9770 8.1996 78.4552 0.4411 -0.9586 -94.0340 6.2814 45.6063 -1.9771 -15.9034 10.7808 14.2705 -60.7228 1.8039 1.1811 -9.5129 12.9451 14.6878 75.8827 11.0381 -44.2834 5.9091 -1.0277 84.9186 -44.1899 12.0930 -23.4814 14.4180 6.2864 -15.1534 48.4896 -3.8481 -4.2231 17.8571 -37.2999 -3.4754 1.5157 59.2099 -0.1713 -16.7166 -3.2120 21.9948 0.9578 -3.5855 -1.5633 -18.9548 -45.0231 -33.9265 2.2256 62.2069 -5.1687 14.6243 -13.3022 6.5284 -0.6224 -3.8161 0.3003
23.7957 8.9311 -100.4547 161.9106 -70.5585 -160.2850 -0.4568 11.4062 -0.2745 -0.1172 -1.9980 -0.2173 -1.1997 9.5072 -2.6877 7.4499 -3.0639 0.9102 -2.9246 -4.0390 3.0326 0.5596 -9.0353 1.4807 -0.3169 -0.2058 0.1482 0.5664 -12.0008 -3.6192 -1.2203 -11.8764 4.0451 13.5884 7.4690 -11.9191 -63.0650 6.5309 81.5829 0.7401 -1.0539 -91.7983 5.6050 43.4771 -3.0526 -15.9924 10.6330 14.1582 -60.6237 1.8548 1.0050 -8.6970 11.8026 15.2560 75.0991 7.3188 -48.1445 4.7974 0.4307 78.2626 -43.7611 7.4840 -18.4716 14.2433 6.3420 -14.9060 48.4356 -3.6870 -4.1984 18.7002 -38.4743 -4.2230 1.6265 59.4944 -0.0402 -16.6591 -4.3156 21.1061 0.9505 -3.4811 -1.5097 -19.5686 -47.7359 -34.9617 1.9047 61.8128 -6.0566 14.2949 -11.8879 7.4450 -0.5790 -3.9551 0.2614
23.8185 8.4844 -101.3430 162.0967 -70.9754 -160.1070 -0.4183 11.6552 -0.3549 -0.1543 -1.9593 -0.2318 -1.1721 9.1048 -2.7280 7.5566 -4.1136 0.9994 -2.7124 -4.1566 2.9051 0.3421 -10.2705 1.2952 -0.2807 -0.2189 0.1565 0.5272 -12.0453 -3.5815 -1.1059 -11.9167 4.0095 14.1448 7.6951 -12.0910 -62.5024 5.5818 83.8383 1.4344 -0.9338 -89.9452 4.5685 41.9073 -4.7479 -16.1036 10.5629 14.0714 -60.7223 1.9334 0.8976 -8.2464 10.9322 15.7084 74.5298 4.4223 -50.2002 3.2177 1.5387 72.3597 -43.3043 3.2889 -15.2377 13.9760 6.5240 -14.9041 48.4092 -3.4607 -4.2610 19.0949 -39.1839 -4.4643 1.5488 59.0337 -0.0384 -16.6665 -5.4201 20.1430 0.9279 -3.5318 -1.4741 -20.4394 -49.9362 -35.5080 1.4700 61.3156 -6.7802 13.8888 -10.9330 8.0162 -0.5756 -4.1343 0.2272
23.8723 7.9948 -102.1525 162.6293 -71.8214 -160.4271 -0.3493 11.6425 -0.4551 -0.0969 -1.9130 -0.2978 -1.1262 8.5709 -2.7984 7.6652 -5.3176 1.0163 -2.4708 -4.2493 2.8321 0.0436 -11.3946 1.2706 -0.2474 -0.2161 0.1543 0.4787 -12.0545 -3.5591 -0.9892 -11.9157 3.9710 14.6440 7.9965 -12.3550 -62.2497 5.0271 85.8594 2.0059 -0.5168 -88.5444 3.4294 40.8516 -6.9351 -16.1545 10.4552 13.9533 -60.7729 1.9896 0.8959 -8.1373 10.3388 15.9135 73.8591 2.2340 -50.9329 1.7304 2.1524 67.4547 -42.6675 -0.1599 -13.0552 13.8494 6.7602 -14.9938 48.4326 -3.2614 -4.2868 18.9698 -39.3000 -3.9116 1.3951 57.5303 -0.0487 -16.6988 -6.4834 18.8757 0.8995 -3.5810 -1.4665 -21.3805 -51.7289 -36.0892 1.0147 60.8108 -7.3126 13.9055 -10.5029 8.4662 -0.6170 -4.2699 0.2021
23.8858 7.3903 -102.8565 163.6546 -73.0021 -161.3921 -0.2758 11.3786 -0.5243 0.0456 -1.9284 -0.3867 -0.9732 7.8839 -2.9824 7.5785 -6.4785 0.9649 -2.3366 -4.3071 2.7682 -0.0678 -12.3745 1.2409 -0.2333 -0.2043 0.1514 0.4116 -12.0293 -3.5306 -0.8944 -11.8675 3.9346 15.0550 8.2329 -12.7769 -62.1944 4.5882 87.9946 2.1554 0.0250 -87.6682 2.3025 40.2796 -9.5128 -16.0937 10.2810 13.7850 -60.6236 1.9745 0.9598 -8.3585 9.9522 15.8308 72.8102 0.7527 -50.5363 0.5211 2.1768 63.5284 -41.8934 -2.7219 -10.9556 13.8191 7.0171 -15.0325 48.7313 -3.0680 -4.3096 18.2022 -38.5671 -2.0911 1.2087 54.5371 0.0647 -16.8002 -7.3258 17.4296 0.8710 -3.5767 -1.4969 -22.4762 -53.1670 -36.9641 0.6258 60.4106 -7.6412 14.2490 -10.6788 8.7532 -0.6747 -4.3015 0.1942
23.9071 6.8229 -103.5955 165.3821 -74.3558 -163.3068 -0.0502 10.7716 -0.6059 0.2258 -2.0764 -0.4998 -0.7540 7.4092 -3.3201 7.5807 -7.6328 0.8483 -2.4993 -4.3260 2.7643 -0.3251 -13.2004 1.3953 -0.2019 -0.2053 0.1370 0.3801 -11.9703 -3.5191 -0.7953 -11.7934 3.8814 15.3370 8.3438 -13.1353 -62.3167 4.2764 89.7429 2.1187 0.4268 -87.1963 1.6733 39.3772 -12.2305 -16.2575 10.1023 13.5092 -60.4818 1.8451 0.8614 -8.7774 9.8121 15.5673 71.4696 -0.5181 -49.9603 0.0898 1.7529 60.2477 -41.3478 -4.7440 -8.1383 13.9758 7.1526 -14.9970 48.8852 -2.8619 -4.3088 17.0401 -36.6387 0.7728 1.0163 50.1561 0.3563 -16.9955 -7.5402 16.0803 0.8250 -3.4852 -1.5217 -23.8947 -53.9152 -38.1214 0.5130 60.1897 -7.6029 14.6933 -11.0384 8.8119 -0.6793 -4.2019 0.1885
23.8535 6.4339 -104.1995 167.4042 -75.8790 -165.7194 0.2956 9.8281 -0.6742 0.4458 -2.3872 -0.6573 -0.4852 7.1931 -3.7668 7.5015 -8.8871 0.8319 -2.7262 -4.3497 2.7954 -0.5507 -13.7896 1.5861 -0.1375 -0.2158 0.1083 0.4057 -11.9221 -3.5414 -0.6841 -11.7187 3.8182 15.5567 8.5043 -13.2502 -62.7111 4.1421 91.1221 2.1390 0.9484 -86.9180 1.5235 38.0697 -14.7786 -16.6150 10.0611 13.3498 -60.3847 1.6976 0.6438 -9.4361 9.8913 15.2495 70.0989 -1.5550 -49.4365 0.2528 1.3995 57.2430 -41.1335 -6.9476 -4.8772 14.0888 7.1974 -15.0613 48.9748 -2.7464 -4.4566 15.8820 -33.7904 4.3573 0.6742 44.9470 0.7151 -17.3703 -7.2876 14.8520 0.6740 -3.3776 -1.4970 -25.3370 -54.0292 -39.7217 0.6067 60.2121 -7.4097 15.0555 -11.1940 8.4227 -0.6690 -4.0834 0.1451
23.8388 6.0890 -104.6511 168.9164 -77.5769 -167.7176 0.6942 8.6318 -0.7296 0.6304 -2.7656 -0.8445 -0.1695 7.1642 -4.1742 7.4731 -10.2119 0.7488 -2.7755 -4.4070 2.9915 -0.8197 -14.0439 1.8947 -0.0246 -0.2371 0.0498 0.4812 -11.9016 -3.6118 -0.5233 -11.6507 3.7214 15.7334 8.7097 -13.1944 -63.2394 4.1284 92.6159 2.0906 1.9459 -86.6253 2.1382 36.7286 -16.5322 -16.8861 10.1716 13.3633 -60.1248 1.6660 0.4632 -10.3064 10.0695 15.1514 68.8894 -2.1799 -48.9941 0.5791 1.2766 54.3968 -41.3399 -9.6104 -2.0350 13.9410 7.1939 -15.2632 48.6493 -2.7130 -4.6718 15.0881 -30.1681 8.2805 0.1933 39.4718 1.1053 -18.1679 -6.9596 14.1478 0.4346 -3.3682 -1.4154 -26.4318 -53.5777 -41.6983 0.7828 60.1677 -7.1842 15.5859 -11.0170 7.7264 -0.6913 -3.9306 0.0519
23.7543 5.8037 -104.8979 168.7868 -79.7705 -168.1639 1.1628 7.1865 -0.6846 0.8385 -3.1118 -1.0236 0.0705 6.9583 -4.4202 7.4392 -11.4032 0.7028 -2.5149 -4.4473 3.2391 -1.2171 -14.0259 2.1792 0.0957 -0.2432 -0.0216 0.5638 -11.8366 -3.6942 -0.3578 -11.5526 3.6138 15.7752 9.0108 -13.1363 -63.9057 3.9845 94.2456 1.8942 3.3907 -86.1572 3.3706 35.0504 -17.6561 -17.0052 10.3467 13.5057 -59.8182 1.7716 0.4198 -11.2260 10.4452 15.2768 67.9987 -2.3082 -48.5962 0.8038 1.2869 51.8848 -41.8092 -12.2578 -0.4238 13.5928 7.2173 -15.5433 48.1571 -2.7174 -4.8144 14.6448 -26.0830 12.5242 -0.4561 33.2383 1.5011 -19.3287 -6.7968 14.2031 0.2280 -3.4365 -1.3079 -26.5302 -52.9725 -44.5213 0.9682 59.8961 -6.9459 16.2980 -10.7972 7.2199 -0.7585 -3.7588 -0.0845
23.6773 5.5816 -104.9989 164.7438 -82.3614 -164.6763 1.6389 5.6195 -0.4569 0.9765 -3.4755 -1.1162 0.3256 6.3532 -4.4411 6.9436 -12.0121 0.9078 -1.9807 -4.4199 3.3426 -1.4230 -13.6356 2.2466 0.1825 -0.2210 -0.0757 0.6161 -11.6660 -3.7214 -0.2315 -11.3755 3.5053 15.5796 9.4113 -13.1572 -64.6844 3.6379 95.7031 1.4332 4.8371 -85.4587 4.5918 33.0158 -18.7503 -17.1342 10.3647 13.5617 -59.4422 1.8954 0.5682 -12.0631 11.0685 15.4286 67.5626 -1.8244 -47.9198 0.8321 1.3550 50.5232 -42.2277 -13.7254 -0.4548 13.5123 7.2520 -15.7046 47.9376 -2.6501 -4.9320 14.3910 -22.0972 18.0551 -1.1204 26.4894 2.0713 -20.6603 -6.1060 15.0097 0.0699 -3.5693 -1.2795 -25.7205 -52.1615 -47.9971 1.2084 59.1743 -6.5363 17.4965 -10.5083 6.7173 -0.8837 -3.3321 -0.2432
23.5443 5.3073 -104.7779 154.3745 -84.7491 -154.9573 2.0938 4.0497 -0.1746 0.9990 -3.8974 -1.1689 0.6700 5.5681 -4.4244 6.1042 -11.7712 1.3983 -1.3241 -4.2836 3.4029 -1.3968 -12.7393 2.1252 0.2041 -0.2093 -0.0832 0.5707 -11.4130 -3.6643 -0.1378 -11.1245 3.4279 15.2606 9.8744 -12.9308 -65.5082 3.5525 95.9911 1.2157 6.1038 -84.6619 5.9978 30.5685 -20.0908 -17.4283 10.2546 13.4662 -59.6074 1.9116 0.8515 -12.7512 11.8864 15.8174 67.6551 -0.7581 -47.0397 0.5226 1.1889 50.4928 -42.2815 -14.4597 -0.4509 13.9373 7.2153 -15.7308 48.3298 -2.6051 -5.1257 14.4586 -18.8078 25.0868 -1.5693 21.5408 2.8576 -22.0171 -3.5890 16.3968 -0.0835 -3.5300 -1.3535 -25.3380 -50.2642 -51.1097 1.6444 57.9158 -5.7355 19.3619 -8.9374 5.8706 -0.9136 -2.7130 -0.4419
23.4432 4.7953 -104.1090 131.0228 -86.6000 -132.3947 2.3075 2.3716 -0.6282 0.9760 -4.1419 -1.1264 1.4793 5.2816 -4.0808 5.6354 -12.1317 2.0867 -0.7267 -4.1702 3.6453 -1.9396 -11.4006 1.8592 0.2913 -0.2331 -0.1079 0.6695 -11.2308 -3.6944 -0.0612 -10.9602 3.3754 15.7738 9.8341 -12.5238 -65.5815 4.7169 95.0229 1.7783 6.8958 -83.0173 7.9597 27.9399 -20.4400 -17.8438 10.4504 13.7899 -60.1226 1.6965 0.9250 -14.0532 13.1834 16.2411 69.2098 -0.6488 -47.8269 1.3192 1.1303 50.1564 -42.8286 -15.1874 1.3534 14.3373 7.0903 -15.3983 48.8193 -2.4620 -5.0775 15.0362 -16.9329 32.7392 -1.5467 20.9371 3.5007 -23.5485 3.2783 18.3283 -0.1494 -3.5712 -1.4350 -24.9628 -47.4715 -54.1141 1.2325 56.4715 -5.9471 20.4545 -4.3367 3.8523 -0.6754 -2.5571 -0.4224
23.5935 4.1431 -103.1684 85.4779 -87.0166 -87.4829 2.8130 0.3632 -1.0388 0.7804 -4.7076 -1.1916 1.8902 6.6232 -3.9018 6.0121 -11.7815 2.5578 -0.4415 -4.0287 4.2952 -1.4195 -10.9395 1.1971 0.2590 -0.2570 -0.0869 0.7239 -11.1975 -3.6381 -0.1764 -10.7940 3.3715 17.1493 11.2571 -11.5855 -66.6009 6.9243 94.2820 2.4763 7.0540 -81.7984 10.7742 27.5406 -19.5548 -17.3319 10.3024 13.8524 -60.1183 1.6965 0.6565 -15.3277 13.7523 17.2145 71.0383 -1.3344 -50.4654 2.4816 1.5009 48.8167 -45.3780 -18.6012 5.9245 15.1826 7.0667 -15.1035 49.5587 -1.8865 -4.7417 15.2659 -17.1030 37.6049 -1.9559 22.4531 3.7681 -24.1851 9.6565 20.4130 -0.0584 -3.9396 -1.0355 -21.2911 -47.1621 -55.9447 -0.5231 56.4849 -7.6172 19.6928 -3.5491 -0.2624 -0.5281 -2.7212 -0.3281
23.5298 4.4608 -102.3132 73.1424 -83.9976 -74.8377 2.2233 0.1586 0.0073 0.9785 -5.4756 -0.6789 1.7156 6.6933 -2.9745 5.3197 -10.2485 2.4402 -0.0747 -4.4223 4.1222 -0.3953 -10.2107 1.8756 0.1435 -0.2446 -0.0295 0.7408 -11.6056 -3.6148 -0.4236 -11.2802 3.5002 17.8865 12.4830 -10.3574 -67.8523 7.2865 94.4825 3.2492 7.9110 -81.1906 10.1986 22.6957 -21.6095 -17.7631 10.2836 13.8338 -60.9910 1.8084 1.0310 -15.4676 12.7802 17.2443 71.6746 -0.7893 -49.8493 0.3519 1.8354 48.6036 -46.4217 -19.9998 7.2652 14.9920 7.3845 -15.4356 49.3528 -2.5262 -4.8406 12.6295 -20.5011 41.2564 -1.1984 24.3823 4.0725 -22.5537 9.2539 19.8115 0.1478 -2.7897 -1.1048 -17.5194 -48.8203 -55.2018 -1.3023 57.2274 -8.6465 18.3858 -1.9151 -1.7313 -0.7237 -3.0664 -0.3449
23.4427 4.4542 -101.9261 71.4527 -83.1331 -73.2918 2.0376 0.3681 0.3476 1.0159 -5.3658 -0.5564 1.9825 5.9186 -2.7612 5.7869 -7.7231 2.5126 -0.2209 -4.1790 4.1207 0.1866 -9.9965 1.9676 0.1416 -0.1310 -0.0398 0.7875 -11.5772 -3.7023 -0.4748 -11.2959 3.5596 17.4937 13.1376 -9.8204 -68.0873 6.6422 94.9087 3.2864 6.3207 -80.7596 11.3313 18.8637 -22.5388 -17.5979 10.1096 13.5408 -59.8020 1.9295 0.4779 -14.5179 12.6946 17.8190 71.7164 -2.3465 -51.2696 0.3416 2.1445 47.8670 -47.1265 -19.7043 6.5563 14.3433 7.1556 -15.4144 49.0727 -2.8886 -4.5622 12.4306 -21.9588 41.5968 -1.4775 25.9229 3.9138 -21.7494 7.7319 19.0878 0.1208 -2.8816 -1.2042 -15.6806 -48.3371 -55.3019 -1.0513 56.2711 -8.6552 17.8406 -2.0676 -0.6780 -0.8345 -2.9521 -0.4643
23.4082 4.3275 -101.5684 72.7807 -82.9220 -74.8135 1.9016 0.3752 0.4388 0.8485 -5.3411 -0.4794 2.3840 5.9419 -2.5946 5.7435 -6.3390 2.7254 -0.1857 -4.0827 3.9443 0.5421 -9.9374 1.8649 0.1209 -0.1505 -0.0350 0.7832 -11.5662 -3.6935 -0.5138 -11.3439 3.5693 17.3591 13.3631 -9.7392 -68.7797 5.6914 95.6984 3.2277 6.2132 -80.2079 12.1536 16.7728 -23.4367 -18.0382 9.8523 13.4921 -59.7992 1.8502 0.4760 -14.3771 12.5579 18.5156 72.0802 -2.7014 -52.4055 0.6618 1.8855 47.0404 -47.1894 -18.9894 5.5112 14.1809 7.1136 -15.3402 48.7819 -2.7745 -4.6674 12.8343 -21.9849 41.4548 -1.2252 26.2166 3.8693 -21.2708 9.0440 19.1594 0.2241 -3.1394 -1.4338 -15.0880 -46.8740 -55.0837 -0.5956 54.3685 -8.2652 18.3626 -1.4297 0.3423 -0.8667 -2.9764 -0.4705
23.4251 4.2953 -101.3527 72.9121 -83.0408 -75.0897 1.8542 0.2440 0.5324 0.6892 -5.5144 -0.4747 2.6010 6.4022 -2.5134 5.7057 -5.8824 2.5627 -0.0801 -4.0824 3.8101 0.8966 -10.4066 1.6726 0.0991 -0.1800 -0.0188 0.7850 -11.7168 -3.6948 -0.5595 -11.5497 3.6147 17.5543 13.4669 -9.7936 -69.5842 5.0049 96.4251 3.2191 6.7516 -79.6505 12.7431 15.4637 -24.1402 -18.7503 9.7083 13.7091 -60.7111 1.5991 0.9979 -14.7287 12.7445 18.6670 72.9056 -2.6831 -53.7377 1.4501 1.2626 46.5795 -46.9150 -17.8801 4.9448 14.3291 7.3128 -15.2134 48.8162 -2.4888 -4.7131 12.7783 -21.6658 41.6842 -0.8514 25.4808 3.9386 -20.3794 10.1059 19.7063 0.2616 -3.3510 -1.4923 -15.0371 -45.7382 -54.9455 -0.7227 53.1564 -8.2180 19.2980 0.0349 0.0444 -0.8905 -2.9991 -0.5219
23.4898 4.2323 -101.1633 70.9141 -83.1733 -73.4459 2.1513 -0.0815 0.5773 0.8264 -5.6044 -0.3850 2.6161 6.6832 -2.4468 6.1692 -5.4055 2.0945 -0.4271 -4.0710 3.5793 0.5321 -12.0061 1.7114 0.0612 -0.1961 -0.0072 0.7479 -11.5988 -3.6414 -0.6044 -11.5537 3.6058 17.2152 13.6428 -9.8989 -70.0908 4.1035 97.0472 2.7539 6.3166 -79.6161 13.3858 14.5072 -24.1611 -19.3944 9.5476 13.5134 -61.2035 1.5492 0.8109 -14.8128 13.1707 18.0588 73.3221 -3.3791 -54.9866 2.7456 0.9683 46.0962 -46.5640 -16.3155 4.1231 14.8460 6.9775 -14.8434 49.1680 -2.3165 -4.4576 12.6218 -22.0093 42.1119 -0.3807 25.1162 4.2108 -18.6194 9.5382 20.7618 0.1811 -3.0581 -1.2679 -14.2087 -44.5548 -55.9218 -0.8367 51.7762 -8.3628 19.6265 1.9172 -1.0550 -0.7096 -2.9100 -0.5650
23.5118 4.3398 -101.1740 68.3845 -82.9361 -70.9736 2.2528 -0.3830 0.8093 0.8513 -5.7861 -0.2689 2.5830 6.8499 -2.3930 6.3261 -5.0756 1.8172 -0.6499 -4.1252 3.5203 0.4490 -13.1871 1.7274 0.0894 -0.1833 -0.0214 0.7150 -11.4357 -3.6270 -0.5118 -11.4580 3.5520 17.3886 13.7593 -9.9646 -70.4102 4.0689 97.8087 2.3149 7.2861 -79.8948 14.1159 13.9265 -24.1627 -19.7402 9.5973 13.8279 -61.5007 1.5570 0.9489 -14.9113 13.1668 17.8834 73.1973 -2.9139 -54.8744 2.9136 0.6181 46.2807 -46.4866 -16.1440 3.2553 14.7026 7.0144 -15.0706 48.9915 -2.3420 -4.5198 12.1750 -22.2505 42.9622 -0.5351 24.7223 4.3149 -17.8876 8.8319 21.3644 0.1134 -2.7775 -1.2287 -13.4209 -44.5602 -56.2023 -0.7035 51.2717 -8.0925 19.0104 2.0105 -2.0769 -0.6856 -2.9297 -0.5512
23.4926 4.3490 -101.2055 66.5234 -82.6996 -69.1203 2.3031 -0.5723 0.9794 0.8586 -5.8778 -0.1677 2.5468 6.8467 -2.3585 6.1870 -5.0446 1.7531 -0.6839 -4.2140 3.5125 0.2773 -14.0818 1.7713 0.1155 -0.1834 -0.0378 0.6944 -11.3707 -3.6320 -0.4371 -11.4198 3.5147 17.5620 13.6468 -9.8966 -70.4778 4.2671 97.5063 2.4605 7.8261 -80.1596 14.6787 13.7690 -23.9444 -19.8724 9.5647 13.9634 -61.3635 1.5679 0.8819 -14.8685 12.9969 17.9848 72.9371 -2.5923 -54.8074 2.8246 0.6176 46.2306 -46.4943 -16.2595 2.9358 14.5490 7.0177 -15.1285 48.7674 -2.3856 -4.5487 11.8456 -22.4117 43.6894 -0.6958 24.4207 4.3456 -17.4556 8.2451 21.8114 0.0901 -2.6640 -1.1647 -12.8774 -44.7835 -56.4817 -0.5768 51.2307 -7.9299 18.6002 2.1496 -2.4917 -0.6824 -2.9438 -0.5453
23.5109 4.3892 -101.2399 65.3620 -82.5464 -67.9749 2.3450 -0.6521 1.0461 0.8636 -5.9210 -0.0985 2.5305 6.7861 -2.2841 5.8558 -5.1172 1.8381 -0.6795 -4.2787 3.5048 0.2488 -14.7607 1.7740 0.1132 -0.1835 -0.0441 0.6667 -11.3368 -3.6258 -0.4153 -11.3813 3.4998 17.6565 13.5568 -9.7796 -70.5718 4.5193 96.8749 2.7488 8.1138 -80.5130 15.0419 13.7411 -23.5298 -19.8673 9.5541 14.0151 -61.1597 1.5936 0.8373 -14.8169 12.8325 18.1083 72.7483 -2.3928 -54.4916 2.4733 0.6802 46.0486 -46.4491 -16.6328 2.9777 14.4348 7.0546 -15.1067 48.5881 -2.3968 -4.5448 11.5890 -22.4803 44.1865 -0.8424 24.1613 4.3588 -17.0969 7.6968 22.1793 0.1051 -2.6425 -1.1298 -12.4551 -44.9768 -56.8122 -0.5470 51.2950 -7.8948 18.2728 2.2491 -2.6085 -0.7132 -2.9352 -0.5409
23.5431 4.3499 -101.3349 64.8671 -82.4285 -67.4784 2.3401 -0.7074 1.0798 0.8697 -5.9286 -0.0370 2.5467 6.7144 -2.1934 5.5076 -5.1861 1.9092 -0.6131 -4.3098 3.5240 0.1836 -15.2621 1.7951 0.1026 -0.1848 -0.0451 0.6406 -11.3395 -3.6268 -0.4119 -11.3718 3.5062 17.6950 13.4742 -9.6628 -70.6902 4.6627 96.3023 2.8564 8.3386 -80.9085 15.3014 13.8265 -22.9955 -19.8079 9.5136 13.9921 -61.0506 1.6014 0.8100 -14.7424 12.6841 18.2936 72.5582 -2.3061 -54.2516 2.2035 0.7689 45.7507 -46.4470 -17.1401 3.3683 14.4404 7.0409 -15.0536 48.5509 -2.4322 -4.5341 11.4731 -22.4568 44.4924 -0.9229 23.8897 4.3898 -16.8285 7.2597 22.4251 0.1239 -2.6958 -1.1276 -12.2170 -45.1319 -56.9914 -0.5551 51.4302 -7.9162 17.9902 2.2350 -2.5444 -0.7372 -2.8614 -0.5392
23.5895 4.3300 -101.3990 64.4503 -82.3344 -67.0926 2.3558 -0.7455 1.0995 0.8440 -5.9312 0.0153 2.5596 6.6462 -2.0872 5.1648 -5.2154 2.0351 -0.5895 -4.3183 3.4850 0.2240 -15.7479 1.7945 0.0818 -0.1865 -0.0435 0.6056 -11.3135 -3.6166 -0.4194 -11.3290 3.5097 17.6902 13.4390 -9.5642 -70.8688 4.6883 95.6691 3.0609 8.3881 -81.2439 15.3937 13.9193 -22.3668 -19.7158 9.5363 13.9532 -61.0289 1.5968 0.7790 -14.7146 12.5431 18.4295 72.4245 -2.1914 -53.8431 1.9062 0.8498 45.4481 -46.3987 -17.6994 3.7901 14.5212 7.0179 -15.0174 48.5796 -2.4632 -4.5036 11.3509 -22.4667 44.7782 -0.9308 23.6725 4.4629 -16.5846 6.8224 22.6316 0.1628 -2.7370 -1.1378 -11.9310 -45.1793 -57.1426 -0.6342 51.4655 -8.0057 17.6659 2.2558 -2.5173 -0.7559 -2.7882 -0.5213
23.6125 4.3475 -101.4406 64.3278 -82.2900 -66.9732 2.3269 -0.7745 1.1213 0.8647 -5.9405 0.0483 2.5305 6.5907 -2.0220 4.8202 -5.2199 2.1632 -0.5741 -4.3124 3.4223 0.3424 -16.1418 1.7694 0.0595 -0.1868 -0.0388 0.5773 -11.2777 -3.6056 -0.4374 -11.2739 3.5190 17.6899 13.4749 -9.4562 -71.0922 4.5415 95.3572 2.9440 8.4277 -81.5130 15.4762 14.0140 -21.7273 -19.6371 9.5376 13.9464 -60.9808 1.5786 0.7703 -14.7139 12.4110 18.5135 72.3555 -2.0434 -53.4131 1.6526 0.9749 45.2127 -46.3958 -18.1467 4.1328 14.6873 7.0127 -14.9835 48.7115 -2.4561 -4.4609 11.2439 -22.4076 45.0627 -0.9030 23.3979 4.5540 -16.3691 6.4867 22.7334 0.2166 -2.7541 -1.1538 -11.7359 -45.1895 -57.2089 -0.6977 51.4511 -8.0852 17.3832 2.3224 -2.5270 -0.7633 -2.7490 -0.5114
23.6013 4.3910 -101.4536 64.0499 -82.2753 -66.7266 2.3279 -0.8014 1.1388 0.8754 -5.9656 0.0884 2.5058 6.5749 -1.9787 4.5879 -5.1910 2.2398 -0.5818 -4.3030 3.3447 0.3782 -16.4776 1.7851 0.0389 -0.1890 -0.0332 0.5521 -11.2417 -3.5969 -0.4525 -11.2103 3.5290 17.7049 13.5743 -9.3653 -71.3263 4.3616 95.1166 2.8068 8.3394 -81.6384 15.5806 14.1506 -21.0982 -19.5711 9.5677 13.9854 -60.9944 1.5551 0.7888 -14.7047 12.3874 18.5561 72.3703 -2.0052 -53.0994 1.4652 1.0650 44.9913 -46.4028 -18.5501 4.3669 14.7651 7.0129 -14.9555 48.8637 -2.4596 -4.4304 11.1909 -22.3824 45.2877 -0.8849 23.1715 4.6562 -16.1678 6.1897 22.7681 0.2572 -2.7445 -1.1585 -11.5808 -45.1090 -57.2534 -0.7428 51.3145 -8.1293 17.2018 2.4292 -2.6286 -0.7567 -2.7470 -0.4982
23.5940 4.4586 -101.4557 63.6503 -82.2408 -66.3157 2.3013 -0.8342 1.1501 0.8801 -6.0129 0.1310 2.4838 6.5788 -1.9544 4.3992 -5.1066 2.3348 -0.6169 -4.3143 3.2569 0.3774 -16.7308 1.8420 0.0320 -0.1879 -0.0331 0.5441 -11.1814 -3.5905 -0.4578 -11.1236 3.5249 17.7049 13.7262 -9.2227 -71.5751 4.1995 94.8473 2.7025 8.1602 -81.7168 15.6841 14.4074 -20.4698 -19.5241 9.6357 14.0415 -61.0598 1.5640 0.8246 -14.6972 12.3831 18.5236 72.3724 -1.9621 -52.7184 1.2818 1.2029 44.8822 -46.4095 -18.8694 4.2908 14.7855 7.0392 -15.0037 48.8645 -2.5227 -4.3997 11.0858 -22.3381 45.5042 -0.8683 23.0057 4.7228 -16.0129 5.9594 22.8756 0.2802 -2.7675 -1.1481 -11.4368 -45.0665 -57.2510 -0.7661 51.1481 -8.1651 16.9608 2.5974 -2.7358 -0.7578 -2.8381 -0.4870
23.5663 4.4968 -101.3946 63.3158 -82.2510 -65.9217 2.2366 -0.8720 1.1555 0.9087 -6.0326 0.1493 2.4275 6.5435 -1.9425 4.2381 -4.9950 2.4206 -0.6226 -4.3322 3.2159 0.2964 -16.8924 1.8811 0.0222 -0.1839 -0.0303 0.5318 -11.0979 -3.5789 -0.4657 -11.0217 3.5223 17.7015 13.8298 -9.1355 -71.7334 4.0308 94.4106 2.6961 8.0558 -81.6344 15.8049 14.6899 -19.8506 -19.4850 9.6922 14.1227 -61.1080 1.5661 0.8657 -14.6181 12.3762 18.5051 72.2949 -1.9462 -52.3066 1.1052 1.2933 44.8052 -46.4155 -19.0405 4.0694 14.7213 7.0485 -15.0261 48.7719 -2.5389 -4.4072 10.9916 -22.3165 45.7259 -0.8819 22.9343 4.7973 -15.8620 5.7269 22.9609 0.3029 -2.7549 -1.1410 -11.3998 -45.0421 -57.1872 -0.7767 50.9725 -8.1905 16.8130 2.7421 -2.8584 -0.7691 -2.8863 -0.4843
23.5343 4.5702 -101.4376 62.9453 -82.2756 -65.4581 2.1972 -0.9171 1.1590 0.9494 -6.0545 0.1698 2.3019 6.5153 -1.9328 4.1125 -4.9116 2.4740 -0.6380 -4.3503 3.2185 0.1848 -17.0381 1.8921 0.0125 -0.1818 -0.0277 0.5267 -11.0605 -3.5752 -0.4808 -10.9718 3.5275 17.6557 13.8420 -9.1111 -71.8007 3.8238 93.8260 2.7952 8.0159 -81.4960 15.8872 15.0557 -19.1015 -19.4199 9.7343 14.2016 -61.0511 1.5876 0.8704 -14.5418 12.3275 18.5080 72.1315 -1.8723 -51.8527 0.9646 1.2851 44.7557 -46.3318 -19.2086 3.9164 14.6897 6.9991 -15.0274 48.6921 -2.5678 -4.4211 10.8918 -22.2785 45.9057 -0.8868 22.9405 4.8629 -15.7149 5.4712 23.0904 0.3134 -2.7600 -1.1280 -11.4090 -45.0534 -57.1024 -0.7632 50.7951 -8.1796 16.7410 2.9158 -2.9901 -0.7768 -2.9029 -0.4750
23.5532 4.6100 -101.3903 62.7998 -82.3119 -65.2499 2.2008 -0.9313 1.1747 0.9730 -6.0495 0.1803 2.1795 6.4604 -1.9162 4.0055 -4.8611 2.4933 -0.6416 -4.3565 3.2432 0.0473 -17.1524 1.8932 0.0007 -0.1802 -0.0239 0.5168 -11.0365 -3.5762 -0.4946 -10.9437 3.5408 17.5841 13.7392 -9.1070 -71.7455 3.5595 93.2146 2.8744 8.0394 -81.3240 15.9694 15.5060 -18.2930 -19.4112 9.7253 14.2089 -61.0693 1.5987 0.8898 -14.4366 12.2279 18.4706 71.9437 -1.8015 -51.3861 0.8037 1.2120 44.7445 -46.2353 -19.2617 3.8749 14.6559 6.9775 -14.9822 48.6634 -2.5308 -4.4058 10.7922 -22.3140 46.0969 -0.8648 23.0712 4.9226 -15.5467 5.2290 23.1857 0.3248 -2.7712 -1.1255 -11.4561 -45.0213 -56.9888 -0.7628 50.6116 -8.1610 16.6602 3.1070 -3.1206 -0.7878 -2.8842 -0.4629
23.5727 4.6700 -101.3623 62.6817 -82.3770 -65.0538 2.1868 -0.9437 1.1910 1.0023 -6.0343 0.1973 2.0717 6.4117 -1.9180 3.8806 -4.8185 2.5121 -0.7187 -4.3623 3.2509 -0.0423 -17.2796 1.8555 -0.0170 -0.1783 -0.0165 0.4965 -11.0177 -3.5720 -0.5098 -10.9264 3.5581 17.4886 13.6007 -9.1282 -71.6723 3.2493 92.6640 2.8758 7.9921 -81.1527 15.9672 16.0477 -17.5290 -19.4353 9.6929 14.2270 -61.1152 1.5903 0.8920 -14.3539 12.1046 18.4126 71.7675 -1.7528 -50.9511 0.6025 1.1560 44.7097 -46.0600 -19.2264 3.7914 14.6742 6.9676 -14.9790 48.7024 -2.5205 -4.4084 10.7070 -22.3133 46.2395 -0.8410 23.1914 4.9668 -15.3391 4.9965 23.3026 0.3419 -2.7221 -1.1329 -11.5605 -44.9913 -56.8306 -0.7352 50.3795 -8.0908 16.6167 3.3690 -3.2759 -0.7962 -2.8879 -0.4491
23.5408 4.7325 -101.3486 62.4052 -82.4302 -64.7193 2.1772 -0.9611 1.2063 1.0176 -6.0288 0.2170 2.0134 6.4026 -1.9290 3.7813 -4.8019 2.5313 -0.8100 -4.3702 3.2433 -0.0985 -17.2989 1.8352 -0.0260 -0.1759 -0.0148 0.4870 -10.9877 -3.5673 -0.5189 -10.8917 3.5610 17.3991 13.5246 -9.0840 -71.6928 3.0303 91.9999 3.0464 7.7712 -80.9949 15.9467 16.6834 -16.8263 -19.4922 9.7287 14.2229 -61.2699 1.5917 0.9085 -14.2826 12.0483 18.2948 71.6861 -1.8563 -50.6546 0.3993 1.1732 44.6454 -45.8833 -19.3460 3.8449 14.7213 6.9585 -14.9263 48.6935 -2.4773 -4.3997 10.6112 -22.3124 46.3233 -0.8602 23.2929 4.9688 -15.1027 4.7819 23.4128 0.3441 -2.7226 -1.1395 -11.6248 -44.9351 -56.6983 -0.7088 50.1429 -8.0251 16.5943 3.6488 -3.4066 -0.8066 -2.9126 -0.4322
23.5723 4.7538 -101.3476 62.3345 -82.5326 -64.5872 2.1147 -0.9682 1.2002 1.0726 -6.0069 0.2418 1.9777 6.3913 -1.9683 3.6999 -4.7852 2.5417 -0.8685 -4.3817 3.2562 -0.1331 -17.2469 1.7743 -0.0262 -0.1736 -0.0160 0.4937 -11.0085 -3.5752 -0.5266 -10.8986 3.5668 17.3077 13.5021 -8.9993 -71.7825 2.7057 91.4868 3.0361 7.5610 -80.7854 15.9258 17.3529 -16.2623 -19.4995 9.7423 14.2777 -61.3147 1.5524 0.9441 -14.1322 12.0065 18.2121 71.5220 -2.0983 -50.5183 0.3260 1.2601 44.5786 -45.8483 -19.3830 3.8341 14.7311 6.9617 -14.9047 48.7851 -2.4701 -4.4227 10.5671 -22.2670 46.3051 -0.8842 23.3900 4.9549 -14.9389 4.5339 23.4934 0.3323 -2.7053 -1.1383 -11.7917 -44.8960 -56.4805 -0.6734 49.9346 -7.9278 16.5536 3.9232 -3.6175 -0.8113 -2.9237 -0.4232
23.5759 4.7591 -101.3008 62.2148 -82.6256 -64.3944 2.0889 -0.9878 1.1886 1.0582 -5.9850 0.2470 1.9622 6.4005 -1.9981 3.6212 -4.7986 2.5904 -0.8898 -4.3993 3.2473 -0.1087 -17.1593 1.7051 -0.0299 -0.1745 -0.0171 0.4953 -11.0289 -3.5777 -0.5360 -10.9004 3.5685 17.2361 13.4751 -8.9357 -71.8080 2.4849 90.9403 3.1383 7.2941 -80.6089 15.8870 17.9943 -15.7639 -19.4681 9.7601 14.3086 -61.3174 1.5274 0.9592 -14.0248 11.9702 18.1798 71.3773 -2.2890 -50.3128 0.1766 1.3388 44.4817 -45.7058 -19.4945 3.7777 14.7026 6.9792 -14.8988 48.7096 -2.4623 -4.4388 10.4990 -22.2054 46.2767 -0.9310 23.4614 4.9691 -14.8312 4.3650 23.5932 0.3254 -2.6903 -1.1278 -11.9458 -44.8864 -56.2995 -0.6675 49.7496 -7.8879 16.5489 4.1466 -3.7265 -0.8220 -2.9884 -0.4207
23.5656 4.7795 -101.2953 62.0637 -82.7280 -64.1910 2.0418 -1.0056 1.1696 1.0654 -5.9667 0.2341 1.9496 6.3941 -2.0216 3.4997 -4.7974 2.6494 -0.8387 -4.4068 3.2185 -0.0402 -17.0780 1.6156 -0.0381 -0.1735 -0.0162 0.4962 -11.0358 -3.5785 -0.5541 -10.8928 3.5754 17.0890 13.3899 -8.9373 -71.7104 2.2192 90.4724 3.2043 7.0095 -80.4836 15.8254 18.4845 -15.3386 -19.3842 9.7652 14.3023 -61.2367 1.4928 0.9614 -13.9177 11.9002 18.1750 71.1683 -2.4295 -50.0245 0.0064 1.3391 44.3064 -45.4905 -19.6275 3.7833 14.6686 7.0096 -14.8618 48.6345 -2.4245 -4.4117 10.4348 -22.1573 46.2213 -0.9755 23.5534 4.9717 -14.8007 4.1841 23.6683 0.3182 -2.7382 -1.1175 -12.0914 -44.8744 -56.1461 -0.6674 49.6145 -7.8700 16.5275 4.3500 -3.8259 -0.8485 -2.9703 -0.4289
23.5440 4.8060 -101.2655 62.0452 -82.8016 -64.0736 1.9865 -1.0081 1.1789 1.0632 -5.9509 0.2088 1.9396 6.3638 -2.0559 3.3589 -4.7928 2.6952 -0.7463 -4.4097 3.2095 0.0673 -16.9766 1.5478 -0.0498 -0.1713 -0.0123 0.4921 -11.0520 -3.5766 -0.5754 -10.8898 3.5876 16.9560 13.3155 -8.9450 -71.5958 2.0498 90.0662 3.2321 6.8951 -80.4309 15.8548 18.7849 -14.9075 -19.3517 9.7807 14.3010 -61.2117 1.4885 0.9709 -13.8230 11.7959 18.2080 70.9334 -2.5517 -49.7967 -0.1231 1.3493 44.2023 -45.3609 -19.7424 3.7665 14.6722 7.0340 -14.8481 48.6093 -2.4111 -4.4112 10.3364 -22.0990 46.2566 -0.9489 23.6310 5.0236 -14.7369 4.0540 23.7122 0.3232 -2.8060 -1.1193 -12.2770 -44.8891 -55.9880 -0.6684 49.4350 -7.8767 16.5893 4.4786 -3.8449 -0.8697 -2.8978 -0.4340
23.5489 4.8124 -101.2121 62.1939 -82.8830 -64.1610 1.9329 -0.9917 1.1878 1.0505 -5.9286 0.1867 1.9166 6.3177 -2.0807 3.2564 -4.8059 2.7158 -0.6379 -4.4075 3.2215 0.1163 -16.8414 1.5076 -0.0633 -0.1685 -0.0074 0.4791 -11.0704 -3.5766 -0.5896 -10.8925 3.6023 16.7878 13.3231 -8.9266 -71.5141 1.7846 89.7217 3.2251 6.6257 -80.4001 15.8460 19.0631 -14.5590 -19.3511 9.8050 14.2937 -61.2244 1.4618 0.9819 -13.6754 11.6596 18.2098 70.6505 -2.7440 -49.5879 -0.1189 1.3284 43.9578 -45.3151 -19.7693 3.7816 14.6707 7.0657 -14.7945 48.6508 -2.3880 -4.3935 10.2658 -22.0375 46.2448 -0.9359 23.7276 5.0327 -14.6933 3.8717 23.7448 0.3333 -2.8400 -1.1286 -12.4378 -44.8835 -55.8292 -0.6579 49.2583 -7.8427 16.6694 4.6618 -3.8661 -0.8895 -2.8455 -0.4284
23.5447 4.7976 -101.1181 62.3425 -82.9378 -64.2562 1.9045 -0.9900 1.2025 1.0458 -5.9076 0.1726 1.8755 6.2784 -2.1068 3.2281 -4.8074 2.7311 -0.5672 -4.3916 3.2151 0.1524 -16.6448 1.4861 -0.0639 -0.1669 -0.0071 0.4862 -11.0654 -3.5754 -0.5982 -10.8698 3.6019 16.7010 13.3365 -8.9076 -71.4268 1.6045 89.5237 3.0907 6.2688 -80.4110 15.8510 19.2897 -14.3510 -19.4060 9.8533 14.2705 -61.3176 1.4527 0.9496 -13.5962 11.6029 18.2092 70.4724 -2.9483 -49.5097 -0.0602 1.3621 43.7921 -45.2528 -19.8535 3.8079 14.7134 7.0637 -14.7723 48.6431 -2.3864 -4.3764 10.2016 -21.9930 46.2786 -0.9156 23.7948 5.0668 -14.5772 3.7980 23.8170 0.3623 -2.9015 -1.1480 -12.5647 -44.8738 -55.7313 -0.6584 49.0639 -7.8644 16.7959 4.8820 -3.8482 -0.9165 -2.8351 -0.4197
23.5690 4.8405 -101.0740 62.4283 -82.9721 -64.3134 1.8775 -0.9996 1.2194 1.0348 -5.8894 0.1630 1.8452 6.2404 -2.1338 3.2307 -4.8005 2.7353 -0.5556 -4.3701 3.2053 0.2487 -16.4784 1.4336 -0.0830 -0.1616 0.0022 0.4722 -11.0229 -3.5489 -0.6236 -10.8149 3.6006 16.5943 13.3621 -8.8820 -71.3852 1.3907 89.3280 3.0590 5.8719 -80.4034 15.8514 19.5812 -14.1948 -19.5023 9.8956 14.2331 -61.5016 1.4291 0.9514 -13.4911 11.5434 18.1781 70.2574 -3.1747 -49.3418 0.0139 1.3395 43.5524 -45.2128 -19.8588 3.8440 14.7244 7.0445 -14.7172 48.6254 -2.3656 -4.4057 10.1458 -21.8809 46.2923 -0.8822 23.7683 5.1006 -14.5419 3.7821 23.9064 0.3971 -2.9356 -1.1665 -12.6814 -44.8520 -55.6158 -0.6118 48.8989 -7.8288 16.9052 5.0704 -3.8395 -0.9278 -2.8431 -0.4047
23.5567 4.8804 -101.0337 62.2641 -82.9814 -64.1321 1.8420 -1.0252 1.2154 1.0739 -5.8800 0.1603 1.8042 6.2231 -2.1684 3.2377 -4.8080 2.7772 -0.5430 -4.3505 3.1701 0.3624 -16.2761 1.3708 -0.0903 -0.1588 0.0064 0.4721 -10.9916 -3.5345 -0.6384 -10.7716 3.5964 16.5493 13.4088 -8.8255 -71.3371 1.2596 89.1469 3.0619 5.6171 -80.3623 15.8575 19.7407 -14.1226 -19.5907 9.9670 14.2424 -61.6893 1.4187 0.9745 -13.4138 11.4844 18.1699 70.0417 -3.3481 -49.1882 0.0374 1.3308 43.3723 -45.1797 -19.9301 3.8662 14.7149 7.0461 -14.7332 48.6357 -2.3879 -4.4411 10.1006 -21.8495 46.3543 -0.8615 23.7969 5.1221 -14.5212 3.8070 24.0404 0.4242 -2.9771 -1.1758 -12.7397 -44.8377 -55.5658 -0.5506 48.7424 -7.7846 17.0443 5.2179 -3.8258 -0.9416 -2.8740 -0.3918
23.5699 4.9157 -101.0827 61.9425 -83.0082 -63.8169 1.8135 -1.0458 1.1913 1.1172 -5.8640 0.1567 1.7671 6.1743 -2.1985 3.2679 -4.8117 2.8451 -0.4986 -4.3276 3.1319 0.4556 -16.0805 1.2949 -0.0949 -0.1573 0.0087 0.4686 -10.9407 -3.5140 -0.6454 -10.7085 3.5806 16.5272 13.3927 -8.7631 -71.2215 1.0934 88.9454 3.0548 5.4019 -80.2654 15.9048 19.9471 -14.0879 -19.6041 9.9898 14.2266 -61.8056 1.4224 0.9946 -13.3206 11.3994 18.1918 69.7886 -3.4722 -49.1127 0.1235 1.2771 43.2326 -45.2525 -19.9975 3.9807 14.6938 7.0191 -14.7482 48.6560 -2.3822 -4.5445 10.0752 -21.7991 46.3481 -0.8432 23.7735 5.1427 -14.5482 3.7949 24.1752 0.4254 -2.9868 -1.1710 -12.8273 -44.8282 -55.5233 -0.4612 48.6634 -7.7036 17.2346 5.3096 -3.8055 -0.9363 -2.8686 -0.3800
23.5371 4.9523 -101.0572 61.7693 -83.0257 -63.6441 1.8006 -1.0506 1.1613 1.1751 -5.8383 0.1563 1.7095 6.1176 -2.2277 3.3081 -4.8052 2.9432 -0.4637 -4.3146 3.0602 0.5960 -15.8869 1.2026 -0.0903 -0.1562 0.0071 0.4772 -10.9348 -3.5121 -0.6460 -10.6858 3.5730 16.5146 13.3422 -8.6880 -71.0957 0.9393 88.6898 3.1293 5.3461 -80.0586 15.9376 19.9929 -14.1627 -19.5888 9.9906 14.2330 -61.8923 1.4243 1.0302 -13.1808 11.3156 18.2407 69.4969 -3.6694 -49.0714 0.2013 1.2020 43.0841 -45.3776 -20.1620 4.1678 14.7139 7.0337 -14.7804 48.7297 -2.3482 -4.5867 10.0989 -21.7139 46.2499 -0.8438 23.7385 5.1268 -14.6188 3.7999 24.3917 0.4234 -2.9939 -1.1470 -12.9391 -44.7874 -55.4450 -0.3932 48.5734 -7.6417 17.4764 5.4023 -3.7538 -0.9187 -2.8235 -0.3848
23.4729 4.9713 -101.0528 61.7802 -83.0515 -63.6656 1.8224 -1.0398 1.1300 1.1963 -5.8013 0.1507 1.6645 6.0709 -2.2383 3.2596 -4.8358 3.0302 -0.3577 -4.3131 2.9940 0.8403 -15.7962 1.0687 -0.0966 -0.1561 0.0095 0.4798 -10.9417 -3.5044 -0.6603 -10.6683 3.5709 16.5858 13.2477 -8.6071 -70.9750 0.8534 88.4226 3.2905 5.3310 -79.7870 15.9599 19.9504 -14.3246 -19.5492 9.9343 14.1494 -61.9826 1.4391 1.0239 -13.0502 11.1991 18.3108 69.2410 -3.8676 -49.1453 0.2561 1.0816 42.9503 -45.5126 -20.3109 4.4018 14.7219 7.0645 -14.8460 48.7605 -2.3113 -4.5966 10.2080 -21.6316 46.0796 -0.8971 23.7221 5.0447 -14.7088 3.8006 24.6134 0.4202 -3.0251 -1.1153 -13.0693 -44.7216 -55.3900 -0.3449 48.4757 -7.5750 17.7035 5.4707 -3.6899 -0.9006 -2.7928 -0.3923
23.4833 5.0005 -100.9893 61.8552 -83.0765 -63.7437 1.8135 -1.0311 1.0755 1.2507 -5.7850 0.1298 1.6162 6.0507 -2.2522 3.1817 -4.9436 3.1310 -0.2981 -4.3458 2.9236 1.1597 -15.7190 0.9186 -0.1128 -0.1577 0.0159 0.4723 -10.9681 -3.4930 -0.6872 -10.6733 3.5798 16.6587 13.2304 -8.5095 -70.9383 0.8053 88.2509 3.4676 5.1165 -79.5162 15.8620 20.0645 -14.6053 -19.4441 9.8495 14.0756 -62.0379 1.4421 1.0748 -12.9556 11.1095 18.4128 69.1262 -4.0076 -49.2994 0.2594 1.0160 42.9222 -45.7288 -20.4808 4.6930 14.7932 7.1265 -14.8927 48.8781 -2.2452 -4.5780 10.3492 -21.5454 45.7936 -0.9911 23.7203 4.9113 -14.8404 3.8684 24.9861 0.4312 -3.0159 -1.0916 -13.2208 -44.5828 -55.2631 -0.3058 48.3154 -7.4853 17.9376 5.4866 -3.6139 -0.9043 -2.7865 -0.3936
23.4620 5.0420 -100.8944 61.8399 -83.0992 -63.7100 1.7820 -1.0261 0.9786 1.2789 -5.8207 0.0930 1.5667 6.0920 -2.2530 3.0701 -5.1358 3.2556 -0.2175 -4.3935 2.8346 1.4046 -15.6808 0.8705 -0.1455 -0.1611 0.0288 0.4467 -11.0417 -3.4841 -0.7300 -10.7187 3.6110 16.7897 13.1901 -8.4045 -70.8754 0.6828 88.4079 3.4679 4.9834 -79.2074 15.6558 19.8557 -15.0070 -19.3643 9.7660 13.9829 -62.0336 1.3730 1.1260 -12.9316 11.1183 18.5433 69.1623 -4.0771 -49.3549 0.2003 0.9041 43.0232 -46.0452 -20.6774 5.1166 14.8037 7.1928 -14.8963 49.0148 -2.2600 -4.5421 10.5923 -21.4697 45.3826 -1.1525 23.7372 4.6845 -15.0119 3.9640 25.4472 0.4449 -2.9824 -1.0662 -13.3813 -44.5159 -55.0231 -0.3602 48.2652 -7.4178 18.2001 5.4397 -3.6599 -0.9258 -2.7653 -0.3591
