HIERARCHY
ROOT Hips
{
	OFFSET 0.0000 0.0000 0.0000
	CHANNELS 6 Xposition Yposition Zposition Zrotation Xrotation Yrotation
	JOINT Spine1
	{
		OFFSET -0.0137 5.0038 -0.0537
		CHANNELS 3 Zrotation Xrotation Yrotation
		JOINT Spine2
		{
			OFFSET -0.0000 7.1253 -0.0298
			CHANNELS 3 Zrotation Xrotation Yrotation
			JOINT Chest
			{
				OFFSET -0.0000 7.5501 -0.8160
				CHANNELS 3 Zrotation Xrotation Yrotation
				JOINT Neck1
				{
					OFFSET -0.1817 26.3113 -0.5533
					CHANNELS 3 Zrotation Xrotation Yrotation
					JOINT Neck2
					{
						OFFSET -0.0000 7.7094 2.3026
						CHANNELS 3 Zrotation Xrotation Yrotation
						JOINT Head
						{
							OFFSET -0.0000 6.1289 1.9537
							CHANNELS 3 Zrotation Xrotation Yrotation
							JOINT Jaw
							{
								OFFSET 0.0026 0.4756 3.0949
								CHANNELS 3 Zrotation Xrotation Yrotation
								End Site
								{
									OFFSET 0.0 1.0 0.0
								}
							}
							JOINT LeftEye
							{
								OFFSET 3.2064 5.3802 7.5869
								CHANNELS 3 Zrotation Xrotation Yrotation
								End Site
								{
									OFFSET 0.0 1.0 0.0
								}
							}
							JOINT RightEye
							{
								OFFSET -3.2224 5.3619 7.5582
								CHANNELS 3 Zrotation Xrotation Yrotation
								End Site
								{
									OFFSET 0.0 1.0 0.0
								}
							}
						}
					}
				}
				JOINT LeftShoulder
				{
					OFFSET 1.6217 23.2372 5.1134
					CHANNELS 3 Zrotation Xrotation Yrotation
					JOINT LeftArm
					{
						OFFSET 14.9198 0.0000 -5.5023
						CHANNELS 3 Zrotation Xrotation Yrotation
						JOINT LeftForeArm
						{
							OFFSET 28.7393 0.0000 -0.0026
							CHANNELS 3 Zrotation Xrotation Yrotation
							JOINT LeftHand
							{
								OFFSET 27.0940 -0.0000 0.0026
								CHANNELS 3 Zrotation Xrotation Yrotation
								JOINT LeftHandThumbEnd
								{
									OFFSET 12.2686 -3.2202 4.8331
									CHANNELS 3 Zrotation Xrotation Yrotation
									End Site
									{
										OFFSET 0.0 1.0 0.0
									}
								}
								JOINT LeftHandMiddleEnd
								{
									OFFSET 19.0120 -0.3129 -0.0340
									CHANNELS 3 Zrotation Xrotation Yrotation
									End Site
									{
										OFFSET 0.0 1.0 0.0
									}
								}
							}
						}
					}
				}
				JOINT RightShoulder
				{
					OFFSET -1.3801 23.1803 5.2142
					CHANNELS 3 Zrotation Xrotation Yrotation
					JOINT RightArm
					{
						OFFSET -15.0372 0.0000 -5.5456
						CHANNELS 3 Zrotation Xrotation Yrotation
						JOINT RightForeArm
						{
							OFFSET -28.7366 0.0000 -0.0026
							CHANNELS 3 Zrotation Xrotation Yrotation
							JOINT RightHand
							{
								OFFSET -27.1336 -0.0000 0.0026
								CHANNELS 3 Zrotation Xrotation Yrotation
								JOINT RightHandThumbEnd
								{
									OFFSET -12.2642 -3.2115 4.8040
									CHANNELS 3 Zrotation Xrotation Yrotation
									End Site
									{
										OFFSET 0.0 1.0 0.0
									}
								}
								JOINT RightHandMiddleEnd
								{
									OFFSET -19.0006 -0.3066 -0.0316
									CHANNELS 3 Zrotation Xrotation Yrotation
									End Site
									{
										OFFSET 0.0 1.0 0.0
									}
								}
							}
						}
					}
				}
			}
		}
	}
	JOINT LeftLeg
	{
		OFFSET 10.0432 -8.4345 2.5957
		CHANNELS 3 Zrotation Xrotation Yrotation
		JOINT LeftShin
		{
			OFFSET -0.0000 -43.2218 -0.8029
			CHANNELS 3 Zrotation Xrotation Yrotation
			JOINT LeftFoot
			{
				OFFSET 0.0000 -42.1551 -3.4815
				CHANNELS 3 Zrotation Xrotation Yrotation
				JOINT LeftToeBase
				{
					OFFSET 0.0000 -5.0595 13.2315
					CHANNELS 3 Zrotation Xrotation Yrotation
					End Site
					{
						OFFSET 0.0 1.0 0.0
					}
				}
			}
		}
	}
	JOINT RightLeg
	{
		OFFSET -10.0473 -8.2953 2.6203
		CHANNELS 3 Zrotation Xrotation Yrotation
		JOINT RightShin
		{
			OFFSET 0.0000 -43.3622 -0.8056
			CHANNELS 3 Zrotation Xrotation Yrotation
			JOINT RightFoot
			{
				OFFSET 0.0000 -42.1174 -3.4784
				CHANNELS 3 Zrotation Xrotation Yrotation
				JOINT RightToeBase
				{
					OFFSET -0.0000 -5.0796 13.2842
					CHANNELS 3 Zrotation Xrotation Yrotation
					End Site
					{
						OFFSET 0.0 1.0 0.0
					}
				}
			}
		}
	}
}
MOTION
Frames: 100
Frame Time: 0.033333
-1.5702 98.5287 5.7565 0.9069 2.0563 -0.1523 -1.5293 3.1363 0.0544 -0.7799 -3.7772 0.9034 -0.3183 16.8568 -0.3244 1.3258 36.6974 1.4024 -0.7481 -3.7548 -1.6097 0.0022 -3.7408 -2.5698 -0.0515 -0.1192 0.0560 0.6025 -10.4373 -3.7250 -0.7090 -10.3799 3.8572 -7.5333 13.4429 -4.1776 -60.2694 -20.9970 21.1658 -0.6634 0.1714 -101.0493 14.2168 38.8908 35.4456 -16.2597 9.7283 15.4821 -60.3927 1.1571 2.0036 0.0758 12.8015 19.1774 64.6653 -42.2014 -35.1732 2.4548 1.5504 114.8255 2.1912 55.0403 -23.1922 14.7523 7.2360 -15.4179 48.4426 -3.8329 -5.2308 6.3632 -12.1263 6.9760 0.0403 14.1932 -0.3602 -7.7616 -5.7990 -7.4271 1.6221 -3.9349 -1.8317 -9.8228 -4.9834 2.5742 -0.0579 12.9830 0.3225 9.3270 -7.1267 -11.4099 -1.4268 -2.9055 1.4027
-1.2447 98.6223 5.9538 1.4655 2.5481 -0.3025 -1.7187 3.2094 -0.0061 -0.7601 -3.7683 0.9393 -0.5729 16.9030 -0.2691 1.1890 37.0597 1.5385 -0.9289 -3.7600 -1.9748 -0.0228 -4.0015 -3.1275 -0.0748 -0.1266 0.0660 0.5768 -10.4609 -3.7192 -0.7302 -10.4003 3.8780 -7.8535 13.3247 -4.1912 -58.3808 -21.1901 20.9950 -0.5864 0.0907 -100.8886 11.5108 37.5191 34.1836 -16.1094 9.6729 15.4003 -60.3377 1.1850 1.8525 -0.2029 12.8472 19.2016 63.5742 -43.0355 -34.3603 2.0796 1.4063 113.3610 2.8687 53.6304 -24.6746 14.7704 7.1708 -15.3673 48.7311 -3.8208 -5.1725 5.5081 -12.0567 6.8503 0.0124 13.4727 -0.4119 -7.6360 -5.6822 -7.0469 1.6256 -4.0648 -1.8484 -10.6797 -5.6499 2.6363 -0.0582 13.3047 0.3580 9.7605 -6.9168 -11.4259 -1.4344 -2.9419 1.3652
-0.9486 98.6591 6.1681 2.0888 3.0381 -0.5138 -1.9384 3.2722 -0.0381 -0.7626 -3.7426 0.9902 -0.7180 17.0420 -0.2177 0.9588 37.4492 1.6571 -1.0983 -3.7758 -2.4537 -0.1983 -4.2279 -3.6601 -0.0778 -0.1268 0.0661 0.5734 -10.4928 -3.7260 -0.7330 -10.4307 3.8832 -8.1423 13.3014 -4.1815 -56.0727 -21.2197 20.4252 -0.4517 0.0167 -100.7508 8.0019 36.2262 32.9838 -15.9399 9.6469 15.3677 -60.2447 1.1957 1.7815 -0.2243 13.0007 19.3016 61.7442 -43.8124 -32.7313 1.6959 1.1550 112.0208 3.1724 52.4872 -26.3722 14.8622 7.1757 -15.3676 49.0846 -3.7494 -5.1657 4.5959 -12.0164 6.5816 0.0147 12.8851 -0.4247 -7.4725 -5.5589 -6.4417 1.6310 -4.0861 -1.8531 -11.6375 -6.4661 2.7154 -0.0405 13.9431 0.3993 10.2416 -6.9480 -11.3959 -1.4382 -2.9356 1.3301
-0.6715 98.6503 6.3726 2.6817 3.5073 -0.7613 -2.1546 3.3664 -0.0750 -0.7715 -3.7262 1.0619 -0.7644 17.2708 -0.1480 0.6752 37.8911 1.7154 -1.2364 -3.7936 -2.9393 -0.4048 -4.5064 -4.1432 -0.0790 -0.1254 0.0644 0.5755 -10.5235 -3.7322 -0.7368 -10.4615 3.8838 -8.2651 13.3744 -4.0796 -53.6861 -21.1613 19.5211 -0.2567 -0.0950 -100.6625 4.0678 35.4880 31.7605 -15.7142 9.6805 15.3002 -60.1022 1.2073 1.7138 -0.0289 13.3013 19.3959 59.6067 -44.3688 -30.5709 1.3682 0.9004 110.9578 3.3803 51.3811 -28.0537 15.0192 7.2023 -15.4091 49.4787 -3.6657 -5.1885 3.7171 -12.1000 6.3198 0.0306 12.6060 -0.4025 -7.3438 -5.5009 -5.7214 1.6314 -4.0490 -1.8499 -12.5695 -7.3207 2.8232 -0.0217 14.7113 0.4357 10.7362 -7.1849 -11.2623 -1.4361 -2.9491 1.2903
-0.4373 98.5838 6.5919 3.2864 3.9323 -1.0119 -2.3810 3.5440 -0.0930 -0.7853 -3.6913 1.1142 -0.7474 17.5483 -0.0688 0.4802 38.3727 1.7674 -1.3720 -3.8057 -3.4236 -0.6188 -4.7880 -4.5758 -0.0928 -0.1208 0.0682 0.5598 -10.5240 -3.7230 -0.7495 -10.4641 3.8860 -8.1084 13.5043 -3.8725 -51.4290 -21.1047 18.5030 -0.0705 -0.1995 -100.6371 -0.0511 34.8966 30.2843 -15.4689 9.7604 15.2548 -59.9139 1.2433 1.6797 0.2799 13.6472 19.4890 57.3655 -44.4502 -28.0917 1.0718 0.7083 110.1482 3.3996 50.3548 -29.8881 15.1976 7.2248 -15.4803 49.8892 -3.5988 -5.2504 2.8350 -12.2755 6.0568 0.0472 12.6313 -0.3677 -7.2437 -5.5878 -4.8608 1.6309 -3.9564 -1.8587 -13.5154 -8.2184 2.9921 -0.0079 15.6913 0.4780 11.2776 -7.5796 -11.1486 -1.4332 -2.9372 1.2579
-0.2706 98.4689 6.8442 3.8320 4.3190 -1.2117 -2.5955 3.7884 -0.1229 -0.8108 -3.6209 1.1615 -0.6691 17.8468 -0.0024 0.4449 38.9503 1.7736 -1.5024 -3.8115 -3.8080 -0.8021 -5.0984 -4.9063 -0.1131 -0.1157 0.0729 0.5374 -10.5196 -3.7080 -0.7686 -10.4625 3.8875 -7.5954 13.6534 -3.6301 -49.6609 -21.1763 17.6485 0.0380 -0.2325 -100.7493 -3.6020 34.1737 28.7633 -15.2813 9.8534 15.2563 -59.7746 1.2668 1.6936 0.6799 14.0020 19.5586 55.2734 -43.9449 -25.5409 0.8509 0.5655 109.4412 3.0501 49.4067 -31.8256 15.3669 7.2305 -15.5890 50.2093 -3.5891 -5.2985 2.0518 -12.6123 5.8071 0.0556 13.0353 -0.3401 -7.1240 -5.8794 -4.0459 1.6281 -3.8351 -1.8726 -14.3732 -9.1062 3.1925 0.0154 16.7976 0.5288 11.8137 -8.1207 -11.0357 -1.4296 -2.9707 1.2442
-0.1379 98.3343 7.0897 4.2468 4.6615 -1.3224 -2.7635 4.0778 -0.1747 -0.8559 -3.5049 1.2224 -0.5146 18.1538 0.0705 0.5824 39.7156 1.7165 -1.5813 -3.8064 -4.0979 -0.9564 -5.3959 -5.0873 -0.1395 -0.1085 0.0758 0.5060 -10.5090 -3.6932 -0.7914 -10.4588 3.8892 -6.7584 13.8154 -3.3428 -48.3595 -21.3142 16.8658 0.1659 -0.1811 -100.9436 -6.3728 33.3203 27.3500 -15.1226 9.9739 15.2980 -59.6200 1.2919 1.6902 1.1284 14.3960 19.5736 53.6062 -42.7956 -23.2230 0.8191 0.4716 108.8392 2.1602 48.6609 -33.9948 15.5348 7.2290 -15.7067 50.4333 -3.6028 -5.3647 1.4521 -13.0950 5.5676 0.0597 13.7713 -0.3226 -7.0221 -6.3094 -3.3254 1.6295 -3.8009 -1.8934 -15.0535 -9.8828 3.3764 0.0404 17.8674 0.5670 12.2915 -8.6528 -10.9723 -1.4274 -3.0908 1.2284
-0.0711 98.1936 7.3291 4.5246 4.9519 -1.3053 -2.8853 4.4382 -0.2092 -0.9016 -3.3697 1.2369 -0.3133 18.5212 0.1438 0.9303 40.6917 1.5730 -1.6591 -3.7906 -4.2147 -1.0816 -5.6577 -5.1924 -0.1734 -0.0967 0.0839 0.4665 -10.4946 -3.6673 -0.8216 -10.4518 3.8935 -5.5697 14.0037 -3.0606 -47.4649 -21.4904 16.1589 0.3618 -0.1573 -101.2495 -8.4643 32.2974 26.0622 -14.9918 10.0971 15.3601 -59.5492 1.3013 1.7435 1.5912 14.8925 19.4979 52.3455 -40.9042 -21.0647 0.8889 0.3358 108.3991 0.9691 47.8014 -36.4320 15.7396 7.2169 -15.8773 50.5512 -3.6467 -5.4306 1.0616 -13.6835 5.3038 0.0454 14.7822 -0.3415 -6.9943 -6.8626 -2.6883 1.6259 -3.7875 -1.9199 -15.5205 -10.5711 3.4985 0.0504 18.9788 0.5876 12.6629 -9.1775 -10.8978 -1.4269 -3.2862 1.2151
-0.0361 98.0535 7.5954 4.6534 5.1996 -1.1146 -2.9650 4.8510 -0.3057 -0.9654 -3.1773 1.2995 -0.0579 18.9148 0.1955 1.4803 41.9143 1.3449 -1.6940 -3.7664 -4.1627 -1.1416 -5.8238 -5.2499 -0.2030 -0.0909 0.0871 0.4269 -10.4643 -3.6380 -0.8406 -10.4336 3.8816 -4.0877 14.2030 -2.7429 -46.9880 -21.8788 15.5703 0.5288 -0.1295 -101.5349 -9.8881 31.0701 24.9893 -14.8937 10.1784 15.4360 -59.4101 1.2547 1.8028 2.1112 15.4968 19.2658 51.4891 -38.2322 -19.0022 0.9828 0.2885 108.1719 0.2459 46.5100 -38.4472 15.9805 7.1973 -16.1254 50.5442 -3.7435 -5.5357 0.8967 -14.3507 4.9483 0.0272 15.9815 -0.3668 -7.0581 -7.4750 -2.1649 1.6224 -3.7941 -1.9264 -15.7473 -11.1536 3.5994 0.0558 20.1272 0.6158 12.9264 -9.6503 -10.9865 -1.4290 -3.5221 1.2000
-0.0431 97.8998 7.9444 4.7136 5.3948 -0.8031 -3.0347 5.3415 -0.4009 -1.0134 -2.9626 1.2840 0.1512 19.3170 0.2745 2.1655 43.2744 1.0912 -1.7292 -3.7452 -3.9530 -1.0983 -5.8727 -5.3133 -0.2232 -0.0882 0.0821 0.3948 -10.4230 -3.6126 -0.8491 -10.4046 3.8541 -2.4042 14.3547 -2.4652 -47.0780 -22.3819 15.2591 0.6958 -0.1962 -101.8699 -10.4545 29.9194 24.2817 -14.9023 10.2205 15.5141 -59.3080 1.1875 1.8591 2.6893 16.1302 18.8851 51.0092 -34.7136 -17.0258 1.0619 0.2815 108.2403 0.1994 44.8779 -39.6028 16.1683 7.1871 -16.3897 50.4519 -3.8399 -5.6291 0.8641 -15.0050 4.4742 0.0020 17.2614 -0.4018 -7.1906 -8.1635 -1.6596 1.6187 -3.7764 -1.9175 -15.8436 -11.7316 3.7724 0.0517 21.5374 0.6320 13.1927 -10.1413 -11.1852 -1.4327 -3.8012 1.2110
-0.1191 97.7353 8.3376 4.7820 5.5602 -0.3872 -3.1118 5.8964 -0.4937 -1.0391 -2.6992 1.2087 0.2733 19.7183 0.3058 2.8458 44.6096 0.9106 -1.7737 -3.7422 -3.7188 -1.0163 -5.9162 -5.3789 -0.2315 -0.0877 0.0729 0.3701 -10.3932 -3.6046 -0.8403 -10.3942 3.8306 -0.7707 14.4113 -2.2537 -47.6073 -23.0797 15.1986 0.8418 -0.4312 -102.2150 -10.2896 29.0053 24.0708 -14.9688 10.2226 15.5428 -59.3081 1.1309 1.8446 3.3391 16.8155 18.3801 51.0215 -30.5407 -15.0979 1.1035 0.2932 108.4340 0.4437 43.3849 -39.8687 16.1957 7.1866 -16.5708 50.2237 -3.9456 -5.6562 0.8581 -15.6338 3.8497 -0.0292 18.5843 -0.4454 -7.3430 -8.8276 -1.1347 1.6179 -3.7784 -1.9035 -15.9290 -12.5017 4.1555 0.0530 23.5905 0.6624 13.4394 -10.5058 -11.4398 -1.4446 -4.3338 1.2527
-0.1907 97.5410 8.7298 4.9093 5.6943 -0.0432 -3.1935 6.4756 -0.5785 -1.0685 -2.4825 1.0776 0.2921 20.1978 0.3427 3.4879 45.6259 0.8599 -1.8427 -3.6707 -3.5731 -0.9969 -6.1282 -5.4054 -0.2712 -0.0665 0.0784 0.3205 -10.3611 -3.5953 -0.8699 -10.3697 3.8459 0.4456 14.3847 -2.2015 -48.3455 -23.9106 15.1040 0.9573 -0.5444 -102.4689 -9.7844 28.4658 24.1520 -15.0732 10.1888 15.5876 -59.2112 1.0678 1.8152 4.0780 17.5497 17.7860 51.5424 -26.4163 -13.3799 1.4528 0.3197 108.3807 0.6922 41.8830 -39.4901 15.9289 7.1911 -16.5002 49.8146 -3.9907 -5.5637 0.8086 -16.2468 3.1695 -0.0631 20.0161 -0.4927 -7.3829 -9.5456 -0.5933 1.6174 -3.7064 -1.8671 -16.1371 -13.7708 4.8049 0.0597 26.7310 0.6842 13.7488 -10.7034 -11.5026 -1.4764 -5.2259 1.2859
-0.3025 97.2382 9.0962 5.0482 5.7025 0.2399 -3.2611 7.0829 -0.6373 -1.0881 -2.1978 0.8715 0.1676 20.6812 0.1885 3.9328 46.3197 1.1663 -1.8488 -3.6884 -3.5932 -0.8933 -6.0990 -5.4727 -0.2560 -0.0668 0.0625 0.3231 -10.3888 -3.6267 -0.8419 -10.4103 3.8408 1.2884 14.3371 -2.2707 -49.2595 -24.7980 14.9877 0.9898 -0.6789 -102.6645 -9.1066 28.4410 24.5997 -15.1484 10.2402 15.6342 -59.3053 1.0943 1.7077 4.7460 18.2911 17.3492 52.5591 -22.5610 -11.6387 1.7426 0.4481 107.7367 1.0945 41.1918 -38.4587 15.6721 7.2288 -16.4175 49.5676 -4.0199 -5.4728 0.7728 -16.8981 2.5243 -0.0668 21.8334 -0.4868 -7.4478 -10.4136 -0.0278 1.6182 -3.7248 -1.8586 -16.4738 -15.5001 5.7172 0.1011 31.0383 0.8042 13.9367 -10.4577 -11.1298 -1.5101 -6.7936 1.3592
-0.4695 96.7995 9.4711 5.1597 5.5485 0.4545 -3.2973 7.7064 -0.6596 -1.0941 -1.9341 0.5622 -0.1152 21.2060 -0.0817 4.2296 46.7490 1.6520 -1.8598 -3.7035 -3.6491 -0.8784 -5.8267 -5.4992 -0.2320 -0.0708 0.0476 0.3441 -10.4163 -3.6586 -0.8150 -10.4498 3.8353 1.7701 14.2601 -2.4787 -50.0960 -25.5107 14.4697 1.0600 -0.8436 -102.8983 -8.5322 28.4474 25.1721 -15.2313 10.2949 15.6988 -59.4386 1.1739 1.6778 5.3273 19.0456 16.8928 54.1734 -19.1992 -10.0141 2.0457 0.5992 106.7629 1.9710 40.7226 -36.8809 15.4359 7.2987 -16.3139 49.5120 -4.0375 -5.4267 0.8312 -17.6046 1.9663 -0.0859 24.1812 -0.4738 -7.6399 -11.5625 0.4355 1.6175 -3.6816 -1.9072 -16.8674 -17.6380 6.9242 0.1495 36.5386 0.9444 13.9107 -9.7100 -10.4250 -1.5534 -9.1027 1.4278
-0.7414 96.1722 9.9080 5.1177 5.1598 0.5831 -3.2389 8.2982 -0.6807 -1.1167 -1.6869 0.2609 -0.4790 21.7141 -0.4927 4.2830 47.0899 2.1817 -1.8932 -3.6966 -3.6573 -0.9867 -5.3811 -5.4153 -0.2246 -0.0789 0.0404 0.3542 -10.4153 -3.6666 -0.8084 -10.4590 3.8253 2.0441 14.1585 -2.8014 -50.8467 -25.8653 13.2541 1.1043 -0.9714 -103.1247 -7.9684 28.2841 25.7966 -15.3275 10.3997 15.8202 -59.6537 1.2636 1.7246 5.6401 19.7921 16.2257 56.6279 -16.2324 -8.4556 2.2215 0.7735 105.7475 3.4397 40.0643 -34.9105 15.2608 7.3960 -16.2261 49.7134 -4.0335 -5.3946 1.1529 -18.3667 1.5821 -0.1146 27.2784 -0.4662 -8.0134 -13.1724 0.6787 1.6183 -3.5215 -1.9749 -17.1080 -19.8980 8.1377 0.2289 42.6919 1.1224 13.6654 -8.5826 -9.3648 -1.6045 -11.8878 1.4998
-1.0666 95.4186 10.4435 4.7259 4.5435 0.5307 -3.0445 8.8265 -0.6315 -1.1285 -1.5008 -0.0169 -0.7898 22.0899 -0.9573 3.9886 47.5515 2.7355 -1.8884 -3.6709 -3.5427 -1.1598 -4.7979 -5.2270 -0.2299 -0.0893 0.0358 0.3506 -10.4039 -3.6653 -0.8179 -10.4659 3.8185 2.1782 14.1170 -3.1606 -51.5717 -25.6501 11.3450 1.0679 -1.0045 -103.1189 -7.4535 28.4356 26.2327 -15.4144 10.4758 15.9259 -59.7092 1.3269 1.7497 5.7251 20.4951 15.4113 59.8883 -13.8518 -7.3237 2.4235 0.8496 104.9116 4.3685 39.2628 -33.2797 15.2019 7.5077 -16.2072 50.0015 -4.0713 -5.3667 1.9656 -19.0879 1.5337 -0.1810 30.9960 -0.5355 -8.4982 -15.0761 0.6195 1.6254 -3.4840 -2.0440 -16.9036 -21.8403 9.0096 0.3324 48.4624 1.2796 13.2480 -7.2035 -7.9691 -1.6662 -14.9123 1.5764
-1.4785 94.5566 11.0895 3.9796 3.7594 0.3159 -2.7428 9.2173 -0.5674 -1.1120 -1.3510 -0.2450 -0.9430 22.2842 -1.3631 3.3202 48.1351 3.2145 -1.8336 -3.6281 -3.2297 -1.2947 -4.1195 -4.9145 -0.2272 -0.1038 0.0252 0.3583 -10.3895 -3.6685 -0.8211 -10.4712 3.8008 2.1331 14.1972 -3.4736 -52.2244 -24.7800 8.7482 1.0084 -0.8964 -102.7373 -6.9232 29.2904 26.4486 -15.4631 10.5434 16.0126 -59.6890 1.3459 1.7516 5.7842 21.1355 14.5267 63.3549 -11.9126 -6.6388 2.5581 0.7364 104.5181 4.3568 38.5500 -32.3474 15.2373 7.5618 -16.2079 50.2526 -4.1203 -5.2950 3.2856 -19.7666 1.6336 -0.2639 35.1469 -0.6407 -8.9729 -17.0465 0.3593 1.6356 -3.7379 -2.0809 -16.1353 -23.2966 9.2291 0.4504 53.3864 1.4265 12.5734 -5.8173 -6.5240 -1.7273 -17.8948 1.6455
-1.9093 93.5539 11.8950 3.0670 2.8223 -0.1591 -2.4278 9.5020 -0.4853 -1.0728 -1.2709 -0.4205 -1.0061 22.3020 -1.6311 2.2694 48.7904 3.6014 -1.6772 -3.5958 -2.6954 -1.3200 -3.3550 -4.4683 -0.2158 -0.1190 0.0144 0.3849 -10.3954 -3.6797 -0.8258 -10.4844 3.7875 1.9247 14.4292 -3.6922 -52.8603 -23.2583 5.7845 0.9903 -0.7981 -101.9686 -6.3422 30.7707 26.5764 -15.4624 10.6131 16.0240 -59.6227 1.3423 1.7165 5.8436 21.7232 13.6626 66.5106 -10.1459 -6.1822 2.5634 0.5309 104.5973 3.9215 38.0224 -31.7679 15.3098 7.5752 -16.2534 50.4282 -4.1217 -5.2031 4.8948 -20.3683 1.9002 -0.3746 39.6590 -0.8052 -9.3923 -18.8556 -0.0078 1.6540 -4.4823 -2.1001 -15.0558 -24.2586 8.9790 0.5493 57.5710 1.5044 11.7322 -4.7071 -5.0717 -1.7784 -20.7578 1.6920
-2.3586 92.3378 12.7669 2.1150 1.6294 -0.8684 -2.1040 9.7303 -0.3922 -1.0283 -1.1995 -0.4744 -1.0332 22.1534 -1.8846 0.8878 49.4705 3.7889 -1.5441 -3.5450 -1.9481 -1.4308 -2.6034 -3.8510 -0.1599 -0.1269 0.0042 0.4308 -10.3679 -3.6893 -0.7594 -10.4635 3.7565 1.3777 14.6540 -3.7917 -53.5922 -21.4091 3.0557 0.6147 -0.6415 -100.6882 -5.7231 32.4841 26.7055 -15.3749 10.6284 15.9925 -59.3678 1.3284 1.6948 5.9292 22.3348 12.9731 69.0378 -8.4190 -5.7302 2.3504 0.4018 104.9808 3.5303 37.6049 -31.3163 15.2477 7.4934 -16.2620 50.3693 -4.0733 -5.1205 6.7048 -20.8479 2.3239 -0.4157 44.6854 -0.9205 -9.8867 -20.6011 -0.4214 1.6963 -5.4715 -2.0990 -13.8777 -24.8323 8.4671 0.6337 61.5805 1.5117 10.7698 -3.9030 -3.5011 -1.8421 -23.5909 1.7724
-2.8217 90.9636 13.8174 1.4652 0.2486 -1.6403 -1.8255 9.7439 -0.2559 -1.0122 -1.2297 -0.5910 -1.0900 22.0278 -1.9648 -0.5709 50.0527 4.0165 -1.3022 -3.5124 -1.2200 -1.4953 -1.6740 -3.2263 -0.1303 -0.1252 -0.0014 0.4831 -10.3788 -3.7034 -0.7527 -10.4715 3.7498 0.3856 15.1124 -3.7958 -54.2931 -19.3123 0.3638 0.3961 -0.4967 -98.8563 -4.5944 34.4466 26.9975 -15.4183 10.7072 15.9437 -59.3904 1.3849 1.7111 5.9111 22.8102 12.2134 70.8159 -6.6991 -5.5040 2.2000 0.2385 105.5067 3.3958 37.6987 -30.6370 15.1872 7.4265 -16.3289 50.3955 -4.0842 -5.1093 8.4169 -21.2850 2.8690 -0.5411 50.1520 -1.0950 -10.1533 -21.4493 -1.6131 1.7346 -7.8463 -2.1524 -13.0769 -24.9189 7.9344 0.8439 65.4726 1.7137 9.9605 -3.6878 -2.0367 -1.8993 -26.1458 1.8279
-3.2602 89.4295 15.0631 1.1091 -1.4491 -2.3724 -1.5513 9.5837 -0.0995 -0.9765 -1.3445 -0.6681 -1.1766 21.8531 -2.0108 -1.9309 50.6376 4.3456 -1.0687 -3.4649 -0.5983 -1.5977 -0.6812 -2.6044 -0.1248 -0.1201 -0.0006 0.5134 -10.3785 -3.7096 -0.7736 -10.4673 3.7572 -1.0072 15.6406 -3.5723 -54.9914 -16.8091 -2.1272 0.1551 -0.2957 -96.2960 -3.2472 36.1655 27.2887 -15.5045 10.7457 15.9073 -59.3784 1.4122 1.6737 5.7957 23.2701 11.5014 71.8296 -4.9215 -5.6750 2.1841 0.1163 106.0391 3.4510 38.2869 -29.7694 15.1563 7.3528 -16.3874 50.3458 -4.0804 -5.1013 10.0233 -21.3440 3.4240 -0.7061 55.7530 -1.3059 -10.2363 -21.8302 -3.1332 1.7906 -11.0861 -2.2496 -12.6911 -24.4763 7.4379 1.2090 69.4975 2.1127 9.1335 -3.7742 -0.5280 -1.9633 -28.7130 1.8965
-3.7115 87.7296 16.6299 1.0151 -3.5144 -2.9859 -1.2280 9.2815 0.0735 -0.9108 -1.4859 -0.7381 -1.1937 21.4951 -1.9446 -3.2881 51.2453 4.6951 -0.8432 -3.4291 -0.0060 -1.6994 0.4891 -1.9930 -0.1253 -0.1161 0.0049 0.5339 -10.3658 -3.7118 -0.7977 -10.4580 3.7723 -2.6702 16.2318 -3.0302 -55.5030 -13.5490 -4.5918 -0.0005 -0.0682 -93.0647 -2.0609 37.2048 27.4978 -15.5734 10.7237 15.8902 -59.2681 1.4444 1.6121 5.5803 23.7413 10.8580 71.9630 -2.9810 -6.2441 2.2545 0.0023 106.4571 4.0396 39.1583 -28.5903 15.1736 7.2881 -16.4186 50.2190 -4.1017 -5.0523 11.5783 -20.8309 4.0992 -0.9357 61.3051 -1.5757 -10.0404 -21.8847 -5.0296 1.8751 -14.9175 -2.3842 -12.7439 -23.3540 7.0111 1.8497 73.6077 2.8169 8.1454 -3.8704 1.2892 -2.0376 -31.6150 1.9746
-4.1790 85.7744 18.5737 1.1601 -5.8596 -3.3560 -0.8616 8.8682 0.1867 -0.8273 -1.6643 -0.7107 -1.0450 20.7935 -1.8135 -4.6817 51.7227 4.8968 -0.5763 -3.4432 0.6047 -1.7604 1.8548 -1.3233 -0.1040 -0.1170 0.0066 0.5790 -10.3630 -3.7242 -0.7996 -10.4491 3.7787 -4.2959 16.8915 -2.0574 -55.4306 -9.0478 -7.2746 0.0187 0.1045 -89.3728 -2.0297 36.9901 27.4132 -15.5946 10.6604 15.8577 -59.2756 1.4280 1.5322 5.2270 24.2357 10.1905 71.1265 -0.6040 -6.9238 2.2920 -0.1020 106.7313 5.6079 40.3252 -26.7624 15.2157 7.2271 -16.4283 50.1162 -4.1362 -4.9334 13.1733 -19.7474 4.8276 -1.2776 66.7424 -1.9560 -9.5874 -21.8816 -7.2478 1.9772 -18.9702 -2.5133 -13.1910 -21.4365 6.6961 2.9598 77.7606 4.0076 7.0630 -4.1743 3.4355 -2.1098 -34.8885 2.0501
-4.6593 83.6015 20.9238 1.6007 -8.1084 -3.3036 -0.5367 8.3034 0.2899 -0.7650 -1.9284 -0.6275 -0.8224 19.7197 -1.7137 -5.8488 51.7015 4.9039 -0.3071 -3.4931 1.1547 -1.7894 3.1901 -0.6951 -0.0621 -0.1210 -0.0003 0.6552 -10.3712 -3.7485 -0.7931 -10.4512 3.7750 -5.5424 17.4917 -0.8383 -54.2870 -3.2130 -9.8022 0.1089 0.2834 -85.7629 -4.5937 35.1019 26.9097 -15.6485 10.5848 15.7404 -59.6014 1.4289 1.5332 4.8895 24.5614 9.4349 69.1650 2.4868 -7.3772 2.2859 0.0119 106.9949 8.4828 40.8874 -23.6924 15.2469 7.1960 -16.5086 50.0320 -4.1625 -4.9281 14.6061 -18.2885 5.3669 -1.6601 71.6853 -2.3392 -9.0022 -22.1268 -9.4946 2.0706 -22.6251 -2.5954 -13.9206 -18.9497 6.6392 4.7996 81.8476 5.8855 6.1683 -5.2227 5.2740 -2.1816 -37.9601 2.1328
-5.2198 81.2518 23.5963 2.2077 -9.9658 -2.6663 -0.2369 7.4627 0.3850 -0.7418 -2.2915 -0.5020 -0.6247 18.3188 -1.7273 -6.6173 50.9683 4.7983 -0.0688 -3.5451 1.5673 -1.7479 4.3082 -0.0958 -0.0353 -0.1254 -0.0063 0.7165 -10.3680 -3.7636 -0.8028 -10.4398 3.7717 -6.3765 17.8888 0.3978 -51.7362 3.6386 -11.5416 0.2537 0.5030 -82.6439 -9.8603 31.8538 26.7360 -15.8663 10.4534 15.5270 -60.2309 1.4019 1.6097 4.6452 24.5417 8.5513 66.2486 6.5825 -7.6857 2.1878 0.3551 107.5607 12.7505 40.9399 -19.1781 15.2926 7.1594 -16.6325 49.8385 -4.2347 -5.0744 15.8960 -16.7244 5.4362 -2.0356 75.9985 -2.6867 -8.4763 -23.0537 -11.6324 2.1309 -25.6277 -2.6241 -14.5604 -16.2297 6.6075 9.0685 85.7954 10.1573 5.4475 -7.1018 6.1026 -2.2345 -40.7325 2.2051
-5.8639 78.7466 26.4897 2.8685 -11.4361 -1.2770 0.0428 6.3497 0.4879 -0.7623 -2.7462 -0.4178 -0.6159 16.6517 -1.8879 -6.8839 49.2884 4.6854 0.0293 -3.5873 1.7998 -1.5602 5.1200 0.3843 -0.0295 -0.1214 -0.0062 0.7425 -10.3950 -3.7775 -0.8215 -10.4577 3.7914 -6.8549 17.9621 1.3144 -47.5504 10.9640 -11.8256 0.4966 0.6234 -80.2088 -16.2757 28.6722 27.3198 -16.1533 10.2509 15.1880 -60.7889 1.3362 1.6586 4.5574 24.2848 7.5160 62.6469 11.5201 -8.1504 2.1719 0.8571 108.4341 17.7890 40.5252 -13.6635 15.4025 7.1204 -16.7233 49.5696 -4.3501 -5.2749 17.0566 -15.2314 4.8180 -2.5923 79.9175 -3.2115 -7.9450 -24.4719 -13.6128 2.1968 -28.3498 -2.6775 -14.9390 -13.3023 6.3105 54.8301 89.2465 55.8925 4.9235 -9.1361 5.8438 -2.2999 -43.4565 2.2972
-6.5872 75.9543 29.5700 3.4853 -12.7976 0.7643 0.2202 5.1732 0.5952 -0.8138 -3.1979 -0.4358 -0.8960 14.7911 -2.1250 -6.6547 46.4299 4.6887 0.0857 -3.5837 1.8417 -1.3063 5.4651 0.5959 -0.0402 -0.1105 0.0037 0.7242 -10.4039 -3.7727 -0.8280 -10.4565 3.8190 -6.6300 17.8196 1.7148 -42.3908 17.4579 -10.0269 0.5370 0.4422 -78.7064 -20.6517 26.6466 28.1309 -16.2316 9.9873 14.8225 -60.6053 1.2247 1.6916 4.4091 24.0103 6.3106 58.9841 16.8951 -8.6735 2.3265 1.1787 109.3376 22.9283 40.1443 -7.6922 15.5096 7.1334 -16.7592 49.5299 -4.3548 -5.4302 18.3032 -13.8505 3.5507 -4.1652 84.0544 -4.7637 -7.2082 -25.8154 -15.7484 2.3171 -31.3286 -2.8070 -15.0393 -9.8951 5.5436 169.3016 86.9130 170.3681 4.6307 -10.7827 5.1793 -2.4039 -46.3429 2.4314
-7.3908 72.7892 32.7580 3.9005 -14.0870 2.9661 0.1792 4.1441 0.6858 -0.9076 -3.5721 -0.4125 -1.3512 12.7217 -2.3925 -6.0583 41.8262 4.8603 0.1481 -3.5429 1.6510 -1.0910 4.8243 0.6558 -0.0252 -0.0867 -0.0074 0.7179 -10.3017 -3.7702 -0.7907 -10.3323 3.7956 -5.3779 17.4077 1.5733 -36.8587 22.4918 -6.3827 0.7070 0.0947 -78.4123 -22.8335 25.0657 29.1175 -16.3099 9.6014 14.3589 -59.9625 1.0441 1.7114 4.1490 23.8192 5.1602 55.8095 22.4092 -8.5081 2.4376 1.3007 110.1305 28.4282 39.2986 -1.3307 15.6178 7.2496 -16.7716 49.7554 -4.2098 -5.5212 20.0955 -12.5687 1.7769 -17.1851 88.5167 -17.7509 -6.4315 -26.8188 -18.3430 2.4806 -34.6073 -2.9868 -14.8850 -6.0259 4.3507 174.9317 83.7972 176.0312 4.5773 -12.1590 4.7528 -2.5486 -49.4441 2.6032
-8.2936 69.1896 35.8619 4.1217 -15.0570 4.9201 -0.1643 3.3734 0.7204 -1.0420 -3.9059 -0.3143 -1.8966 10.8238 -2.6298 -5.1469 35.8208 4.9957 0.0650 -3.4709 1.3034 -1.0385 3.0143 0.7010 -0.0023 -0.0396 -0.0342 0.7651 -10.1501 -3.7788 -0.7882 -10.1563 3.7450 -3.2824 16.8250 0.8000 -31.5981 24.5963 -1.1254 1.0816 -0.3780 -79.7177 -22.9089 24.0726 31.1562 -16.4590 9.3103 13.9043 -59.3738 0.9237 1.6721 4.0219 23.5982 4.1985 53.5719 27.0993 -7.7974 2.5857 1.2295 110.8487 33.1670 37.5943 4.1124 15.6428 7.5574 -16.8222 50.2708 -3.8686 -5.5326 22.4009 -11.7270 -0.3596 -172.9149 86.2991 -173.4178 -5.7377 -27.5949 -20.9026 2.6579 -37.9005 -3.1861 -14.8183 -2.3324 2.7663 176.7178 80.6324 177.8900 4.7813 -14.0641 4.8326 -2.7020 -52.2297 2.7769
-9.2468 65.2270 38.6645 4.2264 -15.4288 6.2094 -0.6716 2.8005 0.6641 -1.1703 -4.1630 -0.2437 -2.5192 9.3834 -2.7464 -4.3151 28.9783 4.8963 -0.1479 -3.4826 0.9214 -1.1257 0.3170 0.7645 0.0014 0.0013 -0.0317 0.8146 -10.1793 -3.8015 -0.8253 -10.1610 3.7679 -1.3882 16.0239 -0.6951 -27.2603 22.0934 5.5347 1.3245 -0.8455 -81.8387 -19.2261 23.4251 35.5471 -16.5534 9.2890 13.5113 -58.9932 0.9087 1.4126 4.3381 23.0467 3.6162 52.0330 30.0110 -7.4813 3.1151 1.0612 111.1951 36.5617 35.5674 7.9799 15.6231 7.8444 -16.8792 50.7751 -3.5127 -5.4604 25.0455 -11.4445 -2.5775 -176.7111 80.8041 -177.1454 -5.1668 -28.1784 -22.6235 2.8660 -41.4590 -3.4294 -15.0484 0.5407 1.1475 177.6049 77.2277 178.8711 5.0579 -16.2503 5.2461 -2.8981 -55.2542 2.9986
-10.1977 61.0512 40.9232 4.3911 -15.0652 6.6440 -1.1570 2.5478 0.6420 -1.3048 -4.2348 -0.3637 -3.2364 8.4439 -2.7410 -3.7650 21.6113 4.5753 -0.4864 -3.6312 0.5100 -1.2071 -3.1277 0.5598 0.0119 0.0019 -0.0029 0.8332 -10.3628 -3.8171 -0.8190 -10.3365 3.8331 -0.6407 14.8887 -3.0349 -25.0316 14.2873 12.9907 1.3275 -1.2132 -84.6842 -9.2909 20.2593 43.4322 -16.1694 9.8114 13.5324 -58.6798 0.9493 1.1071 5.1645 22.1308 3.4754 51.1545 30.6176 -7.9611 3.9661 0.6078 110.7046 39.2032 34.3406 11.1223 15.4956 7.9425 -16.9032 50.8934 -3.3329 -5.4021 27.7703 -11.9191 -4.7141 -177.2672 74.9941 -177.6464 -4.8128 -28.1226 -23.2121 3.1306 -45.5204 -3.7207 -15.6567 1.9146 -0.0722 178.1007 73.0571 179.4046 5.2289 -18.0050 5.6209 -3.2235 -58.8567 3.3497
-11.1294 56.5986 42.4761 4.7986 -13.9850 6.2875 -1.6921 2.8833 0.5771 -1.3453 -4.0507 -0.6624 -4.2030 7.9315 -2.7642 -3.2548 13.9294 3.9492 -0.8053 -3.8201 0.3373 -1.4815 -7.7633 0.3888 0.0293 0.0112 0.0509 0.8166 -10.5514 -3.7920 -0.7651 -10.5452 3.8989 -1.1364 13.6139 -5.9409 -26.6441 1.6313 20.4863 0.6986 -1.0925 -88.5579 6.8825 9.6121 48.9076 -15.5015 10.4124 13.8614 -59.0819 0.9061 1.1210 6.1081 21.1114 3.9267 51.8171 28.9266 -9.0024 4.4834 -0.2497 109.3028 42.1610 34.9665 14.1487 15.1747 7.8696 -16.8834 50.6010 -3.3347 -5.3566 30.1158 -12.8104 -7.2429 -177.2124 69.0503 -177.4673 -5.2209 -28.1853 -23.2271 3.4230 -49.3461 -4.0351 -16.7766 1.4766 -0.7016 178.1033 67.6761 179.6041 5.5270 -19.2326 5.7865 -3.7472 -62.8593 3.8900
-11.9567 52.2196 43.1955 5.2307 -12.0824 5.1556 -2.0274 3.8766 0.4188 -1.3013 -3.4412 -0.6542 -5.0105 7.5324 -2.9579 -2.8490 6.6491 3.3578 -1.2333 -3.8469 -0.2443 -1.8343 -12.8810 0.0142 0.0223 0.0124 -0.0109 0.7815 -10.6304 -3.8635 -0.7422 -10.6473 3.8418 -2.6050 11.8722 -9.2156 -30.5838 -10.4837 25.9750 -0.1131 -1.3368 -91.7792 19.1067 3.1725 44.3817 -15.5169 10.7489 14.8019 -60.1837 0.8417 1.7208 6.5183 20.2087 4.5848 53.9098 25.4599 -10.3321 4.6698 -0.5053 107.2759 42.8110 36.0004 14.8892 15.2483 7.6784 -16.8141 50.5493 -3.4093 -5.2476 31.6904 -14.5002 -10.1784 -177.6260 63.0825 -177.9392 -5.1912 -28.0261 -23.4065 3.9470 -53.9458 -4.5338 -18.8482 -1.1553 -0.3740 178.2264 61.0445 179.7425 5.5602 -20.4332 7.4552 -3.9962 -64.2205 4.1015
-12.3475 48.0091 43.0231 5.4102 -9.2556 3.0696 -2.0742 5.2308 0.0695 -1.1236 -2.7246 -0.5367 -5.4755 7.5012 -3.2647 -2.7314 0.2297 2.8879 -1.3021 -3.7912 -0.5841 -2.4323 -17.6857 0.1288 0.0149 0.0415 -0.0195 0.7268 -10.6446 -3.8896 -0.7050 -10.6485 3.8455 -3.5474 10.2445 -11.3964 -36.1998 -18.7467 28.5430 -0.7890 -1.0606 -92.7449 24.1108 4.4550 38.5319 -15.3025 10.8703 15.2744 -60.2184 0.9903 2.1971 5.9570 19.3361 5.9043 57.0518 21.1342 -11.3275 4.1833 -0.6482 104.8906 41.0677 39.1056 13.8678 15.6009 7.2005 -16.6163 50.3912 -3.5145 -5.2558 33.1742 -16.3664 -13.4194 -177.7414 57.1544 -178.2606 -6.5075 -28.5484 -23.8899 4.6113 -57.8657 -5.2096 -21.2027 -5.6729 1.7753 178.4503 53.6512 179.8743 5.3317 -20.9707 10.7409 -3.8360 -64.4840 3.8829
-12.3855 44.2319 42.3732 5.3726 -5.5664 -0.0510 -1.9222 6.7210 -0.2205 -0.9563 -2.0142 -0.2870 -5.6038 7.6779 -3.5109 -2.8299 -5.1423 2.5703 -1.1827 -3.6919 -0.7885 -2.8769 -21.3546 0.3363 0.0110 0.0487 -0.0074 0.6741 -10.6479 -3.8882 -0.6623 -10.6493 3.8693 -4.3287 8.7233 -12.7381 -42.6991 -23.4530 29.1202 -1.3365 -0.3945 -91.0616 25.9802 6.4251 33.8958 -14.8311 10.8939 15.5242 -59.6264 1.1774 2.6336 4.7301 18.3799 7.4094 60.3053 16.0980 -12.5199 3.7676 -0.9038 101.8338 34.6581 43.6553 10.7800 16.2325 6.6704 -16.3194 50.2736 -3.6612 -5.3417 35.1118 -18.3944 -16.4347 -177.7701 51.8536 -178.6203 -7.4793 -28.0869 -25.3185 5.6941 -62.2855 -6.2827 -23.7517 -11.5014 5.7005 178.6760 46.5671 179.9033 4.8258 -20.6523 13.7212 -3.5695 -64.8104 3.5997
-12.1403 40.9065 41.3731 5.3840 -1.3300 -3.6204 -1.6904 8.1657 -0.3821 -0.9768 -1.3592 0.1111 -5.9475 8.0102 -3.8273 -2.7242 -9.0247 2.1604 -0.9715 -3.5911 -0.7073 -2.8476 -24.3426 0.2070 0.0208 0.0552 0.0435 0.6348 -10.6094 -3.8264 -0.6058 -10.6175 3.9060 -5.1173 7.6612 -13.8524 -49.5701 -26.8068 28.4250 -1.6652 0.0289 -85.8821 26.9690 7.2537 29.7736 -14.3031 11.0630 15.6318 -59.1693 1.2230 2.9036 2.7983 17.4354 8.4564 64.3026 11.0388 -13.2852 2.9730 -0.9385 97.8667 20.2917 47.4695 4.0516 16.7580 6.4974 -16.3210 50.5017 -3.6880 -5.6217 37.4071 -20.6426 -18.8363 -177.7249 47.5856 -179.0778 -8.0447 -27.4496 -27.0436 6.6359 -65.4385 -7.1677 -27.0315 -17.4399 11.0480 179.0087 40.5354 179.9996 4.8400 -20.5705 15.8238 -3.4365 -64.4288 3.4487
-11.6509 38.9638 40.5456 5.5199 3.6654 -7.1165 -1.7040 9.0096 -0.1744 -1.1053 -0.6468 0.3314 -6.7354 8.7740 -4.6914 -1.6953 -12.1426 2.0634 -0.9574 -3.7153 -0.8935 -2.1779 -26.0565 -0.6195 0.0097 -0.0134 0.0363 0.6350 -10.7719 -3.8590 -0.6290 -10.8133 3.9275 -7.4107 6.5746 -15.3043 -54.3856 -31.0212 25.5416 -1.4049 0.7782 -74.9571 28.4934 4.4338 22.8416 -13.8408 11.0478 15.6438 -58.4906 1.2195 2.9175 1.7844 15.9370 9.1965 67.5542 5.5896 -13.9932 2.0307 -1.6188 92.1718 -0.0555 47.7002 -2.6315 17.1425 6.3621 -16.2702 50.4798 -3.9622 -5.8950 40.1471 -24.0187 -21.0426 -177.9642 44.8375 -179.6113 -7.4565 -25.3471 -28.8097 7.0683 -66.2481 -7.5231 -30.8234 -24.6145 17.1127 178.9901 36.0903 179.9130 5.2688 -20.6024 15.4323 -3.6453 -65.5881 3.6591
-10.9866 38.1247 40.2494 5.3133 8.7940 -10.1539 -1.7596 9.6369 0.1260 -1.4478 -0.0516 0.1861 -7.3190 9.8119 -5.7159 -0.1592 -14.0272 1.8306 -0.9556 -3.8186 -1.1665 -1.0844 -26.5064 -1.6330 0.0115 -0.0517 0.0814 0.6426 -10.8617 -3.8244 -0.6337 -10.9422 3.9840 -9.4932 6.1820 -17.9497 -55.5303 -35.9011 19.1805 -0.5104 1.3355 -56.4157 27.8010 -0.4083 16.6975 -13.5741 11.0625 15.8007 -58.6381 1.0161 2.8138 1.5510 14.7679 9.6578 69.5636 -0.7631 -14.5497 0.9665 -1.7097 84.8678 -16.7889 46.7674 -5.2582 16.8346 6.5762 -16.2872 50.5626 -3.9368 -5.8189 42.9525 -27.1357 -23.2689 -178.1506 43.8042 179.8090 -6.0870 -23.5898 -31.4352 6.7907 -64.9921 -7.1604 -35.1134 -31.7665 23.7460 179.0547 33.6413 179.8425 5.6182 -19.5145 15.3577 -3.8388 -66.8323 3.8754
-10.2568 38.0559 40.6077 4.3571 14.1597 -12.9431 -1.5695 9.8422 0.3579 -1.9118 0.2997 -0.1138 -7.3954 11.0808 -6.6494 1.1932 -14.0536 1.6774 -0.6303 -3.9844 -1.4191 0.1388 -25.2335 -2.0494 -0.0308 -0.0790 0.0456 0.6526 -10.8271 -3.8372 -0.7277 -10.9423 3.9455 -10.5536 6.6259 -21.2173 -47.8948 -38.1807 3.6350 -0.3131 1.1593 -34.0230 22.9231 -5.8146 15.3922 -13.8799 11.4080 16.3236 -59.2753 1.4165 2.5342 1.6674 14.4284 10.2931 70.5231 -8.1016 -14.0060 -0.0252 -1.4818 76.5289 -28.7988 46.4751 -5.7049 16.5361 6.7887 -16.2699 50.8172 -3.7960 -5.7828 45.5268 -29.8865 -25.3693 -178.3548 44.3681 179.2423 -3.7247 -22.0051 -34.1556 6.3557 -63.6582 -6.6820 -39.6711 -38.7540 30.8304 179.1081 32.8643 179.9234 5.7557 -17.9768 15.5813 -4.0029 -67.4774 4.0744
-9.5089 38.8086 41.7734 2.8717 19.3907 -15.7340 -1.6133 9.8239 0.4436 -2.2309 0.5380 -0.4615 -6.6306 12.3505 -6.6462 2.0060 -11.6529 1.8196 -0.6267 -3.9961 -1.6671 1.5515 -20.9091 -2.7693 -0.0504 -0.0874 -0.0750 0.6185 -10.5386 -3.8497 -0.7280 -10.6699 3.7293 -8.8434 7.6759 -21.8468 -42.7509 -35.8714 -12.0215 -0.6337 0.5616 -27.6019 14.9936 -9.1716 15.8516 -15.6316 11.0527 16.3401 -59.5265 1.7973 2.0646 0.8477 14.4972 10.6446 71.1550 -15.2826 -12.8674 0.0549 -2.2023 69.3486 -37.9812 48.5941 -5.1299 16.5104 6.8550 -16.4412 50.7535 -4.0500 -5.7028 47.2199 -31.4695 -27.5495 -178.8401 46.1865 178.7103 -1.6538 -19.7360 -36.6162 6.2453 -63.4180 -6.4419 -44.2805 -43.9995 37.4462 179.1790 33.3357 -179.8521 5.4700 -17.9031 16.2690 -3.9581 -64.1689 3.9804
-8.9351 39.2897 43.7267 1.1707 23.7325 -18.1235 -1.7421 9.9388 0.2541 -2.0687 0.3222 -0.6448 -5.5766 13.4719 -5.7437 1.6674 -5.3273 2.2938 -0.6104 -3.8854 -1.3565 2.5564 -16.6984 -2.9105 -0.0482 -0.0833 -0.0911 0.5936 -10.4223 -3.8003 -0.6950 -10.5584 3.6446 -5.8024 7.7402 -17.7024 -45.7305 -35.8981 -20.3202 -0.0816 0.7801 -35.5758 11.7854 -8.8231 13.3586 -15.9200 11.5028 16.4878 -60.4462 1.9499 1.9048 -0.6101 13.8697 11.0700 69.6911 -19.7333 -10.2513 0.3574 -2.1171 66.3529 -39.1705 49.2280 -1.8069 16.7501 6.8394 -16.3171 50.5895 -3.9559 -5.4595 47.8206 -32.6066 -28.7369 -179.1195 47.6282 178.3142 -0.6025 -19.9236 -37.8796 6.0450 -61.8109 -6.1288 -47.5149 -47.2262 40.9702 179.0820 34.6540 -179.6554 4.9753 -19.3921 15.9370 -3.8942 -60.8141 3.8156
-8.5988 40.0067 46.0859 -0.4015 27.5628 -20.1327 -1.6926 9.9009 0.0630 -1.8674 0.1748 -0.5418 -4.5777 14.7978 -4.5641 0.8383 0.5748 2.5993 -0.6181 -3.7579 -0.5020 3.2462 -14.5998 -2.5392 -0.0625 -0.0765 -0.0689 0.5643 -10.4358 -3.7799 -0.6904 -10.5763 3.6674 -4.1649 7.7859 -14.0635 -44.2614 -36.4553 -28.3147 -0.0330 1.1746 -43.4338 11.0795 -6.3326 13.3375 -16.0816 11.6580 16.6787 -60.6211 1.9417 1.8931 -0.8685 13.2419 12.4067 65.5155 -23.8867 -7.0032 0.5486 -1.8776 65.8273 -38.3038 48.0476 1.3101 16.7981 6.9631 -16.2426 50.4725 -3.8900 -5.3672 47.4108 -34.0666 -28.6579 -179.3005 49.1572 178.2545 -0.1162 -19.3141 -37.0044 5.9669 -61.2768 -5.9838 -49.5505 -49.5778 42.2793 178.9649 36.8065 -179.5396 5.1160 -20.5264 14.5359 -3.7608 -57.9764 3.6100
-8.3915 40.8237 48.6979 -1.4995 31.4747 -21.7140 -1.5675 9.9502 -0.1421 -1.7372 0.1453 -0.4034 -3.8018 15.8011 -3.5323 -0.1205 4.1427 2.6373 -0.7441 -3.6647 0.4251 3.6617 -14.2614 -2.0532 -0.0779 -0.0707 -0.0566 0.5277 -10.3891 -3.7312 -0.6833 -10.5174 3.6465 -3.0025 7.6576 -11.7860 -38.3325 -36.3193 -36.0677 0.2943 1.3888 -48.1939 10.5744 -3.3489 14.4090 -16.3940 11.6626 16.7549 -60.8564 1.9128 1.8420 -1.2337 12.3500 13.8362 61.0414 -27.6593 -3.5903 0.3612 -1.4220 65.5567 -37.6676 45.9864 3.2382 16.8079 7.1436 -16.3186 50.4596 -3.8683 -5.4491 46.3631 -36.5889 -27.9594 -179.2890 50.7645 178.4011 -0.0919 -17.9476 -35.3540 5.6602 -60.6352 -5.6701 -51.5788 -51.4926 42.8759 178.8790 39.4087 -179.5244 5.4457 -21.1065 12.5149 -3.6540 -56.2496 3.4765
-8.2536 41.6457 51.5373 -2.1075 35.8712 -22.8080 -1.5044 9.9934 -0.3556 -1.5574 0.2501 -0.3193 -3.2902 16.3932 -3.0015 -0.9933 5.0126 2.5571 -1.0638 -3.5359 1.2226 4.1081 -14.5225 -1.6371 -0.1965 -0.0635 0.0498 0.3889 -10.3076 -3.5760 -0.7870 -10.4100 3.7464 -1.9276 7.3951 -10.9012 -29.3577 -35.8118 -42.3703 1.2681 1.3327 -49.3504 10.2651 -1.3754 14.7925 -16.3990 11.5841 16.8214 -61.0070 1.8499 2.0682 -1.8001 11.2036 15.1985 57.0325 -31.0459 -0.4771 0.0438 -1.1204 65.2620 -37.6197 44.0657 4.6317 16.9201 7.3142 -16.4622 50.5571 -3.9117 -5.5892 45.2519 -40.1866 -27.2097 -179.1177 52.5529 178.6933 -0.2382 -15.8700 -34.5509 5.2053 -58.3455 -5.2173 -54.0118 -53.3391 43.3820 178.8952 42.2978 -179.5383 5.8898 -20.9674 10.0384 -3.4255 -55.4957 3.2580
-8.2533 42.6818 54.5944 -1.8760 40.6481 -22.9855 -1.3729 10.2978 -0.5607 -1.4621 0.4426 -0.5898 -2.7899 16.4575 -2.6666 -2.3474 3.7891 2.5982 -0.6373 -3.4883 1.5375 4.0803 -14.8610 -1.1117 -0.1593 -0.0869 0.0179 0.4307 -10.2433 -3.5908 -0.7525 -10.3595 3.6901 -1.2064 6.5813 -11.6708 -18.1598 -34.3297 -47.0807 2.2480 1.0900 -46.2314 10.8839 -0.2306 14.7353 -16.5063 11.5928 16.7297 -61.1187 1.7284 1.9619 -2.0376 10.5373 16.3475 53.2797 -34.6138 1.9270 -0.1048 -0.8141 65.1747 -38.8546 43.1074 5.3904 17.0724 7.5222 -16.5374 50.8490 -3.8896 -5.6577 43.0554 -44.9826 -26.3896 -178.8983 54.7927 178.7624 -0.6454 -12.8214 -32.9791 4.6408 -57.3579 -4.6736 -56.3918 -55.1396 42.8877 178.6821 45.8144 -179.4889 7.0632 -20.8988 7.5766 -3.2919 -54.4656 3.1488
-8.4458 43.6017 57.9910 -1.3480 46.1103 -22.6367 -1.2425 10.4544 -0.7097 -1.1796 0.6562 -0.9083 -2.2934 16.2346 -2.6905 -3.5581 1.0324 2.6056 -0.3793 -3.4422 1.9818 3.8356 -15.5306 -0.4878 -0.1638 -0.0864 0.0404 0.4443 -10.1897 -3.5728 -0.7727 -10.3111 3.7211 -0.4810 6.1323 -13.7517 -6.2655 -33.5794 -49.6035 2.6724 0.7804 -40.6370 14.7054 2.4527 16.2563 -16.2218 11.7460 16.6245 -60.9505 1.9343 2.0732 -1.8588 9.9621 17.8040 49.3619 -37.5458 3.6727 -0.0450 -0.3740 65.9980 -40.6574 42.2891 6.2518 17.1018 7.7612 -16.6408 50.9741 -3.9528 -5.6569 40.8277 -50.1555 -25.4635 -178.5940 57.4819 179.0357 -1.3316 -8.8611 -32.3427 4.1400 -54.0468 -4.1594 -58.7587 -57.1252 41.9597 178.5234 49.9841 -179.4634 8.0504 -20.5669 6.1552 -3.0287 -53.3059 2.8932
-8.8438 44.2372 61.9164 -0.4072 52.1145 -21.4264 -0.9041 10.4666 -0.8097 -0.7668 0.9079 -1.2613 -1.6294 15.7387 -2.7427 -4.4329 -2.4731 2.4407 -0.2246 -3.4795 2.3001 3.2662 -16.0063 0.3627 -0.1205 -0.0908 0.0414 0.5197 -10.1809 -3.5994 -0.7593 -10.3102 3.7379 0.6779 5.9221 -16.3001 3.1758 -35.6582 -49.6959 2.2115 0.4922 -37.4204 23.3020 5.0299 20.2355 -16.2208 11.5759 16.5965 -60.0814 2.2048 2.3429 -1.0414 9.6071 19.4606 45.8890 -39.9228 3.4947 0.4347 0.0578 68.4335 -42.1312 41.8310 7.7708 16.9516 7.8130 -16.6063 50.9071 -3.9055 -5.3115 38.4875 -55.1359 -24.0977 -178.3258 60.8732 179.4692 -2.1562 -3.4146 -32.3718 3.5359 -48.0836 -3.5174 -60.2279 -59.3082 39.5120 178.2403 54.8689 -179.4201 9.2830 -20.0493 5.9494 -2.8813 -52.1480 2.7521
-9.4887 44.4059 66.4318 1.6754 58.1946 -18.8070 -0.4650 10.3977 -0.8096 -0.2337 1.0609 -1.4799 -0.8728 15.1036 -2.7924 -4.4413 -5.2606 1.9612 -0.2614 -3.4792 2.4615 2.4813 -15.8854 0.9643 -0.0657 -0.1225 0.0274 0.6303 -10.2482 -3.6593 -0.7613 -10.3577 3.7541 2.1804 5.8859 -16.7189 8.0252 -41.3845 -50.1161 2.3187 0.4632 -41.7415 33.4244 7.2791 23.6107 -16.5828 11.3480 16.6323 -60.1997 2.0950 2.6047 0.0758 9.0993 20.5634 44.1109 -41.4446 0.8110 1.1577 0.3262 72.2667 -43.4003 41.5627 9.3136 16.8230 7.5305 -16.4104 50.5862 -3.7788 -4.9944 34.8341 -59.2599 -21.0969 -177.8827 65.4586 -179.9836 -3.0522 2.7304 -33.5940 2.7960 -37.5896 -2.7634 -60.1999 -61.5250 34.3966 177.5445 60.4430 -179.6445 10.8600 -18.3273 6.7129 -2.7734 -52.1453 2.7184
-10.3816 43.5745 71.5766 6.3353 64.0177 -13.6237 0.0075 9.8068 -0.9175 0.1756 1.0573 -1.5194 -0.0740 14.4371 -2.8952 -4.0043 -5.6277 1.4327 -0.2610 -3.5257 2.0859 1.8450 -15.1301 1.1041 -0.0418 -0.1755 0.0238 0.6651 -10.3416 -3.6869 -0.7465 -10.4405 3.7675 2.9285 6.0756 -14.5323 7.6813 -47.5466 -50.7237 2.9777 0.4965 -54.1605 44.3587 12.8347 27.8009 -16.5470 11.4060 16.7207 -61.0177 1.7842 2.8225 1.3514 8.8623 20.6024 45.1210 -42.8183 -4.7470 1.8885 0.7012 77.7353 -47.4087 41.9438 8.3741 16.7182 7.3877 -16.3350 50.5438 -3.6351 -4.7558 28.5852 -62.2876 -15.1764 -176.4846 71.5446 -178.8241 -3.9226 9.3076 -35.2623 2.3250 -28.2242 -2.2866 -58.6126 -63.3180 26.3347 176.5828 65.9681 179.7969 12.2081 -15.4334 7.3153 -2.6640 -49.6225 2.6386
-11.4418 41.8615 77.1351 14.2292 68.8442 -5.2025 0.4958 8.6873 -1.0421 0.4270 0.8227 -1.5091 0.6736 14.0532 -3.2602 -2.9245 -3.9497 0.8527 -0.4583 -3.5890 1.7091 1.0403 -13.2061 0.7164 -0.0123 -0.2154 0.0144 0.7463 -10.5352 -3.7344 -0.7639 -10.6236 3.7804 2.8935 6.5518 -11.1620 2.3522 -51.5866 -48.9592 3.6956 0.2510 -69.7947 53.4518 20.2505 33.4703 -16.2605 11.4767 16.3936 -61.6755 1.5060 2.7162 2.5814 8.5671 19.5235 47.2207 -42.4013 -10.7391 2.3427 0.6361 84.4670 -51.5023 41.9338 6.8272 16.6370 7.3956 -16.4035 50.8261 -3.6019 -4.8057 20.3758 -63.3161 -6.6071 -172.1351 78.6273 -175.2753 -4.7554 14.9661 -36.8926 2.0249 -22.2461 -2.0624 -55.1697 -64.3953 15.7751 174.6512 71.1182 178.5021 13.4832 -10.7683 7.4818 -2.4495 -43.6995 2.3876
-12.5346 39.0773 82.5713 23.6731 72.4838 4.9294 0.9668 7.2748 -1.0420 0.6075 0.2966 -1.5897 1.2517 13.6874 -3.6899 -1.5425 -1.1718 0.4200 -0.8119 -3.6060 1.3132 0.2833 -11.0190 0.1591 0.0326 -0.2320 0.0072 0.8670 -10.7068 -3.7740 -0.7880 -10.7918 3.7840 2.5245 7.5539 -7.9754 -6.7771 -52.7349 -43.5655 4.2055 -0.0173 -85.0330 60.4618 27.1356 39.6543 -16.2106 11.5043 15.9799 -62.0668 1.2881 2.6886 3.5770 8.6601 17.1969 47.9545 -39.4811 -13.7676 2.2966 0.2402 90.9688 -53.8498 42.2253 5.8957 16.7683 7.2880 -16.4061 51.1466 -3.5237 -4.9197 13.1303 -62.3808 2.8457 -152.4336 85.2864 -156.9398 -5.3497 18.5933 -38.4916 1.8591 -18.7969 -1.9722 -50.4983 -64.4426 4.3058 170.2459 75.8728 175.1068 14.3571 -4.8313 8.0642 -2.2780 -32.5316 1.9987
-13.6822 35.4914 87.7768 35.1520 75.1608 17.3437 1.3223 5.4385 -0.9645 0.6372 -0.4506 -1.8787 1.7717 13.2711 -4.1768 -0.1178 2.0177 0.1858 -0.9186 -3.5742 0.7940 -0.3378 -8.9697 -0.3711 0.0590 -0.2303 0.0073 0.9510 -10.7865 -3.7866 -0.8170 -10.8680 3.7862 2.1124 8.7460 -5.4832 -17.5154 -50.6897 -36.2866 4.2900 -0.1369 -99.1676 66.7742 33.5064 45.4956 -16.1636 11.5405 15.5759 -62.1200 1.2332 2.6369 4.6025 9.3052 13.9153 47.8102 -34.7759 -14.3981 1.5077 -0.0535 97.1089 -55.5840 42.4791 5.0994 16.8065 7.1291 -16.4144 51.2444 -3.5495 -5.1543 7.6996 -60.2327 12.3084 -48.0509 85.9631 -54.1663 -5.4225 20.8834 -39.7023 1.8449 -16.5950 -1.9276 -44.8912 -63.4542 -8.0882 159.3403 80.9246 165.8571 14.9622 0.8063 9.9166 -2.2592 -19.7252 1.5231
-14.8178 31.0786 92.4937 47.3796 76.5903 30.6544 1.5048 3.2926 -0.8242 0.5003 -1.3605 -2.4298 2.1217 12.9505 -4.7246 1.1499 5.9567 0.1846 -0.7989 -3.4569 0.1452 -0.4115 -6.6602 -1.0043 0.0193 -0.2311 0.0068 0.9226 -10.7879 -3.7585 -0.8689 -10.8355 3.7695 1.7093 9.9774 -3.3937 -26.8712 -45.2932 -30.3137 3.7944 0.2163 -111.6503 72.3549 39.3119 50.4378 -16.0234 11.6947 15.2793 -62.3455 1.2980 2.4915 5.1817 10.7892 9.5100 47.9436 -28.2119 -13.0870 -0.3870 -0.5496 102.1616 -57.9114 41.9623 4.5702 16.5007 6.9598 -16.5785 50.8383 -3.7607 -5.4832 4.1265 -57.0834 22.0795 -23.4224 79.4555 -31.2144 -5.0698 23.1402 -41.7966 1.9508 -14.5861 -1.9041 -38.6866 -61.1822 -20.9966 108.4229 85.7131 117.3198 16.1415 5.4268 13.2664 -2.3430 -12.4558 1.2305
-15.6530 26.4002 96.6080 55.3706 77.1230 39.7259 1.4170 1.1216 -0.6568 0.2233 -2.4976 -3.0090 2.3223 12.8712 -5.0794 2.1012 10.9301 0.4021 -0.6052 -3.2916 -0.4478 -0.0055 -3.2276 -1.5934 -0.0502 -0.2165 0.0000 0.8575 -10.7090 -3.7179 -0.9454 -10.7374 3.7386 1.5523 11.2766 -1.4474 -34.1644 -37.8485 -25.8229 2.2334 0.7845 -121.4971 75.0612 43.8764 52.0898 -15.8942 11.6941 15.0205 -62.6824 1.2137 2.3122 4.7952 13.0427 4.2231 49.0974 -19.8437 -9.6137 -2.9500 -1.1326 104.8395 -59.5157 39.4284 5.7608 16.0999 6.6372 -16.8649 50.1366 -4.0640 -5.7965 2.6736 -53.3853 31.9542 -19.3288 72.5955 -28.8724 -4.4807 25.3052 -45.5865 2.0309 -12.7714 -1.9030 -33.2024 -57.8288 -32.7353 33.0402 80.9370 44.9421 18.5744 8.9084 17.7058 -2.3885 -9.8425 1.1653
-16.1245 21.8947 100.1049 57.8878 77.5464 43.2042 1.1608 -0.7883 -0.6163 -0.1295 -3.7303 -3.2595 2.4665 13.0436 -5.2342 2.7935 15.9898 0.8088 -0.4615 -3.1457 -0.8724 0.4974 0.7804 -1.8826 -0.1128 -0.1859 -0.0241 0.8107 -10.5794 -3.7061 -1.0229 -10.6053 3.6988 1.8058 12.6302 0.6417 -39.9791 -29.5994 -21.4430 0.2656 1.2129 -128.3603 73.2246 46.7567 47.9417 -15.9281 11.6503 15.1261 -63.3162 1.0143 2.0937 3.5639 15.0844 -0.8371 51.1453 -10.3733 -4.3867 -5.6868 -1.1163 104.9837 -61.0714 34.6573 7.2885 16.0126 6.2344 -17.0497 49.6596 -4.3408 -5.9139 2.5713 -49.9702 41.1385 -18.2702 66.5371 -29.7908 -3.9123 27.3085 -49.4316 2.0041 -11.3200 -1.9431 -28.3489 -54.3692 -42.7552 17.7293 71.3379 33.0270 22.0197 11.4943 22.9581 -2.3376 -9.8035 1.2250
-16.4994 17.8946 103.0897 57.7937 78.5204 43.9501 0.9421 -2.4296 -0.7483 -0.3895 -4.6623 -3.1316 2.5338 13.2144 -5.0070 3.2849 19.0351 1.0094 -0.3655 -3.0839 -0.9116 0.7658 3.6203 -1.7060 -0.2015 -0.1500 -0.0669 0.7323 -10.4752 -3.7330 -1.1169 -10.4922 3.6731 2.2061 14.3146 2.5515 -44.2557 -21.5516 -16.3279 -0.9052 1.5997 -133.3944 68.6157 48.0082 40.3371 -16.2342 11.7378 15.6004 -63.8797 1.0562 1.7307 2.7911 16.4692 -3.8274 53.2553 -1.3500 0.0266 -8.1551 -0.4811 104.6928 -62.5744 27.9231 7.9771 15.9117 5.9321 -17.0344 49.2336 -4.6209 -5.8363 2.9619 -47.3551 48.9705 -17.4004 60.5758 -31.4776 -4.0355 28.9680 -52.8916 1.9000 -10.5103 -1.9590 -23.4077 -51.4024 -51.3020 12.4216 61.2062 31.1565 26.0081 12.5245 27.9922 -2.1846 -12.1533 1.3333
-16.7686 14.1487 105.3014 61.6867 79.8224 48.5933 0.7722 -3.5548 -1.0649 -0.4629 -5.3182 -2.8788 2.6545 12.7660 -4.5635 3.4324 19.1975 0.6931 -0.3668 -3.1298 -0.6888 1.0421 5.5443 -1.2723 -0.2804 -0.1593 -0.1050 0.6409 -10.4230 -3.7867 -1.1839 -10.4361 3.6787 2.5541 15.5903 3.9315 -47.4838 -13.2246 -10.4222 -1.5022 2.1575 -138.0242 65.3203 47.9953 33.8014 -16.1923 11.7168 16.0233 -63.5124 1.1712 1.6190 2.7127 16.8970 -5.2232 55.6419 6.1518 1.9985 -9.5837 0.7728 104.4354 -62.3722 20.2829 9.4594 15.6919 5.5912 -16.7522 48.8069 -4.8631 -5.4722 2.4819 -45.8610 55.7467 -16.5369 53.9613 -33.6819 -5.5008 30.9989 -59.0037 1.6677 -7.8238 -1.8424 -18.1232 -48.6548 -59.2364 9.8658 52.2398 32.2050 29.4481 12.7269 30.6923 -2.0364 -15.2047 1.4151
-17.2863 12.4433 106.7438 73.8764 80.4849 61.3682 0.4568 -3.8057 -1.4093 -0.4879 -5.5694 -2.9194 2.8705 12.4777 -4.5058 3.4654 16.0399 0.3295 -0.4486 -3.2222 -0.6297 1.8014 6.5153 -0.7253 -0.3744 -0.1977 -0.1312 0.5624 -10.4731 -3.8652 -1.2991 -10.4588 3.7365 2.2965 15.9650 3.5259 -49.5826 -6.6204 -3.1083 -2.0671 2.4291 -142.8397 63.8674 47.3650 29.1192 -15.7795 11.5553 16.2813 -62.6305 1.1562 1.7036 3.5370 16.8472 -4.6673 57.4706 10.1477 0.9988 -9.8248 1.5263 104.9360 -59.6728 13.6025 11.5055 15.4220 5.4925 -16.5160 48.8830 -4.7041 -5.3040 0.7585 -45.8046 59.7971 -15.7656 49.0261 -35.1628 -7.0792 32.1524 -64.1461 1.5773 -5.3144 -1.7205 -13.0722 -46.2634 -66.0199 8.2180 46.5503 34.1357 31.1459 12.5132 29.3870 -1.9715 -15.3281 1.4331
-17.6524 12.6682 107.4715 89.6127 80.5414 77.5351 0.1425 -3.3935 -1.5373 -0.5013 -5.2961 -3.0447 3.0659 12.8130 -4.4584 3.6858 11.5498 -0.1066 -0.4950 -3.1859 -0.5436 2.7103 6.7059 -0.1801 -0.4812 -0.2115 -0.1574 0.4608 -10.4667 -3.8954 -1.4103 -10.3957 3.7478 1.5804 16.3350 1.6348 -50.9702 -2.7135 4.0473 -1.8517 2.5748 -147.3304 64.1164 47.2930 26.3164 -15.3276 11.3719 16.3089 -62.0199 0.9907 1.6002 4.4567 16.6167 -2.6747 58.4249 11.8533 -1.1516 -10.0124 1.7149 106.1725 -54.7959 7.6975 12.0508 15.0463 5.7734 -16.2089 49.4131 -4.3871 -5.1538 -1.5974 -46.9186 60.9127 -14.5517 46.8216 -35.0402 -8.6180 31.3995 -63.9823 1.5952 -4.4698 -1.7309 -8.0826 -44.4252 -70.2795 6.6215 43.5276 35.6537 31.2403 12.1725 25.4950 -1.9889 -14.0631 1.4561
-17.9664 13.5423 107.8047 104.5598 79.7201 92.8431 -0.1063 -2.8980 -1.5554 -0.3719 -5.0217 -3.0916 3.0288 13.2348 -4.2269 4.2463 8.1204 -0.5975 -0.5606 -3.1532 -0.5892 3.5513 7.0438 0.1669 -0.5199 -0.2204 -0.1651 0.4397 -10.4491 -3.9043 -1.4662 -10.3688 3.7508 1.1037 16.5821 -0.0560 -52.1396 -1.3229 9.0907 -1.4144 2.7513 -150.5855 64.5799 47.1388 24.8313 -15.0684 11.2623 16.3374 -61.5904 0.9853 1.5033 4.7564 16.2586 -0.6881 58.4449 12.9141 -4.8699 -9.2904 1.8577 106.7263 -47.1790 2.3486 10.0358 14.8583 6.2119 -15.6519 50.4357 -4.1084 -5.1095 -3.9776 -48.7234 60.5179 -13.2317 46.5577 -33.8050 -9.3140 29.3722 -59.1696 1.6427 -4.2577 -1.8314 -4.2438 -43.1512 -72.7587 5.5939 42.6403 36.9930 29.9899 10.8641 21.2439 -2.0271 -11.2342 1.3955
-18.3603 14.7571 108.0863 115.2801 78.0554 103.7745 -0.2271 -2.4582 -1.4239 -0.2478 -4.9508 -3.0243 2.6976 13.5827 -3.9646 5.2220 6.2166 -0.9470 -0.5552 -3.1647 -0.6487 4.5929 8.0170 0.5761 -0.5009 -0.2475 -0.1731 0.4805 -10.4106 -3.9017 -1.4692 -10.3604 3.7242 1.1696 16.3464 -1.1422 -52.8635 -2.0367 11.6599 -1.0913 2.7271 -152.5081 64.6032 46.9315 24.3103 -14.9734 11.2333 16.4360 -61.5005 1.0402 1.5775 4.3661 15.9401 0.7926 57.3187 14.0115 -9.5829 -8.3023 1.7201 105.7627 -36.7331 -0.4961 6.3503 14.9326 6.7153 -15.0002 52.0509 -3.5495 -5.1539 -6.2336 -51.0233 59.4511 -12.4525 47.7189 -31.9225 -7.7774 26.1852 -49.4206 1.7150 -4.6192 -2.0614 -1.2735 -42.6491 -74.3906 5.2402 43.6224 38.4858 27.8630 9.1449 16.9212 -2.1197 -8.2453 1.2680
-18.6736 16.1527 108.2443 120.7109 76.0064 109.0811 -0.3047 -2.2635 -1.2054 -0.1907 -5.0395 -2.7770 2.0176 13.8911 -3.7957 6.7150 5.8228 -1.0019 -0.3679 -3.1483 -0.5512 6.0844 9.5359 1.5239 -0.4595 -0.2775 -0.2078 0.5354 -10.2686 -3.9099 -1.4430 -10.2450 3.6486 1.6225 15.8012 -1.4689 -52.8195 -5.1921 11.2823 -0.9416 2.4660 -152.9332 63.8680 47.3083 24.4334 -15.0092 11.1270 16.4062 -61.6414 0.9799 1.6734 3.1670 15.8107 1.4784 55.9576 15.5432 -13.2985 -7.9121 1.0034 102.9805 -27.7875 -1.0269 4.0578 15.0023 7.1736 -14.5198 53.3820 -2.7949 -5.1592 -8.4654 -53.2269 58.5592 -12.2304 49.3310 -29.8026 -4.7055 22.2025 -37.2739 1.7620 -5.6291 -2.3052 0.7655 -43.1789 -75.6605 5.3091 45.6638 39.7815 25.4075 8.1175 12.8424 -2.2148 -6.9700 1.1517
-18.9219 17.4262 108.5474 122.4066 74.1836 110.3025 -0.4548 -2.3313 -1.0591 -0.1584 -5.1465 -2.4274 1.2528 14.2006 -3.6089 8.3020 6.1563 -0.7513 -0.1225 -3.0773 -0.2303 7.9917 10.6786 3.0818 -0.4567 -0.2884 -0.2703 0.5366 -10.0305 -3.9258 -1.4388 -9.9969 3.5370 1.9133 15.6163 -1.5651 -52.7093 -10.1327 9.2601 -0.6432 2.1369 -151.7556 62.5342 47.7990 24.4705 -15.3041 11.0265 16.2328 -61.9887 0.9259 1.6282 1.5387 15.8428 1.8508 55.2454 17.5822 -14.5524 -8.2338 0.1391 99.2675 -22.5348 -1.9847 4.4002 15.0259 7.4109 -14.2002 53.8247 -2.3959 -5.0669 -10.3065 -54.3757 57.8554 -11.6395 49.6808 -27.7854 -2.6849 19.1840 -28.0626 1.7558 -6.6981 -2.4051 1.8867 -44.4743 -76.6631 5.2250 47.4686 40.6207 23.2850 7.1976 10.4490 -2.2649 -6.7048 1.0631
-19.1946 18.0018 108.9664 122.8094 72.8518 110.2744 -0.5132 -2.3927 -0.9187 -0.0249 -5.2116 -2.0567 0.7097 14.0323 -3.3045 9.0066 6.3493 -0.5995 0.2352 -3.0059 0.2224 9.8028 11.0743 4.7046 -0.5056 -0.2896 -0.3370 0.4753 -9.8333 -3.9527 -1.4748 -9.7807 3.4430 1.8805 15.8561 -1.8293 -53.5835 -14.5355 7.3003 -0.0926 1.9965 -149.7969 61.2951 47.7222 24.4133 -15.6437 10.9960 16.1174 -62.2619 0.9842 1.4852 0.0324 16.0942 2.0929 54.9268 19.5447 -14.1296 -8.0434 -0.0996 95.5184 -20.7761 -4.9581 7.4417 15.2266 7.4073 -14.2010 53.9370 -2.3288 -5.0365 -11.4035 -54.3222 57.3854 -10.5546 48.2882 -26.5207 -2.3584 17.8712 -24.8575 1.7361 -7.0254 -2.3884 2.6745 -45.8512 -77.5611 4.4729 47.8962 41.0291 22.0949 5.2405 12.3699 -2.1788 -6.6925 0.9955
-19.4270 17.8253 109.4661 123.3026 72.2408 110.6099 -0.4520 -2.4433 -0.6566 0.0835 -5.2498 -1.6016 0.5206 13.3754 -2.8592 9.0182 6.3971 -0.7268 0.7170 -2.9308 0.7312 11.3741 11.2728 6.2810 -0.5152 -0.2940 -0.3621 0.4748 -9.7202 -3.9564 -1.4900 -9.6116 3.3895 1.8167 16.0694 -1.9658 -55.4572 -17.2604 6.1225 0.4965 1.8875 -148.2915 59.9414 47.2245 23.5633 -15.9564 10.9620 16.0044 -62.2165 1.0470 1.3704 -1.0261 16.3607 2.2554 54.3881 21.0572 -13.1611 -6.7349 0.0745 91.7250 -20.9052 -8.5880 11.4161 15.6157 7.2284 -14.2956 53.9817 -2.3815 -5.0223 -11.8060 -53.6280 57.4118 -9.4295 46.2793 -26.2109 -2.7564 17.3253 -24.3784 1.7573 -7.1115 -2.3918 3.5279 -46.7145 -78.0460 3.3891 46.3005 41.3452 22.0377 2.5743 17.3157 -2.0099 -7.3330 0.9688
-19.7057 17.1860 109.8876 124.0723 72.2664 111.4106 -0.3841 -2.6475 -0.3369 0.1693 -5.2761 -1.1456 0.5170 12.5877 -2.3250 8.8411 6.6697 -0.9986 1.2007 -2.8517 1.2572 12.7056 11.6834 7.7635 -0.5100 -0.2955 -0.3810 0.5422 -9.7311 -3.9925 -1.5420 -9.5495 3.3756 1.8914 16.1011 -1.8458 -57.6313 -18.6529 5.7332 0.6934 1.7459 -147.4061 57.9792 46.2337 21.8744 -16.1669 10.9744 15.9568 -62.1659 1.1088 1.2601 -1.5953 16.5802 2.4796 53.5877 21.8963 -11.9342 -4.8030 0.2002 87.9812 -22.1542 -12.0447 14.9983 15.9982 6.8832 -14.2598 53.8221 -2.5515 -4.8504 -11.5386 -52.6981 57.5773 -8.3932 44.5245 -26.5833 -3.1874 16.7313 -23.8420 1.8200 -7.0654 -2.4235 4.4672 -46.9989 -78.1945 2.6010 43.3625 41.8240 22.6740 0.6485 22.4340 -1.8252 -9.0165 0.9623
-19.8483 16.2248 110.0365 124.9791 72.5515 112.4928 -0.4467 -3.0831 -0.0214 0.2119 -5.2965 -0.8190 0.7005 11.7835 -1.8040 8.8370 7.4895 -1.3086 1.6272 -2.7747 1.8317 13.9590 12.5138 9.2243 -0.5090 -0.2900 -0.4235 0.6436 -9.8231 -4.0823 -1.6364 -9.5677 3.3688 2.1821 16.0685 -1.4553 -59.4166 -19.1087 5.7090 0.4479 1.6664 -147.0091 55.8481 45.1899 20.3898 -16.1062 11.0480 15.9900 -62.0405 1.2006 0.9899 -1.7262 16.6908 2.5561 52.7206 22.2559 -10.5303 -2.8760 -0.1256 84.5185 -24.3383 -15.0940 17.7608 16.5042 6.4705 -14.1383 53.7516 -2.7211 -4.6046 -11.1698 -51.9803 57.9228 -7.6212 42.9605 -27.1558 -3.3983 16.5737 -22.7799 1.8502 -7.0534 -2.4872 6.0140 -46.6208 -79.2378 2.2448 40.0902 42.8725 23.1806 0.5970 26.7075 -1.6952 -11.5004 0.9639
-20.1194 15.1469 110.2303 125.1911 72.5640 113.0350 -0.4368 -3.5559 0.2556 0.1431 -5.4456 -0.7313 0.8546 11.0464 -1.6593 9.3041 8.9336 -1.3091 1.6212 -2.7256 1.9866 14.8674 13.5814 10.3610 -0.5212 -0.2768 -0.4967 0.6802 -9.8935 -4.1963 -1.6925 -9.6534 3.3273 2.6540 15.9648 -1.0828 -60.3941 -19.0427 5.9895 -0.0895 1.5482 -146.9767 54.7665 44.5035 20.0715 -16.1219 11.0364 15.9141 -61.8324 1.2597 0.6896 -1.5356 16.4963 1.9159 51.8939 22.4117 -8.9578 -1.4897 -0.7927 81.7573 -26.8011 -17.0233 19.2372 17.0537 6.2035 -14.1094 53.9906 -2.8852 -4.5392 -11.1126 -51.8691 58.0921 -7.2484 41.3398 -27.3700 -3.6438 17.5271 -21.5684 1.8642 -7.4593 -2.5181 7.2552 -45.4368 -80.9335 2.2004 37.2859 44.2905 22.8348 2.5624 28.3978 -1.6985 -13.2562 0.9687
-20.3874 14.3898 110.3964 125.0830 72.7887 113.2941 -0.3619 -3.9401 0.5217 0.0921 -5.5915 -0.7082 1.0292 10.7446 -1.7498 9.8846 10.4938 -1.3465 1.5587 -2.6776 1.9781 15.7097 15.0760 11.4188 -0.6283 -0.2456 -0.6316 0.6239 -9.6902 -4.3238 -1.8472 -9.5530 3.2079 3.1284 15.4206 -1.3054 -61.1208 -18.3603 6.2454 -0.4381 1.3373 -147.1461 54.1687 44.7844 20.1198 -15.7848 10.9751 16.0766 -61.5514 1.1134 1.1396 -1.6508 16.1853 1.2571 51.6449 22.0379 -7.6800 -0.7849 -0.8002 80.1008 -29.7013 -19.1556 19.9700 17.1370 6.2427 -13.9137 54.4335 -2.4924 -4.7441 -10.2218 -52.1272 57.4772 -7.2562 40.4935 -27.1791 -3.7858 19.0508 -20.8237 1.8432 -7.3040 -2.4443 7.4288 -43.7758 -82.1566 2.2568 35.5524 45.9686 22.5855 4.7163 28.2502 -1.7571 -10.8028 0.9251
-20.6016 14.4901 110.6172 123.9773 72.8744 112.5267 -0.2529 -4.0081 0.3813 0.1332 -5.6916 -0.8469 1.4537 10.6074 -1.5365 10.2824 11.3243 -1.5490 1.9761 -2.5972 2.1823 16.8746 16.4006 12.3542 -0.5908 -0.2603 -0.6172 0.8197 -9.4709 -4.2909 -1.9614 -9.3690 3.1859 3.0068 15.0631 -1.8396 -61.4368 -17.8442 6.0760 -0.3118 1.3164 -147.1849 54.9171 45.5400 21.5690 -16.1699 10.8970 15.9373 -61.7147 1.0829 1.2572 -1.9085 15.9618 0.6114 51.9023 21.8274 -6.3983 -0.9693 -0.1419 79.2063 -31.7976 -20.2329 19.8382 17.0538 6.2021 -13.8334 54.2860 -2.7981 -4.7668 -10.0666 -52.5001 57.1368 -7.4498 40.6617 -27.8211 -3.8899 20.1812 -21.2361 1.7639 -7.4227 -2.4659 9.5046 -41.7554 -86.2497 2.1380 34.2637 50.0439 22.3863 5.2102 26.3366 -1.7384 -12.3149 0.9868
-20.7718 14.6681 111.0143 122.4578 72.2815 111.2802 -0.0458 -4.0230 0.1872 0.1277 -5.8962 -1.1984 1.5318 10.7323 -1.5588 11.5232 11.6946 -1.4008 1.9277 -2.6119 1.9000 18.3072 17.5412 13.4617 -0.5170 -0.2613 -0.5963 1.0079 -9.4625 -4.2997 -2.0034 -9.4433 3.2184 3.5662 15.0353 -2.5216 -62.4577 -18.2988 6.7030 -0.3646 1.0304 -147.5235 55.0655 45.4593 22.5471 -16.2097 10.8064 15.9543 -61.5810 0.9704 1.3459 -1.4410 15.8608 0.6023 51.8749 21.6163 -5.7214 -1.3318 -1.1335 78.5780 -32.2287 -19.9414 19.8286 16.7368 6.2376 -13.8556 53.9562 -2.4632 -4.9917 -10.5179 -53.0574 56.5892 -6.9949 40.7523 -27.5455 -3.7270 21.5378 -22.8259 1.7078 -7.3028 -2.4429 11.7625 -40.4153 -89.9500 1.9295 34.2453 53.0690 22.3510 5.7942 25.2533 -1.7629 -9.8819 0.9294
-21.0000 15.1129 111.4560 122.5837 71.8598 111.5628 -0.0727 -4.0194 0.1627 0.3135 -5.7582 -1.1621 1.7008 10.4940 -1.5383 12.4411 11.3136 -1.6373 2.3689 -2.5804 1.9147 19.4219 18.4027 14.2114 -0.5124 -0.2718 -0.5719 1.1258 -9.3420 -4.2593 -2.1092 -9.3040 3.2213 3.7171 14.9725 -3.3364 -62.9620 -18.3779 6.0158 0.4145 0.9673 -148.1354 56.3161 46.4357 24.4252 -16.7229 10.8746 15.8106 -61.7946 1.0893 1.0973 -1.0066 15.7785 0.7026 51.6694 21.7172 -5.4324 -1.3103 -0.8783 78.4114 -33.4272 -19.0126 20.0515 16.6975 6.1516 -13.8160 53.5900 -2.6491 -4.9702 -10.7559 -53.3924 56.1547 -6.9357 39.9994 -27.6170 -5.2518 22.5072 -25.0450 1.6960 -7.7239 -2.4476 14.2646 -39.3825 -93.0111 1.5336 34.0862 55.7819 22.3188 6.6664 25.0036 -1.6676 -10.1112 0.9355
-21.2570 15.2200 111.8468 123.7627 71.6752 112.9516 -0.1262 -3.9872 0.2250 0.5377 -5.5572 -0.9935 1.7940 10.0300 -1.5611 13.1846 11.0393 -1.8794 2.5099 -2.5521 1.7238 20.3947 19.5007 15.0701 -0.5804 -0.2588 -0.6370 1.1070 -9.1643 -4.2599 -2.2218 -9.1125 3.1035 3.9323 14.7585 -3.7968 -63.5422 -18.3975 5.5127 0.9022 0.8267 -149.0330 57.3219 46.8928 25.4191 -16.8167 10.9234 15.8872 -61.8729 1.1849 1.1200 -0.2729 15.6021 1.1713 51.0081 22.0736 -5.6560 -0.8674 -0.7923 78.2802 -34.9674 -18.5279 20.7180 16.9599 6.1685 -13.8858 53.8651 -2.4696 -4.8615 -10.8286 -53.8718 55.6606 -6.8865 39.2689 -27.5377 -6.7319 24.0723 -25.5916 1.6762 -7.4225 -2.4691 15.4425 -38.9735 -93.2701 1.1264 33.2438 56.4261 22.8515 8.4448 25.8055 -1.5736 -9.3890 0.9020
-21.4711 15.2294 112.1344 124.5956 71.4631 113.8278 -0.2504 -3.9287 0.2468 0.5039 -5.4661 -1.0187 2.0271 9.8532 -1.4940 13.6800 11.0655 -1.9461 2.4297 -2.5833 1.5035 21.3366 20.5544 16.0336 -0.5837 -0.2300 -0.6914 1.1459 -9.0782 -4.2917 -2.2656 -9.0653 3.0276 4.1056 14.5685 -4.0800 -63.9524 -18.6155 5.4906 0.9146 0.8253 -150.0965 58.1722 46.6292 26.3424 -16.5940 11.0057 15.9076 -61.9712 1.2272 0.9663 0.4660 15.1219 1.8036 50.0613 22.4327 -6.0256 -0.2824 -1.4927 77.9619 -35.8403 -18.3166 21.6377 17.2598 6.1819 -14.0717 54.4537 -2.2725 -4.9100 -11.2154 -54.2705 55.1569 -6.3804 38.8787 -26.7809 -7.5357 26.3258 -24.5911 1.7376 -6.6838 -2.5255 15.8817 -38.9843 -92.3317 0.8283 32.3522 55.7692 23.0640 11.0627 25.4986 -1.6072 -8.1978 0.8423
-21.7512 15.4423 112.4852 125.5059 71.0973 114.5510 -0.4347 -3.8822 0.2332 0.4959 -5.3964 -1.0070 2.1117 9.6152 -1.3942 13.5621 10.9664 -2.0402 2.6938 -2.5857 1.3008 22.3445 21.4275 16.8997 -0.6388 -0.2319 -0.7826 1.2033 -8.9072 -4.3717 -2.4282 -8.9218 2.9324 4.1342 14.0943 -4.5107 -63.7605 -18.1368 4.8144 1.2054 1.1084 -150.9510 60.0058 47.0608 28.8015 -16.5990 11.0542 15.7869 -62.0136 1.2313 0.7064 0.9681 14.9263 2.1035 49.2281 22.5345 -6.0783 0.3458 -1.7979 77.6249 -37.2267 -18.1592 22.3941 17.8932 6.1473 -14.2088 55.2966 -2.3371 -4.8995 -12.0648 -54.3443 55.0511 -5.8937 38.4508 -25.7813 -8.1594 29.0739 -23.6220 1.8913 -6.4751 -2.6351 15.9908 -39.1332 -91.6699 0.6772 31.9184 55.0410 22.5944 12.8815 24.3496 -1.5886 -8.0885 0.8497
-22.0404 15.4868 112.7693 125.8126 70.9369 114.9065 -0.3316 -3.7512 0.2759 0.4725 -5.3617 -0.9617 2.2314 9.4336 -1.3767 13.2356 10.9622 -1.9257 2.9230 -2.5034 1.1473 23.3461 22.0283 17.7258 -0.6606 -0.2237 -0.8356 1.2787 -8.7733 -4.4158 -2.5434 -8.8068 2.8759 3.9952 13.9064 -4.7626 -63.5930 -18.1380 4.5299 1.2542 1.0759 -151.5195 61.9687 47.2647 31.3860 -16.6062 11.1002 15.7476 -62.2725 1.2108 0.7139 0.9745 14.9852 2.3137 48.7842 22.1334 -6.1766 1.3976 -1.9703 77.2135 -38.4369 -18.3016 22.6615 18.2776 6.1074 -14.4581 55.5593 -2.4065 -5.0302 -12.4051 -54.3369 55.1820 -5.8290 37.9107 -25.7487 -8.1046 30.8185 -23.1794 1.9625 -6.1459 -2.6394 16.2401 -38.8453 -91.5920 0.7307 31.9044 54.9284 21.9021 13.7237 23.1235 -1.6743 -8.1535 0.8381
-22.2523 15.5082 113.0055 125.9091 70.8201 115.0391 -0.1660 -3.7458 0.3141 0.4668 -5.3859 -0.9496 2.2872 9.3300 -1.3197 12.8480 11.0979 -1.8890 3.1273 -2.4107 1.0826 24.2667 22.4432 18.5808 -0.6721 -0.2096 -0.8748 1.3633 -8.6185 -4.4387 -2.6475 -8.6620 2.8199 3.9084 13.7356 -4.9656 -63.4450 -17.9668 4.1633 1.4210 0.9243 -151.8773 63.3449 47.5438 33.3750 -16.6327 11.0774 15.7261 -62.3743 1.1973 0.8342 0.6903 15.0782 2.3217 48.6752 21.9247 -5.8208 1.9828 -1.9084 76.7716 -39.0346 -18.5955 22.6611 18.4353 6.0341 -14.5398 55.5905 -2.4785 -5.1392 -12.7554 -54.1757 55.4836 -5.8041 37.2755 -25.9327 -8.3068 32.0055 -23.3702 1.9705 -5.9361 -2.6272 16.6765 -38.5216 -92.0894 0.8115 31.9487 55.3151 21.5265 14.2290 22.3447 -1.7229 -8.1151 0.8397
-22.4103 15.5075 113.1747 126.0738 70.7171 115.2470 0.0262 -3.8474 0.3168 0.5070 -5.4458 -0.9435 2.2629 9.2065 -1.2614 12.4017 11.2349 -1.9280 3.3020 -2.3442 1.0048 25.1494 22.7047 19.3828 -0.6729 -0.1953 -0.8923 1.4434 -8.4680 -4.4375 -2.7273 -8.5062 2.7774 3.8909 13.6492 -5.1049 -63.3280 -17.6782 3.9114 1.6361 0.7975 -152.1890 63.9592 47.7775 34.6077 -16.6692 11.0323 15.7197 -62.3740 1.2011 0.9325 0.4171 15.1843 2.2885 48.5671 21.8927 -5.5136 2.3197 -1.7684 76.4828 -39.1231 -18.7151 22.5344 18.4546 5.9957 -14.5541 55.5956 -2.5270 -5.1861 -13.1584 -53.9555 55.8860 -5.7848 36.5597 -26.2249 -8.8241 33.0807 -24.0241 1.9580 -5.8235 -2.6157 17.1221 -38.3529 -92.4162 0.8386 32.0803 55.3205 21.2527 14.8223 21.9416 -1.7296 -7.8410 0.8427
-22.4845 15.4869 113.3377 126.2996 70.6399 115.5066 0.1975 -3.9616 0.3336 0.5398 -5.5126 -0.9547 2.2346 9.0248 -1.2251 12.0615 11.3181 -1.9836 3.4122 -2.3141 0.9128 25.8358 23.0091 20.0333 -0.6657 -0.1838 -0.8947 1.5029 -8.3615 -4.4326 -2.7703 -8.3980 2.7633 3.9193 13.5908 -5.2725 -63.3749 -17.3496 4.0314 1.7482 0.7139 -152.5055 63.9135 47.8351 35.2856 -16.7127 10.9939 15.7454 -62.3502 1.1907 1.0138 0.3351 15.2892 2.2680 48.2580 22.0203 -5.2738 2.4712 -1.6617 76.3294 -38.9190 -18.6299 22.2534 18.4267 6.0308 -14.5737 55.6947 -2.4832 -5.2132 -13.4654 -53.6599 56.2826 -5.7171 35.6918 -26.6025 -9.6282 34.2871 -25.0389 1.9454 -5.7145 -2.6095 17.5974 -38.2533 -92.8057 0.8036 32.2181 55.2362 21.0748 15.4631 21.8985 -1.7266 -7.4066 0.8394
-22.5103 15.4432 113.4827 126.7055 70.6016 115.9146 0.2851 -4.0672 0.3371 0.5782 -5.5575 -0.9776 2.2630 8.7957 -1.2055 11.7508 11.3173 -2.0401 3.4866 -2.3211 0.8604 26.3305 23.3011 20.5096 -0.6519 -0.1757 -0.8829 1.5503 -8.2805 -4.4168 -2.7895 -8.3233 2.7665 3.8936 13.5349 -5.5116 -63.4981 -17.0878 4.5283 1.7834 0.6610 -152.8868 63.4295 47.7800 35.6108 -16.8089 10.9741 15.7947 -62.3577 1.1574 1.0809 0.3673 15.3204 2.2647 47.7023 22.3056 -5.1166 2.5585 -1.7186 76.3014 -38.5157 -18.2929 21.8543 18.4454 6.0748 -14.5341 55.9133 -2.3953 -5.2064 -13.8727 -53.3160 56.8400 -5.6253 34.8301 -27.0454 -10.5342 35.4030 -26.0549 1.9437 -5.5141 -2.6055 17.8479 -38.3875 -92.7722 0.7785 32.4714 54.8201 20.9809 15.9815 22.0095 -1.7176 -7.0907 0.8355
-22.5286 15.4276 113.6029 127.2939 70.6384 116.4431 0.3546 -4.1611 0.3414 0.5877 -5.5893 -0.9978 2.2866 8.5708 -1.2232 11.4794 11.2769 -2.1016 3.5325 -2.3304 0.9026 26.6064 23.5936 20.8329 -0.6250 -0.1751 -0.8517 1.5929 -8.2201 -4.3797 -2.7783 -8.2700 2.7823 3.7630 13.4922 -5.7632 -63.5851 -16.9538 5.1430 1.7601 0.6242 -153.2639 62.7893 47.6625 35.7350 -16.9470 10.9601 15.8063 -62.4511 1.1131 1.1267 0.4579 15.3262 2.2910 46.9560 22.5778 -4.9081 2.6453 -1.9688 76.2485 -37.9632 -17.7448 21.2688 18.4393 6.1321 -14.4773 56.0879 -2.2978 -5.1513 -14.2314 -52.9274 57.3853 -5.5309 34.0229 -27.5006 -11.3755 36.3948 -26.9405 1.9441 -5.3472 -2.6143 18.0522 -38.7265 -92.4899 0.7727 32.8942 54.2317 20.8839 16.2783 22.0709 -1.7068 -6.9579 0.8375
-22.5129 15.4428 113.7197 127.9978 70.7241 117.0906 0.3920 -4.2106 0.3170 0.5805 -5.6101 -1.0059 2.3342 8.3544 -1.2561 11.1795 11.2092 -2.1295 3.5434 -2.3316 0.9431 26.7506 23.8987 20.9992 -0.6100 -0.1747 -0.8321 1.6234 -8.1655 -4.3511 -2.7775 -8.2301 2.7902 3.5476 13.4723 -6.0393 -63.5899 -16.9329 5.8606 1.7386 0.5522 -153.7073 62.3160 47.5740 35.8976 -17.0725 10.9571 15.7941 -62.5126 1.0944 1.1010 0.5980 15.3036 2.3725 46.1118 22.8310 -4.7425 2.7647 -2.2765 76.2631 -37.4630 -17.1782 20.7245 18.4237 6.1728 -14.4286 56.2645 -2.2177 -5.0935 -14.6584 -52.5761 58.0225 -5.4443 33.3831 -27.9923 -12.1762 37.1106 -27.7139 1.9433 -5.2686 -2.6245 17.8441 -39.2244 -91.6561 0.8144 33.2691 53.2927 20.7750 16.3762 22.0456 -1.7036 -6.9769 0.8385
-22.4801 15.4284 113.8446 128.6886 70.8127 117.7259 0.4087 -4.2346 0.2954 0.6076 -5.6375 -1.0069 2.3424 8.1496 -1.3032 10.8544 11.1409 -2.1248 3.5602 -2.3279 0.9331 26.8210 24.2307 21.0855 -0.6104 -0.1744 -0.8318 1.6363 -8.1222 -4.3457 -2.7925 -8.2027 2.7850 3.2603 13.4607 -6.3433 -63.5024 -16.9671 6.4710 1.7408 0.4831 -154.1427 62.1882 47.6229 36.2605 -17.1190 10.9583 15.7581 -62.4786 1.0994 1.0749 0.7513 15.2352 2.4760 45.2547 23.0780 -4.6773 2.9223 -2.5676 76.3002 -36.9548 -16.6032 20.1635 18.4018 6.2254 -14.4286 56.4602 -2.1465 -5.0196 -15.0557 -52.2178 58.5780 -5.2958 32.8602 -28.4395 -12.9046 37.5583 -28.4635 1.9499 -5.2601 -2.6249 17.3745 -39.7989 -90.5642 0.8805 33.6658 52.1559 20.5927 16.2540 21.9026 -1.7025 -6.9889 0.8404
-22.3921 15.3864 113.8686 129.3657 70.8691 118.3200 0.4123 -4.2590 0.2813 0.6222 -5.6621 -0.9954 2.3652 7.9352 -1.3458 10.5662 11.0762 -2.0559 3.5772 -2.3145 0.8499 26.8723 24.5779 21.0999 -0.6328 -0.1728 -0.8575 1.6336 -8.1082 -4.3711 -2.8331 -8.1977 2.7679 2.9969 13.4582 -6.6267 -63.4510 -17.0296 7.0451 1.7272 0.4269 -154.5572 62.3380 47.7179 36.7361 -17.1248 11.0149 15.7370 -62.5316 1.1429 1.0255 0.9187 15.1942 2.6142 44.4318 23.2715 -4.7848 3.1084 -2.9173 76.3127 -36.4160 -16.0709 19.6481 18.4397 6.2638 -14.4418 56.6418 -2.1162 -4.9512 -15.4331 -51.8223 59.1382 -5.1896 32.3386 -28.9275 -13.4701 37.7870 -29.0436 1.9550 -5.3199 -2.6131 16.9902 -40.3081 -89.6582 0.9175 34.0526 51.1731 20.4402 15.9750 21.6758 -1.7046 -7.0374 0.8452
-22.3102 15.3328 113.8765 129.8552 70.8665 118.7621 0.4253 -4.2867 0.2670 0.6376 -5.7034 -0.9958 2.3850 7.7420 -1.3772 10.3494 11.0221 -1.9580 3.6064 -2.2942 0.7651 26.9461 24.8898 21.1495 -0.6547 -0.1679 -0.8855 1.6208 -8.0737 -4.3992 -2.8656 -8.1810 2.7441 2.7016 13.4616 -6.9289 -63.3283 -17.1043 7.4686 1.7502 0.3649 -154.8660 62.8040 47.8558 37.3427 -17.1048 11.0633 15.6899 -62.5643 1.1997 0.9811 1.0413 15.1869 2.7615 43.7679 23.5091 -4.8970 3.2300 -3.1258 76.2763 -35.8616 -15.6699 19.2031 18.4625 6.3207 -14.4942 56.8400 -2.1082 -4.9129 -15.7095 -51.4729 59.5593 -5.0921 31.8416 -29.3341 -13.8666 37.8552 -29.5019 1.9547 -5.3528 -2.5941 16.5321 -40.6806 -88.9669 1.0183 34.2567 50.3517 20.3130 15.6733 21.4301 -1.7055 -7.1115 0.8534
-22.2124 15.2668 113.8363 130.2742 70.8114 119.1586 0.4493 -4.3508 0.2540 0.6454 -5.7637 -1.0021 2.4263 7.5690 -1.3659 10.1812 10.9689 -1.8773 3.6471 -2.2829 0.6790 27.0511 25.2110 21.1840 -0.6766 -0.1640 -0.9151 1.6049 -8.0288 -4.4231 -2.8948 -8.1588 2.7140 2.4466 13.4667 -7.1969 -63.2045 -17.1151 7.7354 1.7676 0.3218 -155.0303 63.2552 47.9870 37.7899 -17.0512 11.1004 15.6313 -62.5681 1.2400 0.9457 1.1270 15.2117 2.9004 43.2251 23.7428 -5.0486 3.3249 -3.1905 76.1834 -35.3481 -15.4059 18.8387 18.4706 6.3933 -14.5713 56.9777 -2.1112 -4.9395 -15.9655 -51.2237 59.9708 -5.0533 31.4055 -29.7038 -14.2517 37.8164 -30.0217 1.9537 -5.4043 -2.5685 16.2119 -40.9367 -88.5844 1.1507 34.3943 49.7787 20.2665 15.4090 21.2433 -1.7097 -7.1977 0.8644
-22.1683 15.1902 113.7588 130.5923 70.7033 119.4696 0.4772 -4.4411 0.2360 0.6394 -5.8151 -1.0133 2.4502 7.3716 -1.3345 10.1719 10.9347 -1.7768 3.6601 -2.2554 0.5845 27.2009 25.4908 21.2704 -0.6968 -0.1603 -0.9480 1.5833 -7.9694 -4.4467 -2.9144 -8.1218 2.6754 2.2853 13.4432 -7.3978 -63.0710 -17.0293 7.8060 1.8038 0.2879 -155.0645 63.5108 48.1399 37.9280 -16.9453 11.1454 15.6218 -62.5414 1.2681 0.9434 1.1791 15.2548 2.9956 42.8751 23.8569 -5.2122 3.5384 -3.1625 75.9876 -34.9299 -15.2018 18.6015 18.4440 6.4539 -14.6255 57.1415 -2.1176 -4.9361 -16.1962 -51.0284 60.2906 -5.0454 31.0294 -29.9654 -14.5472 37.8302 -30.5084 1.9520 -5.3692 -2.5443 15.9248 -41.1413 -88.2251 1.2429 34.4883 49.1700 20.2745 15.2415 21.1085 -1.7149 -7.1686 0.8704
-22.0741 15.1395 113.6880 130.7355 70.6128 119.6077 0.5109 -4.5220 0.2208 0.6464 -5.8640 -1.0232 2.4332 7.1782 -1.3049 10.2344 10.9375 -1.6562 3.6947 -2.2256 0.4548 27.3179 25.7398 21.2605 -0.7091 -0.1578 -0.9656 1.5662 -7.9075 -4.4478 -2.9212 -8.0752 2.6454 2.1818 13.4057 -7.5487 -62.9274 -16.8292 7.7843 1.8211 0.2958 -155.0044 63.7449 48.3057 38.0060 -16.8389 11.1546 15.6023 -62.4470 1.2734 0.9718 1.2145 15.3026 3.0453 42.6356 23.9014 -5.2930 3.7804 -3.1592 75.6565 -34.6003 -15.0362 18.4880 18.4659 6.4991 -14.6625 57.2478 -2.1039 -4.9258 -16.3609 -50.8420 60.4778 -5.0403 30.6846 -30.1478 -14.8387 37.9116 -30.9912 1.9506 -5.2947 -2.5149 15.6424 -41.3172 -87.8996 1.3291 34.5769 48.5747 20.2779 15.1577 21.0189 -1.7242 -7.1341 0.8713
-22.0370 15.0732 113.6437 130.7878 70.5254 119.6436 0.5550 -4.5961 0.1957 0.6323 -5.9132 -1.0247 2.4175 7.0209 -1.2513 10.3857 10.8712 -1.5341 3.7599 -2.1997 0.2796 27.4734 25.9728 21.2389 -0.7094 -0.1549 -0.9658 1.5699 -7.8421 -4.4305 -2.9270 -8.0210 2.6264 2.1295 13.3973 -7.6675 -62.7928 -16.5900 7.5856 1.8422 0.2848 -154.8491 64.1078 48.5568 38.0801 -16.7507 11.1632 15.6115 -62.3785 1.2578 1.0263 1.2760 15.3509 3.0485 42.4537 23.9419 -5.2866 3.9000 -3.1586 75.1894 -34.1963 -14.9158 18.4021 18.4492 6.5497 -14.7020 57.3193 -2.0920 -4.9224 -16.4108 -50.6644 60.5762 -5.0587 30.3482 -30.2838 -15.1119 38.0552 -31.4455 1.9471 -5.2486 -2.4944 15.5960 -41.3975 -87.9277 1.3422 34.6485 48.2121 20.3182 15.2106 20.9046 -1.7315 -7.1560 0.8742
-21.9713 14.9715 113.6215 130.7536 70.4839 119.6124 0.5734 -4.6418 0.1771 0.6699 -5.9348 -1.0362 2.3626 6.8846 -1.1981 10.6045 10.7454 -1.4080 3.8345 -2.1661 0.1121 27.6547 26.2046 21.2245 -0.6957 -0.1538 -0.9450 1.6003 -7.7541 -4.3948 -2.9310 -7.9364 2.6282 2.1083 13.4070 -7.7242 -62.6077 -16.3148 7.3302 1.8922 0.2357 -154.6550 64.4663 48.9245 38.1114 -16.6993 11.1233 15.6122 -62.2988 1.2307 1.1385 1.3586 15.3825 3.0525 42.3591 23.9678 -5.1939 3.8897 -3.1350 74.6831 -33.7045 -14.7318 18.3328 18.4713 6.5855 -14.7154 57.4137 -2.0840 -4.9359 -16.3854 -50.4968 60.5517 -5.0343 30.0926 -30.3489 -15.3343 38.2447 -31.8610 1.9434 -5.2207 -2.4771 15.5691 -41.4042 -88.0053 1.3567 34.6853 48.0058 20.3777 15.3715 20.7892 -1.7565 -7.1668 0.8672
-21.9928 14.8877 113.6170 130.4036 70.4410 119.2705 0.6043 -4.6486 0.1527 0.6786 -5.9438 -1.0581 2.3351 6.7674 -1.1527 10.9350 10.5934 -1.2894 3.8706 -2.1424 -0.0868 27.7244 26.4444 21.1090 -0.6847 -0.1571 -0.9239 1.6196 -7.7001 -4.3650 -2.9274 -7.8816 2.6413 2.1492 13.3827 -7.7892 -62.4964 -15.9277 7.0174 1.9298 0.1779 -154.3584 64.7479 49.2866 37.9982 -16.6950 11.0675 15.6087 -62.2521 1.2170 1.1816 1.4754 15.4186 3.0088 42.3301 24.0194 -5.0369 3.6967 -3.1596 74.1225 -33.0918 -14.4749 18.1403 18.4961 6.6393 -14.7689 57.5817 -2.0194 -4.9572 -16.2345 -50.3270 60.4417 -4.9916 29.8438 -30.3818 -15.4990 38.4625 -32.1884 1.9476 -5.1926 -2.4710 15.5612 -41.3022 -88.2608 1.3503 34.6319 47.9654 20.5082 15.6181 20.7586 -1.7712 -7.2162 0.8653
-21.9568 14.7609 113.5925 130.1692 70.3670 119.0524 0.6082 -4.6533 0.1161 0.6843 -5.9449 -1.0920 2.3409 6.6288 -1.0908 11.2957 10.3961 -1.2382 3.9075 -2.1320 -0.2769 27.6141 26.6851 20.8750 -0.6690 -0.1597 -0.8953 1.6441 -7.6752 -4.3395 -2.9210 -7.8501 2.6695 2.2357 13.3492 -7.8420 -62.4326 -15.4334 6.6378 1.9827 0.1222 -154.1082 65.0213 49.7221 37.7627 -16.6837 11.0327 15.6115 -62.2537 1.1747 1.2019 1.6560 15.4291 2.9430 42.2543 24.0002 -4.8492 3.4838 -3.1711 73.4812 -32.4846 -14.1645 17.8624 18.5521 6.6619 -14.7866 57.6534 -1.9798 -4.9862 -16.1230 -50.2111 60.3114 -4.9238 29.7005 -30.3372 -15.5074 38.6179 -32.2612 1.9439 -5.1566 -2.4824 15.6703 -41.1548 -88.6420 1.3160 34.5476 48.0322 20.6772 15.9885 20.7011 -1.7872 -7.1970 0.8654
-21.7808 14.7232 113.4611 129.7831 70.3434 118.6969 0.6110 -4.6254 0.0689 0.6872 -5.9383 -1.1304 2.3734 6.5184 -1.0437 11.6402 10.2367 -1.2271 3.8833 -2.1295 -0.4703 27.3275 26.9450 20.5381 -0.6540 -0.1641 -0.8683 1.6503 -7.6878 -4.3187 -2.8979 -7.8578 2.6998 2.3120 13.3301 -7.8932 -62.4055 -14.9431 6.2941 2.0608 0.0631 -153.8170 65.1229 50.1563 37.3273 -16.7032 10.9767 15.6234 -62.2144 1.1215 1.1770 1.8433 15.3995 2.8316 42.1424 23.8645 -4.6604 3.3885 -3.1412 72.7540 -31.9510 -13.8428 17.6620 18.5605 6.6510 -14.8465 57.5940 -1.9635 -4.9692 -15.9884 -50.1181 60.1439 -4.8679 29.6395 -30.2758 -15.4118 38.8031 -32.0428 1.9333 -5.1378 -2.5162 15.6023 -41.0552 -88.7517 1.3065 34.4914 47.9830 20.8360 16.4562 20.6365 -1.8009 -7.2427 0.8671
-21.6921 14.7095 113.3165 129.5494 70.3481 118.4914 0.5965 -4.5884 0.0168 0.6636 -5.9357 -1.1602 2.4549 6.3984 -0.9992 11.8754 10.1868 -1.2438 3.8406 -2.1328 -0.6127 26.9704 27.1326 20.1710 -0.6429 -0.1701 -0.8486 1.6506 -7.7162 -4.3070 -2.8752 -7.8759 2.7269 2.3719 13.3183 -7.9028 -62.3666 -14.5776 6.0767 2.1330 -0.0109 -153.5226 65.1105 50.4553 36.8334 -16.6927 10.9400 15.6488 -62.1480 1.0879 1.1407 2.0062 15.3277 2.7138 42.0426 23.7173 -4.3730 3.2944 -3.0661 71.9740 -31.5219 -13.6192 17.6552 18.6045 6.5936 -14.8534 57.4113 -2.0074 -4.9248 -15.8893 -50.0446 59.9870 -4.7848 29.6627 -30.1994 -15.2787 38.8941 -31.6681 1.9347 -5.0883 -2.5453 15.3815 -41.0330 -88.6289 1.3726 34.4351 47.7917 20.8843 16.8799 20.5438 -1.8103 -7.3759 0.8702
-21.5799 14.7508 113.1935 129.4194 70.4165 118.3429 0.5629 -4.5369 -0.0366 0.6214 -5.9358 -1.1746 2.5710 6.2893 -0.9503 11.9741 10.1733 -1.2781 3.8136 -2.1424 -0.7531 26.5615 27.3020 19.7946 -0.6372 -0.1748 -0.8354 1.6470 -7.7422 -4.2974 -2.8602 -7.8894 2.7417 2.4190 13.3229 -7.8877 -62.3699 -14.3395 6.0271 2.1221 -0.0288 -153.2813 65.1053 50.5303 36.4150 -16.7215 10.9277 15.6667 -62.2151 1.0809 1.0603 2.1072 15.2756 2.6143 41.9796 23.5240 -4.0561 3.2396 -3.0993 71.1997 -31.2283 -13.3005 17.6992 18.6319 6.5293 -14.7974 57.3236 -2.0369 -4.8311 -15.8176 -49.9076 59.9495 -4.7532 29.7143 -30.1652 -15.0395 38.9002 -31.1653 1.9414 -5.0490 -2.5785 15.2018 -41.0438 -88.5142 1.4622 34.3588 47.6234 20.9067 17.3327 20.5007 -1.8068 -7.4848 0.8768
-21.5006 14.7837 113.2125 129.4967 70.5403 118.4158 0.5080 -4.5126 -0.0681 0.5890 -5.9416 -1.1782 2.7085 6.2140 -0.9000 12.0659 10.1978 -1.2884 3.7153 -2.1625 -0.8994 26.1829 27.4785 19.4984 -0.6301 -0.1770 -0.8226 1.6531 -7.7619 -4.2810 -2.8510 -7.8996 2.7487 2.4875 13.3432 -7.8542 -62.4661 -14.1876 6.1286 2.0823 -0.0079 -153.0746 65.1141 50.5123 36.0874 -16.7315 10.9107 15.6522 -62.2778 1.0574 0.9195 2.1414 15.2920 2.5185 41.9327 23.2135 -3.7079 3.2934 -3.1149 70.4161 -31.0846 -13.0168 17.9014 18.6701 6.4521 -14.7217 57.3117 -2.0349 -4.7169 -15.8258 -49.7374 60.1186 -4.7516 29.7389 -30.2273 -14.8249 38.9001 -30.6883 1.9712 -4.9798 -2.5938 14.8996 -41.0918 -88.2172 1.6158 34.2574 47.3505 20.8761 17.7167 20.4390 -1.8077 -7.4729 0.8803
-21.4959 14.8159 113.2717 129.6420 70.6913 118.5546 0.4651 -4.5079 -0.0936 0.5639 -5.9547 -1.1726 2.8418 6.1475 -0.8398 12.1420 10.2797 -1.3312 3.6317 -2.1802 -0.9958 25.7378 27.6036 19.2139 -0.6243 -0.1789 -0.8112 1.6588 -7.7873 -4.2713 -2.8442 -7.9225 2.7576 2.5406 13.3333 -7.8467 -62.6083 -14.0175 6.3760 2.0064 0.0447 -152.8919 65.2725 50.3904 35.9115 -16.7129 10.9539 15.6566 -62.4296 1.0368 0.7936 2.1784 15.3324 2.4068 41.8444 22.7703 -3.4587 3.5164 -3.0329 69.4705 -30.9871 -12.7561 18.3286 18.7585 6.3677 -14.7275 57.3471 -2.0536 -4.6584 -15.7810 -49.5638 60.2951 -4.7840 29.7506 -30.2948 -14.6291 38.7808 -30.2210 2.0045 -4.8644 -2.5961 14.6114 -41.1210 -87.8698 1.7368 34.1343 47.0580 20.8235 18.0827 20.3885 -1.8118 -7.3101 0.8784
-21.4873 14.8174 113.2932 129.8797 70.8960 118.8043 0.5207 -4.5282 -0.0927 0.4893 -5.9773 -1.1519 2.9511 6.1056 -0.7686 12.1999 10.4034 -1.4224 3.5637 -2.1904 -1.0424 25.2426 27.6865 18.9670 -0.6277 -0.1788 -0.8138 1.6419 -7.8079 -4.2684 -2.8352 -7.9551 2.7491 2.6407 13.2755 -7.8360 -62.8247 -13.7820 6.7252 1.8751 0.0369 -152.6602 65.5749 50.2632 35.8634 -16.6577 10.9556 15.6651 -62.4726 1.0176 0.7547 2.1360 15.3272 2.3065 41.9034 22.4381 -3.1804 3.6495 -2.8315 68.4923 -30.9624 -12.6362 18.9317 18.7728 6.2508 -14.7359 57.2914 -2.1261 -4.6161 -15.7608 -49.3284 60.6284 -4.8243 29.6768 -30.4568 -14.4925 38.6092 -29.7805 2.0451 -4.7763 -2.5855 14.1942 -41.0886 -87.3757 1.8484 33.8350 46.7226 20.7323 18.3892 20.3583 -1.8086 -7.1380 0.8795
-21.4456 14.8045 113.3911 130.2096 71.1220 119.2362 0.6251 -4.5490 -0.0942 0.4728 -6.0018 -1.1076 3.0486 6.0783 -0.6939 12.2410 10.4863 -1.4467 3.5070 -2.1914 -1.1478 25.0302 27.7629 18.8630 -0.6643 -0.1771 -0.8562 1.5851 -7.8276 -4.2957 -2.8544 -7.9740 2.7059 2.7457 13.1123 -7.7856 -63.0170 -13.4959 7.0662 1.7973 0.0341 -152.4579 66.0201 50.1456 36.1144 -16.6129 10.9792 15.7022 -62.5076 1.0201 0.8197 2.0174 15.2096 2.2339 42.0473 22.1735 -2.9670 3.7993 -2.6514 67.5293 -30.9603 -12.6320 19.6576 18.7952 6.1312 -14.7792 57.2543 -2.1378 -4.6909 -15.7391 -49.2018 61.0219 -4.8626 29.6947 -30.6663 -14.4960 38.2694 -29.6303 2.0760 -4.7687 -2.5535 13.7380 -41.0042 -86.6244 1.8935 33.5207 46.1257 20.6293 18.7286 20.4439 -1.8047 -7.1440 0.8808
-21.2871 14.8385 113.5596 130.4336 71.4678 119.5933 0.8474 -4.5635 -0.0871 0.4346 -5.9781 -1.0663 3.1449 6.1131 -0.5526 12.2101 10.4034 -1.4847 3.5044 -2.1976 -1.2275 25.2482 27.7092 18.8921 -0.7275 -0.1823 -0.9156 1.5191 -7.8965 -4.3412 -2.9161 -8.0049 2.6577 2.8084 12.8336 -7.7267 -63.1529 -13.0264 7.3430 1.7558 0.0701 -152.1457 66.5035 49.9395 36.2925 -16.7124 10.8762 15.7389 -62.4506 0.9540 1.0535 1.7690 15.0221 2.2298 42.2276 21.8032 -3.0309 4.1035 -2.3532 66.5015 -30.8407 -12.9340 20.5021 18.6661 6.0501 -14.7960 57.1665 -2.1117 -4.7613 -15.6503 -48.9749 61.5399 -4.9659 29.6124 -31.2894 -14.6914 37.6501 -29.7368 2.0531 -4.8240 -2.5201 13.3669 -40.7636 -85.9214 1.8985 33.0393 45.6591 20.6127 19.1353 20.7383 -1.7843 -7.3708 0.8884
