HIERARCHY
ROOT Hips
{
	OFFSET 0.0000 0.0000 0.0000
	CHANNELS 6 Xposition Yposition Zposition Zrotation Xrotation Yrotation
	JOINT Spine1
	{
		OFFSET -0.0137 5.0038 -0.0537
		CHANNELS 3 Zrotation Xrotation Yrotation
		JOINT Spine2
		{
			OFFSET -0.0000 7.1253 -0.0298
			CHANNELS 3 Zrotation Xrotation Yrotation
			JOINT Chest
			{
				OFFSET -0.0000 7.5501 -0.8160
				CHANNELS 3 Zrotation Xrotation Yrotation
				JOINT Neck1
				{
					OFFSET -0.1817 26.3113 -0.5533
					CHANNELS 3 Zrotation Xrotation Yrotation
					JOINT Neck2
					{
						OFFSET -0.0000 7.7094 2.3026
						CHANNELS 3 Zrotation Xrotation Yrotation
						JOINT Head
						{
							OFFSET -0.0000 6.1289 1.9537
							CHANNELS 3 Zrotation Xrotation Yrotation
							JOINT Jaw
							{
								OFFSET 0.0026 0.4756 3.0949
								CHANNELS 3 Zrotation Xrotation Yrotation
								End Site
								{
									OFFSET 0.0 1.0 0.0
								}
							}
							JOINT LeftEye
							{
								OFFSET 3.2064 5.3802 7.5869
								CHANNELS 3 Zrotation Xrotation Yrotation
								End Site
								{
									OFFSET 0.0 1.0 0.0
								}
							}
							JOINT RightEye
							{
								OFFSET -3.2224 5.3619 7.5582
								CHANNELS 3 Zrotation Xrotation Yrotation
								End Site
								{
									OFFSET 0.0 1.0 0.0
								}
							}
						}
					}
				}
				JOINT LeftShoulder
				{
					OFFSET 1.6217 23.2372 5.1134
					CHANNELS 3 Zrotation Xrotation Yrotation
					JOINT LeftArm
					{
						OFFSET 14.9198 0.0000 -5.5023
						CHANNELS 3 Zrotation Xrotation Yrotation
						JOINT LeftForeArm
						{
							OFFSET 28.7393 0.0000 -0.0026
							CHANNELS 3 Zrotation Xrotation Yrotation
							JOINT LeftHand
							{
								OFFSET 27.0940 -0.0000 0.0026
								CHANNELS 3 Zrotation Xrotation Yrotation
								JOINT LeftHandThumbEnd
								{
									OFFSET 12.2686 -3.2202 4.8331
									CHANNELS 3 Zrotation Xrotation Yrotation
									End Site
									{
										OFFSET 0.0 1.0 0.0
									}
								}
								JOINT LeftHandMiddleEnd
								{
									OFFSET 19.0120 -0.3129 -0.0340
									CHANNELS 3 Zrotation Xrotation Yrotation
									End Site
									{
										OFFSET 0.0 1.0 0.0
									}
								}
							}
						}
					}
				}
				JOINT RightShoulder
				{
					OFFSET -1.3801 23.1803 5.2142
					CHANNELS 3 Zrotation Xrotation Yrotation
					JOINT RightArm
					{
						OFFSET -15.0372 0.0000 -5.5456
						CHANNELS 3 Zrotation Xrotation Yrotation
						JOINT RightForeArm
						{
							OFFSET -28.7366 0.0000 -0.0026
							CHANNELS 3 Zrotation Xrotation Yrotation
							JOINT RightHand
							{
								OFFSET -27.1336 -0.0000 0.0026
								CHANNELS 3 Zrotation Xrotation Yrotation
								JOINT RightHandThumbEnd
								{
									OFFSET -12.2642 -3.2115 4.8040
									CHANNELS 3 Zrotation Xrotation Yrotation
									End Site
									{
										OFFSET 0.0 1.0 0.0
									}
								}
								JOINT RightHandMiddleEnd
								{
									OFFSET -19.0006 -0.3066 -0.0316
									CHANNELS 3 Zrotation Xrotation Yrotation
									End Site
									{
										OFFSET 0.0 1.0 0.0
									}
								}
							}
						}
					}
				}
			}
		}
	}
	JOINT LeftLeg
	{
		OFFSET 10.0432 -8.4345 2.5957
		CHANNELS 3 Zrotation Xrotation Yrotation
		JOINT LeftShin
		{
			OFFSET -0.0000 -43.2218 -0.8029
			CHANNELS 3 Zrotation Xrotation Yrotation
			JOINT LeftFoot
			{
				OFFSET 0.0000 -42.1551 -3.4815
				CHANNELS 3 Zrotation Xrotation Yrotation
				JOINT LeftToeBase
				{
					OFFSET 0.0000 -5.0595 13.2315
					CHANNELS 3 Zrotation Xrotation Yrotation
					End Site
					{
						OFFSET 0.0 1.0 0.0
					}
				}
			}
		}
	}
	JOINT RightLeg
	{
		OFFSET -10.0473 -8.2953 2.6203
		CHANNELS 3 Zrotation Xrotation Yrotation
		JOINT RightShin
		{
			OFFSET 0.0000 -43.3622 -0.8056
			CHANNELS 3 Zrotation Xrotation Yrotation
			JOINT RightFoot
			{
				OFFSET 0.0000 -42.1174 -3.4784
				CHANNELS 3 Zrotation Xrotation Yrotation
				JOINT RightToeBase
				{
					OFFSET -0.0000 -5.0796 13.2842
					CHANNELS 3 Zrotation Xrotation Yrotation
					End Site
					{
						OFFSET 0.0 1.0 0.0
					}
				}
			}
		}
	}
}
MOTION
Frames: 100
Frame Time: 0.033333
-6.2000 93.4169 0.1604 -0.5154 1.1271 0.3379 1.2773 8.0016 0.0094 -0.1216 -2.5880 -1.5490 0.8216 13.8745 -3.3173 -7.4758 24.0540 4.3717 0.5668 -3.8710 6.6230 -8.5640 -21.4177 11.0615 0.0539 -0.0061 -0.0794 0.7420 -10.4457 -3.9170 -0.6442 -10.4823 3.7679 -12.0498 15.5259 -6.8632 -59.1503 -2.4572 11.1118 0.3203 0.8403 -81.5681 -0.3771 37.0748 27.9457 -15.7720 10.2886 14.8027 -60.3940 1.4320 1.7602 12.1244 18.2909 3.8586 48.7897 10.4230 8.0132 0.5432 0.4555 89.0369 -1.9107 19.5933 -21.6231 15.2954 7.2327 -15.7707 50.3972 -3.3522 -5.2438 14.8391 -32.9954 25.9779 -0.6783 38.4658 -1.0124 -11.2349 -4.0907 -20.5984 1.7174 -1.4055 -1.8104 -10.7586 -15.5026 -16.1233 0.3871 34.6898 0.6875 12.0898 -22.7453 15.1701 -1.4491 0.5010 1.2035
-6.0476 93.5671 0.2475 -0.4904 1.4850 0.1990 1.2635 7.9701 -0.0550 -0.1185 -2.6391 -1.5014 0.8481 13.7384 -3.2616 -7.3367 23.6750 4.3740 0.5323 -3.8680 6.6888 -8.6891 -21.2014 11.2428 0.0488 -0.0159 -0.0870 0.7384 -10.4377 -3.9248 -0.6505 -10.4615 3.7606 -11.8520 15.4303 -6.8865 -59.0419 -2.2827 11.3941 0.1936 0.6548 -81.6184 -0.7184 36.5361 27.7966 -15.7289 10.3228 14.8609 -60.4871 1.3673 1.7271 12.3354 18.1634 3.8762 48.2824 10.7843 7.7988 0.6069 0.5322 89.1942 -1.4967 19.7230 -21.5779 15.2568 7.2256 -15.7005 50.3680 -3.2881 -5.1768 14.5721 -32.5268 26.0374 -0.6790 37.5081 -0.9448 -11.1818 -4.7379 -20.1864 1.7193 -0.7742 -1.7932 -10.6895 -15.6467 -16.0102 0.3568 34.2377 0.6508 12.1712 -22.5584 14.8533 -1.4515 0.4980 1.1820
-5.8188 93.6787 0.3586 -0.4160 1.9359 0.0904 1.1812 7.9172 -0.0762 -0.1578 -2.6840 -1.5160 0.9146 13.6277 -3.2151 -7.0546 23.3213 4.4372 0.4443 -3.9084 6.6645 -8.8094 -20.9803 11.4362 0.0477 -0.0140 -0.1003 0.7411 -10.4397 -3.9414 -0.6535 -10.4526 3.7479 -11.6299 15.4681 -7.0375 -58.9282 -2.1787 11.4354 0.3781 0.4995 -81.4979 -1.3735 35.7291 27.3177 -15.8755 10.3047 14.8427 -60.5450 1.2585 1.6760 12.5330 17.8916 3.9450 47.7370 11.0280 7.3573 0.9010 0.5734 89.4101 -1.3342 19.8195 -21.7202 15.2934 7.2219 -15.6294 50.4928 -3.2968 -5.1155 14.1183 -32.1011 26.1237 -0.6775 36.5420 -0.8868 -11.1191 -5.3215 -19.5453 1.6915 -0.3187 -1.8059 -10.7230 -15.9297 -15.8285 0.3867 33.8751 0.6719 12.2879 -22.3217 14.6112 -1.4547 0.4292 1.1072
-5.6330 93.7984 0.4517 -0.4780 2.3453 -0.0514 1.1094 7.9619 -0.1185 -0.1509 -2.6941 -1.5005 0.9620 13.5166 -3.2347 -6.7856 22.9641 4.5042 0.3936 -3.9107 6.8289 -9.0742 -20.8580 11.7986 0.0541 -0.0189 -0.1185 0.7438 -10.4427 -3.9632 -0.6428 -10.4520 3.7313 -11.3237 15.3373 -7.1382 -58.7575 -2.1845 11.7349 0.2819 0.5915 -81.4059 -2.2111 34.9938 26.8076 -15.9201 10.2442 14.8239 -60.4553 1.2103 1.6972 12.8301 17.6790 4.0487 47.1512 11.1307 6.8710 1.0393 0.7673 89.7805 -1.1733 19.8635 -21.6814 15.2538 7.2390 -15.5931 50.4260 -3.2881 -5.1046 13.8418 -32.0776 26.3583 -0.6392 36.0151 -0.8439 -11.2329 -5.6250 -19.3540 1.6865 -0.1158 -1.8067 -10.6400 -16.1057 -15.8647 0.3624 33.3152 0.6475 12.5539 -21.9909 14.6739 -1.4556 0.2973 1.0993
-5.5063 93.9046 0.5329 -0.6544 2.7183 -0.1834 1.0812 8.0693 -0.1344 -0.1522 -2.6713 -1.5258 1.0250 13.4564 -3.2566 -6.5443 22.6359 4.5874 0.3767 -3.9118 7.0852 -9.3762 -20.8255 12.2005 0.0587 -0.0196 -0.1296 0.7435 -10.4442 -3.9723 -0.6326 -10.4504 3.7152 -10.9673 15.3100 -7.2916 -58.6072 -2.4615 12.0778 0.1615 0.6231 -81.3649 -2.9026 34.6885 26.4469 -15.8996 10.2086 14.8202 -60.3648 1.1862 1.6977 13.0754 17.4779 4.1400 46.6802 11.1081 6.4789 1.0838 0.9207 90.1994 -1.0281 20.0047 -21.6783 15.2486 7.2742 -15.5834 50.4470 -3.3020 -5.0759 13.6971 -32.3028 26.6618 -0.6131 35.7841 -0.8139 -11.3262 -5.8398 -19.3934 1.6823 -0.0355 -1.7989 -10.4479 -16.2536 -16.0172 0.3546 32.8016 0.6296 12.8462 -21.6825 14.9473 -1.4570 0.1799 1.0889
-5.3974 93.9545 0.5776 -0.9141 3.0555 -0.3128 1.0807 8.2055 -0.1432 -0.1577 -2.6135 -1.5287 1.1070 13.3931 -3.3108 -6.3993 22.3503 4.6466 0.3929 -3.9212 7.4121 -9.6740 -20.8489 12.6161 0.0609 -0.0150 -0.1324 0.7399 -10.4347 -3.9726 -0.6240 -10.4384 3.7087 -10.6524 15.2409 -7.5024 -58.4346 -2.8131 12.4053 0.0851 0.7425 -81.2478 -3.6142 34.6619 26.1173 -15.8919 10.1808 14.8216 -60.2489 1.1744 1.6727 13.3084 17.2708 4.2195 46.3060 11.0416 6.1858 1.1051 1.1061 90.4685 -0.9135 20.1985 -21.5866 15.2635 7.3175 -15.6080 50.4734 -3.3072 -5.0806 13.6870 -32.6840 26.9265 -0.6049 35.8110 -0.8000 -11.3885 -6.0600 -19.5001 1.6793 0.0299 -1.7808 -10.1969 -16.3785 -16.2671 0.3618 32.3306 0.6258 13.1356 -21.3953 15.3686 -1.4618 0.0828 1.0901
-5.2778 93.9654 0.6565 -1.1916 3.3175 -0.4381 1.0745 8.3534 -0.1218 -0.1638 -2.5503 -1.5630 1.1574 13.3467 -3.3510 -6.3028 22.1713 4.7251 0.4095 -3.9319 7.7251 -9.9834 -20.9076 13.0170 0.0620 -0.0108 -0.1311 0.7375 -10.4347 -3.9702 -0.6196 -10.4407 3.7111 -10.4196 15.1936 -7.7482 -58.2138 -3.1944 12.6991 0.0796 0.8518 -81.1232 -4.2594 34.7176 25.8268 -15.8893 10.1692 14.8286 -60.2015 1.1990 1.6472 13.5539 17.1284 4.3404 46.0285 11.0235 5.9686 1.1309 1.2258 90.6221 -0.9525 20.4789 -21.4000 15.2774 7.3607 -15.6277 50.5009 -3.3016 -5.0679 13.7852 -33.1401 27.1408 -0.6184 36.0998 -0.7985 -11.3994 -6.3377 -19.6069 1.6779 0.0265 -1.7705 -9.9728 -16.4924 -16.5184 0.3695 32.0552 0.6096 13.3438 -21.2599 15.9131 -1.4652 -0.0490 1.0897
-5.1300 93.9255 0.7875 -1.4272 3.4697 -0.5478 1.0505 8.4667 -0.1236 -0.1845 -2.4723 -1.5583 1.1665 13.2991 -3.4108 -6.2356 22.1021 4.8002 0.4122 -3.9418 7.9695 -10.2326 -20.9397 13.3665 0.0591 -0.0033 -0.1239 0.7327 -10.4403 -3.9653 -0.6205 -10.4438 3.7205 -10.2537 15.1214 -7.9813 -58.0255 -3.5602 12.9468 0.0904 1.0087 -80.8992 -4.8506 34.8247 25.5257 -15.8653 10.1681 14.8410 -60.1436 1.2348 1.6819 13.7480 17.0213 4.4291 45.9076 11.1074 5.9731 1.1076 1.2924 90.5041 -0.9977 20.7850 -21.1077 15.2829 7.3830 -15.6089 50.4690 -3.2969 -5.0741 13.9467 -33.4996 27.2412 -0.6285 36.4967 -0.8049 -11.3716 -6.6471 -19.6350 1.6767 0.0135 -1.7590 -9.8473 -16.5262 -16.7735 0.3826 31.8994 0.6158 13.5089 -21.2479 16.3934 -1.4641 -0.1814 1.0843
-4.9683 93.8244 0.9707 -1.6511 3.4969 -0.6326 1.0214 8.5781 -0.0966 -0.2053 -2.4343 -1.5983 1.1331 13.3033 -3.4493 -6.2168 22.1376 4.8779 0.4240 -3.9342 8.1566 -10.4271 -20.9447 13.6249 0.0547 0.0069 -0.1111 0.7258 -10.4388 -3.9513 -0.6227 -10.4400 3.7358 -10.1797 15.0618 -8.1652 -57.8384 -3.8977 13.2189 0.1015 1.0134 -80.7490 -5.1980 35.1125 25.3629 -15.8737 10.1735 14.8598 -60.1678 1.2679 1.7003 13.9018 17.0015 4.4921 45.8822 11.2639 6.2013 1.0654 1.2983 90.1434 -1.0919 20.8602 -20.6735 15.2888 7.3968 -15.5980 50.4390 -3.2892 -5.0845 14.2154 -33.8348 27.2610 -0.6367 37.1661 -0.8127 -11.2772 -7.0905 -19.6654 1.6791 -0.0071 -1.7521 -9.8033 -16.4831 -16.9713 0.3911 31.9762 0.6191 13.6616 -21.4074 16.8572 -1.4645 -0.2972 1.0792
-4.7650 93.6792 1.2106 -1.8729 3.3882 -0.6704 0.9933 8.6752 -0.0939 -0.2165 -2.3963 -1.6415 1.0713 13.3071 -3.4854 -6.2746 22.2717 4.9304 0.4513 -3.9329 8.3215 -10.5323 -20.9746 13.7860 0.0514 0.0136 -0.1037 0.7170 -10.4476 -3.9431 -0.6203 -10.4452 3.7416 -10.1865 15.0251 -8.2488 -57.7324 -4.2186 13.5568 0.0856 0.9782 -80.6714 -5.3693 35.5017 25.2419 -15.9173 10.2118 14.9053 -60.2285 1.2946 1.7269 13.9332 17.0347 4.4629 46.0237 11.5026 6.6927 1.0010 1.2812 89.6044 -1.1732 20.7624 -20.1843 15.3060 7.4020 -15.5827 50.4444 -3.2684 -5.0998 14.5796 -34.1035 27.2278 -0.6464 38.0109 -0.8403 -11.1155 -7.6334 -19.7066 1.6801 -0.0512 -1.7387 -9.8199 -16.3246 -17.1545 0.4062 32.2097 0.6511 13.8113 -21.6779 17.2560 -1.4625 -0.3622 1.0827
-4.5136 93.4691 1.5657 -2.1039 3.1368 -0.7170 0.9674 8.7331 -0.0901 -0.2278 -2.3595 -1.6745 0.9877 13.3133 -3.5004 -6.3899 22.4851 4.9541 0.4718 -3.9240 8.4780 -10.5311 -21.0105 13.8398 0.0489 0.0177 -0.0997 0.7081 -10.4446 -3.9358 -0.6164 -10.4413 3.7429 -10.2767 15.0137 -8.2320 -57.7339 -4.5229 13.9696 0.0068 0.9203 -80.6346 -5.3541 35.9053 25.1269 -15.9781 10.2246 14.9108 -60.3028 1.3238 1.7361 13.8958 17.1349 4.3467 46.2693 11.7429 7.3902 0.9658 1.2351 88.8104 -1.3149 20.5903 -19.6644 15.3388 7.3881 -15.5749 50.4422 -3.2462 -5.0968 15.0772 -34.2844 27.1498 -0.6553 39.0691 -0.8660 -10.8905 -8.3071 -19.7923 1.6829 -0.1140 -1.7330 -9.9156 -16.0105 -17.2919 0.4188 32.5401 0.7037 14.0232 -22.0442 17.6352 -1.4622 -0.4011 1.1032
-4.2131 93.2151 2.0082 -2.3374 2.7492 -0.7843 0.9400 8.7632 -0.0798 -0.2394 -2.3266 -1.6794 0.8971 13.3215 -3.4904 -6.5347 22.7831 4.9962 0.5022 -3.9339 8.5660 -10.4373 -21.0089 13.7968 0.0447 0.0222 -0.0933 0.7003 -10.4478 -3.9283 -0.6172 -10.4468 3.7492 -10.4200 15.0133 -8.1029 -57.8494 -4.7907 14.4608 -0.1204 0.8793 -80.6463 -5.2474 36.1663 24.9305 -15.9954 10.2656 14.9421 -60.3485 1.3465 1.7146 13.7976 17.2676 4.1815 46.5995 11.9810 8.2176 0.9331 1.1816 87.7853 -1.4994 20.4494 -19.1357 15.3803 7.3668 -15.5714 50.4371 -3.2286 -5.0737 15.7291 -34.3324 26.9392 -0.6752 40.2865 -0.9061 -10.5973 -9.1117 -19.7687 1.6856 -0.1962 -1.7306 -10.1126 -15.5363 -17.3538 0.4290 32.9349 0.7410 14.2849 -22.4932 18.0425 -1.4635 -0.4370 1.1293
-3.8607 92.9357 2.5756 -2.5741 2.2828 -0.9355 0.9072 8.7640 -0.0337 -0.2420 -2.3185 -1.6541 0.8257 13.3302 -3.4510 -6.7310 23.1550 5.0411 0.5493 -3.9582 8.5909 -10.2181 -20.9421 13.6658 0.0434 0.0210 -0.0947 0.6984 -10.4691 -3.9300 -0.6182 -10.4676 3.7485 -10.6263 15.0452 -7.8509 -58.0774 -4.9874 14.9601 -0.2626 0.8563 -80.7504 -5.1421 36.3324 24.7025 -16.0051 10.3165 15.0136 -60.4369 1.3801 1.6452 13.6466 17.4473 4.0266 46.9774 12.2214 9.2010 0.8246 1.1044 86.4176 -1.8541 20.2249 -18.6225 15.4111 7.3495 -15.5846 50.4325 -3.2056 -5.0466 16.4747 -34.2122 26.5794 -0.7004 41.5787 -0.9506 -10.2185 -10.0617 -19.5658 1.6856 -0.2877 -1.7348 -10.3786 -14.9518 -17.3210 0.4337 33.3262 0.7581 14.5559 -22.9820 18.5324 -1.4649 -0.5063 1.1507
-3.4348 92.6715 3.2205 -2.8230 1.7664 -1.2522 0.8873 8.7335 0.0147 -0.2562 -2.3251 -1.5697 0.7749 13.3334 -3.3835 -7.0216 23.5251 5.1109 0.5804 -3.9826 8.6193 -9.8282 -20.7520 13.4679 0.0461 0.0207 -0.1099 0.7043 -10.4919 -3.9467 -0.6189 -10.4890 3.7339 -10.9385 15.0441 -7.4146 -58.3328 -5.0873 15.4793 -0.4099 0.8535 -80.9070 -5.2350 36.4532 24.4491 -15.9946 10.3707 15.1025 -60.5120 1.4225 1.5549 13.4480 17.6452 3.9758 47.4223 12.4264 10.2703 0.6745 0.9422 84.6603 -2.5445 19.9995 -18.2577 15.4377 7.3210 -15.5870 50.3587 -3.2022 -5.0030 17.3189 -33.8710 26.0474 -0.7154 42.8093 -0.9753 -9.8142 -11.1106 -19.1223 1.6822 -0.2655 -1.7430 -10.7071 -14.2665 -17.1174 0.4453 33.6045 0.7989 14.8356 -23.4325 18.9812 -1.4648 -0.5500 1.1614
-2.8867 92.4499 3.9014 -3.0628 1.3109 -1.7554 0.8804 8.6955 0.0747 -0.2626 -2.3547 -1.4525 0.6973 13.2928 -3.2841 -7.4367 23.7602 5.1675 0.6187 -3.9915 8.6937 -9.2890 -20.4103 13.3245 0.0492 0.0191 -0.1250 0.7135 -10.5154 -3.9653 -0.6221 -10.5071 3.7220 -11.2938 14.9911 -6.8584 -58.6183 -5.0749 16.0211 -0.5117 0.8788 -81.1058 -5.5527 36.4533 24.2744 -15.9544 10.4118 15.2074 -60.6089 1.4535 1.4576 13.1643 17.8405 4.0345 47.9616 12.5471 11.2233 0.6278 0.6817 82.7573 -3.5299 19.6323 -18.0062 15.4527 7.2928 -15.5787 50.2488 -3.2317 -4.9773 18.0964 -33.3508 25.4536 -0.7333 43.8585 -1.0025 -9.4530 -12.1577 -18.4392 1.6724 -0.1363 -1.7497 -11.0668 -13.5517 -16.7157 0.4668 33.6202 0.8566 15.0987 -23.7102 19.3556 -1.4631 -0.5382 1.1590
-2.2428 92.3708 4.5765 -3.2897 1.0513 -2.4341 0.8988 8.6807 0.1270 -0.2660 -2.3929 -1.2788 0.5680 13.1977 -3.2043 -7.9801 23.7438 5.2852 0.7164 -3.9806 8.7990 -8.6827 -19.9620 13.3196 0.0470 0.0116 -0.1238 0.7140 -10.5201 -3.9632 -0.6273 -10.5105 3.7241 -11.7030 14.8997 -6.3109 -58.8589 -5.0841 16.6559 -0.6057 0.9249 -81.2189 -5.8667 36.6277 24.3028 -15.9760 10.4191 15.2754 -60.6983 1.4692 1.3651 12.8340 17.9763 4.2131 48.5541 12.7737 12.0181 0.6287 0.4821 81.0746 -4.3059 18.8160 -17.6419 15.4703 7.2685 -15.5981 50.1668 -3.2896 -4.9859 18.6486 -32.6942 24.7799 -0.7225 44.5308 -1.0091 -9.2902 -13.0144 -17.4184 1.6623 0.0186 -1.7558 -11.3312 -12.8414 -15.9961 0.4786 33.1181 0.9147 15.3697 -23.6371 19.4413 -1.4590 -0.4284 1.1432
-1.5647 92.5223 5.1132 -3.5188 1.1144 -3.2522 0.9402 8.7104 0.1951 -0.2759 -2.4148 -1.0853 0.3957 13.0862 -3.1418 -8.5663 23.3265 5.4404 0.8289 -3.9449 9.0297 -8.0120 -19.4915 13.3691 0.0429 0.0030 -0.1115 0.7074 -10.5218 -3.9469 -0.6291 -10.5105 3.7344 -12.1611 14.7046 -5.9645 -58.9896 -5.2106 17.3722 -0.6450 0.9037 -81.1339 -6.0389 36.7960 24.5070 -16.0091 10.4554 15.3393 -60.8078 1.4239 1.3600 12.5666 18.0463 4.5072 48.9521 13.3188 12.7273 0.5378 0.3903 79.9689 -4.4236 17.3736 -17.1021 15.4442 7.2514 -15.6422 50.1637 -3.3718 -5.0090 18.8500 -32.0078 24.0283 -0.6933 44.6725 -0.9936 -9.2647 -13.4860 -15.9942 1.6530 0.0744 -1.7651 -11.3664 -12.1137 -14.7999 0.4581 31.8230 0.9391 15.7587 -23.0825 18.9857 -1.4545 -0.3179 1.1217
-0.8444 92.9703 5.4828 -3.6944 1.5652 -4.1710 0.9664 8.8274 0.2664 -0.2996 -2.3982 -0.8894 0.1454 12.8993 -3.1209 -9.1240 22.4238 5.6461 0.9298 -3.8984 9.3603 -7.1909 -19.0011 13.3515 0.0393 0.0010 -0.0982 0.7017 -10.5200 -3.9329 -0.6301 -10.5099 3.7481 -12.6463 14.3897 -5.9540 -58.9822 -5.4836 18.1296 -0.6104 0.8596 -80.7717 -6.2274 36.7809 24.7109 -15.9700 10.5113 15.3299 -60.8524 1.3480 1.4159 12.3051 18.0056 4.8815 49.2644 14.1097 13.4323 0.3769 0.3421 79.2203 -3.8852 15.6122 -16.4303 15.4024 7.2216 -15.6653 50.2288 -3.4104 -5.0770 18.5616 -31.2517 23.3269 -0.6425 43.9891 -0.9530 -9.4603 -13.5241 -14.1480 1.6484 0.1096 -1.7758 -11.2179 -11.3917 -13.0313 0.3936 29.6090 0.8957 16.3133 -21.9653 17.8921 -1.4571 -0.2652 1.0820
-0.1175 93.6425 5.6287 -3.7058 2.3607 -5.1297 0.8786 9.0923 0.3068 -0.3437 -2.2912 -0.7296 -0.2367 12.6551 -3.1539 -9.5542 21.1425 5.8702 0.9376 -3.8608 9.7755 -6.1795 -18.6462 13.1025 0.0303 0.0028 -0.0667 0.6957 -10.5034 -3.8992 -0.6418 -10.5033 3.7841 -12.9502 14.0075 -6.3534 -58.8258 -5.8247 18.8142 -0.4861 0.8120 -80.4223 -6.6363 37.0471 24.8329 -15.9276 10.5573 15.2885 -60.8202 1.3018 1.5740 11.9303 17.8608 5.2500 49.6510 14.7907 14.1741 0.2276 0.2113 78.5745 -3.2355 14.1352 -15.9077 15.4177 7.2242 -15.6545 50.3616 -3.3984 -5.1097 17.7194 -30.5669 22.8442 -0.5925 42.6603 -0.9228 -9.7156 -12.9532 -12.1242 1.6551 0.0742 -1.7995 -11.0524 -10.7899 -10.6712 0.2797 26.7477 0.7887 16.7963 -20.3867 16.2251 -1.4690 -0.3367 1.0392
0.5700 94.4629 5.5668 -3.4642 3.3471 -6.0287 0.5704 9.4889 0.2999 -0.4149 -2.0673 -0.6359 -0.7568 12.4297 -3.2918 -9.7819 20.0221 6.1282 0.9702 -3.8516 9.9651 -5.2037 -18.5610 12.6821 0.0146 0.0083 -0.0210 0.6880 -10.4718 -3.8488 -0.6638 -10.4832 3.8275 -12.6084 13.7067 -6.9091 -58.6679 -6.1832 19.2010 -0.2111 0.8073 -80.4961 -7.2447 37.5371 24.9322 -15.9373 10.5737 15.2292 -60.8436 1.3392 1.6841 11.2283 17.6655 5.3931 50.5471 15.1236 15.1571 -0.0338 0.0138 78.0567 -2.7200 13.0494 -15.5208 15.5167 7.2263 -15.6131 50.3547 -3.4657 -5.1325 16.4181 -30.1745 22.9854 -0.5927 41.0879 -0.9255 -9.8068 -11.6305 -10.6478 1.6794 -0.1514 -1.8508 -11.1232 -10.4985 -8.1253 0.1800 23.8239 0.6667 17.0164 -18.5303 14.4676 -1.4838 -0.5524 0.9873
1.1019 95.1622 5.3388 -3.0872 4.2654 -6.8959 0.0790 10.0912 0.2254 -0.4925 -1.8756 -0.7498 -1.3051 12.3422 -3.3224 -9.8899 19.7978 6.2130 0.9784 -3.7508 10.0862 -4.3089 -18.6441 11.9988 -0.0210 0.0272 0.0609 0.6624 -10.4369 -3.7619 -0.7095 -10.4511 3.9150 -11.5354 13.5214 -7.5673 -58.4613 -6.5532 19.6574 0.0152 0.8396 -81.2896 -7.7126 37.5201 25.2672 -15.9938 10.6108 15.2759 -60.9536 1.4025 1.7668 10.1599 17.4063 5.1612 51.9548 15.3207 16.4841 -0.4884 0.0358 78.0638 -1.9108 11.1321 -15.0350 15.6119 7.3305 -15.6557 50.4652 -3.5938 -5.1114 15.0612 -30.2230 23.9989 -0.6270 39.8679 -0.8970 -9.6409 -10.1990 -10.4609 1.7008 -0.5703 -1.9143 -11.4916 -10.8795 -5.6915 0.1205 22.1693 0.5700 17.0741 -16.8524 13.0687 -1.5093 -1.0677 0.9446
1.4136 95.5687 5.0459 -2.7917 4.8740 -7.5750 -0.4014 10.8097 0.0743 -0.6008 -1.6597 -0.8841 -1.7361 12.4849 -3.5439 -9.9987 20.6701 6.2153 1.0266 -3.7855 9.7658 -3.3324 -18.5478 11.0047 -0.0434 0.0330 0.0964 0.6364 -10.3936 -3.7191 -0.7270 -10.4213 3.9431 -10.5601 13.5273 -8.3763 -57.2693 -7.3358 20.1935 0.1444 0.9178 -82.2119 -8.2084 37.2297 25.0538 -15.9764 10.7909 15.3848 -61.1513 1.4890 1.7779 9.1204 17.2265 4.7411 53.4093 14.8914 17.8085 -0.5918 0.1506 78.0937 -1.1548 9.2440 -14.4466 15.7457 7.4031 -15.7882 50.4506 -3.7159 -5.0204 14.0350 -30.3928 25.2945 -0.6428 38.9621 -0.8597 -9.3907 -9.5060 -10.8868 1.7020 -0.5586 -1.9009 -11.8451 -11.8511 -3.7423 0.1079 22.3501 0.5838 17.1687 -16.0101 12.1142 -1.5201 -1.3626 0.9711
1.5248 95.8516 4.6315 -2.5875 5.2355 -8.3938 -0.7676 11.5737 -0.0704 -0.6942 -1.3519 -0.9664 -2.1863 12.9137 -3.8973 -10.2290 22.4421 6.3678 1.0181 -3.7521 9.1608 -2.3454 -18.1805 9.8534 -0.0743 0.0271 0.1240 0.5932 -10.3726 -3.6853 -0.7474 -10.3998 3.9728 -10.4780 13.5716 -9.5881 -54.6304 -8.9128 21.2984 0.1654 0.8611 -82.7358 -9.4383 36.0750 23.4036 -15.8339 10.8699 15.5018 -61.1419 1.5287 1.9251 8.2572 17.1523 4.4019 54.4878 13.8159 19.4806 -0.4346 0.3929 77.5000 -0.5290 8.8077 -14.4509 15.8541 7.3525 -15.7714 50.3303 -3.7157 -4.8308 13.3383 -30.3042 26.4354 -0.6146 37.9281 -0.8254 -9.2643 -9.1158 -11.1325 1.6823 -0.3613 -1.8206 -12.1091 -13.8216 -2.0584 0.1567 24.8305 0.8455 16.9518 -15.2788 11.8206 -1.5212 -1.5863 1.0082
1.5014 96.0752 4.1280 -2.2634 5.2723 -9.0952 -1.0726 12.4257 -0.2731 -0.7502 -1.0607 -1.0717 -2.6315 13.8459 -4.2616 -10.3356 25.0185 6.5638 0.8091 -3.7311 8.1107 -1.5253 -17.2279 8.6314 -0.1092 -0.0038 0.1466 0.5274 -10.3816 -3.6659 -0.7518 -10.4248 4.0069 -11.2192 13.6664 -11.2687 -50.9946 -11.5156 23.2964 0.0895 0.8737 -82.5890 -11.0211 32.9766 20.8216 -15.6621 10.8386 15.5802 -60.9235 1.5812 1.9374 7.3211 17.2076 4.1373 55.0811 12.0071 21.9424 -0.1964 0.6968 76.0897 -0.4546 9.9110 -15.3257 15.8142 7.2859 -15.7436 50.2342 -3.8312 -4.6985 12.9541 -29.8528 26.9660 -0.5957 36.8432 -0.8002 -9.2462 -8.3113 -11.1369 1.6715 -0.3034 -1.8189 -12.5577 -16.4817 -0.8541 0.2286 29.0628 1.0089 17.4524 -14.8811 12.5242 -1.5256 -1.8816 1.0347
1.4151 96.3547 3.5730 -1.8020 4.9825 -9.7023 -1.0660 13.4307 -0.4793 -0.7488 -0.7622 -1.2050 -3.1247 15.0680 -4.4994 -10.6850 28.7667 6.6225 0.5730 -3.7867 6.6061 -0.7454 -14.7773 6.8539 -0.1533 -0.0477 0.1586 0.4733 -10.5308 -3.6659 -0.7848 -10.5983 4.0426 -11.7843 13.6857 -12.9948 -47.9382 -14.0883 26.0712 0.1992 0.7594 -82.1732 -12.3670 30.2502 18.0358 -15.5591 10.8308 15.6938 -60.7645 1.5723 1.8948 5.7859 17.3567 3.8265 55.1926 9.7285 24.8411 0.3174 0.5897 74.8023 -0.8192 11.4341 -16.7981 15.7587 7.2614 -15.8188 50.1556 -4.0105 -4.8311 12.7635 -28.9390 27.1254 -0.5870 35.4649 -0.7558 -9.3391 -6.9495 -11.1409 1.6822 -0.4025 -1.8675 -12.9936 -19.3385 -0.2316 0.2973 33.7484 1.0479 18.8327 -13.4312 14.8320 -1.5408 -2.8429 1.0744
1.1925 96.6544 3.1428 -1.1319 4.6976 -10.3361 -0.8524 14.2528 -0.5676 -0.7542 -0.3603 -1.1326 -3.3484 16.2283 -4.8608 -11.3961 34.0170 6.5274 0.1165 -3.7708 4.9320 -0.3251 -11.1870 4.5307 -0.2002 -0.0838 0.1386 0.4604 -10.7396 -3.7007 -0.8663 -10.8140 4.0509 -11.6584 13.5245 -13.6773 -46.0139 -15.8701 28.5102 0.1518 0.5219 -81.4188 -13.3287 28.9130 15.1972 -15.5556 10.7394 15.5970 -60.7977 1.6738 1.9595 3.5081 17.2144 3.7217 55.1525 8.3858 27.5917 0.2721 0.6426 74.7989 0.1777 11.7356 -17.4420 15.9859 7.2303 -15.9782 50.0090 -4.2314 -4.8152 12.3646 -27.5269 27.3716 -0.6522 33.5178 -0.8753 -10.0626 -5.9429 -10.9816 1.6691 -0.3789 -1.8137 -13.5638 -21.6051 0.0104 0.4195 37.0802 1.3321 20.6639 -11.8325 17.7492 -1.5189 -2.8903 1.0774
0.8849 96.8680 2.6775 -0.1467 4.3694 -10.9181 -0.5688 15.1364 -0.6816 -0.7204 -0.0601 -1.0505 -3.2354 17.6500 -4.9023 -12.3481 40.0687 5.6331 -0.3287 -3.7558 2.9988 -0.0410 -7.8937 2.2410 -0.2662 -0.1228 0.1169 0.4264 -10.7343 -3.6615 -0.9632 -10.8240 3.9889 -10.9551 13.6290 -13.6758 -44.7342 -16.5563 29.5277 0.4563 0.3337 -79.9711 -13.9724 27.3638 12.3225 -15.6223 10.6843 15.5694 -60.7856 1.7058 1.9412 1.7277 17.0603 4.2873 53.6310 7.7527 28.4543 0.3788 0.4308 76.5961 2.0626 10.7887 -17.9769 16.1166 7.2993 -16.0705 50.1960 -4.3039 -4.7846 11.7739 -25.9632 27.6071 -0.6229 31.6269 -0.8072 -10.8045 -4.8383 -10.8144 1.6704 -0.5852 -1.7902 -14.1482 -23.4179 -0.0522 0.5391 38.8761 1.4594 22.1667 -10.9730 20.7695 -1.4733 -2.8801 1.0869
0.3994 97.0694 2.1938 1.1061 3.9968 -11.1561 -0.1923 16.1273 -0.7660 -0.6243 0.2471 -0.9761 -2.7400 19.3182 -4.6793 -13.2641 45.8904 3.7868 -0.6002 -3.7425 1.3059 0.1622 -5.6510 0.2769 -0.3109 -0.1545 0.0747 0.3957 -10.6704 -3.6465 -1.0208 -10.7577 3.9070 -9.5767 13.9373 -13.0544 -44.1171 -16.4098 28.7626 0.8280 0.2317 -77.7028 -14.2751 25.9538 9.4135 -15.6397 10.6248 15.4963 -60.7435 1.8382 1.7899 0.8217 16.9151 5.5173 50.6732 7.8236 27.6685 0.4224 0.2507 79.1120 4.1225 9.1390 -18.4600 16.2366 7.3509 -16.1109 50.4387 -4.3364 -4.7336 10.9850 -24.3355 27.7842 -0.5866 29.7235 -0.7272 -11.4820 -3.6249 -10.9317 1.6749 -1.0898 -1.7886 -14.6546 -24.7289 -0.4122 0.5979 39.7872 1.4521 22.2174 -10.6838 22.7132 -1.4273 -3.0332 1.0676
-0.2511 97.1968 1.6360 2.5538 3.6767 -11.0290 0.3141 17.1790 -0.8263 -0.4637 0.6456 -0.9143 -1.8829 21.1834 -4.1858 -13.8974 50.9735 1.2747 -0.5977 -3.7574 -0.0997 0.7190 -3.9987 -1.3885 -0.3046 -0.1735 0.0273 0.4172 -10.5835 -3.6577 -1.0287 -10.6552 3.8302 -7.9450 14.2044 -12.0969 -43.7767 -16.0338 26.6637 1.0122 0.0788 -75.2362 -14.1503 24.3102 6.4887 -15.5894 10.4685 15.3270 -60.4112 1.9808 1.6229 0.6666 16.8186 7.2394 46.5546 7.9879 25.7036 0.2682 0.2004 81.1216 6.0868 7.9631 -18.8377 16.2952 7.3799 -16.0989 50.5193 -4.3794 -4.6907 10.0614 -22.8025 27.9102 -0.5690 27.8234 -0.6568 -12.1102 -2.5600 -11.4839 1.6744 -1.6075 -1.7906 -15.1937 -25.4210 -0.4068 0.6189 40.0470 1.3777 20.1391 -10.5801 23.0056 -1.4034 -3.5613 1.0401
-1.1123 97.0720 0.9454 4.2042 3.4633 -10.4614 1.0184 18.1929 -0.8995 -0.1746 1.0874 -0.9711 -0.7095 23.3358 -3.2623 -13.4119 55.2819 -1.4168 -0.4407 -3.8208 -1.3200 1.6360 -2.6035 -2.7320 -0.2465 -0.2104 0.0015 0.4747 -10.3782 -3.6110 -0.9678 -10.4457 3.7280 -6.4790 14.4521 -11.2586 -43.2939 -15.8846 23.6363 1.1868 -0.3831 -73.2352 -13.3498 21.8228 3.7043 -15.5567 10.2932 15.1947 -60.1047 1.9636 1.4612 1.1928 16.6838 9.4296 41.4086 7.7363 22.3984 0.0575 0.1595 82.0264 7.7934 7.2990 -18.8474 16.4138 7.5317 -16.1894 50.8215 -4.3538 -4.7051 9.0227 -21.6826 27.7150 -0.5293 26.4481 -0.6021 -12.7086 -1.9528 -12.3439 1.6733 -1.9663 -1.8266 -15.9107 -25.5825 0.5285 0.6315 40.3258 1.1254 14.4002 -10.9225 20.9147 -1.4564 -4.8160 1.0563
-2.1457 96.6678 0.1286 6.2897 3.4630 -9.8220 1.6648 19.1999 -0.9198 0.1433 1.5864 -0.9909 0.5591 25.4194 -2.4314 -12.5803 58.1087 -3.4923 0.2274 -3.8022 -2.1148 2.6890 -2.3831 -3.8908 -0.1765 -0.2094 0.0084 0.5301 -10.2337 -3.6111 -0.8818 -10.2870 3.7343 -5.2326 14.4359 -10.4434 -42.8703 -16.0306 21.1154 1.2022 -1.0141 -72.2436 -11.6450 19.1732 0.6831 -15.6566 9.9969 14.9133 -59.8685 1.8089 1.3972 1.8714 16.3769 11.8849 35.7683 6.8486 18.7309 -0.4937 0.4285 81.3054 9.3420 6.3817 -18.0309 16.2952 7.5228 -16.1619 50.5688 -4.3312 -4.6874 7.6019 -20.8760 27.5914 -0.5667 25.5334 -0.6366 -13.5226 -1.6467 -13.3184 1.6693 -2.2475 -1.7923 -17.4469 -25.8728 2.9053 0.6173 41.9263 1.0697 9.7034 -13.0846 18.5227 -1.5020 -4.8319 1.1760
-3.3395 96.0020 -0.7966 8.5604 3.8270 -9.3437 2.2805 20.1365 -0.9412 0.5121 2.0950 -1.0005 1.8840 27.5303 -1.5598 -10.8372 59.6997 -4.6566 1.0883 -3.7855 -2.7532 3.7066 -2.9384 -4.8995 -0.1285 -0.1975 0.0320 0.5300 -10.1349 -3.6197 -0.7846 -10.1678 3.7890 -4.3317 14.3247 -9.8756 -42.3421 -16.1250 19.4792 1.3701 -1.6772 -72.1710 -8.7213 15.7185 -2.2030 -15.8650 9.7760 14.6294 -59.7345 1.5695 1.3772 2.6878 15.8534 14.5734 29.5222 4.7867 14.5492 -0.9184 0.4556 78.9844 10.3884 5.3211 -16.8212 16.1034 7.5120 -16.1373 50.4193 -4.2551 -4.6381 5.9798 -20.6736 27.5321 -0.5932 25.2358 -0.6421 -14.5233 -1.6630 -13.9996 1.6728 -2.4974 -1.7266 -19.4201 -27.1512 5.8906 0.6582 44.9245 1.1532 6.3568 -15.3700 16.6239 -1.5165 -4.7727 1.3108
-4.6443 95.1261 -1.7939 10.8786 4.5926 -9.2269 2.7641 21.0122 -1.0421 0.8735 2.6724 -0.9428 3.1533 29.4988 -0.7520 -8.5854 60.1222 -5.0111 2.1260 -3.7654 -3.2455 4.4550 -4.1916 -5.7525 -0.0825 -0.1810 0.0618 0.5031 -10.1284 -3.6458 -0.6638 -10.1258 3.8702 -3.7151 14.0963 -9.4087 -41.7077 -15.7124 18.8379 1.7084 -2.1502 -72.4966 -5.1407 11.8161 -5.1159 -15.9893 9.6165 14.4006 -59.5688 1.3137 1.3256 3.2715 15.1492 17.4027 23.2599 1.4490 10.3375 -0.9605 0.3860 75.2243 11.0279 4.3130 -15.5139 15.7498 7.4528 -16.0364 50.1743 -4.1977 -4.6057 4.3180 -21.0929 27.6204 -0.6245 25.5036 -0.6411 -15.6357 -1.7791 -14.3963 1.6825 -2.8036 -1.6887 -21.6777 -29.5220 8.9148 0.8096 48.9785 1.4038 3.7127 -17.1848 15.5274 -1.5179 -5.0079 1.4093
-6.0598 94.0589 -2.7645 13.1754 5.7286 -9.4543 3.0803 21.8486 -1.2519 1.1514 3.2596 -0.8486 4.2850 31.2067 -0.0124 -6.3248 59.8151 -5.0470 3.1845 -3.7194 -3.5574 4.9275 -5.8347 -6.3700 -0.0422 -0.1624 0.0842 0.4528 -10.2055 -3.6917 -0.5312 -10.1589 3.9495 -3.3330 13.8756 -8.9977 -41.0497 -14.7091 19.1285 1.9022 -2.3368 -72.7392 -1.3038 8.0335 -8.2125 -16.1047 9.4713 14.2067 -59.4943 1.1224 1.2369 3.4927 14.5106 20.1769 17.4281 -2.5721 6.7312 -0.8136 0.3566 70.4380 11.5596 3.5543 -14.3511 15.3293 7.4133 -15.8766 50.0054 -4.0650 -4.5145 2.7681 -22.1615 27.9680 -0.6816 26.4455 -0.6798 -16.9461 -1.9002 -14.8606 1.6938 -3.2322 -1.6825 -24.0865 -32.5236 11.8205 1.0769 53.3163 1.7615 1.3084 -18.7691 15.0206 -1.5146 -5.3553 1.4604
-7.6745 92.8512 -3.6399 15.4934 7.1927 -10.0636 3.2274 22.5992 -1.5146 1.3661 3.8604 -0.7272 5.1190 32.7353 0.5981 -4.4211 59.1872 -5.1417 3.9917 -3.6264 -3.8717 5.5187 -7.4384 -6.5495 0.0177 -0.1304 0.1164 0.4051 -10.3547 -3.7364 -0.3574 -10.2423 4.0319 -3.2978 13.6793 -8.7391 -40.5486 -13.2457 20.0139 1.6828 -2.2109 -72.7538 2.7047 4.4437 -11.4629 -16.0991 9.3829 14.0791 -59.3799 1.0204 1.0542 3.2345 13.9086 22.7142 12.2114 -6.0781 3.8650 -0.7753 0.4603 65.5450 12.6960 2.7609 -13.4305 14.9428 7.4174 -15.7181 49.7909 -3.8938 -4.4511 1.3878 -23.9114 28.5753 -0.7362 28.4002 -0.7657 -18.4700 -1.7621 -15.8178 1.7322 -4.0647 -1.6422 -26.6466 -35.8807 14.7655 1.4087 57.6036 2.1652 -0.9174 -20.5257 14.7243 -1.5193 -5.5327 1.5436
-9.5240 91.3546 -4.4090 17.6648 8.9866 -10.9949 3.1812 23.1685 -1.8039 1.5187 4.4862 -0.6472 5.6692 33.9345 1.2285 -3.0072 58.6176 -5.5678 4.9112 -3.5748 -3.6727 5.7858 -8.8908 -6.2140 0.0632 -0.1092 0.1431 0.3648 -10.4835 -3.7557 -0.2225 -10.2951 4.0793 -3.5622 13.6105 -8.4455 -40.4075 -11.2874 20.7327 1.3907 -2.2327 -72.8056 6.6816 1.2643 -14.7602 -16.2808 9.2951 14.0005 -59.5665 0.9353 0.9307 2.7523 13.6501 24.8736 7.3002 -8.8984 1.8711 -0.5105 0.3483 60.7287 14.8755 1.2875 -12.0849 14.6571 7.5481 -15.6243 50.0164 -3.7165 -4.2510 0.3334 -26.3509 29.4052 -0.8293 31.3353 -0.9077 -19.7964 -1.5291 -17.1368 1.7315 -5.2426 -1.6183 -29.1304 -39.5608 17.4625 1.8644 61.6897 2.6481 -3.1278 -22.5588 14.7497 -1.5156 -5.3607 1.5576
-11.6369 89.5501 -4.9657 19.6746 11.0655 -12.2570 2.9742 23.6181 -2.0639 1.5974 5.0391 -0.5391 5.9647 34.9608 1.8148 -1.9349 58.0100 -6.1215 5.5637 -3.5231 -3.1776 5.9625 -9.9078 -5.3462 0.0810 -0.0838 0.1550 0.3363 -10.6088 -3.7686 -0.1575 -10.3394 4.0990 -4.2695 13.6737 -8.1865 -40.8198 -9.1018 21.1287 1.1321 -2.1974 -73.2096 10.7533 -1.9716 -18.3209 -16.3846 9.2682 13.9411 -59.9077 0.8500 0.7592 2.1348 13.5059 26.9287 2.7849 -11.3171 0.1170 0.1151 0.1660 56.2043 17.8663 -0.9923 -10.3612 14.5198 7.7315 -15.6435 50.4032 -3.5026 -4.1485 -0.3361 -29.3286 30.4037 -0.9488 35.1137 -1.1300 -21.0127 -1.3483 -18.7844 1.7277 -6.6826 -1.6113 -31.5409 -43.8049 20.0044 2.4063 65.9985 3.1860 -5.4918 -24.8031 15.2094 -1.5112 -4.9500 1.5685
-13.9164 87.5021 -5.4037 21.5775 13.2294 -13.6038 2.6782 23.9436 -2.1945 1.7129 5.5400 -0.4890 5.9625 35.7713 2.1613 -1.0023 57.5632 -6.6235 6.0317 -3.4541 -2.4046 5.8952 -10.5098 -4.0555 0.1187 -0.0605 0.1903 0.3676 -10.7811 -3.7696 -0.1128 -10.4642 4.1448 -5.3029 13.7844 -7.9206 -42.0285 -6.8086 20.9688 1.0071 -2.1879 -74.1166 14.6888 -4.5132 -22.0786 -16.2902 9.3841 13.9541 -60.3934 0.8203 0.6578 1.3951 13.4265 28.9860 -0.9263 -14.0755 -1.7119 1.0594 0.0935 51.9987 20.8698 -3.4249 -8.1566 14.4995 7.8991 -15.7278 50.7124 -3.3507 -4.1195 -0.6414 -32.3229 31.4341 -1.0390 39.0779 -1.3747 -21.9809 -1.1027 -20.5677 1.7285 -8.2663 -1.6133 -33.7933 -48.3309 22.2955 3.2141 70.4480 4.0116 -8.1571 -26.8470 15.9808 -1.5040 -4.6035 1.5969
-16.3190 85.1476 -5.7043 23.3769 15.2017 -14.8384 2.5457 24.0312 -2.3504 1.6141 5.8983 -0.4657 5.9467 36.7027 2.5697 0.0677 56.7352 -7.3396 6.0283 -3.3383 -1.5136 5.6366 -10.7769 -2.4893 0.0778 -0.0468 0.1565 0.3374 -10.8526 -3.7904 -0.1653 -10.4938 4.0989 -6.8063 14.5309 -8.1033 -43.9077 -4.5681 19.3380 2.0255 -0.9786 -75.4385 19.0851 -7.6700 -25.5233 -16.6428 9.4406 13.8397 -61.4718 0.8613 0.2652 0.9748 13.5033 30.4490 -4.2354 -17.2556 -3.3958 2.0185 -0.3481 48.7354 23.0430 -6.0158 -6.6169 14.4749 8.0913 -15.6749 51.1084 -3.2309 -4.0907 -0.3682 -35.2150 32.1703 -1.2520 42.8701 -1.6883 -22.8728 -1.0191 -22.6628 1.7402 -9.6689 -1.6473 -36.3242 -53.0575 25.0002 4.6179 75.9494 5.3363 -11.0601 -28.8513 16.9314 -1.5213 -4.5542 1.6069
-18.9085 82.5087 -5.9500 25.3457 16.7944 -15.4573 2.3292 23.9923 -2.5272 1.6785 6.2077 -0.4747 5.6937 37.3608 2.5039 1.5788 56.0452 -7.3996 5.9395 -3.1726 -0.5425 5.1876 -10.8899 -1.0383 0.1200 -0.0375 0.1940 0.3838 -10.9279 -3.7503 -0.1256 -10.5881 4.1058 -8.4270 14.9523 -8.3438 -46.1081 -2.6044 16.8151 2.8616 -0.2063 -76.6905 22.6965 -9.2938 -29.1167 -16.5259 9.5954 13.9113 -62.2436 0.9258 0.1187 0.6291 13.4736 31.9044 -6.3115 -20.9590 -5.2926 2.6676 -0.3410 46.2859 25.1799 -8.2983 -5.1737 14.5837 8.2974 -15.8166 51.4805 -3.1525 -4.0952 0.0695 -37.5497 32.9743 -1.4933 46.0200 -2.1421 -23.5722 -0.6781 -24.6650 1.7425 -10.8122 -1.6486 -38.6067 -57.4998 27.1164 7.6445 81.3489 8.2840 -14.3064 -30.7120 17.7280 -1.5350 -4.7176 1.6521
-21.6896 79.4892 -6.2191 27.6087 17.6534 -15.3961 2.2473 23.8547 -2.7211 1.6820 6.3603 -0.5602 5.4231 37.9176 2.2900 3.5980 55.2070 -7.0956 5.7047 -2.9694 0.2299 4.6855 -10.9496 0.1146 0.1085 -0.0245 0.1803 0.3937 -10.8463 -3.7278 -0.1604 -10.5679 4.0498 -10.2706 15.6707 -8.8848 -47.9171 -1.6133 13.1067 3.6718 0.8601 -77.4792 25.4958 -10.2580 -31.7954 -16.4623 9.6602 14.0133 -62.7976 0.9921 0.0348 0.7917 13.3112 32.6574 -7.5778 -25.0818 -7.1037 3.1348 -0.4992 45.2156 26.4557 -10.4713 -4.6795 14.4761 8.4562 -15.8468 51.8084 -3.0614 -4.1449 0.8857 -39.4202 33.5352 -1.8413 48.6307 -2.7206 -24.6362 -0.1889 -27.0244 1.7713 -11.6788 -1.7054 -41.0767 -61.5702 29.2267 25.1582 87.4474 25.6620 -17.6245 -32.3858 18.2032 -1.5738 -5.2904 1.7143
-24.7940 76.0619 -6.6345 30.3302 17.2431 -14.5049 2.3143 23.6736 -3.0484 1.6498 6.4289 -0.7617 5.2090 38.3673 1.9309 6.2144 54.4117 -6.2163 5.3756 -2.7717 0.5915 4.4774 -11.2781 0.7359 0.0744 0.0020 0.1372 0.3424 -10.5872 -3.6994 -0.1800 -10.3769 3.9424 -12.0587 16.5347 -9.6223 -48.8958 -1.5965 8.7665 4.0734 2.0524 -77.5724 27.0474 -10.6659 -32.4821 -16.4430 9.6358 14.0245 -63.0681 1.0240 -0.1553 1.5288 12.8534 32.7318 -7.9509 -28.9892 -9.0265 3.2049 -0.8657 45.6657 26.7965 -12.2754 -4.9803 14.2982 8.5290 -15.8388 52.2974 -2.9548 -4.2203 2.0312 -40.6660 33.7139 -2.3496 50.6985 -3.5242 -26.0729 0.9083 -30.0881 1.7967 -12.3284 -1.7494 -43.4610 -64.7783 30.5692 168.7803 85.3527 169.0635 -20.8466 -34.1165 18.3954 -1.6361 -6.2273 1.7998
-28.3431 72.2153 -7.2355 33.5113 15.3683 -12.8347 2.4289 23.4956 -3.3818 1.7758 6.3841 -1.0129 5.0588 38.5358 1.3553 9.5236 54.1292 -4.4059 5.3196 -2.5909 0.4441 4.7563 -12.0169 0.8620 0.1181 0.0344 0.1731 0.3621 -10.3315 -3.6256 -0.1157 -10.1878 3.9305 -13.3279 17.4535 -10.2398 -49.2595 -2.1813 4.2123 4.0005 2.5559 -76.7802 26.6285 -10.2402 -31.4118 -16.4533 9.5528 13.9666 -62.7745 1.1122 -0.0698 2.9336 11.9588 32.3002 -6.9122 -33.5034 -11.3062 3.1336 -1.0010 47.3157 25.4798 -13.9044 -5.1991 14.2259 8.5664 -15.9667 52.7160 -2.7371 -4.4061 3.4012 -41.3378 33.6996 -3.0420 52.4877 -4.5293 -27.3351 2.7644 -33.9444 1.8407 -13.3527 -1.7762 -44.8249 -66.8696 30.0574 176.6904 78.4520 176.6627 -24.1232 -35.8012 18.0605 -1.7010 -7.8561 1.9510
-32.2750 67.8628 -8.0386 36.9766 12.1580 -10.6963 2.4385 23.1744 -3.8638 1.7073 6.3372 -1.2362 5.3659 38.5825 0.8380 13.2369 53.6493 -1.9987 5.4754 -2.3961 0.1366 5.0887 -13.0234 -0.0169 0.1298 0.0817 0.1994 0.3008 -10.0322 -3.5577 -0.0319 -9.9397 3.9150 -14.3427 18.2978 -10.7685 -48.7755 -2.8190 0.0696 3.3584 2.1366 -75.3498 25.0777 -9.3870 -29.5407 -16.4511 9.4635 13.9716 -62.6105 1.1107 0.0471 4.7288 10.9524 31.5409 -3.6869 -38.6816 -14.6366 2.5773 -0.9206 50.7439 20.5742 -18.3725 -5.1929 14.2020 8.4773 -16.0443 53.4953 -2.5820 -4.7768 4.8758 -41.9369 32.8621 -4.0158 54.3913 -5.7059 -28.1312 6.1156 -35.9990 1.8690 -12.6747 -1.8039 -45.1120 -68.0782 27.8094 179.5485 71.2985 178.9733 -27.1917 -37.3702 17.0592 -1.7733 -10.0570 2.0107
-36.6055 63.2419 -9.0178 40.2218 7.9713 -8.5866 2.4439 22.8688 -4.3242 1.6021 6.2526 -1.4395 5.6947 38.5326 0.2995 17.0758 52.8083 0.8479 5.6864 -2.1833 -0.4910 5.7311 -14.0351 -1.3820 0.1390 0.1208 0.2329 0.2493 -9.7604 -3.4887 0.0368 -9.6917 3.9143 -15.0343 19.3107 -11.0136 -47.8199 -3.6992 -3.5056 2.1437 0.8494 -73.4625 22.5517 -7.4867 -27.2517 -16.5490 9.4130 14.0693 -62.5676 1.0833 0.1298 6.9079 9.7797 30.3794 2.2649 -44.2941 -19.0913 2.1148 -0.9573 56.0830 9.9864 -25.1723 -1.5324 14.6440 8.2740 -16.4369 54.3097 -2.4969 -5.2976 6.4332 -42.5084 31.2695 -5.1091 56.3644 -6.9017 -27.4806 9.9823 -35.7700 1.8769 -10.9437 -1.7630 -43.0926 -68.4630 23.2038 -178.4696 64.7050 -179.8877 -29.4087 -38.4119 14.8465 -1.8644 -12.8532 2.0823
-41.4031 58.5498 -10.2715 42.9106 3.3574 -6.7993 2.3794 22.6848 -4.6130 1.5261 6.1673 -1.6163 5.8513 38.3143 -0.3545 19.6451 51.5944 3.0288 5.8864 -1.9636 -1.4148 6.8022 -14.8174 -2.7410 0.1713 0.1515 0.2901 0.2649 -9.5130 -3.4004 0.0844 -9.4426 3.9368 -15.4765 20.0642 -10.9646 -46.8093 -4.2576 -6.0980 0.8698 -0.6552 -71.4884 19.5781 -4.2594 -24.7448 -16.5979 9.3795 14.1140 -62.6577 1.1105 0.2683 9.1930 8.5678 29.0118 10.2146 -48.4981 -24.3083 1.8725 -1.0424 62.6572 -3.6426 -28.4417 7.1279 15.4804 7.8678 -16.9761 54.4878 -2.7436 -5.8396 7.9308 -43.1045 29.0234 -6.1653 58.2532 -7.9896 -25.0123 13.7303 -33.1327 1.8767 -8.9070 -1.6814 -38.3750 -68.3308 16.2359 -176.6701 59.2206 -179.2070 -30.3109 -38.4888 11.5554 -1.9940 -16.2247 2.1738
-46.6225 53.8963 -11.7851 45.1318 -1.4848 -5.1511 2.1370 22.6095 -4.8126 1.4500 6.0384 -1.6942 5.8729 37.9380 -1.1706 20.0495 50.2723 3.8068 5.9084 -1.8312 -2.3256 8.2260 -15.1477 -4.2131 0.2482 0.1411 0.3943 0.3630 -9.3429 -3.2821 0.1407 -9.3085 4.0135 -15.6065 20.7786 -10.9434 -46.1533 -4.7467 -7.1550 -0.0685 -1.3365 -69.9651 16.5615 -0.6924 -22.2050 -16.5331 9.3235 13.9294 -62.7031 1.4299 0.4331 11.1453 8.0164 27.3718 18.0784 -49.0460 -28.6471 1.0342 -0.7813 69.1714 -13.4682 -26.7213 14.5424 16.3408 7.6058 -17.1963 53.9203 -2.9691 -5.9560 8.4873 -43.1748 26.4392 -7.1829 59.4124 -8.9634 -20.1047 16.5190 -26.9983 1.8202 -7.2009 -1.6272 -30.6472 -67.7558 6.4352 -175.0090 55.3162 -178.9011 -30.4875 -36.6897 8.1198 -2.1318 -20.1536 2.1788
-51.9839 49.3952 -13.5005 46.6838 -5.3046 -3.8609 1.8492 22.5011 -4.6131 1.2821 5.9005 -1.9596 5.7370 37.3285 -1.5375 18.9479 48.5241 3.5241 5.5916 -1.8060 -3.7611 9.5957 -14.7650 -5.4992 0.2647 0.1143 0.3477 0.4362 -9.3600 -3.3046 0.0976 -9.3318 3.9507 -15.4515 20.6738 -10.8453 -46.0192 -4.1472 -7.2186 -0.0186 -1.8352 -68.9077 14.1836 2.3608 -20.1063 -16.3344 9.7303 14.5660 -62.9514 1.5263 1.0462 12.5111 6.9559 24.8714 22.9606 -46.6652 -29.5728 0.8445 -0.2170 74.7709 -17.6270 -21.7782 17.0765 16.3923 7.1407 -17.1558 53.2678 -3.4340 -6.2186 8.7593 -43.0239 23.1053 -7.1760 59.8766 -8.7865 -14.9162 16.8615 -19.7570 1.7647 -6.2175 -1.6149 -21.6988 -66.9113 -3.8081 -173.7172 53.0895 -179.1845 -28.8482 -35.0054 5.3866 -2.3454 -22.6637 2.3576
-57.6041 44.8932 -15.3793 48.1006 -9.2696 -2.5957 1.4269 22.5184 -4.3220 1.1061 5.6687 -1.9430 5.2959 36.5080 -2.2654 14.7755 47.0397 1.8088 5.1483 -1.9697 -4.7407 11.0536 -14.2170 -7.2706 0.3211 0.0600 0.3740 0.5874 -9.5213 -3.3378 0.0624 -9.5335 4.0241 -15.1748 21.1134 -10.8364 -45.6760 -3.7661 -5.9646 0.4938 -0.8705 -68.3762 11.8907 5.9753 -17.8151 -16.3778 9.9420 14.5930 -63.1736 1.8847 1.4488 12.9302 7.3447 22.2678 26.9824 -41.6747 -29.1628 0.7997 0.2537 79.2466 -20.2428 -16.7850 18.1724 16.6848 6.8748 -16.7690 52.4034 -3.7074 -5.9628 8.1484 -41.6326 19.5839 -7.0792 58.5643 -8.5631 -9.0250 15.4845 -11.6784 1.6303 -5.7952 -1.6425 -11.0391 -65.3000 -15.9667 -172.5818 52.4114 -179.7360 -26.5728 -31.5472 4.3457 -2.4393 -24.5650 2.2979
-63.3083 40.1320 -17.4136 48.9868 -12.5670 -1.4047 1.1018 22.5336 -3.8071 0.8132 5.3499 -2.0021 4.3871 35.2795 -2.8770 10.2138 45.2954 0.5387 3.7827 -2.3493 -5.9511 11.8597 -12.7519 -8.9282 0.2806 -0.0142 0.2930 0.6401 -9.7951 -3.4618 -0.0708 -9.8222 3.9992 -14.3428 21.1378 -10.2328 -45.3530 -2.4717 -4.1338 1.3080 0.3382 -68.0169 10.1424 9.2749 -15.7379 -16.3479 10.3853 15.1161 -63.1599 2.0536 1.8288 12.4038 7.8088 19.0986 29.2190 -34.3076 -26.3528 1.4097 0.3090 83.2001 -21.0188 -11.2250 17.2912 16.7588 6.6297 -16.4549 51.7288 -3.7705 -5.8817 8.9066 -39.7218 14.0539 -6.1070 55.1021 -7.5766 -5.0895 12.4197 -4.9048 1.5369 -5.6914 -1.6354 -0.9024 -62.9429 -26.7643 -171.9090 52.9096 179.2153 -21.6184 -28.1920 5.8128 -2.3135 -24.0433 2.1473
-69.1557 35.0539 -19.5328 49.7322 -15.8329 -0.2430 0.8653 22.8141 -3.1856 0.5102 4.8886 -1.8728 3.0044 33.5457 -3.8116 5.9125 43.8297 0.1044 2.2510 -2.8686 -6.6344 11.2868 -11.2002 -10.3024 0.1828 -0.0969 0.2362 0.6170 -10.0303 -3.5253 -0.2459 -10.0552 3.9739 -13.0583 20.8220 -9.4488 -44.5985 -0.7633 -1.9034 1.7321 1.5879 -67.3285 8.1015 13.0804 -13.9527 -16.4805 10.5663 15.5165 -62.9970 2.0478 1.9618 10.5073 8.9498 15.6260 31.6116 -25.5119 -22.7326 2.2645 0.0713 87.1197 -20.8337 -6.4510 15.0507 16.5488 6.5433 -16.1387 50.8498 -3.6029 -5.7233 11.1221 -37.5539 7.1209 -4.9610 50.3601 -6.7676 -3.5668 9.0429 0.0497 1.4915 -5.8221 -1.6419 7.9995 -60.0869 -35.3459 -171.2393 54.5143 178.3547 -14.8498 -25.3163 9.0031 -1.8721 -20.7905 1.8724
-75.0708 29.8292 -21.6794 50.5673 -19.4723 1.1005 0.6722 23.3531 -2.5902 0.0714 4.3825 -1.7307 1.4684 31.4194 -4.8913 2.4426 42.3240 0.1663 1.0568 -3.3506 -6.4369 9.2122 -9.9720 -10.9068 0.1083 -0.1776 0.2288 0.5834 -10.1086 -3.4897 -0.3647 -10.0663 3.9359 -11.0322 20.1023 -8.8360 -43.4135 0.9949 0.3394 1.3897 2.2299 -66.6077 5.1200 17.4960 -12.6818 -16.6983 10.2550 15.5448 -62.4268 1.7318 1.9056 6.4457 10.9436 11.7439 35.8994 -16.1899 -18.9364 3.0265 -0.2322 91.5996 -20.2213 -1.8671 10.9969 16.0578 6.6509 -15.9734 49.9486 -3.4269 -5.5625 13.5429 -35.6994 0.9838 -4.1231 45.4381 -6.4759 -3.6329 5.7363 2.8519 1.4095 -5.6837 -1.5642 15.2063 -57.3526 -41.1777 -170.2281 57.5104 178.3722 -8.0415 -23.8228 12.1110 -1.3751 -15.8878 1.5918
-80.5859 24.2869 -23.8644 52.1613 -23.8586 2.5791 0.5039 24.2518 -2.2104 -0.3946 3.9592 -1.6197 -0.0358 29.1096 -5.9231 0.0002 40.4067 -0.1874 0.4685 -3.5658 -5.3620 5.8940 -8.7350 -10.0308 0.0610 -0.2297 0.2626 0.5623 -9.9517 -3.3731 -0.4402 -9.8006 3.8930 -8.0255 18.9603 -8.9273 -42.8389 1.5927 2.1945 -0.0230 1.4894 -65.9105 1.2430 21.3080 -12.9638 -16.4810 9.7802 15.2156 -61.0383 1.5564 1.8337 -0.3809 13.1539 7.6772 43.1389 -7.0653 -16.1733 3.9612 -0.4412 98.1841 -20.8681 4.4311 5.6350 15.5912 6.7677 -15.9986 49.0379 -3.6012 -5.4485 14.9443 -34.7035 -3.0764 -3.6483 41.6727 -6.5057 -3.9420 1.1877 4.8385 1.2401 -5.4566 -1.4685 21.1292 -55.5544 -44.9625 -168.6536 61.3268 179.6006 -2.4759 -22.9553 12.3385 -1.0537 -11.5278 1.3046
-85.3806 18.4919 -25.9943 55.6445 -29.0482 3.4117 0.2282 24.9880 -2.0926 -0.6758 3.8028 -1.5968 -1.8389 27.6143 -7.2702 -1.4187 38.6666 -0.7206 0.2446 -3.4598 -4.4893 2.9807 -6.5716 -8.1976 -0.0178 -0.2352 0.3019 0.5699 -9.8302 -3.2980 -0.6064 -9.6198 3.9238 -5.4496 17.4934 -10.3016 -43.5282 0.2743 3.5005 -1.1059 0.5145 -64.6852 -1.7780 23.2026 -14.1615 -16.1193 9.7469 14.8012 -60.3048 1.7525 1.9076 -7.6905 14.5893 5.0852 50.8155 1.1678 -15.1396 5.0079 -0.2969 107.5313 -23.4648 15.0352 0.1607 15.3315 6.8798 -16.2990 48.5668 -3.7362 -5.6693 13.5270 -34.0278 -4.8978 -3.2124 39.4674 -6.3565 -4.2678 -3.1795 6.3126 0.9671 -5.3509 -1.4972 25.7503 -55.0224 -47.9884 -166.8405 64.9808 -178.7996 -0.0865 -21.6081 9.6600 -0.9166 -8.3677 1.1431
-89.0869 13.3884 -28.1431 61.9024 -34.7504 2.3490 -0.3539 24.8556 -2.3191 -0.7332 3.9919 -1.6497 -3.6801 27.5905 -8.3377 -1.8873 38.1987 -1.6303 -0.0426 -3.3275 -4.1738 0.9927 -3.1890 -7.0194 -0.1520 -0.2536 0.2815 0.5171 -9.9277 -3.3267 -0.8288 -9.7262 3.9542 -5.4513 15.9071 -12.8603 -44.9401 -3.0618 3.6725 -0.6728 0.4462 -61.7011 -3.6159 24.0266 -14.4977 -15.9521 9.8547 14.8575 -60.6197 1.7390 2.1368 -12.0070 15.1522 4.9571 55.1222 6.0273 -16.9756 6.1646 0.0687 117.2331 -27.4472 31.6169 -6.7850 15.5585 7.0849 -16.8259 49.2333 -3.6431 -6.0994 8.8590 -32.0847 -5.6992 -2.9345 38.1497 -6.0435 -6.0059 -5.7923 6.6900 0.7420 -5.1909 -1.6979 26.3098 -55.3459 -48.8227 -164.1521 69.5283 -176.0597 0.1953 -18.3302 5.4358 -0.8515 -6.1615 1.0942
-92.3036 9.3753 -31.0403 69.7767 -39.8708 -0.2878 0.0461 22.8470 -2.4415 -1.1323 4.0953 -1.3796 -4.6065 28.2547 -8.8771 -1.0890 41.0841 -4.6786 -0.9555 -3.6201 -4.3445 0.6520 0.8157 -6.8677 -0.2598 -0.2508 0.2271 0.4167 -10.0775 -3.3536 -0.9500 -9.8974 3.9036 -6.7381 14.4546 -14.6890 -49.5833 -8.0310 2.3195 0.8475 1.2045 -56.7423 -4.9212 29.1079 -12.3793 -17.3866 9.8690 15.5177 -61.8902 1.7718 2.9023 -15.0858 16.0910 6.5696 57.3047 6.8766 -21.5981 6.3204 0.7852 122.8222 -31.5480 46.0364 -13.1900 15.7332 6.9418 -16.6965 49.9016 -3.2686 -6.1180 2.4536 -28.6681 -6.3746 -2.6084 35.3017 -5.4737 -8.1226 -4.9626 9.5989 0.6362 -4.9653 -2.0187 17.0234 -56.9714 -43.8417 -161.9547 73.2009 -173.5400 0.9271 -15.0032 5.1715 -0.9470 -4.5141 1.1411
-94.4695 9.6005 -33.0553 79.6987 -40.9637 -4.2888 -0.4110 20.3706 -1.5343 -0.9004 2.9725 -0.7699 -5.8553 27.5235 -9.0581 3.4020 42.9212 -6.9462 -1.3722 -3.6737 -3.7713 0.8109 7.1734 -9.7038 -0.2378 -0.3487 0.2438 0.4613 -10.6475 -3.4685 -0.9510 -10.4740 4.0514 -12.1035 14.9258 -15.8751 -55.4890 -11.6843 1.0978 3.3257 1.3990 -52.3347 -4.8129 29.9005 -10.7359 -17.2237 10.5972 16.3232 -61.3908 1.7631 3.0982 -15.2850 18.2556 8.9463 56.6466 4.5852 -25.8843 4.4472 1.3794 123.6131 -31.7022 56.4267 -15.7574 15.5683 7.0806 -16.6113 51.0170 -3.4459 -5.8686 -5.4325 -27.0966 -4.4134 -2.7944 34.2955 -5.1232 -13.6792 1.9150 9.9507 1.2814 -4.3407 -2.3354 -4.3705 -58.2880 -30.0752 -159.8193 75.2670 -172.2167 2.5247 -13.4917 6.7125 -1.3035 -5.2914 1.1050
-96.5357 9.7456 -35.0905 88.3329 -41.3617 -7.3707 -1.4386 19.9918 -0.9077 -0.9236 2.0507 0.5104 -5.4324 23.1729 -6.4274 7.1993 39.6095 -10.1548 -0.1988 -3.5462 -0.8064 3.0595 13.8923 -11.0732 -0.3001 -0.3855 0.6444 0.6758 -10.8348 -3.2617 -1.2874 -10.4424 4.6460 -13.4546 15.5228 -13.3510 -64.3964 -8.7914 -0.9343 5.4147 2.7070 -50.5441 -5.4359 24.5368 -6.6288 -15.9333 10.8118 15.8799 -60.8137 1.3341 2.3518 -21.3815 20.6253 11.5082 67.2981 5.7447 -29.1321 0.2051 0.6455 120.9172 -27.6093 53.3980 -14.6936 15.2566 6.9419 -15.6449 49.9853 -3.4222 -5.4797 -10.2581 -29.0445 -1.2314 -2.6740 34.3653 -5.2785 -17.1429 4.0555 7.1377 1.5179 -3.9101 -2.2099 -18.7135 -57.9346 -21.8419 -154.5512 77.5473 -168.3885 5.8466 -11.0068 5.3839 -1.0171 -4.9779 0.6245
-98.4268 9.0203 -37.2973 97.7220 -40.8610 -12.2057 -1.9715 19.8703 -0.2133 -1.3109 2.0065 1.9474 -5.1601 20.3592 -3.4162 8.2218 33.4154 -9.3431 1.9014 -3.0911 1.5346 5.2314 14.9636 -9.3408 -0.2918 -0.3868 0.9283 0.7813 -9.9535 -2.8583 -1.3737 -9.5140 4.8079 -12.6230 16.6020 -8.2453 -69.3023 -1.7854 -6.3861 6.3329 2.9733 -52.1412 -5.6930 16.4155 -3.7075 -15.5147 10.8122 15.6819 -59.7612 1.0262 2.4934 -21.5874 21.7165 15.3620 75.0289 3.0943 -34.0473 -5.0407 -0.8027 117.8778 -27.1523 29.8649 -10.2693 14.4956 6.6228 -14.3814 46.5448 -3.6673 -5.4811 -14.2910 -32.0092 1.1150 -3.2834 38.7224 -5.4451 -15.4967 3.2794 5.4028 1.5100 -4.5214 -1.9394 -28.8184 -55.3228 -14.0733 -150.8285 79.6533 -164.7390 8.0772 -9.4359 2.6941 -0.9516 -4.1595 0.3097
-99.8210 8.8002 -39.2972 106.1893 -40.9272 -17.6347 -1.5039 19.6717 0.6012 -1.1968 2.2026 2.6602 -4.5835 18.9434 -1.3373 10.1693 27.3985 -6.0305 2.1947 -2.9252 3.4535 4.3510 12.0548 -4.7144 0.0679 -0.3786 1.0036 1.1440 -9.2802 -2.6446 -1.0115 -9.1623 4.6604 -10.0672 17.6221 -3.2297 -73.0965 4.7272 -9.4128 5.0994 2.2612 -55.8319 -7.2014 10.3840 -2.7180 -15.7553 11.0226 16.0483 -59.7157 0.7873 2.7495 -18.6893 21.1032 18.6383 78.2732 -1.2023 -40.6156 -8.2947 -3.2540 115.3708 -32.8880 12.3357 -3.1259 14.8434 6.9740 -14.3284 47.3016 -3.4978 -5.2043 -17.0610 -34.8545 2.9227 -3.4599 44.2548 -5.7178 -13.4553 2.6829 5.8995 1.6416 -5.0251 -1.8311 -34.7348 -51.4147 -9.5125 -150.9738 80.7033 -163.9424 9.1664 -6.9591 0.7042 -1.0574 -3.1795 0.2230
-101.3298 9.2550 -41.2156 113.7867 -40.1349 -23.2607 -1.3876 20.1983 1.3252 -0.7273 2.4356 3.1306 -3.6469 17.5570 -0.0423 11.9802 22.8329 -4.1762 1.7571 -2.9810 4.8450 2.4154 8.0739 -0.6011 0.3433 -0.3165 0.7147 1.3743 -9.5072 -2.9520 -0.6832 -9.5486 4.3109 -6.7718 17.1409 1.0793 -76.1077 11.3852 -10.9304 3.6715 1.2972 -58.6375 -8.1416 6.6481 -1.3738 -15.7573 11.2156 16.2204 -60.2953 0.5049 2.7268 -15.4394 19.3427 21.6855 78.4260 -4.9112 -48.0123 -7.6508 -5.0098 114.8835 -39.3990 5.7943 4.8828 16.1415 6.8389 -14.3521 48.8978 -2.9342 -4.7847 -18.4101 -37.4478 4.2614 -3.4020 49.8719 -6.2465 -12.6135 2.3902 7.4623 2.0108 -5.0803 -1.8345 -38.1502 -47.2222 -7.2364 -154.0309 81.1077 -166.0960 9.4190 -2.6674 -0.3268 -1.1532 -2.7009 0.1693
-103.0792 9.5599 -42.8731 119.3108 -38.7758 -28.0400 -1.2418 20.9541 2.1088 -0.1254 2.7062 3.3201 -2.9753 16.6330 0.6043 14.1406 18.6334 -3.8423 0.7538 -3.1794 5.2976 1.7939 4.5503 2.1948 0.4387 -0.2246 0.4531 1.4417 -9.9230 -3.2729 -0.5558 -10.0190 4.0610 -2.8360 15.3086 3.6571 -79.0701 15.9742 -12.5651 2.8400 0.4041 -57.0361 -8.1121 4.7163 0.0070 -15.4100 11.2156 16.1735 -60.5930 0.2260 2.5726 -13.0066 17.0285 25.0220 77.3290 -7.2898 -53.3064 -4.9758 -5.0213 114.6536 -43.4615 6.3151 10.0184 17.4301 6.3921 -14.8672 49.2343 -2.9134 -4.4260 -18.3239 -40.1098 4.7939 -3.3326 55.3954 -6.9266 -11.2903 1.7014 9.1902 2.3670 -5.1793 -1.8222 -39.7344 -43.4664 -6.7777 -159.0579 80.4806 -170.7329 9.6345 1.2386 0.1890 -1.2233 -2.1981 0.1655
-104.9325 9.9824 -44.3384 122.5824 -37.1857 -31.6118 -1.1326 21.6871 2.8607 0.2852 2.9508 3.3848 -2.2075 15.9357 1.0393 16.5882 14.5078 -4.0065 -0.0875 -3.3834 5.0578 2.2595 1.6549 3.8090 0.5062 -0.1608 0.2803 1.4748 -10.3454 -3.5526 -0.4399 -10.4209 3.9424 0.4961 13.1994 4.5824 -82.2677 18.0555 -14.9829 2.7613 0.2306 -50.8115 -7.4403 3.7125 1.7401 -15.3161 11.0325 16.0525 -60.9897 0.1305 2.4382 -11.1935 14.9771 28.2697 75.7632 -9.1540 -56.0440 -1.9777 -4.0096 113.1225 -44.7404 8.0083 12.1439 17.8711 5.9571 -15.3901 49.0213 -3.1380 -4.2709 -17.2276 -43.0020 4.7511 -3.3186 61.1118 -7.7161 -9.5373 0.1504 10.1665 2.7044 -5.3013 -1.8495 -40.5519 -40.4771 -6.8390 -163.6735 78.8987 -175.3623 10.1529 3.7846 1.0426 -1.2274 -1.7680 0.1404
-106.5968 10.3289 -45.5106 124.4866 -35.4276 -34.5149 -1.0136 22.3075 3.5661 0.5275 3.2731 3.4592 -1.2604 15.2551 1.6087 18.6827 11.5910 -4.3787 -0.6264 -3.5168 4.6993 3.1223 -0.2210 4.3925 0.5526 -0.1283 0.1548 1.4531 -10.6233 -3.7643 -0.3220 -10.6354 3.8607 2.7874 11.5112 4.7456 -85.3177 18.3876 -18.4486 3.2634 0.3820 -42.2740 -6.9373 2.1974 3.7327 -15.2292 10.9757 15.8893 -61.3884 0.2282 2.3113 -9.8972 13.3882 31.2264 74.0736 -10.3336 -56.5584 -0.3959 -2.7227 110.3245 -44.8044 8.7603 13.2150 17.7277 5.7438 -15.7502 48.7339 -3.2465 -4.1572 -15.5736 -45.6888 4.4495 -3.8465 67.1334 -9.0023 -7.6359 -1.7052 10.5352 2.9122 -5.3432 -1.8242 -41.4830 -38.0497 -6.6254 -166.4390 76.7558 -178.2327 10.9385 5.5546 1.9683 -1.1518 -1.5805 0.0668
-107.7351 10.6370 -46.4064 125.6773 -33.8599 -37.0641 -0.8832 22.6888 4.0668 0.7231 3.6069 3.5990 -0.4037 14.7132 2.3332 20.4161 9.7041 -4.8181 -0.9269 -3.5630 4.3369 3.8614 -1.2373 4.2105 0.5748 -0.1174 0.0500 1.3946 -10.7884 -3.9107 -0.2142 -10.7165 3.7711 4.3328 10.1809 4.9645 -88.0173 17.9510 -22.7781 3.8241 0.4645 -33.8414 -7.2300 0.7584 5.3406 -15.1086 11.0715 15.7344 -61.4771 0.4349 2.1799 -8.7904 12.1194 33.7465 72.3050 -11.0858 -56.6403 0.0958 -2.0284 106.6925 -44.8563 8.2097 14.2560 17.4263 5.7276 -16.0061 48.6784 -3.2656 -4.1696 -13.9945 -47.9377 4.3545 -5.3499 73.5156 -11.1067 -5.7311 -3.2929 10.4453 3.0096 -5.3366 -1.7510 -43.0117 -36.2877 -5.9458 -168.4104 74.0190 179.8703 11.6326 6.9158 2.8606 -1.1029 -1.5259 0.0098
-108.3154 10.9091 -47.0474 126.4708 -32.6699 -39.4496 -0.8143 22.8091 4.3677 0.9084 3.8488 3.7901 0.3005 14.2838 3.1582 22.0410 8.3860 -5.3009 -1.1509 -3.6023 4.0629 4.4825 -1.9565 3.5113 0.5866 -0.1109 -0.0280 1.3325 -10.9316 -4.0127 -0.1237 -10.7934 3.6975 5.6787 9.0288 5.4458 -90.7495 17.2793 -27.7345 4.0967 0.3782 -26.4672 -7.9351 -0.1488 6.6394 -14.8930 11.2297 15.7030 -61.2903 0.6173 2.1815 -7.6668 11.1130 35.9241 70.4226 -11.3187 -57.2166 -0.0317 -1.9978 103.0160 -44.8175 6.2766 15.1734 17.0134 5.8257 -16.1589 48.6487 -3.2581 -4.2832 -12.4918 -49.7139 4.2773 -9.1591 80.2616 -15.3972 -4.0716 -4.7328 10.4295 3.0461 -5.2323 -1.6459 -45.2610 -34.8982 -4.8101 -170.2557 70.6878 178.2664 12.3420 8.0615 3.6762 -1.0984 -1.4373 -0.0118
-108.4466 11.2330 -47.4420 126.7315 -31.8408 -41.6820 -0.7683 22.7298 4.5283 1.1542 3.9386 4.0109 0.8938 13.9080 4.1316 23.5410 7.4259 -5.7861 -1.3693 -3.6583 3.7901 5.1841 -2.5232 2.5033 0.5918 -0.1200 -0.0571 1.2785 -11.1143 -4.0620 -0.0590 -10.9405 3.6774 6.9367 8.1146 6.2212 -93.4107 16.7108 -32.9845 3.9187 0.2612 -21.1306 -8.5363 -0.4163 7.6439 -14.7895 11.2204 15.6907 -60.8876 0.6479 2.2685 -6.5427 10.3568 37.7548 68.4351 -10.9416 -58.4047 -0.6933 -1.8915 99.7047 -44.2394 2.1709 15.8899 16.3034 6.0560 -16.2068 48.5318 -3.2733 -4.3714 -10.6853 -51.0366 3.7578 -36.5315 87.4768 -43.1921 -2.7894 -6.3041 10.7974 3.0068 -5.0620 -1.5381 -48.1583 -33.5312 -3.2246 -171.5475 66.9166 177.4678 12.5904 9.0769 4.0188 -1.1336 -1.2466 -0.0217
-108.2863 11.4892 -47.5672 126.3349 -31.3469 -43.5673 -0.6816 22.5803 4.6339 1.4107 3.8550 4.2748 1.4514 13.4887 5.1304 24.6049 6.6625 -6.2557 -1.4816 -3.7169 3.4055 5.8673 -2.8615 1.4829 0.5517 -0.1525 -0.0710 1.1874 -11.3603 -4.0840 -0.0502 -11.1631 3.6822 7.9968 7.4601 7.0287 -95.8541 16.5731 -37.9709 3.6905 0.2034 -18.7352 -8.9735 0.0229 8.0020 -14.9211 11.1144 15.7019 -60.5971 0.6637 2.3507 -5.5027 10.0144 39.1520 66.6050 -10.2169 -60.2469 -1.7357 -2.1728 97.2370 -42.8278 -3.2118 16.6222 15.4191 6.4050 -16.0786 48.3428 -3.3281 -4.4106 -8.6231 -51.8624 2.8659 -167.4698 83.5397 -174.4307 -2.1991 -7.8304 11.5542 2.8696 -4.6655 -1.4041 -51.0435 -31.9470 -1.4318 -172.0979 63.7249 177.6492 12.2018 10.0887 3.9511 -1.1794 -0.9866 -0.0550
-107.8147 11.6173 -47.4555 125.3540 -31.1223 -44.8259 -0.6413 22.1657 4.6031 1.5865 3.6560 4.5868 1.9619 13.0335 6.0623 24.8988 6.0890 -6.5874 -1.3443 -3.7876 3.0335 6.4652 -2.9190 0.7626 0.4774 -0.1881 -0.0770 1.0904 -11.6331 -4.0772 -0.1053 -11.4096 3.6878 8.8292 7.2163 7.8331 -97.8539 16.7276 -42.3360 3.8799 0.2397 -19.0219 -9.5463 1.1839 7.8529 -15.1947 10.8241 15.6905 -60.3520 0.6557 2.5568 -4.4491 9.9313 40.2559 64.9344 -9.6276 -62.6960 -2.8362 -3.0008 95.7109 -41.0816 -8.8276 17.2216 14.8474 6.7859 -15.9846 48.0744 -3.3533 -4.4071 -6.8224 -51.9365 2.0454 -174.7012 75.8411 178.2430 -2.5925 -8.6625 12.4965 2.7013 -4.2629 -1.2681 -53.1929 -30.8007 -0.0469 -172.1150 61.8185 178.2140 11.2458 10.9902 4.2874 -1.2044 -0.8022 -0.0811
-107.2922 11.7174 -47.1886 123.9719 -31.0799 -45.3358 -0.6451 21.3825 4.4566 1.7351 3.3328 4.9284 2.3181 12.6817 6.8607 24.5520 5.5673 -6.6436 -1.0297 -3.8730 2.7200 6.9724 -2.9704 0.3126 0.3588 -0.2172 -0.0598 0.9533 -11.9331 -4.0342 -0.2095 -11.6487 3.7210 9.6368 7.2265 8.7880 -99.2676 17.1423 -45.6838 4.4193 0.4413 -21.1758 -10.0317 3.0222 7.3750 -15.3867 10.5518 15.6415 -60.1035 0.6757 2.7372 -3.3046 9.9203 41.1096 63.6184 -9.7706 -65.8354 -3.4704 -3.7887 94.9078 -39.4238 -13.9614 17.5050 14.5818 7.0513 -15.9257 47.8305 -3.3821 -4.4131 -6.1560 -51.1840 2.1215 -176.4017 69.7682 176.6150 -3.4879 -8.7574 13.2490 2.5741 -3.9475 -1.1756 -54.2053 -30.4358 0.7407 -171.6641 61.2559 178.7692 10.3287 11.6282 5.3975 -1.2108 -0.7677 -0.1178
-106.6410 11.7416 -46.7491 122.3641 -31.1547 -45.3370 -0.5054 20.4409 4.2566 1.8608 2.9239 5.2869 2.7336 12.3329 7.5413 23.7893 5.0098 -6.5065 -0.8277 -3.9886 2.5260 7.5305 -3.1961 0.0093 0.2093 -0.2399 -0.0524 0.7731 -12.2255 -3.9783 -0.3321 -11.8153 3.7365 10.2373 7.4433 9.7519 -100.1568 17.8677 -47.8678 5.3930 0.8073 -24.4707 -10.3552 5.6793 6.9193 -15.4929 10.3074 15.4275 -60.1621 0.7435 2.9036 -2.3370 10.0476 41.7761 62.7487 -10.5375 -69.3319 -3.7941 -4.5053 94.5629 -37.5976 -17.8396 17.0803 14.5091 7.1989 -15.9127 47.7369 -3.3804 -4.5148 -6.8602 -49.6695 3.3142 -176.8806 65.6508 176.4379 -4.3626 -8.1941 14.0564 2.4767 -3.7393 -1.1315 -54.0774 -30.5681 1.0998 -170.7772 61.5366 179.5166 9.8965 12.0578 6.5912 -1.2101 -0.8853 -0.1733
-106.0314 11.8124 -46.3301 120.6631 -31.3161 -44.9505 -0.2617 19.4091 4.0572 1.9849 2.5133 5.5984 3.1975 11.9910 8.1233 22.8761 4.2381 -6.1612 -0.5846 -4.0969 2.4258 7.9174 -3.6780 -0.1076 0.0809 -0.2675 -0.0602 0.5960 -12.4502 -3.9280 -0.4224 -11.9000 3.7238 10.7308 7.8107 10.5727 -100.7208 18.7977 -49.1421 6.5013 1.1715 -28.4750 -10.4247 8.5711 6.8289 -15.4833 10.2687 15.2641 -60.4759 0.8460 2.9777 -1.5160 10.3596 42.3729 62.3367 -11.6742 -72.6913 -3.9268 -5.0663 94.6147 -36.0408 -20.5392 16.0660 14.5294 7.2418 -15.9293 47.6766 -3.3702 -4.5564 -8.9736 -47.4224 5.4821 -176.8058 63.7726 177.0215 -5.2542 -7.0750 15.0903 2.3692 -3.5761 -1.1245 -53.2270 -31.1563 1.2255 -169.8255 62.1258 -179.7974 10.2058 12.1944 7.8753 -1.2149 -1.1187 -0.2154
-105.5586 11.7841 -45.8858 118.9592 -31.7532 -44.4119 0.1186 18.4207 3.8600 2.1233 2.0806 5.7567 3.7048 11.6931 8.6483 22.0335 3.3005 -5.8060 -0.3411 -4.1393 2.4996 8.0515 -4.3770 -0.0034 -0.0325 -0.3030 -0.0481 0.4167 -12.5751 -3.8439 -0.4733 -11.8702 3.7084 11.1996 8.1971 11.2636 -101.0049 19.9684 -49.6612 7.1987 1.4660 -32.7931 -10.3908 11.6770 7.1069 -15.4971 10.3135 15.2033 -60.8682 0.9058 3.0212 -0.9068 10.7966 42.7393 62.3841 -13.0161 -76.1110 -3.4758 -5.0227 94.9530 -35.1212 -22.6332 14.4537 14.6769 7.2716 -15.9604 47.8954 -3.3573 -4.6037 -12.2257 -44.2396 7.9182 -176.4383 64.2267 178.0345 -6.2275 -5.3235 16.0848 2.3032 -3.5441 -1.1777 -51.7972 -32.0751 1.1401 -168.8541 62.7588 -179.2641 10.9328 12.1468 8.7662 -1.2087 -1.3501 -0.2353
-105.0591 11.5824 -45.4279 116.9216 -32.4744 -43.7980 0.6473 17.5138 3.7632 2.3212 1.6637 5.8248 4.6475 11.4738 9.3065 21.0781 2.2879 -5.6184 -0.1930 -4.1685 2.7932 7.9477 -5.3749 0.2141 -0.0969 -0.3410 0.0192 0.2584 -12.5962 -3.7002 -0.4512 -11.7548 3.7270 11.3516 8.9445 11.6935 -100.7742 21.1499 -49.3827 7.7360 1.7851 -37.2148 -10.4823 14.4911 7.5761 -15.3650 10.6014 15.1955 -61.3396 0.8980 2.8477 -0.8649 11.3451 42.9321 63.2566 -14.1711 -80.0065 -2.5722 -4.7045 95.7622 -34.4795 -24.6298 12.7203 14.7080 7.2610 -15.7674 47.7198 -3.2732 -4.4540 -16.2678 -39.9466 10.3232 -176.0056 66.4959 179.3211 -7.4463 -2.4081 16.3511 2.3174 -3.7521 -1.2540 -49.3630 -33.0985 0.8009 -168.1806 63.5980 -178.6839 11.5238 11.8900 8.3688 -1.0965 -1.8391 -0.3326
-104.5698 11.3343 -45.1668 114.5181 -33.4745 -42.6501 1.2281 16.5689 3.7933 2.5668 1.2074 5.8080 5.6645 11.2575 9.7492 20.2426 1.0974 -5.2395 -0.0895 -4.1504 3.1454 7.2563 -6.3685 0.5264 -0.1481 -0.3652 0.0759 0.1369 -12.4354 -3.5768 -0.4383 -11.5329 3.7409 11.3016 9.0576 11.8930 -100.5550 23.0035 -48.2289 7.5834 1.8641 -41.9256 -10.2855 17.3440 8.2297 -15.2659 10.6097 14.9561 -61.4261 0.8631 2.8747 -1.4432 11.7360 42.8464 64.3095 -14.5962 -82.7202 -1.8423 -4.1362 97.4972 -34.4645 -25.5626 10.9757 14.5370 7.3144 -15.7325 47.7628 -3.1236 -4.2436 -21.3802 -35.2647 12.5090 -174.2398 70.2195 -178.1055 -9.2115 1.2039 15.3027 2.1870 -3.8038 -1.5481 -46.9731 -34.8432 0.4937 -167.4782 63.8005 -178.3847 12.9219 11.7198 8.2172 -1.0479 -2.5010 -0.3983
-104.0769 10.7065 -44.9792 111.4597 -34.6774 -40.5408 1.9206 15.5876 3.9067 2.6654 0.8289 5.7389 6.5264 10.6451 10.0456 19.7767 -0.1942 -4.8868 -0.2518 -4.1106 3.3727 6.2897 -6.9505 0.8891 -0.1705 -0.3697 0.0512 0.0899 -12.0967 -3.5440 -0.4353 -11.1771 3.6681 10.8390 8.4543 11.5910 -100.0166 25.9904 -45.4104 6.3381 1.2390 -47.0092 -9.3515 20.5001 9.2494 -15.3326 10.4186 14.6307 -61.2492 1.0697 2.9324 -2.4626 12.0917 42.3301 65.4330 -14.5453 -83.9478 -1.6122 -3.5548 99.6422 -34.5348 -24.6421 9.2005 14.1876 7.4229 -15.6577 48.1282 -2.8167 -4.0227 -26.8507 -31.3153 13.8627 -169.6784 75.1247 -172.8918 -11.9597 4.1788 12.3073 2.0168 -3.2363 -2.0499 -44.7539 -37.7494 0.2513 -166.9877 63.6209 -178.4577 13.9675 11.4637 8.1521 -1.1183 -2.9260 -0.2784
-103.6058 9.5473 -45.0184 108.0852 -35.8899 -37.9436 2.2585 15.0535 3.7279 2.4735 0.7326 5.9355 7.1875 9.4789 10.2394 19.6743 -1.8972 -4.6297 -0.3204 -3.9664 3.1129 5.7863 -6.9814 1.5898 -0.1269 -0.3645 -0.0083 0.1102 -11.7109 -3.5415 -0.3701 -10.7643 3.5302 10.5309 8.5524 10.5484 -98.4928 28.6805 -40.7812 4.0699 0.1117 -51.4671 -8.3089 22.8726 10.1794 -15.3665 10.3768 14.4055 -60.9186 1.4543 2.7083 -3.4240 12.9977 41.6918 67.8031 -15.0314 -85.9538 -0.6960 -3.2702 101.2412 -35.4570 -22.7279 8.7051 14.1255 7.6863 -15.2339 48.6727 -2.0943 -3.7896 -31.6024 -29.2600 13.4320 -159.9122 80.6720 -162.7023 -15.4801 6.2133 9.1694 1.9857 -2.6623 -2.3409 -41.3464 -41.5709 -0.8475 -166.6462 64.0933 -178.3349 14.0306 10.9013 6.8572 -1.0486 -3.7841 -0.0794
-103.0345 8.1951 -45.1867 105.5975 -37.6003 -35.9593 2.7499 14.3832 3.1909 2.3704 0.7472 6.1739 7.1371 8.9109 10.2133 19.3524 -4.4467 -3.9833 -0.5294 -3.7581 2.4108 5.7104 -5.0241 1.7441 -0.0869 -0.3341 -0.0063 0.1231 -11.4609 -3.4355 -0.2932 -10.6269 3.4152 10.7879 9.6096 8.3619 -97.9908 29.3464 -38.0398 2.7579 -0.1918 -54.1301 -7.4886 23.9157 10.3685 -15.5753 10.6831 14.7867 -60.6055 1.7549 2.6841 -3.9647 14.3789 41.4172 71.0470 -15.5251 -89.1820 -0.2823 -3.1490 102.4639 -36.1964 -20.5002 8.1590 15.1337 7.5280 -15.7092 49.1641 -1.9185 -3.9619 -34.4925 -30.4767 10.3268 -156.0435 83.2883 -158.9909 -13.8221 5.9716 12.6962 2.0670 -2.4041 -2.3643 -37.5852 -44.8560 -3.1841 -166.0263 65.4988 -177.5339 14.0248 8.9152 5.2194 -1.0498 -4.2147 -0.0367
-102.7128 8.5457 -45.5242 103.8783 -37.0126 -34.5798 3.2217 13.8602 3.3532 2.5411 0.5434 6.4014 7.1591 8.5518 10.4255 19.1826 -4.2487 -3.3348 -1.2191 -3.7443 2.0365 5.2311 -4.3368 1.6683 -0.1029 -0.3614 0.0063 0.1811 -11.4381 -3.4030 -0.3866 -10.6645 3.4215 11.1195 9.8625 8.6077 -99.2935 30.3177 -40.5633 3.0501 -0.6618 -55.3663 -6.5044 24.2791 9.8408 -15.8164 10.9081 15.0968 -61.6621 1.6965 2.4673 -4.0098 15.1914 40.7304 72.6307 -16.5580 -91.2349 1.1358 -2.2640 103.9740 -34.5836 -19.2352 5.7032 15.2963 6.8324 -15.9735 48.9374 -2.5964 -4.2048 -35.3349 -32.0654 9.3010 -157.8986 83.5720 -161.0672 -12.1601 4.4709 13.8022 2.2035 -2.4187 -2.2053 -35.5630 -46.3326 -3.1271 -164.0957 66.9037 -175.7884 14.4766 5.8260 4.2951 -0.9476 -3.6035 0.0739
-102.7079 9.4868 -45.7472 102.9111 -34.9634 -33.7975 3.3963 13.6777 3.5365 2.9139 0.3715 6.3738 6.9194 8.5285 11.2776 18.7384 -3.3937 -3.3485 -1.1652 -3.8005 2.7091 4.8764 -3.6896 2.1228 -0.0688 -0.3939 -0.0239 0.2470 -11.6474 -3.4689 -0.3839 -10.9161 3.4186 10.6346 10.0822 9.7310 -100.9614 31.2958 -43.4976 4.4321 -0.7983 -55.8156 -4.8746 23.3213 10.0354 -15.8737 10.6779 14.9555 -61.8596 1.6244 2.5678 -4.2706 15.6999 41.6519 73.0811 -16.7150 -92.9821 2.5543 -2.1714 105.8976 -33.5315 -19.2133 4.4971 15.2500 6.5925 -15.9981 48.7657 -2.9318 -4.0937 -35.2443 -32.5992 10.7030 -158.7180 82.6478 -161.8796 -10.3404 3.2768 13.8731 2.2604 -2.3550 -2.1649 -36.4358 -46.5327 -0.7390 -163.8038 66.8544 -175.6251 15.4757 5.1267 5.8746 -0.8727 -3.5454 0.1409
-102.6184 9.9093 -45.7156 102.4404 -32.6143 -33.7697 3.1081 13.8006 3.5225 2.9830 0.5514 6.5724 7.1456 8.5254 12.1708 18.5931 -2.4033 -3.8845 -0.5225 -3.6732 3.6816 4.5710 -3.1277 2.9087 0.0244 -0.3875 -0.0542 0.3114 -11.6023 -3.4825 -0.2595 -10.9556 3.3357 10.0019 10.4293 11.2383 -102.4746 31.2060 -47.4311 5.5875 -0.7661 -55.1436 -4.5865 22.8300 10.1690 -15.4744 10.3119 14.8273 -61.2732 1.2285 3.0012 -4.5684 15.4096 42.9668 73.4653 -16.7969 -93.7886 2.9941 -2.1456 106.8729 -33.9626 -20.5204 6.3085 15.1371 6.9522 -15.7275 48.5781 -2.9291 -3.7246 -34.0982 -32.3131 12.3744 -161.0901 81.2496 -164.2663 -9.6470 1.3554 13.6561 2.2977 -2.6823 -2.1845 -37.1850 -45.9477 1.6244 -163.2468 66.8702 -175.0219 16.4689 5.5585 7.7607 -0.6523 -3.9381 0.0761
-102.3666 9.8116 -45.5920 102.7081 -30.8927 -34.4136 2.8525 14.1204 3.7215 2.8872 0.6619 6.4801 7.3469 9.2325 12.8211 18.3068 -1.9418 -3.7840 0.0788 -3.5689 4.0797 5.1178 -2.5858 3.2594 0.0493 -0.3668 -0.0534 0.3082 -11.4952 -3.4255 -0.2041 -10.9841 3.2705 9.5848 10.5981 11.9603 -103.1520 29.8077 -51.1148 6.3671 -1.2237 -54.3018 -5.7724 21.3028 10.1643 -15.2126 10.0218 14.7185 -60.6537 1.0667 3.0478 -5.0779 14.8418 43.7475 74.1212 -16.5568 -93.2715 1.8970 -2.2279 107.1931 -33.8713 -20.6657 7.7324 15.0689 7.2002 -15.5387 48.5390 -2.9172 -3.6196 -33.3872 -31.6036 13.4286 -163.6496 80.3712 -166.6136 -10.8687 -0.2544 13.2756 2.1180 -3.4515 -2.2434 -37.4847 -45.4383 3.5247 -163.8728 66.4832 -175.2609 16.8416 6.2344 8.9609 -0.5934 -4.4857 0.0183
-102.2466 9.6846 -45.6345 102.3275 -30.0220 -34.3430 3.0912 13.9193 3.9595 2.8302 0.8877 6.7893 7.4557 9.6407 12.7533 17.8674 -1.9158 -3.2996 0.5122 -3.5542 3.9530 5.7807 -1.8547 3.5574 0.0186 -0.3609 -0.1038 0.2694 -11.6165 -3.4588 -0.2272 -11.2448 3.2173 8.8222 11.3997 12.0751 -102.0764 28.8020 -52.1841 6.2270 -1.5564 -54.0401 -6.9185 20.6784 9.7835 -15.0222 9.8063 14.3837 -60.4027 1.1448 3.3403 -5.8492 15.2882 44.2583 75.9834 -16.5391 -94.5661 1.8272 -1.9181 107.1180 -33.0657 -20.2093 8.2417 15.5500 7.3474 -15.7251 49.5607 -2.7464 -3.7618 -33.1396 -31.3591 13.6635 -163.9075 80.2461 -166.7798 -10.9260 -1.7977 13.6752 2.1151 -3.9027 -2.1495 -36.4911 -45.4470 3.9229 -163.9790 66.6048 -175.0906 17.4008 6.5913 10.0557 -0.5057 -3.8405 0.1321
-102.2866 9.3869 -45.7530 102.2579 -29.5819 -34.5065 3.2759 14.0475 4.0980 2.8244 0.9374 6.9399 7.3327 9.8526 12.7112 17.8302 -1.7151 -2.8910 0.5615 -3.5862 3.9674 6.1732 -1.5522 3.4565 0.0051 -0.3504 -0.1150 0.2540 -11.7630 -3.4667 -0.2430 -11.4575 3.2107 8.9769 11.2532 12.0668 -101.8555 28.4157 -52.7540 5.6812 -1.9033 -54.1284 -6.8863 20.5998 9.6565 -14.9253 9.9176 14.3166 -60.4101 1.1860 3.1962 -6.1051 15.5056 44.9303 76.9029 -16.5621 -95.5148 1.4201 -1.7586 107.1135 -31.8704 -20.0959 8.4148 15.6643 7.3169 -15.7327 50.0320 -2.6724 -3.9431 -32.7859 -31.0806 13.7275 -164.7084 80.5755 -167.6624 -9.8711 -3.0622 14.1867 2.0896 -4.1033 -2.0976 -35.7173 -45.4542 3.9736 -164.1825 66.9409 -175.0874 17.8115 7.0630 10.5728 -0.5347 -3.3525 0.1562
-102.3711 9.1322 -45.8712 102.2479 -29.1935 -34.6387 3.4338 14.2251 4.1790 2.8196 0.9988 7.0253 7.2422 9.8497 12.8165 17.8478 -1.4410 -2.6838 0.6086 -3.6251 4.0574 6.3922 -1.4793 3.3499 0.0152 -0.3492 -0.1191 0.2666 -11.9076 -3.4762 -0.2356 -11.6435 3.2087 9.3417 10.8599 12.3832 -101.9654 28.3237 -53.3144 5.2581 -2.1954 -54.0297 -6.4306 20.9048 9.5058 -14.8262 10.0265 14.3246 -60.4161 1.2375 3.1380 -6.1518 15.6310 45.5308 77.4189 -16.7368 -96.2244 1.1359 -1.8593 107.1629 -30.8449 -19.9815 8.6049 15.7333 7.3033 -15.7374 50.3552 -2.5741 -4.0567 -32.5314 -30.7322 13.8580 -164.8556 81.0355 -167.8998 -9.0593 -3.8965 14.4733 2.0775 -4.2399 -2.0878 -35.2303 -45.3933 4.0234 -164.3958 67.3511 -175.2283 18.0135 7.5865 10.9230 -0.5236 -3.0913 0.1610
-102.5179 9.0626 -46.0185 102.3033 -28.7816 -34.8019 3.4953 14.4035 4.2167 2.8868 1.0749 7.1239 7.2104 9.8049 12.9576 17.7411 -1.3058 -2.3751 0.6759 -3.6637 4.0902 6.4729 -1.5025 3.2407 0.0300 -0.3484 -0.1254 0.2722 -11.9849 -3.4828 -0.2123 -11.7666 3.1966 9.7251 10.4140 12.9001 -102.4400 28.3162 -54.1637 5.2870 -2.3408 -53.7200 -5.9709 21.0820 9.2535 -14.8387 10.1179 14.3748 -60.5151 1.2804 3.1335 -6.1163 15.5651 46.0743 77.5683 -16.9715 -96.6839 0.9564 -2.1959 107.3408 -30.0117 -19.8322 8.7880 15.7107 7.3368 -15.7787 50.5275 -2.4967 -4.0714 -32.3367 -30.2812 13.9887 -164.7425 81.4804 -167.8208 -8.4865 -4.5187 14.6903 2.0618 -4.2604 -2.1097 -35.0439 -45.2452 4.1819 -164.6468 67.6327 -175.4338 18.0893 7.9260 11.2672 -0.4895 -2.8953 0.1548
-102.5934 9.0566 -46.1147 102.4434 -28.4253 -34.9898 3.4897 14.5878 4.2733 2.9856 1.1606 7.2063 7.1894 9.7122 13.1060 17.5998 -1.2737 -2.1164 0.6649 -3.6982 4.1372 6.5177 -1.5241 3.1276 0.0352 -0.3443 -0.1298 0.2652 -12.0123 -3.4864 -0.1946 -11.8404 3.1879 10.0728 10.0369 13.4417 -103.0210 28.4186 -55.2240 5.5868 -2.3823 -53.2960 -5.6001 21.1503 8.8850 -14.7806 10.2294 14.4815 -60.5852 1.3022 3.1164 -6.0170 15.3831 46.4696 77.5321 -17.2530 -97.0012 0.8398 -2.6824 107.5923 -29.2286 -19.5803 8.8879 15.7304 7.3632 -15.8541 50.6425 -2.4260 -4.0923 -32.2061 -29.7572 14.1134 -164.6681 81.8804 -167.7432 -7.9985 -5.1028 14.8761 2.0351 -4.1923 -2.1258 -35.0206 -44.9964 4.3645 -164.8828 67.8496 -175.6040 18.0965 8.0559 11.5706 -0.4600 -2.7879 0.1471
-102.7367 9.0397 -46.2155 102.5871 -28.0825 -35.1788 3.4973 14.7137 4.2978 3.0576 1.2329 7.2711 7.2035 9.6385 13.2553 17.4012 -1.2724 -1.8235 0.6124 -3.7301 4.1809 6.5166 -1.5404 3.0348 0.0335 -0.3411 -0.1319 0.2489 -12.0069 -3.4817 -0.1845 -11.8787 3.1806 10.3230 9.7334 13.9699 -103.6313 28.6337 -56.3904 6.0097 -2.4159 -52.8064 -5.1827 21.2419 8.5553 -14.7987 10.2927 14.5379 -60.7328 1.3170 3.0370 -5.8910 15.1442 46.8458 77.4826 -17.5554 -97.3200 0.8676 -3.0989 107.8083 -28.4247 -19.2546 8.9045 15.7311 7.3734 -15.9282 50.6357 -2.3826 -4.1295 -32.0909 -29.2547 14.2138 -164.6421 82.2023 -167.7052 -7.5203 -5.5981 15.0126 2.0016 -4.1363 -2.1273 -35.0152 -44.6980 4.5098 -165.0751 68.0269 -175.7359 18.0538 8.0020 11.8391 -0.4382 -2.7614 0.1537
-102.9145 9.0161 -46.1791 102.6656 -27.7277 -35.3139 3.5345 14.8036 4.3409 3.1316 1.2986 7.3182 7.1902 9.5701 13.3606 17.2141 -1.1577 -1.6200 0.5197 -3.7398 4.2549 6.4991 -1.6302 3.0727 0.0241 -0.3355 -0.1311 0.2275 -11.9949 -3.4792 -0.1794 -11.8944 3.1815 10.5076 9.5512 14.4361 -104.1352 28.8849 -57.3742 6.3812 -2.4331 -52.3500 -4.7614 21.4084 8.2972 -14.7591 10.3333 14.5542 -60.8518 1.3431 2.9393 -5.7041 14.9423 47.1826 77.4921 -17.9271 -97.5787 0.9747 -3.4630 107.9881 -27.6896 -18.9440 8.8283 15.6868 7.3585 -15.9824 50.6116 -2.3747 -4.1652 -32.0125 -28.8071 14.3398 -164.8006 82.4080 -167.8311 -6.9977 -6.0992 15.1727 2.0052 -4.0865 -2.1138 -35.0044 -44.4219 4.6677 -165.1947 68.1165 -175.8164 17.9959 7.7651 12.0577 -0.4290 -2.7256 0.1783
-103.0999 9.0059 -46.1257 102.7587 -27.3684 -35.4158 3.5524 14.8334 4.3444 3.1689 1.3825 7.3769 7.1398 9.4863 13.4472 17.0814 -0.9197 -1.4875 0.4299 -3.7443 4.3449 6.4849 -1.7273 3.1398 0.0177 -0.3323 -0.1323 0.2142 -11.9731 -3.4774 -0.1780 -11.8850 3.1792 10.6311 9.3493 14.8351 -104.6728 29.2594 -58.3023 6.6623 -2.3833 -51.9223 -4.2815 21.6354 8.1229 -14.7722 10.3383 14.5253 -60.9609 1.3597 2.8564 -5.4375 14.6772 47.4318 77.5263 -18.4202 -97.8522 1.2405 -3.7597 108.1265 -27.0939 -18.6974 8.6371 15.6817 7.3865 -16.0519 50.6067 -2.3567 -4.2000 -31.9692 -28.4415 14.4707 -165.0160 82.5433 -168.0192 -6.5503 -6.5254 15.3447 2.0114 -4.0615 -2.0977 -34.9946 -44.1430 4.8800 -165.1702 68.1828 -175.7828 17.9769 7.4555 12.1912 -0.4282 -2.6912 0.2005
-103.2003 8.9947 -45.9712 102.8302 -27.0318 -35.5021 3.5145 14.8456 4.3129 3.2088 1.3963 7.3785 7.1072 9.4476 13.5407 17.0374 -0.6292 -1.3919 0.3477 -3.7426 4.4311 6.4531 -1.8110 3.2424 0.0185 -0.3285 -0.1323 0.2111 -11.9680 -3.4810 -0.1739 -11.8879 3.1824 10.7281 9.2592 15.2141 -105.1351 29.5404 -59.1009 6.9396 -2.3156 -51.5333 -3.8247 21.8457 8.0512 -14.8227 10.3330 14.4678 -61.0594 1.3551 2.7878 -5.1805 14.3244 47.6455 77.4436 -18.8674 -97.8822 1.4702 -3.9606 108.2252 -26.5963 -18.6373 8.4511 15.7116 7.3883 -16.1289 50.6357 -2.4120 -4.2304 -31.9628 -28.0986 14.5868 -165.2478 82.6263 -168.2117 -6.2025 -6.8865 15.5383 2.0085 -4.0891 -2.0754 -35.0338 -43.8590 5.0923 -165.1607 68.1814 -175.7725 17.9148 7.0687 12.3172 -0.4337 -2.6521 0.2160
-103.3247 9.0367 -45.8020 102.9098 -26.6954 -35.5667 3.4586 14.8269 4.3004 3.2334 1.4168 7.3723 7.0797 9.4041 13.6269 16.9296 -0.2734 -1.3866 0.3278 -3.7348 4.5437 6.3863 -1.8708 3.3108 0.0324 -0.3242 -0.1368 0.2285 -11.9283 -3.4840 -0.1659 -11.8644 3.1726 10.7795 9.2066 15.5596 -105.5666 29.7858 -59.8667 7.2074 -2.2447 -51.1978 -3.3580 21.8500 7.9878 -14.9088 10.3312 14.4157 -61.1799 1.3345 2.7095 -4.8827 13.9543 47.7811 77.3078 -19.3547 -97.8147 1.7267 -4.2611 108.3121 -26.1858 -18.6414 8.3208 15.7282 7.3790 -16.1722 50.5885 -2.4707 -4.2489 -31.9752 -27.7784 14.7142 -165.3989 82.7098 -168.3357 -5.9431 -7.1816 15.7332 1.9884 -4.1310 -2.0560 -35.1139 -43.5776 5.3961 -165.0507 68.1843 -175.6806 17.9198 6.6378 12.3346 -0.4441 -2.6444 0.2185
-103.3705 9.0759 -45.5735 102.9351 -26.4114 -35.6074 3.4315 14.7875 4.3016 3.2449 1.4326 7.3614 7.0176 9.3361 13.6769 16.7867 0.0756 -1.4426 0.3509 -3.7141 4.6232 6.3572 -1.8960 3.3644 0.0415 -0.3227 -0.1401 0.2362 -11.8700 -3.4807 -0.1556 -11.8237 3.1596 10.8431 9.1297 15.9124 -105.9238 30.0028 -60.5752 7.3824 -2.2038 -50.9058 -3.0088 21.8233 7.9457 -14.9590 10.3343 14.4219 -61.2948 1.3172 2.6796 -4.6108 13.5896 47.8046 77.1140 -19.7849 -97.4637 1.9050 -4.7777 108.3542 -25.9149 -18.5970 8.2457 15.8098 7.4028 -16.2442 50.6195 -2.5151 -4.2952 -31.9650 -27.5044 14.7779 -165.3949 82.7478 -168.2956 -5.7298 -7.4811 15.9559 1.9741 -4.1909 -2.0323 -35.1387 -43.3563 5.6594 -164.9240 68.1184 -175.5830 17.8912 6.1521 12.3871 -0.4604 -2.6879 0.2125
-103.3502 9.0944 -45.3918 102.9846 -26.2363 -35.6444 3.3904 14.7420 4.2737 3.2325 1.4287 7.3504 6.9659 9.2610 13.7011 16.6340 0.3659 -1.4721 0.4311 -3.6955 4.6229 6.2869 -1.9267 3.4051 0.0620 -0.3218 -0.1436 0.2611 -11.8303 -3.4870 -0.1364 -11.7953 3.1498 10.9007 9.1262 16.2003 -106.1500 30.0998 -61.0902 7.4843 -2.1904 -50.5402 -2.7737 21.8516 7.8193 -14.9776 10.3262 14.4329 -61.3327 1.3065 2.6474 -4.3910 13.3433 47.7420 77.0193 -20.1629 -97.0117 1.9801 -5.2022 108.2957 -25.7812 -18.7953 8.2833 15.8731 7.4307 -16.3345 50.6543 -2.6031 -4.3298 -32.0135 -27.2685 14.8352 -165.3864 82.7859 -168.2712 -5.5171 -7.7263 16.1573 1.9598 -4.2639 -2.0137 -35.2709 -43.1393 5.9001 -164.7963 68.0623 -175.4917 17.8871 5.7591 12.4825 -0.4838 -2.7717 0.2073
-103.3334 9.1870 -45.1474 103.0076 -26.1739 -35.6671 3.4046 14.7211 4.2988 3.2460 1.4374 7.3449 6.8823 9.1631 13.6900 16.4384 0.4883 -1.4844 0.4837 -3.6710 4.5125 6.2928 -1.9244 3.3096 0.0760 -0.3206 -0.1421 0.2787 -11.8054 -3.4925 -0.1230 -11.7794 3.1524 10.9169 9.0752 16.4301 -106.2255 30.1965 -61.3618 7.4117 -2.2099 -50.1662 -2.5805 21.8026 7.6994 -14.9955 10.3164 14.4553 -61.3894 1.3183 2.6117 -4.3045 13.1241 47.5468 77.0251 -20.5324 -96.7931 2.2378 -5.7784 108.1472 -25.7224 -19.0446 8.4050 15.8257 7.3936 -16.4031 50.5597 -2.6818 -4.3464 -32.0269 -27.0806 14.8042 -165.2085 82.8146 -168.0635 -5.2838 -7.9153 16.3565 1.9590 -4.3468 -2.0088 -35.3914 -42.9988 6.0381 -164.6949 67.9887 -175.3609 17.8801 5.4265 12.5678 -0.5067 -2.8427 0.1976
-103.3247 9.2832 -44.8569 103.0578 -26.1998 -35.6886 3.4084 14.7195 4.3082 3.2701 1.4516 7.3768 6.8420 9.0455 13.6375 16.2115 0.5626 -1.4769 0.5877 -3.6406 4.3215 6.2785 -1.8145 3.1738 0.0886 -0.3259 -0.1398 0.2951 -11.7883 -3.4958 -0.1173 -11.7538 3.1585 10.9068 9.0582 16.6408 -106.0163 30.2595 -61.1999 7.0628 -2.2658 -49.7600 -2.3723 21.9865 7.6177 -15.0085 10.2912 14.4919 -61.3924 1.3230 2.5847 -4.3280 12.9325 47.3261 76.9505 -20.8159 -96.5397 2.4289 -6.3466 107.9714 -25.7566 -19.2486 8.6029 15.7798 7.4475 -16.4453 50.5457 -2.6814 -4.3843 -32.0948 -26.9485 14.7666 -165.1896 82.8287 -168.0202 -5.0404 -7.9844 16.4975 1.9492 -4.3699 -2.0037 -35.5237 -42.9115 6.1100 -164.6306 67.9283 -175.2355 17.9478 5.2926 12.6017 -0.5163 -2.9349 0.1904
-103.3128 9.3261 -44.6168 103.0964 -26.3015 -35.7297 3.4732 14.7143 4.3465 3.2931 1.4686 7.3354 6.7896 8.9814 13.6575 16.1028 0.5440 -1.4997 0.5859 -3.6306 4.1540 6.2365 -1.7152 2.9737 0.0972 -0.3359 -0.1312 0.3133 -11.8149 -3.4994 -0.1168 -11.7715 3.1759 10.7976 9.0376 16.8052 -105.5845 30.3621 -60.8595 6.6136 -2.4313 -49.3172 -2.0548 22.3250 7.5370 -15.0040 10.3212 14.6258 -61.4260 1.3355 2.6024 -4.4167 12.7035 47.0923 76.9417 -21.1428 -96.6125 2.8258 -6.8936 107.7065 -25.8862 -19.5679 8.8842 15.7123 7.5031 -16.4875 50.4790 -2.6097 -4.4317 -32.1271 -26.8235 14.7042 -165.2989 82.8372 -168.1136 -4.8574 -7.9545 16.6584 1.9632 -4.4237 -2.0046 -35.6134 -42.8517 6.0808 -164.7151 67.8546 -175.2486 18.0473 5.2725 12.5654 -0.5237 -2.9718 0.2026
-103.2632 9.3980 -44.3483 103.1726 -26.4595 -35.8130 3.5267 14.7623 4.3812 3.3259 1.4998 7.3106 6.7316 8.9499 13.6704 16.0973 0.4544 -1.4800 0.4643 -3.6348 4.0023 6.2190 -1.6961 2.7044 0.0916 -0.3404 -0.1099 0.3292 -11.8701 -3.4936 -0.1443 -11.8041 3.2146 10.6470 9.0897 16.9089 -104.9840 30.3488 -60.2886 6.1663 -2.5775 -48.7397 -1.7374 22.7875 7.4799 -14.9968 10.3758 14.7434 -61.4828 1.3707 2.5869 -4.5869 12.4240 46.8609 76.9720 -21.4551 -96.9198 3.3074 -7.2190 107.4725 -26.1277 -20.0905 9.1725 15.5992 7.5756 -16.4976 50.3636 -2.4657 -4.4153 -32.1365 -26.6952 14.6282 -165.3697 82.8455 -168.1790 -4.6599 -7.8120 16.7789 1.9878 -4.4427 -2.0157 -35.7034 -42.7753 6.0044 -164.8498 67.7899 -175.3362 18.2136 5.4578 12.4655 -0.5214 -3.0407 0.2184
-103.2374 9.4363 -44.1441 103.2423 -26.6803 -35.8931 3.5908 14.8507 4.4144 3.3385 1.5154 7.2518 6.7143 8.9369 13.6645 16.1164 0.2830 -1.3785 0.2380 -3.6553 3.9145 6.2443 -1.7781 2.4251 0.0562 -0.3431 -0.0752 0.3086 -11.9374 -3.4590 -0.1980 -11.8340 3.2656 10.5010 9.2670 17.0527 -104.3756 30.1542 -59.9598 5.8868 -2.7318 -48.1489 -1.4504 23.1884 7.4673 -14.9751 10.4696 14.8386 -61.5096 1.4118 2.5199 -4.8443 12.3592 46.6246 77.2776 -21.7343 -97.4561 3.8300 -7.4788 107.2622 -26.4060 -20.6977 9.4031 15.4117 7.5978 -16.4816 50.1885 -2.3217 -4.4487 -32.0438 -26.5489 14.4846 -165.3622 82.8733 -168.1683 -4.5636 -7.7398 16.8337 2.0004 -4.4083 -1.9983 -35.7667 -42.6699 5.8525 -164.9735 67.7427 -175.4316 18.4073 5.6817 12.3597 -0.5184 -3.1679 0.2428
-103.2856 9.4197 -44.0345 103.2336 -26.9582 -35.8490 3.6001 14.9161 4.4158 3.3240 1.4854 7.2338 6.8531 8.8080 13.6065 15.9198 0.0885 -1.3208 -0.0311 -3.6871 3.9957 6.4906 -1.9058 2.1412 -0.0195 -0.3499 -0.0285 0.2400 -12.0374 -3.4006 -0.2801 -11.8783 3.3310 10.2933 9.6794 17.3160 -103.6907 29.8268 -60.0159 5.8250 -2.9236 -47.5050 -1.2377 23.5415 7.5323 -14.8293 10.5786 14.8542 -61.4557 1.4938 2.3704 -5.1388 12.4189 46.4119 77.5417 -21.9206 -97.8707 4.2788 -7.4120 107.2781 -26.7182 -21.3307 9.3647 15.1873 7.6152 -16.5440 49.8802 -2.2311 -4.5786 -31.7668 -26.5912 14.2727 -165.1021 82.8605 -167.8759 -4.6402 -7.7287 16.6972 1.9943 -4.2842 -1.9850 -35.6726 -42.5459 5.5575 -164.7815 67.8459 -175.2909 18.8031 5.9096 12.1749 -0.5141 -3.5686 0.2108
