HIERARCHY
ROOT Hips
{
	OFFSET 0.0000 0.0000 0.0000
	CHANNELS 6 Xposition Yposition Zposition Zrotation Xrotation Yrotation
	JOINT Spine1
	{
		OFFSET -0.0137 5.0038 -0.0537
		CHANNELS 3 Zrotation Xrotation Yrotation
		JOINT Spine2
		{
			OFFSET -0.0000 7.1253 -0.0298
			CHANNELS 3 Zrotation Xrotation Yrotation
			JOINT Chest
			{
				OFFSET -0.0000 7.5501 -0.8160
				CHANNELS 3 Zrotation Xrotation Yrotation
				JOINT Neck1
				{
					OFFSET -0.1817 26.3113 -0.5533
					CHANNELS 3 Zrotation Xrotation Yrotation
					JOINT Neck2
					{
						OFFSET -0.0000 7.7094 2.3026
						CHANNELS 3 Zrotation Xrotation Yrotation
						JOINT Head
						{
							OFFSET -0.0000 6.1289 1.9537
							CHANNELS 3 Zrotation Xrotation Yrotation
							JOINT Jaw
							{
								OFFSET 0.0026 0.4756 3.0949
								CHANNELS 3 Zrotation Xrotation Yrotation
								End Site
								{
									OFFSET 0.0 1.0 0.0
								}
							}
							JOINT LeftEye
							{
								OFFSET 3.2064 5.3802 7.5869
								CHANNELS 3 Zrotation Xrotation Yrotation
								End Site
								{
									OFFSET 0.0 1.0 0.0
								}
							}
							JOINT RightEye
							{
								OFFSET -3.2224 5.3619 7.5582
								CHANNELS 3 Zrotation Xrotation Yrotation
								End Site
								{
									OFFSET 0.0 1.0 0.0
								}
							}
						}
					}
				}
				JOINT LeftShoulder
				{
					OFFSET 1.6217 23.2372 5.1134
					CHANNELS 3 Zrotation Xrotation Yrotation
					JOINT LeftArm
					{
						OFFSET 14.9198 0.0000 -5.5023
						CHANNELS 3 Zrotation Xrotation Yrotation
						JOINT LeftForeArm
						{
							OFFSET 28.7393 0.0000 -0.0026
							CHANNELS 3 Zrotation Xrotation Yrotation
							JOINT LeftHand
							{
								OFFSET 27.0940 -0.0000 0.0026
								CHANNELS 3 Zrotation Xrotation Yrotation
								JOINT LeftHandThumbEnd
								{
									OFFSET 12.2686 -3.2202 4.8331
									CHANNELS 3 Zrotation Xrotation Yrotation
									End Site
									{
										OFFSET 0.0 1.0 0.0
									}
								}
								JOINT LeftHandMiddleEnd
								{
									OFFSET 19.0120 -0.3129 -0.0340
									CHANNELS 3 Zrotation Xrotation Yrotation
									End Site
									{
										OFFSET 0.0 1.0 0.0
									}
								}
							}
						}
					}
				}
				JOINT RightShoulder
				{
					OFFSET -1.3801 23.1803 5.2142
					CHANNELS 3 Zrotation Xrotation Yrotation
					JOINT RightArm
					{
						OFFSET -15.0372 0.0000 -5.5456
						CHANNELS 3 Zrotation Xrotation Yrotation
						JOINT RightForeArm
						{
							OFFSET -28.7366 0.0000 -0.0026
							CHANNELS 3 Zrotation Xrotation Yrotation
							JOINT RightHand
							{
								OFFSET -27.1336 -0.0000 0.0026
								CHANNELS 3 Zrotation Xrotation Yrotation
								JOINT RightHandThumbEnd
								{
									OFFSET -12.2642 -3.2115 4.8040
									CHANNELS 3 Zrotation Xrotation Yrotation
									End Site
									{
										OFFSET 0.0 1.0 0.0
									}
								}
								JOINT RightHandMiddleEnd
								{
									OFFSET -19.0006 -0.3066 -0.0316
									CHANNELS 3 Zrotation Xrotation Yrotation
									End Site
									{
										OFFSET 0.0 1.0 0.0
									}
								}
							}
						}
					}
				}
			}
		}
	}
	JOINT LeftLeg
	{
		OFFSET 10.0432 -8.4345 2.5957
		CHANNELS 3 Zrotation Xrotation Yrotation
		JOINT LeftShin
		{
			OFFSET -0.0000 -43.2218 -0.8029
			CHANNELS 3 Zrotation Xrotation Yrotation
			JOINT LeftFoot
			{
				OFFSET 0.0000 -42.1551 -3.4815
				CHANNELS 3 Zrotation Xrotation Yrotation
				JOINT LeftToeBase
				{
					OFFSET 0.0000 -5.0595 13.2315
					CHANNELS 3 Zrotation Xrotation Yrotation
					End Site
					{
						OFFSET 0.0 1.0 0.0
					}
				}
			}
		}
	}
	JOINT RightLeg
	{
		OFFSET -10.0473 -8.2953 2.6203
		CHANNELS 3 Zrotation Xrotation Yrotation
		JOINT RightShin
		{
			OFFSET 0.0000 -43.3622 -0.8056
			CHANNELS 3 Zrotation Xrotation Yrotation
			JOINT RightFoot
			{
				OFFSET 0.0000 -42.1174 -3.4784
				CHANNELS 3 Zrotation Xrotation Yrotation
				JOINT RightToeBase
				{
					OFFSET -0.0000 -5.0796 13.2842
					CHANNELS 3 Zrotation Xrotation Yrotation
					End Site
					{
						OFFSET 0.0 1.0 0.0
					}
				}
			}
		}
	}
}
MOTION
Frames: 60
Frame Time: 0.033333
0.3752 95.2633 -1.1025 4.6423 -0.8850 -0.4130 -0.1574 0.2323 0.4117 -0.4382 -5.1355 1.7833 0.3970 15.2045 0.3604 5.8293 31.0330 0.8364 -1.2325 -3.8680 -4.2046 3.2679 -0.8055 -6.8235 0.0309 -0.1073 -0.0300 0.7311 -10.5635 -3.9458 -0.6550 -10.5971 3.8704 -1.8693 19.2619 3.0522 -44.2118 0.7660 25.0876 1.4940 1.3856 -70.6031 24.9817 5.9899 29.2806 -15.4395 11.6201 16.6712 -60.7516 1.3248 2.6012 -11.3205 16.3905 11.5219 73.7090 -29.0727 -12.7042 -0.7265 1.6411 59.3626 -10.6008 38.0903 -43.4090 15.5183 7.3281 -15.7542 49.9223 -3.7679 -5.1930 10.4693 -8.5387 -2.8331 -0.0750 15.6055 -0.4935 -16.3395 -6.1905 -2.5975 1.6274 -0.7799 -1.9801 -21.1184 -10.9478 -16.7737 0.1707 20.9870 0.4962 19.7559 -5.5940 -18.7311 -1.4087 0.3106 1.0150
0.5542 95.3233 -1.0764 4.5349 -0.9697 0.1759 -0.2806 0.3524 0.3309 -0.4300 -5.0999 1.7826 0.2856 15.0509 0.2466 5.8783 29.8080 0.8091 -1.2565 -3.8371 -4.4450 3.2695 -0.5874 -7.2479 0.0172 -0.1269 -0.0176 0.7274 -10.5291 -3.9338 -0.6795 -10.5570 3.8870 -1.9203 19.2855 2.8785 -44.5328 1.4338 24.6666 1.2025 1.4036 -71.5797 25.0684 5.9875 29.7067 -15.5093 11.5997 16.5748 -60.9736 1.4191 2.4540 -10.5540 16.1940 11.6048 72.1417 -29.0484 -13.0540 -0.3896 1.5311 60.0993 -10.2584 37.6447 -43.5685 15.5523 7.2978 -15.7162 50.0323 -3.7311 -5.1249 10.4845 -8.6783 -2.8918 -0.1068 15.7511 -0.5423 -16.1847 -6.3656 -2.9208 1.6297 -0.8093 -1.9982 -21.1075 -10.4999 -17.1627 0.1468 20.5664 0.4774 19.8808 -5.3460 -18.9505 -1.4152 0.2385 0.9951
0.7087 95.3424 -1.0703 4.4009 -1.0465 0.8569 -0.4259 0.4357 0.2772 -0.4583 -5.0975 1.7754 0.1708 14.9551 0.0876 5.8924 28.1609 0.8249 -1.3449 -3.8178 -4.8352 3.1332 -0.2048 -7.7206 0.0121 -0.1412 -0.0123 0.7349 -10.5244 -3.9338 -0.6970 -10.5491 3.8972 -2.2612 19.3474 2.6252 -44.7960 2.2522 23.8264 1.0847 1.4459 -72.6218 24.6699 5.8599 30.2568 -15.5945 11.5991 16.5230 -61.0411 1.4970 2.3433 -9.5883 16.0752 11.7416 70.1057 -29.1088 -13.3264 -0.0662 1.2984 60.9842 -10.0288 36.9076 -43.3803 15.5754 7.2303 -15.6723 50.0145 -3.7518 -5.0341 10.5254 -8.9151 -2.9192 -0.1160 15.9895 -0.5608 -16.0024 -6.5852 -3.3672 1.6328 -0.8636 -2.0032 -21.0907 -10.0666 -17.6522 0.1320 20.1878 0.4640 20.0260 -5.1740 -19.0916 -1.4204 0.2196 0.9897
0.8635 95.3110 -1.0624 4.2103 -1.1554 1.5071 -0.5709 0.4787 0.2387 -0.5076 -5.1070 1.8144 -0.0095 14.9792 -0.0379 5.8076 26.5212 0.8728 -1.4404 -3.7937 -5.2723 2.9561 0.0926 -8.2218 0.0272 -0.1514 -0.0331 0.7633 -10.5033 -3.9533 -0.6957 -10.5339 3.8679 -3.0379 19.4281 2.3953 -44.7564 2.8586 22.5232 1.0919 1.5298 -73.4354 24.2425 5.7158 30.6842 -15.6952 11.5780 16.4577 -61.1168 1.5335 2.2379 -8.7301 16.0332 11.9062 67.9602 -29.0906 -13.4332 0.0440 1.0615 61.9437 -9.9068 36.2741 -42.8246 15.5456 7.2046 -15.6557 49.9278 -3.7753 -4.9487 10.6364 -9.2165 -2.8781 -0.1205 16.4375 -0.5728 -15.9398 -6.9526 -3.8653 1.6329 -0.9779 -1.9971 -21.0382 -9.6472 -18.1627 0.1181 19.8968 0.4333 20.1212 -5.1134 -19.1023 -1.4230 0.1769 0.9766
0.9922 95.2142 -1.0613 3.9979 -1.4273 2.1863 -0.7356 0.5441 0.2432 -0.5610 -5.1059 1.8930 -0.3761 15.1039 -0.1436 5.6507 25.4286 0.8852 -1.5095 -3.7747 -5.6223 2.8192 0.3988 -8.5919 0.0531 -0.1543 -0.0685 0.7994 -10.4749 -3.9852 -0.6795 -10.5122 3.8178 -4.1368 19.5707 2.1866 -44.2190 2.8853 20.7131 1.0866 1.5345 -73.6468 23.6391 5.6550 30.9378 -15.8135 11.5039 16.3384 -61.1506 1.5623 2.1136 -8.2343 16.0742 12.0802 66.1165 -28.8746 -13.5394 0.0252 0.8624 62.7749 -9.5226 35.4723 -41.6937 15.4970 7.1795 -15.6443 49.8116 -3.8188 -4.8750 10.7893 -9.4788 -2.8084 -0.1247 17.1300 -0.6002 -16.0000 -7.5263 -4.4366 1.6336 -1.0465 -2.0027 -21.0359 -9.1626 -18.7043 0.1079 19.8517 0.4020 20.2501 -5.2490 -19.1359 -1.4236 0.1493 0.9835
1.0428 95.0675 -1.0157 3.7955 -1.9005 3.0195 -0.9727 0.5902 0.3000 -0.6137 -5.0899 1.9998 -0.9613 15.3404 -0.2222 5.3352 25.1892 0.8754 -1.5195 -3.7605 -5.8248 2.7647 0.8628 -8.8059 0.0868 -0.1487 -0.1111 0.8298 -10.4531 -4.0271 -0.6432 -10.4928 3.7620 -5.4475 19.6790 2.0014 -42.8892 2.3008 18.1681 1.1060 1.5566 -73.0173 22.4944 5.4919 31.1360 -15.8494 11.4041 16.2076 -61.1209 1.6096 2.0017 -8.1893 16.2169 12.2037 64.7825 -28.3850 -13.6754 -0.0005 0.6460 63.2048 -8.8356 34.3206 -39.9926 15.5430 7.1247 -15.6366 49.7624 -3.8838 -4.8070 10.9516 -9.6514 -2.8032 -0.1398 18.0040 -0.6266 -16.1419 -8.1717 -5.1646 1.6356 -1.0564 -1.9968 -21.1225 -8.6273 -19.4163 0.1123 20.1327 0.3775 20.4020 -5.5473 -19.1754 -1.4264 0.1484 1.0077
1.0257 94.8624 -0.9253 3.6144 -2.6340 4.1132 -1.2717 0.5982 0.4127 -0.6985 -5.0750 2.1749 -1.7948 15.6921 -0.2375 4.7273 26.0648 0.9261 -1.5148 -3.7439 -5.8981 2.8281 1.6659 -8.8277 0.1177 -0.1325 -0.1399 0.8443 -10.4644 -4.0618 -0.5976 -10.5053 3.7288 -7.0187 19.6526 1.7658 -40.1380 1.3891 14.3739 1.3429 1.7044 -71.2403 20.1622 5.1387 31.3016 -15.7736 11.3228 16.1182 -61.0792 1.6673 1.9280 -8.6015 16.5495 12.2790 63.9945 -27.4569 -13.8552 0.1383 0.3875 63.1049 -8.0371 32.6522 -37.7236 15.6478 7.0632 -15.6959 49.7272 -3.9936 -4.8288 11.1360 -9.6285 -2.9517 -0.1557 18.9578 -0.6349 -16.3635 -8.8323 -6.0917 1.6441 -1.0915 -1.9879 -21.3529 -7.9644 -20.4349 0.1297 20.7615 0.3946 20.5948 -6.0487 -19.1744 -1.4297 0.0649 1.0470
0.9059 94.6251 -0.7626 3.4242 -3.6899 5.6069 -1.6061 0.5269 0.6451 -0.8148 -5.0568 2.4634 -2.9219 16.1073 -0.1556 3.5829 28.2925 1.2071 -1.5747 -3.7107 -5.7717 2.9996 3.0870 -8.6317 0.1313 -0.1132 -0.1337 0.8327 -10.5023 -4.0604 -0.5640 -10.5362 3.7394 -8.6788 19.4058 1.4726 -35.5101 0.2000 9.1183 1.6118 1.8512 -67.9159 16.9009 4.0392 31.2269 -15.6632 11.1727 16.0533 -60.9329 1.6763 1.9294 -9.5469 17.0059 12.3214 64.1163 -25.8084 -14.2355 0.4317 0.2451 62.1717 -7.1395 30.7498 -35.2239 15.7773 6.9520 -15.7542 49.6036 -4.1356 -4.9501 11.3923 -9.2897 -3.4198 -0.1654 19.9162 -0.6294 -16.5595 -9.4610 -7.1607 1.6590 -1.2518 -1.9722 -21.7279 -6.8866 -21.7636 0.1649 21.4771 0.4465 20.8095 -6.7205 -19.2859 -1.4350 -0.1741 1.0878
0.6236 94.3708 -0.4279 3.0710 -4.9926 7.5137 -1.9015 0.3544 0.9427 -0.9323 -5.0699 2.7959 -4.2175 16.4847 0.1454 1.4889 31.6450 2.1034 -1.6941 -3.6605 -5.4079 3.1613 5.5806 -8.2258 0.1064 -0.0955 -0.0858 0.8000 -10.6680 -4.0256 -0.5882 -10.6813 3.8134 -9.9605 18.8117 1.1117 -29.4851 -0.7385 2.7382 1.9779 1.7746 -62.9830 13.6343 2.2975 30.9988 -15.5808 10.9930 16.1224 -60.7536 1.6615 2.0598 -10.8587 17.4706 12.3630 65.1949 -23.4914 -14.6447 0.7339 0.1951 60.1559 -6.2535 28.9011 -33.0324 15.8764 6.9157 -15.8273 49.5164 -4.2653 -5.0671 11.8336 -8.6434 -4.2943 -0.1822 20.8546 -0.6376 -16.6930 -10.1279 -8.2482 1.6772 -1.4058 -1.9231 -21.9791 -5.1259 -23.0960 0.1858 22.0686 0.4887 21.0427 -7.5785 -19.8390 -1.4426 -0.4309 1.1212
0.2298 94.0938 0.0182 2.5423 -6.3631 9.6454 -2.1250 0.1113 1.2273 -1.0195 -5.1265 3.2046 -5.5263 16.7228 0.5756 -1.8228 35.0762 4.1064 -1.9392 -3.6703 -5.1479 3.1540 8.9687 -7.7416 0.0633 -0.0919 -0.0569 0.7932 -10.9249 -4.0140 -0.6765 -10.9141 3.8798 -10.5285 17.8112 0.6976 -23.1222 -1.0141 -4.1899 2.1830 1.4000 -56.5961 10.7093 0.5331 30.9371 -15.5897 10.8404 16.2643 -60.5516 1.7142 2.2291 -12.3185 17.6252 12.6101 66.8395 -20.7125 -14.7523 1.0013 0.1953 57.0055 -5.3994 28.0546 -31.7390 15.9115 6.9276 -15.8010 49.3256 -4.3410 -5.1779 12.4837 -7.7730 -5.5858 -0.2136 21.7054 -0.6705 -16.8873 -10.8371 -9.1124 1.7018 -1.5556 -1.8509 -22.0073 -2.8065 -24.2751 0.1747 22.3975 0.4977 21.1134 -8.6125 -20.8953 -1.4448 -0.6151 1.1420
-0.1901 93.8203 0.5912 1.8854 -7.7307 11.4061 -2.2926 -0.2045 1.4952 -1.0331 -5.2313 3.6121 -6.7195 16.9460 1.1533 -6.0155 37.0869 7.2311 -2.2940 -3.7355 -5.4158 2.9560 11.9070 -7.5632 0.0133 -0.1090 -0.0775 0.7781 -11.1825 -4.0375 -0.7702 -11.1587 3.8851 -10.2903 16.4329 0.0325 -17.6867 -1.0052 -10.0168 2.1157 0.8419 -50.0607 8.7912 -0.4223 30.9337 -15.5925 10.7294 16.3967 -60.3732 1.8372 2.4379 -13.5316 17.5336 13.1609 68.2726 -18.4038 -13.6798 0.8593 0.0635 52.8118 -4.4786 29.3817 -31.6052 15.8918 7.0085 -15.6205 49.0910 -4.3245 -5.2125 13.2805 -6.6531 -6.7335 -0.2687 22.5016 -0.7752 -17.2218 -11.6533 -9.5949 1.7197 -1.7988 -1.7939 -21.7968 -0.2275 -25.0051 0.1408 22.4869 0.4595 20.8429 -9.7606 -22.0613 -1.4412 -0.6947 1.1239
-0.5576 93.5440 1.2141 1.2980 -9.2030 11.7740 -2.3558 -0.5540 1.7652 -0.9620 -5.3715 3.9802 -7.6655 17.0274 1.8836 -10.5406 37.1914 10.7266 -2.5996 -3.8029 -6.0407 2.2888 13.4178 -7.7080 -0.0761 -0.1332 -0.1078 0.6865 -11.3208 -4.0280 -0.8685 -11.2506 3.8537 -9.6200 14.9167 -0.7446 -13.6863 -0.9676 -13.3865 1.7214 0.3913 -44.7988 7.8776 -0.6393 30.9332 -15.5505 10.6589 16.4478 -60.2410 1.9522 2.6386 -14.5886 17.2991 14.1161 69.0703 -17.6284 -10.8781 0.6244 -0.4225 47.5369 -3.2142 33.2643 -32.0077 15.8293 7.1614 -15.3827 48.8372 -4.2348 -5.1704 14.0729 -4.9796 -7.0746 -0.3314 23.2135 -0.8892 -17.6978 -12.6260 -9.5382 1.7275 -2.1077 -1.7742 -21.6116 2.1239 -24.8798 0.1274 22.7058 0.4252 20.3437 -10.9607 -22.8207 -1.4364 -0.7615 1.1070
-0.7666 93.2311 1.8522 1.0643 -11.0044 9.7301 -2.1316 -1.0232 1.9031 -0.7835 -5.5840 4.3399 -8.1823 16.8603 2.6105 -15.0408 35.5729 13.7158 -2.8123 -3.8825 -6.7388 0.7239 13.4812 -7.8102 -0.1435 -0.1465 -0.1328 0.5893 -11.2835 -3.9992 -0.9105 -11.1421 3.7991 -9.3172 13.8286 -1.4059 -10.8845 -0.7641 -13.2913 1.1598 0.0334 -41.5141 7.4855 -0.2605 31.1308 -15.3753 10.7087 16.4423 -60.1195 1.8752 2.5902 -15.8738 16.9967 15.5500 68.6105 -19.1772 -5.4082 0.4924 -0.9901 41.6327 -0.9966 38.0610 -31.5783 15.6013 7.4567 -15.3397 48.8924 -3.8957 -5.1585 14.6840 -2.3599 -5.5892 -0.3327 23.7322 -0.9290 -18.1407 -13.7810 -9.0550 1.7201 -2.3110 -1.7823 -21.8103 3.7579 -23.5220 0.1994 23.6309 0.4600 19.7230 -12.1939 -22.4614 -1.4271 -0.9137 1.1371
-0.8110 92.8750 2.3908 1.4881 -13.0659 4.9745 -1.5076 -1.6723 1.7889 -0.4856 -5.8361 4.5356 -8.2079 16.2801 2.9088 -18.8994 31.8644 15.5662 -3.5054 -4.0007 -7.2055 -2.1925 12.2065 -7.3548 -0.1241 -0.1438 -0.2035 0.5410 -11.1142 -4.0366 -0.8289 -10.9461 3.6885 -9.9252 13.3441 -2.0055 -9.3418 -0.1982 -8.4766 0.6210 -0.2608 -40.3365 7.4415 0.1193 31.3614 -15.2142 10.7901 16.3220 -60.0508 1.6387 2.2564 -17.6100 16.3522 17.2988 66.5801 -23.3115 2.6347 0.8943 -1.2575 36.7153 2.6319 41.0985 -28.1893 15.4353 7.6596 -15.5001 49.4055 -3.4823 -5.0883 15.1648 1.1083 -1.5763 -0.2559 23.8240 -0.8423 -18.3294 -14.9042 -8.5146 1.7078 -2.2621 -1.8000 -22.5902 4.3474 -20.6843 0.3349 25.5491 0.5857 19.1911 -13.3391 -20.4487 -1.4104 -1.0857 1.2079
-0.6978 92.4961 2.8751 2.6312 -14.9863 -1.7056 -0.5305 -2.4233 1.3735 -0.1213 -6.0950 4.2424 -7.6935 15.3927 2.5182 -21.3918 25.3862 15.7569 -4.8618 -4.1094 -7.0904 -6.1433 8.7406 -5.7063 -0.0414 -0.1236 -0.3244 0.5468 -10.8234 -4.1139 -0.6711 -10.6368 3.4928 -11.1851 13.3608 -2.6584 -9.6410 -0.1354 1.1137 0.0338 -0.6036 -41.0808 8.2869 0.0564 30.3683 -15.0697 10.7029 15.9267 -59.8892 1.4580 1.7634 -19.8922 15.1569 18.5335 62.4612 -28.9839 14.3245 1.0601 -1.0370 34.9137 8.1303 40.6251 -20.6883 15.3734 7.7400 -15.8383 50.2660 -3.3380 -4.9096 15.6088 4.9800 4.1297 -0.1611 23.3316 -0.7429 -18.4920 -15.8132 -7.5421 1.6918 -2.1066 -1.8109 -23.7916 4.0517 -16.6994 0.4672 27.9675 0.7612 19.3248 -14.3918 -17.1669 -1.3921 -1.2650 1.2632
-0.5300 92.2964 3.3157 4.0619 -15.9785 -8.8507 0.6357 -3.2148 0.8378 0.2088 -6.3443 3.5831 -6.4547 14.3432 1.5873 -21.7732 16.7175 14.8292 -5.8007 -4.1581 -6.4781 -9.4009 2.0811 -3.0719 0.0115 -0.1172 -0.3978 0.5304 -10.5841 -4.1435 -0.5476 -10.2999 3.3457 -12.2241 13.4869 -3.0241 -12.4765 -0.2572 12.5720 -0.5159 -0.8958 -42.4290 10.0151 0.0780 26.9547 -15.0535 10.5828 15.5522 -59.8829 1.4332 1.4672 -21.3692 13.3741 18.5531 55.5941 -33.5910 29.1474 0.5126 -0.3761 37.9297 14.0518 35.5669 -11.7955 15.5108 7.9148 -16.2210 50.9904 -3.4549 -4.6542 15.8074 8.7707 9.2423 -0.0593 21.7544 -0.6384 -18.7847 -15.9560 -5.1627 1.6797 -2.0030 -1.8010 -24.8272 3.0755 -12.5914 0.5101 29.6736 0.8870 19.9466 -14.9386 -13.3997 -1.3828 -1.3805 1.2430
-0.4623 92.5105 3.6704 5.3304 -15.8160 -15.4047 1.6885 -3.9138 0.4145 0.5102 -6.5860 2.9981 -4.2993 13.2197 0.4556 -20.3750 7.3852 13.7962 -5.2634 -4.2246 -5.5127 -10.5249 -6.9225 -0.8049 -0.0032 -0.1235 -0.3566 0.4603 -10.6151 -4.1314 -0.5029 -10.2232 3.4095 -12.0083 13.5024 -2.9587 -17.5791 1.8882 22.0113 -0.5413 -0.9532 -41.8734 11.7125 0.3539 21.7028 -14.7941 10.8721 15.6490 -60.2239 1.6435 1.6076 -20.7468 11.4081 18.0894 48.1382 -35.8050 42.6673 0.1792 0.5598 45.5529 17.9284 25.7771 -5.5818 15.4997 8.2388 -16.6920 51.5709 -3.6145 -4.7299 15.2538 12.5020 12.3160 0.0337 18.5690 -0.4802 -18.7871 -15.0068 -1.5032 1.6672 -1.8245 -1.8080 -25.4207 1.6969 -9.1292 0.4718 29.9839 0.9516 20.6874 -14.8228 -9.7587 -1.3867 -1.5778 1.1441
-0.5640 92.9383 3.8789 6.1635 -14.9629 -20.2502 2.3625 -4.5918 0.1830 0.7832 -6.8171 2.4608 -1.4093 12.4932 -0.4776 -17.4355 -0.9947 11.9696 -4.0058 -4.1551 -4.2117 -9.6730 -15.3003 0.4730 0.0364 -0.0883 -0.2045 0.5545 -10.6410 -4.0371 -0.5119 -10.2920 3.6040 -10.0230 13.5959 -2.8806 -23.9123 6.1596 26.9361 -0.2787 -0.7385 -38.6394 12.8707 0.2887 16.1400 -14.2364 11.3346 15.9300 -60.0833 1.7919 2.0524 -18.7004 9.8711 17.7499 42.9863 -36.7449 51.6887 0.4879 1.6810 55.0422 18.7185 13.6395 -2.8843 15.1517 8.3030 -16.9161 51.8506 -3.6730 -4.9934 13.9735 15.5588 12.8586 0.0706 14.9590 -0.2680 -17.8315 -13.4819 2.1852 1.6624 -1.5459 -1.9011 -25.6570 0.2665 -7.0800 0.4242 29.2609 0.8962 21.3621 -14.3288 -6.8275 -1.3929 -1.8241 0.9866
-0.8181 93.1345 3.8946 6.5767 -14.4029 -22.4684 2.6616 -5.2040 0.0581 1.0037 -7.0136 1.6944 1.5180 12.3528 -1.0688 -13.1773 -7.1004 9.1190 -3.0094 -3.9271 -3.1420 -7.9967 -21.6026 0.6881 0.1237 -0.0476 -0.0450 0.7254 -10.5557 -3.9088 -0.5024 -10.3170 3.7610 -6.7968 13.7477 -3.2700 -29.5675 10.2919 27.5841 -0.3581 -0.6561 -34.4506 12.8989 -0.1506 11.6040 -13.8912 11.6524 16.0564 -59.7470 1.8424 2.4284 -15.9042 8.6511 17.4126 40.7923 -36.8489 55.7843 1.5166 2.7688 65.7865 16.7274 -0.3084 -2.7246 15.2524 8.0506 -16.7559 51.9181 -3.5811 -5.3038 12.7183 17.4576 11.4920 0.0676 12.7568 -0.1253 -16.4506 -12.5927 4.3920 1.6607 -1.2563 -2.0742 -25.8670 -0.6731 -7.0274 0.3656 28.6871 0.7836 21.8809 -14.3806 -4.9778 -1.4036 -1.8543 0.8426
-1.2289 93.0185 3.8885 6.7555 -15.0354 -21.7093 2.5704 -5.6431 -0.0375 1.0972 -7.1413 0.7707 3.8647 12.4756 -1.5669 -8.0507 -10.2494 5.8495 -2.7241 -3.7385 -2.9288 -6.5158 -25.6850 -0.3019 0.1611 -0.0415 0.0641 0.7842 -10.4635 -3.8253 -0.4830 -10.3466 3.8719 -3.6903 13.9372 -4.3170 -32.6140 12.1460 26.1994 -0.6660 -0.7228 -31.6430 11.8189 0.2343 8.9157 -13.9679 11.8343 16.0358 -59.6025 1.8781 2.5692 -12.5333 7.6448 16.8067 40.6480 -35.5732 55.9240 2.5260 3.3373 76.4202 13.3233 -13.1001 -3.2954 15.4972 7.5304 -16.4514 51.4140 -3.4577 -5.2659 12.0170 18.8361 9.0921 0.0402 12.0669 -0.1378 -15.5908 -12.8922 4.6424 1.6539 -1.0794 -2.2624 -26.3833 -0.1435 -8.7887 0.3164 28.7591 0.7196 22.2891 -15.1912 -4.6428 -1.4139 -1.6371 0.8019
-1.7149 92.6733 4.0385 6.7876 -16.7710 -18.4948 2.1872 -6.1251 -0.1145 0.9699 -7.3424 -0.2749 5.5673 12.6167 -2.1413 -2.8722 -10.8419 2.7368 -2.8357 -3.6653 -3.6514 -5.4264 -27.7970 -1.9432 0.1358 -0.0510 0.1251 0.7401 -10.5120 -3.8016 -0.4853 -10.4867 3.9690 -1.4865 14.1774 -5.7699 -32.8062 11.8764 24.2277 -0.6341 -0.7275 -30.9378 10.2069 1.0685 7.8378 -14.1377 11.8776 15.9660 -59.3960 1.8689 2.6554 -8.6255 6.8856 15.7065 40.1445 -32.3025 54.4601 2.4031 3.1793 84.0130 10.3334 -18.0535 -4.1493 15.4744 7.2074 -16.4977 50.7181 -3.4117 -5.1326 11.6528 20.0531 5.9767 -0.0015 12.5342 -0.2316 -15.4946 -14.0301 3.8177 1.6414 -1.0082 -2.4120 -27.3532 1.9911 -11.7847 0.2775 29.1161 0.6592 22.6915 -16.3974 -5.9121 -1.4277 -1.2436 0.8464
-2.2309 92.2003 4.3550 6.7514 -18.9872 -14.4800 1.7282 -6.7800 -0.1644 0.7529 -7.6175 -1.1553 6.6445 12.6183 -2.7724 0.9374 -9.7715 0.4291 -2.9684 -3.7227 -4.6191 -4.8484 -28.0722 -3.7394 0.0959 -0.0558 0.1564 0.6698 -10.5823 -3.7883 -0.4901 -10.6194 4.0278 -0.5976 14.2761 -6.8429 -30.7860 9.9682 22.7486 -0.2139 -0.5569 -32.3561 8.6516 1.6075 7.4428 -14.2311 11.7015 15.8963 -58.9886 1.7729 2.7460 -4.9516 6.4266 14.4666 38.7881 -27.9873 52.0701 1.8054 2.9732 87.2398 7.8335 -15.7613 -5.3927 15.3998 7.1369 -16.6600 50.5262 -3.4328 -5.1463 11.4066 21.1630 2.8481 -0.0421 13.5981 -0.2922 -15.7517 -15.2569 2.5470 1.6363 -0.9237 -2.4967 -28.5222 4.9036 -14.8801 0.2288 29.4992 0.6121 23.0876 -17.4050 -7.9399 -1.4403 -0.8563 0.9060
-2.7282 91.7257 4.7653 6.8545 -21.2084 -11.0490 1.4365 -7.4703 -0.2046 0.6141 -7.9641 -1.6385 7.1276 12.4721 -3.2294 2.8916 -7.8282 -0.8772 -3.0531 -3.8194 -5.3338 -4.5699 -27.1755 -5.4683 0.1118 -0.0582 0.1988 0.6698 -10.6502 -3.7566 -0.4529 -10.6902 4.0735 -0.9368 14.0960 -7.0994 -27.4032 6.9308 22.0723 0.1422 -0.3287 -35.4685 7.4187 1.7010 7.0801 -14.2758 11.4162 15.7466 -58.5702 1.6755 2.7643 -2.6109 6.3445 13.4906 37.2012 -23.7707 49.1958 1.1682 2.7223 87.1263 5.0562 -9.6696 -6.8241 15.2664 7.1470 -16.8326 50.5701 -3.4111 -5.2423 11.0643 22.2848 0.3599 -0.0706 14.8198 -0.3027 -16.1145 -16.4369 1.2636 1.6381 -0.8442 -2.5497 -29.8656 7.7283 -17.4404 0.1992 30.0106 0.6078 23.5297 -18.2925 -9.8514 -1.4505 -0.5233 0.9469
-3.1667 91.3293 5.1641 7.0848 -22.9756 -8.7596 1.5318 -8.1805 -0.2549 0.6876 -8.3470 -1.6355 7.2768 12.0952 -3.5143 3.0835 -5.5918 -1.0995 -3.2243 -3.9027 -5.6315 -4.5093 -25.3915 -6.8869 0.1490 -0.0620 0.2510 0.7002 -10.6622 -3.6997 -0.4034 -10.6603 4.1114 -2.3443 13.6783 -6.4820 -23.6340 3.7265 21.9020 0.3102 -0.0396 -39.6607 6.4252 1.7134 6.8395 -14.3992 11.1973 15.5930 -58.4398 1.6216 2.7320 -2.0220 6.6678 12.9640 36.2130 -20.0749 46.3900 0.6367 2.4767 85.0341 2.6094 -3.5545 -8.5983 15.1822 7.0657 -16.9190 50.5040 -3.4688 -5.3627 10.6612 23.2864 -1.3081 -0.0756 15.8040 -0.2692 -16.3553 -17.3155 0.4483 1.6437 -0.8925 -2.5718 -30.9670 10.0470 -19.0412 0.1909 30.4257 0.6334 23.8540 -18.9471 -11.4807 -1.4479 -0.3604 0.9263
-3.5672 91.0818 5.4570 7.2724 -24.1640 -7.3591 1.9357 -8.8688 -0.3057 0.8626 -8.7546 -1.4646 7.4597 11.5283 -3.5959 2.3453 -3.3830 -0.7133 -3.4629 -3.9529 -5.4841 -4.6829 -23.0323 -7.7468 0.2099 -0.0640 0.3259 0.7599 -10.6164 -3.6197 -0.3360 -10.5608 4.1600 -4.0271 13.0688 -5.2788 -20.5293 1.3936 22.2318 0.4879 0.3081 -44.4427 5.2557 1.7685 6.8058 -14.5619 11.0554 15.4821 -58.5146 1.5776 2.6572 -2.5720 7.1717 12.8301 36.2284 -16.4193 43.6813 0.3614 2.1051 82.2728 1.0166 1.3078 -10.6024 15.0732 6.9411 -16.8423 50.3384 -3.5085 -5.4040 10.3941 23.9852 -2.2897 -0.0777 16.5224 -0.2520 -16.4351 -17.7193 0.1032 1.6548 -1.0371 -2.5784 -31.5420 11.9157 -19.8108 0.1632 30.5625 0.6095 24.0535 -19.4341 -12.8431 -1.4444 -0.3443 0.8860
-3.9534 90.9160 5.6347 7.4256 -24.9267 -6.4101 2.2933 -9.4913 -0.4107 1.0166 -9.1043 -1.3096 7.7679 10.9551 -3.6137 1.6866 -1.5073 -0.4499 -3.6410 -3.9379 -5.1608 -4.8945 -20.9417 -8.0456 0.2521 -0.0626 0.4012 0.8098 -10.5473 -3.5480 -0.2997 -10.4763 4.2252 -5.2505 12.5737 -3.9827 -18.5684 0.2703 23.4231 0.5855 0.5294 -49.2832 3.7262 1.8666 7.1727 -14.7467 10.9422 15.3737 -58.6471 1.4474 2.6314 -3.2877 7.6869 12.7289 36.8742 -12.5703 41.5469 0.2651 1.8495 79.5454 0.8594 4.3957 -12.5059 15.0299 6.8382 -16.6120 50.0576 -3.5464 -5.4132 10.1396 24.4759 -3.0888 -0.0699 16.9546 -0.2237 -16.4055 -17.8082 0.0631 1.6591 -1.2049 -2.5342 -31.7799 13.2848 -20.2444 0.1216 30.6379 0.5649 24.1758 -19.8643 -14.0028 -1.4435 -0.3828 0.8642
-4.3623 90.7925 5.7023 7.5278 -25.5208 -5.7223 2.5099 -9.9253 -0.4932 1.0926 -9.3462 -1.2553 8.0932 10.5937 -3.6814 1.5900 -0.0747 -0.6320 -3.6780 -3.8805 -4.8317 -4.8058 -19.5264 -7.9968 0.2589 -0.0581 0.4472 0.8261 -10.4587 -3.4988 -0.3015 -10.3879 4.2640 -5.9120 12.3468 -2.7654 -17.4716 -0.1172 25.3280 0.4856 0.4888 -53.7394 1.7896 1.9805 7.9325 -14.9475 10.8030 15.2598 -58.7868 1.3322 2.6254 -3.5760 8.0901 12.5167 37.8264 -8.7985 39.7614 0.2199 1.5761 77.0882 1.6247 6.3095 -14.4157 14.9800 6.7308 -16.3705 49.7744 -3.5811 -5.4863 9.9088 24.8162 -3.8142 -0.0548 17.3354 -0.1761 -16.3029 -17.7730 0.1531 1.6569 -1.4156 -2.4933 -31.8604 14.2550 -20.6045 0.0699 30.8530 0.5178 24.1894 -20.3796 -14.9276 -1.4452 -0.4256 0.8835
-4.7568 90.6869 5.6437 7.5966 -25.9822 -5.2041 2.5785 -10.1617 -0.5282 1.1147 -9.5188 -1.2412 8.4124 10.5098 -3.8076 2.0415 0.8844 -1.1698 -3.5907 -3.8035 -4.6530 -4.2809 -18.6864 -7.8922 0.2226 -0.0589 0.4500 0.7946 -10.3982 -3.4920 -0.3410 -10.3270 4.2745 -6.1834 12.3754 -1.7204 -16.8737 -0.1234 27.4740 0.0783 0.1803 -57.4128 -0.5533 2.3259 9.0784 -15.1134 10.6700 15.2043 -58.9034 1.2945 2.6109 -3.5256 8.3492 12.2619 39.0422 -5.5415 37.8793 0.2235 1.3672 74.6130 2.8676 7.2230 -16.5754 14.9841 6.5997 -16.0785 49.4623 -3.6850 -5.4643 9.7478 24.9666 -4.4216 -0.0308 17.7601 -0.1340 -16.1137 -17.6470 0.2857 1.6496 -1.6396 -2.4711 -31.8126 14.8408 -20.8447 0.0420 31.2936 0.4893 24.1208 -20.9183 -15.6476 -1.4443 -0.4802 0.9107
-5.1675 90.5957 5.4515 7.6894 -26.2689 -4.7558 2.4455 -10.2274 -0.5476 1.0323 -9.6218 -1.2698 8.6684 10.6525 -3.8893 2.9040 1.5717 -1.8681 -3.3300 -3.7526 -4.5580 -3.3142 -18.2164 -7.8927 0.1657 -0.0629 0.4357 0.7437 -10.3601 -3.5039 -0.4030 -10.2743 4.2781 -5.9575 12.5004 -0.8316 -16.7420 0.3465 29.3914 -0.5041 -0.2299 -60.1215 -3.3418 2.8433 10.5487 -15.2269 10.5548 15.1796 -59.0042 1.3114 2.6233 -3.3428 8.3636 12.1329 40.6889 -2.9219 35.6433 0.1472 1.1622 71.6589 4.8549 8.0856 -19.5963 14.9489 6.5924 -15.8619 49.1817 -3.7448 -5.5357 9.5858 24.7884 -4.9753 0.0036 18.2621 -0.1071 -15.8459 -17.5386 0.2847 1.6390 -1.8869 -2.4682 -31.7102 14.9944 -20.9936 0.0315 31.9911 0.5126 24.0075 -21.5164 -16.2437 -1.4407 -0.4915 0.9407
-5.5736 90.4297 5.0743 7.7121 -26.4125 -4.2572 2.1733 -10.0954 -0.5346 0.8345 -9.6679 -1.3071 8.8581 11.0225 -3.8667 4.0394 2.3064 -2.4615 -3.0302 -3.7401 -4.5639 -2.1236 -17.9878 -8.1705 0.1026 -0.0781 0.4232 0.6946 -10.3675 -3.5165 -0.4774 -10.2510 4.2886 -5.4260 12.6992 -0.2963 -16.9294 0.9137 30.7805 -1.3249 -0.5266 -61.7432 -5.9542 3.4283 11.9591 -15.1881 10.4866 15.2589 -58.9773 1.3433 2.6027 -3.2064 8.2969 12.1218 42.5456 -1.1189 33.0481 -0.2820 0.9451 68.1165 7.2680 10.0115 -23.5917 14.8249 6.7007 -15.7136 48.8231 -3.8024 -5.5467 9.6030 24.2014 -5.4431 0.0190 18.9572 -0.0973 -15.5957 -17.5633 0.0639 1.6254 -2.0944 -2.4440 -31.4507 14.7013 -21.0437 0.0318 33.0553 0.5569 23.8067 -22.1278 -16.7532 -1.4349 -0.4455 0.9749
-5.9521 90.2713 4.5538 7.5621 -26.4088 -3.6422 1.8909 -9.8045 -0.5442 0.6305 -9.6228 -1.2938 8.9320 11.5468 -3.7012 5.0560 3.3784 -2.7097 -2.7164 -3.7461 -4.5876 -0.9132 -17.8331 -8.6210 0.0266 -0.0924 0.4186 0.6334 -10.3727 -3.4964 -0.5657 -10.2139 4.2888 -4.8473 12.9614 -0.0437 -17.3962 1.3407 31.4566 -1.9674 -0.6552 -62.6288 -7.6320 4.0287 12.8589 -14.9977 10.4671 15.2756 -58.8832 1.2957 2.5224 -3.3171 8.4134 12.0678 44.2830 -0.3508 30.1343 -1.0553 0.8159 64.9807 8.9904 12.5326 -27.4072 14.7606 6.9459 -15.6765 48.7320 -3.7945 -5.4884 9.8865 23.2837 -5.7945 0.0146 19.7537 -0.1199 -15.3903 -17.6326 -0.3310 1.6127 -2.2951 -2.4036 -30.9714 14.0897 -21.0450 0.0252 34.2768 0.5982 23.4630 -22.5873 -17.1796 -1.4313 -0.3900 0.9873
-6.3452 90.1408 3.8902 7.3440 -26.2997 -3.1754 1.7338 -9.3449 -0.5612 0.4710 -9.4988 -1.2023 8.8179 12.1973 -3.3591 5.8118 5.2449 -2.6431 -2.3289 -3.7416 -4.4322 0.3041 -17.5749 -8.8128 -0.0493 -0.0964 0.4049 0.5656 -10.3828 -3.4545 -0.6463 -10.1761 4.2501 -4.2462 13.1982 0.0869 -18.2519 1.7384 31.4574 -2.0545 -0.5517 -63.1327 -7.9530 4.7331 13.3749 -14.7653 10.5395 15.2760 -58.9837 1.2235 2.4334 -3.8664 8.8043 11.9883 45.9356 -0.8150 26.4331 -1.8812 0.9000 63.6348 9.6647 14.8624 -30.4781 14.8612 7.1083 -15.6809 48.8613 -3.7687 -5.4268 10.2501 22.2078 -6.0238 -0.0060 20.5856 -0.1600 -15.1552 -17.7056 -0.7145 1.6076 -2.4722 -2.3689 -30.3967 13.2004 -20.9593 0.0142 35.5855 0.6255 23.1471 -22.8715 -17.4865 -1.4300 -0.3524 0.9767
-6.6676 90.0878 3.1637 6.9810 -26.1522 -2.7738 1.7181 -8.7173 -0.6605 0.4035 -9.3017 -1.0476 8.5580 12.8218 -2.9176 6.3283 8.2829 -2.5323 -1.8603 -3.7548 -3.8669 1.5982 -16.8710 -8.5110 -0.1049 -0.0999 0.3881 0.5060 -10.4101 -3.3987 -0.6966 -10.1619 4.1865 -3.6281 13.4959 0.2775 -19.5974 1.6959 30.8602 -1.7671 -0.1849 -63.2426 -6.6538 5.8635 13.8460 -14.6317 10.6368 15.1947 -59.1423 1.1432 2.3791 -4.7993 9.4673 11.9604 47.7310 -2.3682 21.5713 -2.3654 1.1776 64.5396 9.3144 16.3068 -32.7898 15.1084 7.1226 -15.7869 49.1365 -3.7558 -5.4286 10.7165 21.1592 -6.2823 -0.0457 21.3647 -0.2234 -14.8289 -17.8209 -0.9730 1.6102 -2.6380 -2.3008 -29.7530 12.2193 -20.9211 0.0164 36.8169 0.6378 22.9419 -22.9380 -17.5101 -1.4319 -0.3412 0.9618
-6.9244 90.1191 2.3740 6.5856 -25.8915 -2.5671 1.7870 -7.9839 -0.7639 0.3881 -9.0712 -0.8771 8.1915 13.4176 -2.4444 6.7626 12.4637 -2.4682 -1.3823 -3.8009 -2.8945 2.7443 -15.3859 -7.7177 -0.1230 -0.1015 0.3957 0.4759 -10.4608 -3.3253 -0.6986 -10.2062 4.1419 -3.0011 13.8158 0.4298 -21.5161 0.9949 30.1852 -1.3956 0.3534 -62.9154 -3.8995 7.6821 14.5667 -14.4719 10.7713 15.0993 -59.1927 1.1540 2.3716 -6.0085 10.2599 12.0999 49.6191 -4.1772 16.3726 -2.4135 1.5217 66.5001 8.4937 17.2902 -34.3342 15.4229 7.1059 -15.9500 49.4164 -3.7448 -5.4804 11.1816 20.1686 -6.5017 -0.0875 21.9323 -0.2534 -14.1820 -18.0043 -1.2171 1.6249 -2.8761 -2.2184 -29.1234 11.1470 -20.8651 0.0495 37.7881 0.6562 22.7532 -22.9027 -17.3011 -1.4381 -0.2945 0.9655
-7.0284 90.1288 1.5650 6.2862 -25.4592 -2.4817 1.8184 -7.0733 -0.8049 0.3766 -8.8070 -0.6157 7.8001 13.7287 -2.0024 7.1485 17.5123 -2.5232 -1.0736 -3.8443 -1.8184 3.7396 -13.2409 -6.8618 -0.1234 -0.0891 0.4284 0.4508 -10.4803 -3.2460 -0.6719 -10.2679 4.1425 -2.1727 14.1752 0.2940 -24.1210 0.6769 29.6594 -0.6566 0.5953 -62.6792 -0.7424 10.0209 15.9022 -14.4263 10.9693 15.2504 -59.2312 1.2168 2.4264 -7.3953 11.1792 12.2386 51.3998 -5.6846 12.0306 -2.5790 1.4800 68.1339 7.4809 19.1779 -35.4688 15.5882 7.1074 -16.0289 49.3943 -3.7353 -5.4087 11.3863 19.1148 -6.7200 -0.1029 22.3741 -0.2616 -12.6792 -18.4932 -1.2681 1.6577 -3.4610 -2.1553 -28.5493 9.8533 -20.7289 0.0698 38.5892 0.6879 22.4050 -22.7700 -16.9587 -1.4346 -0.2608 0.9302
-6.9639 90.3112 0.7127 6.1207 -24.5270 -2.9206 1.9994 -6.3755 -0.8051 0.4995 -8.4263 -0.3005 7.1410 14.1215 -1.6600 7.1491 22.3618 -2.7254 -0.7844 -3.9653 -0.9309 4.3811 -10.1341 -6.0641 -0.2015 -0.1115 0.3590 0.3779 -10.6029 -3.3064 -0.7570 -10.4688 4.1039 -1.3505 14.6410 0.2349 -26.8686 0.2434 29.5689 -0.3433 0.8324 -62.2984 1.9021 10.9392 17.1487 -14.1732 11.0901 15.4074 -59.5768 1.3348 2.7606 -9.0275 11.5802 12.4768 53.0177 -6.9695 8.7690 -2.5717 1.5123 69.1742 6.6817 20.7246 -35.9948 15.6132 7.0538 -15.9684 49.2285 -3.8601 -5.2621 11.5227 17.5943 -6.6155 -0.0868 22.8955 -0.2203 -12.1985 -19.0154 -1.3341 1.6979 -3.7899 -2.1119 -27.7796 8.1282 -20.0148 0.0141 39.1517 0.5766 21.8245 -22.6043 -16.5291 -1.4445 -0.2282 0.9277
-6.7475 90.3801 -0.1380 6.0575 -23.5504 -3.4899 2.2339 -5.5065 -0.8910 0.3926 -8.0253 -0.2460 6.6844 14.5351 -1.1903 6.9515 27.6464 -2.6144 -0.4578 -4.0165 -0.5712 5.0234 -7.3001 -5.1613 -0.2153 -0.0604 0.2857 0.3766 -10.6107 -3.3962 -0.7867 -10.4932 4.0575 -0.6479 14.9295 0.6686 -29.4000 1.3034 28.7439 0.5268 0.8134 -61.9791 4.2254 11.4983 18.5489 -14.0380 11.3457 15.7222 -59.9263 1.4646 2.5720 -10.8160 12.0491 12.7580 54.5835 -8.7538 6.2463 -2.6106 1.3588 70.0521 5.1245 22.9101 -36.0211 15.6624 6.9644 -15.9224 49.0194 -3.9614 -5.1502 11.6914 15.7581 -5.7360 -0.1277 23.6941 -0.3249 -13.2495 -19.0203 -1.7452 1.6731 -3.6217 -2.1566 -27.1531 6.3323 -19.0502 0.0537 39.6310 0.6104 21.2348 -22.3552 -15.9865 -1.4378 -0.2744 0.8751
-6.4554 90.5557 -1.0190 5.8018 -22.3151 -4.1641 2.4139 -4.6794 -0.8450 0.4883 -7.5928 -0.2279 5.9318 15.0680 -1.0656 6.7576 32.3515 -2.5300 -0.0689 -3.9991 0.0416 5.4564 -4.6311 -3.8112 -0.2551 -0.0370 0.1868 0.3770 -10.5870 -3.5393 -0.8697 -10.4555 4.0179 0.3780 15.1599 1.0353 -32.1210 2.0829 28.7160 0.5848 0.8828 -61.5472 6.4493 10.4943 19.8208 -14.0528 11.2839 15.6588 -60.2360 1.4359 2.5767 -12.2990 11.8648 13.0302 56.3601 -11.0409 3.5426 -2.1351 1.1754 71.2543 3.0543 23.6084 -35.8193 15.8274 6.9379 -15.9563 49.1554 -4.0659 -5.1249 12.2577 13.5825 -4.7476 -0.1441 24.6409 -0.3379 -14.8310 -18.2477 -2.0551 1.6284 -3.3913 -2.1834 -26.2809 4.3299 -17.9787 0.0717 40.0394 0.5722 20.6881 -21.8270 -15.2538 -1.4388 -0.3834 0.8831
-6.0444 90.7351 -1.8282 5.4644 -21.1398 -4.5880 2.3411 -3.6980 -0.7476 0.6022 -7.0989 -0.0224 5.2902 15.4432 -1.1621 6.1945 36.9771 -2.4313 0.2507 -3.9626 0.4764 5.5056 -2.8905 -2.2762 -0.2222 -0.0558 0.0772 0.4339 -10.5804 -3.6701 -0.8600 -10.4347 3.9158 1.5871 15.7599 1.1592 -35.3144 2.4345 29.0545 0.1253 0.6919 -61.3177 8.8437 9.3967 21.4941 -14.0976 11.1821 15.8072 -60.5203 1.5089 2.8023 -13.3510 11.7505 12.9106 58.5586 -13.8445 0.5105 -1.7204 0.9616 72.7767 0.7584 24.3653 -35.5839 15.7268 6.9014 -15.9448 49.1231 -4.1052 -5.0377 12.8742 11.3588 -3.7479 -0.0586 25.5511 -0.2422 -15.5587 -17.5397 -2.5392 1.6518 -3.4382 -2.1199 -25.5393 2.3700 -17.3585 0.0512 40.1690 0.5096 20.3817 -21.0830 -14.6104 -1.4283 -0.4422 0.9894
-5.5871 90.9208 -2.5408 5.0663 -19.9275 -4.7343 2.1300 -2.8586 -0.6304 0.5192 -6.7003 -0.0146 4.9225 15.8377 -1.1316 5.9116 40.6331 -1.8946 0.3064 -3.9879 0.8077 5.2717 -1.4677 -1.0997 -0.1806 -0.0326 0.0619 0.5091 -10.5766 -3.7142 -0.8503 -10.4551 3.9125 2.3549 16.1387 1.2981 -37.9552 3.1076 29.1244 0.2360 0.6799 -61.3667 10.7256 8.6192 22.6908 -14.4132 11.1499 15.9522 -60.4382 1.5661 2.6720 -13.8394 11.6745 12.7406 60.4257 -16.3335 -2.2615 -1.2641 0.8265 74.2210 -1.6585 25.1137 -35.1686 15.7082 6.8825 -15.9570 49.2355 -4.1133 -5.0817 13.5199 9.4784 -2.3010 -0.1176 25.4348 -0.3391 -16.0713 -16.9512 -3.4040 1.6304 -3.1868 -2.1600 -24.9736 0.6128 -17.1758 0.1548 39.9167 0.6301 19.9991 -20.2781 -13.9010 -1.4159 -0.5185 0.9999
-5.0642 91.2414 -3.0945 4.7863 -18.6451 -4.7612 1.7428 -2.1359 -0.4974 0.4572 -6.3299 0.1227 4.4308 16.1587 -1.1195 5.6388 43.2601 -1.2357 0.3956 -3.9682 1.2150 4.8379 -0.2901 -0.2480 -0.1361 -0.0427 0.0390 0.5721 -10.5685 -3.7462 -0.8244 -10.4846 3.8835 2.6256 16.6033 1.4308 -39.9927 2.9352 29.1649 0.2539 0.6375 -61.6448 12.3729 7.6611 23.6669 -14.6935 11.0475 16.0460 -60.4010 1.5805 2.6885 -13.7801 11.5069 12.4644 61.9205 -18.4474 -4.9002 -0.5687 0.9234 75.4563 -3.6017 25.3437 -34.3678 15.7120 6.9035 -16.0047 49.3488 -4.1347 -5.0778 13.8259 7.5497 -1.3010 -0.1203 25.3907 -0.3255 -16.2428 -16.3798 -3.8256 1.6271 -3.0751 -2.1481 -24.6064 -1.0993 -17.2376 0.1926 39.3274 0.6367 19.7181 -19.2311 -13.1604 -1.4110 -0.5974 1.0174
-4.4895 91.5443 -3.5540 4.6265 -17.3291 -4.7343 1.3855 -1.4691 -0.3794 0.3479 -6.0100 0.3497 3.8466 16.3290 -0.9850 5.1721 44.8113 -0.3140 0.4528 -3.9400 1.5360 4.4531 0.5929 0.2407 -0.1120 -0.0533 0.0504 0.6065 -10.5537 -3.7439 -0.8119 -10.4996 3.8959 2.5372 16.9648 1.6108 -41.5792 2.3652 29.0432 0.5042 0.7458 -62.3222 13.7343 7.1523 24.5002 -14.9020 10.9490 16.1130 -60.3359 1.5641 2.5965 -13.7262 11.4891 12.2413 63.0954 -19.9123 -7.0455 -0.0698 1.0842 76.2517 -4.8060 25.6440 -33.4399 15.6902 6.9100 -16.0409 49.3720 -4.1497 -5.0774 13.8463 5.6853 -0.4765 -0.1322 25.2778 -0.3462 -16.2899 -15.8156 -4.0812 1.6242 -2.9895 -2.1347 -24.4047 -2.7958 -17.4327 0.2272 38.6298 0.6429 19.5074 -18.1522 -12.4336 -1.4132 -0.6950 1.0172
-3.8914 91.8283 -3.9604 4.5635 -15.9779 -4.7690 1.1111 -0.8347 -0.3091 0.2315 -5.6955 0.6145 3.2072 16.3521 -0.6943 4.3231 45.3348 0.7570 0.4725 -3.8923 1.7349 4.0115 1.0591 0.4602 -0.0924 -0.0573 0.0542 0.6250 -10.5319 -3.7521 -0.7946 -10.5013 3.9051 2.1358 17.0840 1.8218 -42.7043 1.5755 28.8990 0.9997 0.9427 -63.1842 15.0352 6.9190 25.0799 -15.1098 10.9006 16.1422 -60.3317 1.5324 2.5198 -13.9266 11.6160 12.0447 63.7893 -20.8910 -8.4946 0.2412 1.2063 76.5458 -5.4135 26.2429 -32.4891 15.7610 6.9277 -16.0875 49.4206 -4.1264 -5.0713 13.6241 3.8341 0.0669 -0.1369 25.3028 -0.3795 -16.2904 -15.3120 -4.0857 1.6215 -2.8692 -2.1192 -24.2942 -4.5330 -17.6536 0.2527 37.9315 0.6544 19.3246 -17.0965 -11.7537 -1.4176 -0.7448 0.9883
-3.2653 92.0745 -4.2921 4.5072 -14.6137 -4.8169 0.9687 -0.2039 -0.2334 0.1552 -5.3929 0.8994 2.5115 16.2949 -0.3825 2.9514 45.1748 1.7751 0.4746 -3.8497 1.8266 3.4751 1.1263 0.4949 -0.0699 -0.0600 0.0432 0.6408 -10.5052 -3.7810 -0.7674 -10.4913 3.9035 1.6523 16.9734 2.0250 -43.5450 0.5765 28.9539 1.4074 1.0951 -64.1578 16.3823 6.9837 25.6231 -15.2554 10.9069 16.1778 -60.3982 1.5415 2.4202 -14.3892 11.8597 11.9096 63.9627 -21.5929 -9.3472 0.4114 1.2638 76.4689 -5.6475 26.9031 -31.5300 15.9016 6.9360 -16.1533 49.4606 -4.1429 -5.0973 13.2706 1.9329 0.2821 -0.1449 25.5978 -0.4240 -16.2475 -14.9091 -3.8258 1.6179 -2.6660 -2.1080 -24.1929 -6.3207 -17.8983 0.2796 37.3469 0.6727 19.2786 -16.0824 -11.1185 -1.4221 -0.7630 0.9616
-2.6470 92.2783 -4.6169 4.4448 -13.2623 -4.8728 0.9098 0.3882 -0.1661 0.1298 -5.1346 1.2128 1.8427 16.2548 -0.1007 1.1502 44.6720 2.7415 0.4646 -3.8270 1.7000 2.8228 1.0395 0.3769 -0.0487 -0.0652 0.0294 0.6515 -10.4879 -3.8107 -0.7390 -10.4901 3.8980 1.1399 16.8202 2.2084 -44.2121 -0.5264 29.0863 1.6772 1.2431 -65.1359 17.5593 7.2257 26.1849 -15.3478 10.9633 16.2387 -60.5525 1.5950 2.3297 -14.9506 12.1429 11.8870 63.6193 -22.1337 -9.5879 0.3683 1.2304 76.1506 -5.7563 27.5643 -30.7065 16.1065 6.9774 -16.1985 49.5881 -4.1017 -5.1362 12.8575 0.0339 0.2649 -0.1499 26.0453 -0.4501 -16.1859 -14.5783 -3.3864 1.6180 -2.4934 -2.1065 -24.0722 -8.1297 -18.1994 0.3096 36.8615 0.6972 19.2961 -15.1359 -10.5016 -1.4251 -0.7718 0.9308
-2.0265 92.4809 -4.8797 4.4077 -11.9167 -4.9161 0.8904 0.9073 -0.0816 0.1246 -4.9068 1.5274 1.2178 16.2409 0.1396 -0.9276 44.1163 3.6582 0.4406 -3.8014 1.3513 2.0563 1.0434 0.0892 -0.0313 -0.0677 0.0200 0.6591 -10.4808 -3.8323 -0.7160 -10.4932 3.8952 0.6137 16.6668 2.3692 -44.6623 -1.6029 29.0875 1.8399 1.3450 -65.9660 18.3226 7.4366 26.5923 -15.4369 11.0209 16.3382 -60.7544 1.6199 2.2702 -15.4581 12.4322 11.9779 63.1008 -22.7699 -9.6183 0.3767 1.0990 75.4989 -5.9392 27.9654 -29.9627 16.2973 7.0117 -16.2481 49.7292 -4.1014 -5.1510 12.4115 -1.8356 0.2027 -0.1499 26.4716 -0.4659 -16.1436 -14.2583 -2.9279 1.6210 -2.3280 -2.1125 -23.9422 -9.8701 -18.4651 0.3394 36.3447 0.7048 19.2822 -14.2137 -9.9714 -1.4291 -0.7984 0.9019
-1.4340 92.6950 -5.1133 4.4340 -10.6146 -4.9643 0.8743 1.3468 0.0444 0.1265 -4.7354 1.7910 0.6266 16.3110 0.3647 -3.1542 43.6200 4.5699 0.3337 -3.7710 0.8446 1.2158 1.2423 -0.3963 -0.0169 -0.0680 0.0173 0.6717 -10.4702 -3.8395 -0.7051 -10.4885 3.8954 -0.0381 16.5504 2.4706 -44.7714 -2.6364 28.9274 1.9308 1.4612 -66.6504 18.8121 7.6596 26.9428 -15.4936 11.0359 16.4667 -60.8873 1.6372 2.2706 -15.8104 12.7452 12.1214 62.5728 -23.6171 -9.4400 0.4647 0.8906 74.5101 -6.3390 27.8702 -29.3774 16.4153 7.0156 -16.2899 49.8119 -4.0940 -5.1781 11.9248 -3.5729 0.1803 -0.1592 26.7843 -0.4880 -16.0838 -13.9497 -2.5311 1.6231 -2.2237 -2.1292 -23.8377 -11.4911 -18.6961 0.3620 35.7481 0.7077 19.2405 -13.3102 -9.5404 -1.4322 -0.8292 0.8859
-0.9048 92.8989 -5.2765 4.5017 -9.4366 -4.9592 0.8498 1.6672 0.1651 0.1313 -4.5891 2.0502 0.0834 16.4069 0.5360 -5.3896 43.2134 5.4332 0.1549 -3.7487 0.1584 0.3139 1.6334 -0.9469 -0.0008 -0.0655 0.0137 0.6929 -10.4647 -3.8484 -0.6986 -10.4862 3.8922 -0.7555 16.4633 2.5760 -44.4400 -3.6434 28.4842 1.9979 1.4820 -67.0033 19.1556 7.9310 27.2707 -15.5738 11.0489 16.5728 -61.0029 1.6618 2.3101 -16.0749 13.0661 12.3108 62.4052 -24.6450 -9.2033 0.6576 0.7329 73.0949 -7.0060 27.4902 -29.0625 16.4583 7.0095 -16.3191 49.8137 -4.1208 -5.2015 11.4375 -5.0677 0.2387 -0.1630 26.9079 -0.4970 -15.9765 -13.6356 -2.2916 1.6259 -2.1336 -2.1447 -23.7667 -12.8483 -18.8854 0.3745 35.0657 0.7077 19.1997 -12.4482 -9.2904 -1.4318 -0.8260 0.8764
-0.4447 93.0747 -5.3084 4.5965 -8.4746 -4.9428 0.8247 1.8756 0.3071 0.1125 -4.5152 2.2443 -0.4070 16.5584 0.6920 -7.5126 42.8929 6.1774 -0.0643 -3.7189 -0.6104 -0.5403 2.2495 -1.5683 0.0077 -0.0639 0.0147 0.7242 -10.4733 -3.8502 -0.7180 -10.4903 3.8939 -1.4551 16.4333 2.6175 -43.6161 -4.5555 27.8804 2.0242 1.4667 -66.9307 19.2564 8.0769 27.4691 -15.6118 11.0504 16.6563 -61.0750 1.7000 2.3649 -16.2609 13.4148 12.5479 62.6032 -25.7637 -8.7600 0.8996 0.6155 71.2840 -7.9515 26.8837 -29.1090 16.3895 7.0141 -16.3512 49.7564 -4.1157 -5.2314 10.9770 -6.2236 0.3732 -0.1635 26.9498 -0.4914 -15.8087 -13.4041 -2.2248 1.6299 -2.0801 -2.1656 -23.7503 -13.8450 -18.9919 0.3818 34.3948 0.7113 19.1786 -11.7175 -9.2063 -1.4302 -0.8091 0.8687
-0.0942 93.2114 -5.1948 4.6480 -7.7471 -4.9193 0.7901 1.9513 0.4130 0.0836 -4.4834 2.4438 -0.8158 16.6832 0.8308 -9.3817 42.5471 6.7742 -0.2866 -3.6877 -1.3885 -1.3114 2.9765 -2.1662 0.0181 -0.0645 0.0093 0.7629 -10.4778 -3.8559 -0.7395 -10.4888 3.8839 -1.9925 16.4380 2.6161 -42.3976 -5.2584 27.1120 1.9984 1.3438 -66.3400 19.1531 7.9641 27.4062 -15.6261 11.0625 16.7220 -61.1223 1.7037 2.4197 -16.3736 13.6798 12.8083 63.2028 -26.7981 -8.0385 1.0842 0.6616 69.1384 -8.8490 26.2659 -29.4051 16.3227 7.0440 -16.3440 49.7370 -4.0789 -5.2346 10.6301 -7.0118 0.5521 -0.1560 26.9391 -0.4788 -15.6016 -13.2969 -2.2960 1.6349 -2.0295 -2.1876 -23.7320 -14.3921 -19.0730 0.3871 33.6514 0.7192 19.1779 -11.0922 -9.2487 -1.4260 -0.7750 0.8637
0.1849 93.3171 -4.9750 4.5876 -7.2118 -4.9518 0.7814 1.9381 0.5215 0.0467 -4.5004 2.5968 -1.1177 16.7305 0.9927 -10.9842 42.0911 7.2599 -0.5338 -3.6599 -2.1192 -2.0051 3.7292 -2.7768 0.0304 -0.0670 0.0020 0.8007 -10.4929 -3.8643 -0.7569 -10.4941 3.8730 -2.3340 16.4910 2.5691 -40.9334 -5.6918 26.4538 1.8343 1.1499 -65.4632 18.9152 7.5760 27.1264 -15.5927 11.0655 16.7611 -61.1150 1.6855 2.4443 -16.4321 13.8416 13.1161 64.1042 -27.6134 -7.0731 1.1776 0.8125 66.9882 -9.3506 25.7743 -29.8358 16.2665 7.0606 -16.3303 49.7039 -4.0529 -5.2329 10.4721 -7.4770 0.6818 -0.1467 26.9154 -0.4714 -15.4092 -13.3075 -2.3181 1.6360 -1.9521 -2.1979 -23.6308 -14.5592 -19.1311 0.3717 32.8626 0.7049 19.1996 -10.5624 -9.3183 -1.4214 -0.7384 0.8685
0.4063 93.4448 -4.6348 4.4454 -6.8153 -5.0513 0.7665 1.8575 0.5794 0.0108 -4.5375 2.8042 -1.3201 16.6732 1.1354 -12.3987 41.4349 7.6584 -0.7927 -3.6542 -2.8271 -2.6712 4.4069 -3.3428 0.0495 -0.0771 -0.0126 0.8365 -10.5083 -3.8820 -0.7555 -10.5068 3.8519 -2.5458 16.5742 2.4661 -39.3033 -5.8517 26.0036 1.6101 0.9087 -64.4222 18.6085 6.9971 26.8535 -15.5257 11.0831 16.7265 -61.0957 1.6557 2.3858 -16.3515 13.9174 13.4060 65.2165 -28.2164 -5.9898 1.1161 1.0458 65.2306 -9.4088 25.4265 -30.2262 16.2291 7.0946 -16.3435 49.7326 -4.0037 -5.2161 10.4436 -7.6360 0.7082 -0.1401 26.7942 -0.4776 -15.2023 -13.3784 -2.2495 1.6354 -1.8848 -2.1800 -23.4735 -14.4041 -19.2295 0.3653 31.9109 0.7088 19.2841 -10.0573 -9.3653 -1.4156 -0.7040 0.8810
0.5828 93.6053 -4.2364 4.2724 -6.4455 -5.3503 0.7626 1.7604 0.6369 -0.0284 -4.6132 3.0399 -1.4462 16.5022 1.2667 -13.7324 40.4889 8.0005 -1.0770 -3.6656 -3.4325 -3.2777 4.8896 -3.8842 0.0602 -0.0908 -0.0210 0.8598 -10.5468 -3.8948 -0.7594 -10.5393 3.8425 -2.7650 16.6503 2.3767 -37.5887 -5.6680 25.7486 1.3541 0.7573 -63.3153 18.0798 6.3573 26.6973 -15.4055 11.1742 16.6682 -61.0228 1.6764 2.2673 -16.0914 13.9502 13.7286 66.4482 -28.6496 -5.0671 1.0549 1.2395 64.2678 -9.2653 25.1988 -30.4351 16.2245 7.1543 -16.3679 49.8281 -3.9410 -5.2016 10.4677 -7.5886 0.7525 -0.1364 26.5167 -0.4868 -14.9986 -13.4258 -2.0046 1.6324 -1.8465 -2.1427 -23.2616 -14.1545 -19.3650 0.3657 30.7804 0.7318 19.3613 -9.4783 -9.2427 -1.4102 -0.6921 0.9128
0.7600 93.8491 -3.8192 4.1350 -6.0002 -5.9045 0.7704 1.6461 0.6500 -0.0671 -4.6965 3.2867 -1.5282 16.2281 1.4333 -15.0181 39.2400 8.3425 -1.3522 -3.6790 -3.9613 -3.8899 5.0795 -4.3651 0.0596 -0.1061 -0.0201 0.8619 -10.6008 -3.8978 -0.7643 -10.5840 3.8476 -3.0709 16.6854 2.3756 -36.0487 -5.1311 25.6470 1.2002 0.7950 -62.3727 17.2403 5.6193 26.5075 -15.2867 11.2517 16.5621 -60.9289 1.6789 2.1560 -15.7113 13.9531 14.0626 67.6425 -28.8874 -4.3215 1.1341 1.3132 64.1702 -8.9639 24.9368 -30.3319 16.2068 7.2000 -16.4394 49.8951 -3.8945 -5.2011 10.4404 -7.3998 0.8549 -0.1264 25.9661 -0.4910 -14.7658 -13.3406 -1.5181 1.6317 -1.8140 -2.0979 -23.0111 -13.9655 -19.4473 0.3611 29.4453 0.7494 19.3734 -8.7778 -8.9716 -1.4094 -0.7355 0.9363
0.9449 94.1369 -3.4224 4.0877 -5.4927 -6.7244 0.7728 1.5145 0.6617 -0.0991 -4.7771 3.5196 -1.6407 15.9354 1.5908 -16.2003 37.8674 8.7002 -1.6058 -3.6944 -4.3874 -4.5743 4.9270 -4.7190 0.0580 -0.1205 -0.0156 0.8544 -10.6590 -3.8949 -0.7631 -10.6360 3.8548 -3.4322 16.7432 2.5027 -34.8926 -4.4316 25.7945 1.2222 1.0418 -61.8420 16.3781 4.9992 26.1579 -15.1482 11.3136 16.4694 -60.8250 1.6555 2.1204 -15.3880 14.0102 14.3331 68.5439 -28.9066 -3.4334 1.2375 1.2918 64.8893 -8.3003 25.0076 -30.1368 16.2473 7.2372 -16.5430 50.0154 -3.8331 -5.2532 10.2967 -7.0466 1.0187 -0.1209 25.0999 -0.5068 -14.5169 -13.0906 -0.7276 1.6296 -1.7730 -2.0638 -22.7892 -13.8457 -19.3694 0.3405 27.9310 0.7434 19.3004 -7.9522 -8.6488 -1.4129 -0.8248 0.9359
1.1070 94.4592 -3.0349 4.1153 -5.0076 -7.6392 0.7562 1.3419 0.6518 -0.1135 -4.8461 3.7315 -1.8006 15.7141 1.7106 -17.2332 36.7352 8.9935 -1.7717 -3.7162 -4.7469 -5.2631 4.5432 -4.9547 0.0549 -0.1282 -0.0176 0.8426 -10.7048 -3.8922 -0.7568 -10.6693 3.8474 -3.7550 16.8777 2.7174 -34.1648 -3.8150 26.1625 1.4661 1.3627 -61.6717 15.7375 4.7967 25.6940 -14.9480 11.4511 16.4412 -60.7948 1.6565 2.1375 -15.2879 14.0409 14.3909 69.0281 -28.6542 -2.2095 1.2266 1.2738 66.0866 -6.9629 25.7401 -30.0692 16.2894 7.2553 -16.6025 50.0912 -3.8038 -5.2739 10.0259 -6.5137 1.0895 -0.1094 23.9956 -0.5203 -14.2799 -12.6669 0.2831 1.6283 -1.7239 -2.0436 -22.6195 -13.6805 -19.2116 0.3029 26.2520 0.7183 19.1912 -7.0150 -8.3734 -1.4195 -0.9195 0.9015
1.2511 94.7540 -2.6567 4.2023 -4.6232 -8.5047 0.7305 1.1489 0.6784 -0.1128 -4.9267 3.8189 -1.9970 15.5926 1.7680 -18.0879 36.0780 9.2125 -1.8757 -3.7508 -5.0353 -5.9397 4.1907 -5.1402 0.0576 -0.1280 -0.0344 0.8337 -10.7441 -3.9033 -0.7425 -10.6931 3.8212 -4.0970 17.0171 2.9224 -33.6804 -3.5251 26.6606 1.8433 1.6686 -61.5328 15.3929 4.8856 25.2751 -14.7283 11.6227 16.4969 -60.8019 1.6789 2.1900 -15.3929 14.0168 14.2812 69.0835 -28.2117 -0.8480 1.1391 1.2721 67.4413 -5.2190 26.7638 -30.1715 16.3311 7.2389 -16.5982 50.0891 -3.8117 -5.2892 9.6679 -5.8275 1.0136 -0.0894 22.7843 -0.5296 -14.0900 -12.1622 1.4226 1.6288 -1.7436 -2.0408 -22.5426 -13.4438 -19.0046 0.2707 24.6484 0.6989 19.0905 -6.1013 -8.1577 -1.4265 -1.0291 0.8617
1.3477 94.9894 -2.2988 4.3203 -4.3606 -9.2091 0.6867 0.9645 0.7211 -0.0979 -4.9976 3.8199 -2.1822 15.5330 1.7636 -18.7500 35.8600 9.3291 -1.9268 -3.7840 -5.2568 -6.4982 4.0220 -5.3238 0.0580 -0.1250 -0.0553 0.8242 -10.8066 -3.9231 -0.7323 -10.7424 3.7965 -4.3826 17.0610 3.0412 -33.3525 -3.6310 27.1504 2.1525 1.8391 -61.0910 15.3035 5.0033 24.9170 -14.4967 11.7858 16.5649 -60.8004 1.7362 2.2235 -15.6144 13.9110 14.1180 68.8737 -27.7641 0.1921 1.0471 1.2324 68.6115 -3.6961 27.6174 -30.2912 16.3406 7.2117 -16.5328 50.1141 -3.8226 -5.2746 9.2911 -5.1402 0.9249 -0.0748 21.6658 -0.5269 -13.9302 -11.7435 2.4394 1.6324 -1.8078 -2.0605 -22.5550 -13.1741 -18.7374 0.2601 23.3446 0.6966 19.0422 -5.4489 -8.0333 -1.4294 -1.1397 0.8294
1.4174 95.1575 -2.0299 4.4320 -4.1931 -9.7438 0.6362 0.8035 0.7711 -0.0911 -5.0579 3.7639 -2.3220 15.4948 1.7074 -19.1607 35.9334 9.3915 -1.9982 -3.8315 -5.4758 -6.9746 3.9638 -5.4040 0.0587 -0.1238 -0.0808 0.8202 -10.8929 -3.9580 -0.7266 -10.8357 3.7787 -4.6715 17.0599 3.0275 -33.0784 -4.1395 27.6388 2.2886 1.8529 -60.2562 15.4371 5.0542 24.5446 -14.3481 11.9354 16.6141 -60.7851 1.8414 2.2187 -15.8321 13.7501 13.9746 68.4707 -27.3703 0.8634 0.9263 1.2189 69.4073 -2.6231 28.2262 -30.2810 16.3276 7.2082 -16.4852 50.2185 -3.7749 -5.2369 8.9538 -4.5174 0.9104 -0.0588 20.6978 -0.5020 -13.7807 -11.4657 3.1903 1.6388 -1.8526 -2.0688 -22.5943 -12.9027 -18.4101 0.2654 22.3829 0.6809 18.9481 -5.0722 -8.0599 -1.4294 -1.2696 0.8150
1.4466 95.3011 -1.8113 4.5105 -4.0749 -10.0931 0.5479 0.6660 0.8163 -0.1142 -5.1011 3.6984 -2.3777 15.4569 1.5891 -19.2409 36.1286 9.2765 -2.2014 -3.9221 -5.4860 -7.3235 3.9136 -5.4232 0.0763 -0.1286 -0.1168 0.8314 -10.9718 -4.0082 -0.7034 -10.9462 3.7507 -4.9623 17.1363 2.8847 -32.8522 -5.0788 28.1759 2.2740 1.6568 -59.1637 15.7485 5.1647 24.1691 -14.3338 12.0915 16.6816 -60.8950 1.9750 2.2098 -16.0168 13.4215 13.7716 67.8684 -26.9207 1.3520 0.8036 1.2028 69.9785 -1.9770 28.3051 -30.0744 16.2893 7.2363 -16.5005 50.3687 -3.7279 -5.2152 8.7120 -4.0000 1.0068 -0.0568 19.8320 -0.5009 -13.6502 -11.2243 3.6689 1.6438 -1.7974 -2.0655 -22.5894 -12.6946 -18.1835 0.2700 21.6947 0.6213 18.7601 -4.8130 -8.1313 -1.4253 -1.4988 0.8210
