HIERARCHY
ROOT Hips
{
	OFFSET 0.0000 0.0000 0.0000
	CHANNELS 6 Xposition Yposition Zposition Zrotation Xrotation Yrotation
	JOINT Spine1
	{
		OFFSET -0.0137 5.0038 -0.0537
		CHANNELS 3 Zrotation Xrotation Yrotation
		JOINT Spine2
		{
			OFFSET -0.0000 7.1253 -0.0298
			CHANNELS 3 Zrotation Xrotation Yrotation
			JOINT Chest
			{
				OFFSET -0.0000 7.5501 -0.8160
				CHANNELS 3 Zrotation Xrotation Yrotation
				JOINT Neck1
				{
					OFFSET -0.1817 26.3113 -0.5533
					CHANNELS 3 Zrotation Xrotation Yrotation
					JOINT Neck2
					{
						OFFSET -0.0000 7.7094 2.3026
						CHANNELS 3 Zrotation Xrotation Yrotation
						JOINT Head
						{
							OFFSET -0.0000 6.1289 1.9537
							CHANNELS 3 Zrotation Xrotation Yrotation
							JOINT Jaw
							{
								OFFSET 0.0026 0.4756 3.0949
								CHANNELS 3 Zrotation Xrotation Yrotation
								End Site
								{
									OFFSET 0.0 1.0 0.0
								}
							}
							JOINT LeftEye
							{
								OFFSET 3.2064 5.3802 7.5869
								CHANNELS 3 Zrotation Xrotation Yrotation
								End Site
								{
									OFFSET 0.0 1.0 0.0
								}
							}
							JOINT RightEye
							{
								OFFSET -3.2224 5.3619 7.5582
								CHANNELS 3 Zrotation Xrotation Yrotation
								End Site
								{
									OFFSET 0.0 1.0 0.0
								}
							}
						}
					}
				}
				JOINT LeftShoulder
				{
					OFFSET 1.6217 23.2372 5.1134
					CHANNELS 3 Zrotation Xrotation Yrotation
					JOINT LeftArm
					{
						OFFSET 14.9198 0.0000 -5.5023
						CHANNELS 3 Zrotation Xrotation Yrotation
						JOINT LeftForeArm
						{
							OFFSET 28.7393 0.0000 -0.0026
							CHANNELS 3 Zrotation Xrotation Yrotation
							JOINT LeftHand
							{
								OFFSET 27.0940 -0.0000 0.0026
								CHANNELS 3 Zrotation Xrotation Yrotation
								JOINT LeftHandThumbEnd
								{
									OFFSET 12.2686 -3.2202 4.8331
									CHANNELS 3 Zrotation Xrotation Yrotation
									End Site
									{
										OFFSET 0.0 1.0 0.0
									}
								}
								JOINT LeftHandMiddleEnd
								{
									OFFSET 19.0120 -0.3129 -0.0340
									CHANNELS 3 Zrotation Xrotation Yrotation
									End Site
									{
										OFFSET 0.0 1.0 0.0
									}
								}
							}
						}
					}
				}
				JOINT RightShoulder
				{
					OFFSET -1.3801 23.1803 5.2142
					CHANNELS 3 Zrotation Xrotation Yrotation
					JOINT RightArm
					{
						OFFSET -15.0372 0.0000 -5.5456
						CHANNELS 3 Zrotation Xrotation Yrotation
						JOINT RightForeArm
						{
							OFFSET -28.7366 0.0000 -0.0026
							CHANNELS 3 Zrotation Xrotation Yrotation
							JOINT RightHand
							{
								OFFSET -27.1336 -0.0000 0.0026
								CHANNELS 3 Zrotation Xrotation Yrotation
								JOINT RightHandThumbEnd
								{
									OFFSET -12.2642 -3.2115 4.8040
									CHANNELS 3 Zrotation Xrotation Yrotation
									End Site
									{
										OFFSET 0.0 1.0 0.0
									}
								}
								JOINT RightHandMiddleEnd
								{
									OFFSET -19.0006 -0.3066 -0.0316
									CHANNELS 3 Zrotation Xrotation Yrotation
									End Site
									{
										OFFSET 0.0 1.0 0.0
									}
								}
							}
						}
					}
				}
			}
		}
	}
	JOINT LeftLeg
	{
		OFFSET 10.0432 -8.4345 2.5957
		CHANNELS 3 Zrotation Xrotation Yrotation
		JOINT LeftShin
		{
			OFFSET -0.0000 -43.2218 -0.8029
			CHANNELS 3 Zrotation Xrotation Yrotation
			JOINT LeftFoot
			{
				OFFSET 0.0000 -42.1551 -3.4815
				CHANNELS 3 Zrotation Xrotation Yrotation
				JOINT LeftToeBase
				{
					OFFSET 0.0000 -5.0595 13.2315
					CHANNELS 3 Zrotation Xrotation Yrotation
					End Site
					{
						OFFSET 0.0 1.0 0.0
					}
				}
			}
		}
	}
	JOINT RightLeg
	{
		OFFSET -10.0473 -8.2953 2.6203
		CHANNELS 3 Zrotation Xrotation Yrotation
		JOINT RightShin
		{
			OFFSET 0.0000 -43.3622 -0.8056
			CHANNELS 3 Zrotation Xrotation Yrotation
			JOINT RightFoot
			{
				OFFSET 0.0000 -42.1174 -3.4784
				CHANNELS 3 Zrotation Xrotation Yrotation
				JOINT RightToeBase
				{
					OFFSET -0.0000 -5.0796 13.2842
					CHANNELS 3 Zrotation Xrotation Yrotation
					End Site
					{
						OFFSET 0.0 1.0 0.0
					}
				}
			}
		}
	}
}
MOTION
Frames: 60
Frame Time: 0.033333
-1.5004 93.6413 -3.2994 4.4694 10.6958 1.3597 -2.1275 15.1856 -1.5856 -0.5939 0.4348 -1.8039 -1.5288 6.6562 -5.3793 15.9477 -13.3351 -1.5862 -0.5740 -4.0173 1.5591 -0.5013 -28.1432 0.7673 -0.0255 -0.0736 -0.1150 0.5459 -10.8991 -3.9946 -0.5943 -10.9310 3.7761 5.4504 17.0528 -2.3596 -71.3166 -19.1994 20.0785 0.9101 -0.1730 -105.7455 -12.6193 25.3603 7.3459 -14.0452 11.5026 16.0523 -59.5164 1.5571 2.1261 8.6669 14.2309 2.2055 64.8230 -0.7273 -37.6847 2.6898 0.3633 108.2695 -27.0420 46.5299 -48.8664 14.6555 8.1988 -15.5233 49.1062 -3.5579 -4.2615 11.4072 -29.6175 -3.6124 -0.3776 35.7825 -1.0190 -10.2923 -15.9112 -5.7094 1.6908 -1.5157 -2.0989 -21.6431 -33.0173 -12.2234 0.4250 31.2952 1.2418 18.2526 -11.7462 10.0365 -1.4713 -0.3973 0.8771
-1.6079 92.8074 -4.5777 5.7063 11.2519 8.7250 -1.0831 16.0630 -1.1648 -0.4437 0.9362 -1.0327 -1.5760 7.4044 -5.2669 13.5152 -12.4612 -0.4420 -0.9249 -4.0220 0.0138 0.9740 -27.8053 -2.8321 -0.0323 -0.0534 -0.1494 0.6284 -10.9174 -4.0169 -0.6895 -10.9988 3.7440 6.5702 14.8483 -2.3330 -67.0198 -30.3986 1.5963 0.3290 0.9456 -100.9196 -6.4841 21.3727 7.1103 -13.9200 11.2818 15.9409 -59.6081 1.7227 2.2430 6.6374 14.1259 4.2796 58.4943 -2.6862 -43.9039 0.3685 0.7702 98.9277 -21.9893 38.5546 -39.2367 14.3154 8.5407 -15.6508 48.2100 -3.7600 -4.7471 11.6782 -35.1965 -8.0063 -0.6913 39.1947 -1.4031 -10.3413 -13.9019 -8.7449 1.7469 -1.6461 -2.2226 -22.6857 -35.3335 -15.8452 0.4943 35.5283 1.0969 18.6064 -13.2584 7.8708 -1.5202 -0.1120 0.7241
-1.9370 91.2580 -5.5429 6.9021 9.7850 16.0164 -0.1362 16.6362 -0.7474 -0.3652 0.9886 0.2536 -1.4520 8.8101 -4.1344 10.1080 -6.0839 0.7083 -1.2354 -4.1260 -1.1988 4.2133 -24.9797 -6.7638 -0.0147 -0.0280 -0.0559 0.7121 -10.8424 -3.9297 -0.7394 -10.9481 3.8481 8.7928 13.0311 -0.1186 -54.7201 -40.7644 -28.4045 1.8903 0.8525 -89.5408 -2.0849 21.9994 4.0076 -14.1168 10.7398 15.7364 -59.8876 1.7241 2.3348 4.6723 15.3398 7.6792 51.6942 -3.3792 -49.1314 -1.9516 2.6285 82.8215 -19.9862 28.7412 -29.7696 13.6539 8.5412 -15.5570 46.8899 -3.8779 -4.6971 11.1401 -38.4040 -10.8213 -1.0516 42.3555 -1.7327 -10.6725 -13.7553 -12.2243 1.7805 -1.5341 -2.2053 -24.9625 -35.9951 -18.8181 0.4596 41.2183 1.0603 19.3622 -16.4828 6.0143 -1.5242 0.4234 0.8334
-2.2744 89.2797 -5.9258 7.4960 7.6504 20.8788 0.3333 16.9260 -0.3200 -0.2815 0.7250 1.2815 -1.6326 10.3112 -2.5997 7.4039 2.9759 1.7943 -1.0444 -4.1511 -1.5965 7.7843 -22.7083 -8.4714 -0.0479 -0.0488 0.0829 0.7159 -10.7807 -3.7989 -0.8134 -10.8524 4.0078 11.4921 11.4895 2.8978 -43.2725 -46.8146 -52.1649 2.0771 -0.3882 -80.6462 -0.4475 25.3911 2.7042 -14.0635 10.4429 15.5226 -59.6300 1.4940 2.2077 2.4084 17.1714 10.3347 46.4376 -2.9634 -48.8114 -2.8456 2.8865 65.4163 -18.4031 21.0663 -23.6726 13.2215 8.3866 -15.7097 45.7595 -3.7531 -4.7946 10.2254 -40.3277 -11.2432 -1.3547 46.3897 -1.9322 -10.2116 -15.5378 -15.2908 1.7369 -1.2179 -2.1407 -27.6421 -36.0570 -19.6077 0.5280 47.4515 1.2065 20.1406 -19.9998 4.2516 -1.5058 1.0050 0.9276
-2.5279 87.3858 -5.9447 7.4490 5.5803 23.4618 0.4361 16.9379 0.1406 -0.2273 0.4175 2.1229 -2.0520 11.7697 -1.1895 5.6016 12.4324 2.3723 -0.3763 -3.9958 -0.4564 11.2860 -21.1256 -8.4185 -0.1141 -0.0708 0.2064 0.6402 -10.5453 -3.5996 -0.8725 -10.5508 4.0711 12.8748 10.2794 5.3800 -37.0271 -49.6744 -64.9181 1.2249 -0.5501 -77.6149 0.4453 31.5666 5.1275 -14.1998 10.4483 15.5150 -59.7779 1.4367 2.0733 0.0346 18.5887 11.7885 43.3288 -2.8957 -45.3877 -2.5765 1.6027 52.1352 -15.6101 16.9837 -18.6966 13.2442 8.2770 -15.8655 45.4659 -3.5960 -5.0287 10.1005 -41.8655 -11.1307 -1.4354 51.5441 -2.0154 -8.9655 -17.6840 -17.9073 1.7013 -0.9549 -2.0197 -29.6973 -35.7640 -19.2377 0.6900 52.9971 1.5044 20.7939 -22.7637 2.7170 -1.4912 1.1345 1.0203
-2.7022 85.7923 -5.7856 6.9992 4.0141 24.3331 0.2296 16.7595 0.4121 -0.2485 0.2675 2.6548 -2.6435 12.9621 -0.1860 5.0693 20.1881 2.3425 0.1603 -3.8513 1.2859 13.5517 -19.7470 -6.9823 -0.1449 -0.0722 0.2390 0.5542 -10.2927 -3.4762 -0.8490 -10.2763 4.0149 12.6264 10.2264 6.8203 -36.0386 -49.8581 -67.7899 1.0904 -0.1112 -79.8228 2.3015 39.3160 9.6903 -14.6625 10.8310 15.7110 -60.6826 1.4687 1.7998 -2.5483 19.3463 12.1635 43.7349 -4.8417 -42.4175 -2.7970 0.9272 46.8750 -13.3788 16.9216 -15.5600 13.5641 8.1748 -15.8437 45.9205 -3.5812 -5.0213 10.5807 -42.7041 -10.9930 -1.5090 55.8906 -2.1255 -7.7936 -19.6602 -19.2432 1.6848 -0.7948 -1.9342 -30.7691 -35.2268 -18.0558 0.9856 57.2130 1.9177 21.2206 -24.8215 1.1091 -1.4791 1.2121 1.0504
-2.7986 84.6290 -5.6238 6.3739 3.0242 23.9476 -0.1901 16.4474 0.5136 -0.3568 0.2368 2.8152 -3.2701 13.8473 0.2871 5.3980 25.4217 2.1873 0.4568 -3.7408 2.7078 14.3623 -18.3307 -5.0389 -0.1261 -0.0525 0.2127 0.5185 -10.1313 -3.4711 -0.7759 -10.1451 3.9466 11.1003 10.9284 7.0479 -38.8652 -47.8472 -63.3085 1.4671 0.3125 -84.5551 5.2280 46.9523 15.2674 -15.4855 11.1631 15.8445 -61.8193 1.4919 1.5673 -5.1782 19.3077 12.2318 47.2583 -8.0507 -41.1989 -3.4475 0.9897 48.8091 -11.8400 18.7177 -13.9499 13.9921 7.8840 -15.7643 46.7462 -3.7435 -4.9453 11.4702 -42.9347 -11.0476 -1.5504 59.0388 -2.2080 -6.9405 -21.2727 -19.3572 1.6751 -0.6163 -1.8800 -30.9901 -34.7585 -16.5350 1.2258 60.0339 2.2021 21.2737 -26.0626 -0.0350 -1.4746 1.2337 1.0573
-2.8276 84.0283 -5.5378 5.7153 2.4268 22.6192 -0.6861 16.0084 0.4380 -0.5613 0.2961 2.7719 -3.8022 14.4993 0.3336 5.9505 28.6646 2.0070 0.6791 -3.6600 3.6781 14.4279 -16.7527 -3.2634 -0.1176 -0.0292 0.1978 0.4990 -10.0576 -3.4989 -0.7382 -10.0935 3.9390 8.7204 11.8679 6.1581 -43.0495 -44.4682 -54.6954 1.8071 0.6003 -89.5718 8.7472 53.0829 21.1792 -16.3722 11.1035 15.8140 -62.2333 1.4896 1.5500 -7.5417 18.6883 12.2031 52.8931 -11.1283 -41.3163 -3.4451 1.2010 54.7154 -10.2993 21.5167 -13.5560 14.3084 7.4686 -15.7904 47.3585 -3.9218 -4.9602 12.4107 -42.5183 -10.9329 -1.5125 60.8612 -2.1923 -6.2308 -22.4047 -18.6263 1.6676 -0.3603 -1.8391 -30.6365 -34.2970 -14.8163 1.4232 61.4376 2.4140 21.1331 -26.4695 -0.7696 -1.4743 1.0483 1.0709
-2.8731 83.8057 -5.5279 5.0974 2.0674 20.8748 -1.1344 15.5925 0.2411 -0.7857 0.3792 2.5738 -4.1257 14.9679 0.1154 6.4891 30.4769 1.7059 0.8381 -3.6142 4.2637 14.0588 -15.2544 -1.9836 -0.1077 -0.0114 0.1943 0.5002 -10.0322 -3.5307 -0.7178 -10.0702 3.9574 6.2919 12.6632 4.5806 -47.0442 -40.8698 -44.4913 1.8445 0.5591 -93.8525 11.9704 56.9178 25.9558 -16.9683 10.8236 15.6739 -61.9577 1.4933 1.6322 -9.0222 17.9256 12.1559 58.4126 -12.5178 -41.2677 -3.2087 1.3109 61.7478 -8.5202 24.2006 -14.1263 14.5723 7.1523 -15.9211 47.8579 -4.0318 -5.0584 13.2485 -41.7484 -10.6659 -1.4466 61.6625 -2.1414 -5.7472 -23.2170 -17.5596 1.6607 -0.0800 -1.8154 -29.9867 -33.9408 -13.1663 1.6015 61.9234 2.6065 20.9725 -26.4069 -1.2709 -1.4711 0.7886 1.0758
-2.9480 83.7757 -5.5953 4.6112 1.8815 19.2350 -1.4692 15.3113 0.0136 -0.9418 0.4350 2.2673 -4.2150 15.2870 -0.1998 6.9332 31.3086 1.3789 0.9271 -3.5903 4.4447 13.3868 -14.2406 -1.2723 -0.0832 -0.0060 0.1823 0.5257 -10.0576 -3.5722 -0.6924 -10.0881 3.9657 4.6232 13.2325 2.9027 -50.1625 -37.7845 -34.9317 1.7603 0.3332 -97.0775 13.8206 58.5288 28.3969 -17.2405 10.5821 15.5142 -61.4640 1.4873 1.6664 -9.3423 17.2938 12.1151 62.2522 -12.4604 -41.1856 -3.1361 1.3613 68.5829 -6.7901 26.6668 -15.4645 14.9159 6.9576 -16.0368 48.3454 -4.0656 -5.0874 13.9056 -40.9919 -10.4058 -1.4420 61.8807 -2.1590 -5.6216 -23.7628 -16.4585 1.6566 0.1527 -1.8082 -29.3232 -33.8077 -11.9074 1.6745 61.9741 2.6742 20.7654 -26.1995 -1.4966 -1.4696 0.6166 1.0769
-3.0499 83.7759 -5.7704 4.2890 1.8011 17.7924 -1.6706 15.1543 -0.2205 -1.0091 0.4609 1.9513 -4.0777 15.5460 -0.5400 7.1887 31.5009 1.1386 0.9364 -3.5723 4.3344 12.5529 -13.7959 -0.9961 -0.0630 -0.0050 0.1649 0.5492 -10.1014 -3.6136 -0.6735 -10.1178 3.9638 3.6024 13.6713 1.4722 -52.0531 -35.1186 -27.1929 1.8115 0.1364 -99.6090 13.6882 58.4287 28.1871 -17.2371 10.4729 15.3881 -61.0114 1.4823 1.6448 -8.9910 16.8514 12.1185 64.3491 -11.7374 -41.9013 -3.0481 1.1639 75.1468 -5.8336 28.8424 -17.3443 15.1783 6.9097 -16.0323 48.7668 -4.0002 -5.0241 14.3542 -40.4052 -10.1894 -1.4854 61.8763 -2.2228 -5.8649 -24.0554 -15.3345 1.6555 0.2801 -1.8143 -28.8386 -33.8991 -10.9144 1.6606 61.9007 2.6344 20.5748 -26.0031 -1.5668 -1.4737 0.6431 1.0711
-3.1726 83.7675 -6.0001 4.1072 1.7252 16.4933 -1.7062 15.0731 -0.3918 -0.9819 0.4598 1.6882 -3.7409 15.8107 -0.8881 7.3960 31.4959 1.0099 0.9039 -3.5703 4.1136 11.5979 -13.7427 -0.9144 -0.0430 -0.0068 0.1412 0.5736 -10.1328 -3.6528 -0.6564 -10.1343 3.9481 2.9210 14.0770 0.3475 -52.8070 -32.9882 -21.3105 1.8276 0.1058 -101.5685 11.7966 57.3631 25.9324 -17.0912 10.4485 15.3369 -60.6653 1.4330 1.6004 -8.4302 16.5647 12.2497 65.0714 -11.0200 -43.4344 -2.8211 0.5601 81.0035 -5.7603 30.1864 -19.1256 15.3653 6.9601 -15.9576 49.0493 -3.9247 -4.9209 14.6211 -39.9703 -9.9024 -1.5398 61.8703 -2.2733 -6.2196 -24.1792 -14.2345 1.6579 0.3375 -1.8353 -28.5527 -34.1616 -10.0620 1.5783 61.9401 2.5005 20.3883 -25.8673 -1.4623 -1.4804 0.7270 1.0536
-3.3346 83.7322 -6.2385 4.0604 1.5291 15.3318 -1.6099 15.0008 -0.4869 -0.8758 0.4147 1.4145 -3.2385 16.1529 -1.1789 7.6541 31.6406 0.8999 0.8490 -3.5983 3.8980 10.5896 -13.6788 -0.8545 -0.0282 -0.0145 0.1185 0.5843 -10.1656 -3.6810 -0.6370 -10.1588 3.9259 2.3795 14.5048 -0.5572 -52.7549 -31.3694 -16.7904 1.7800 0.1183 -102.9121 9.1592 56.1288 22.9101 -16.9898 10.4022 15.2771 -60.5672 1.3468 1.5265 -7.9392 16.3910 12.4298 65.0068 -10.6654 -45.1939 -2.5246 -0.1879 85.7986 -5.8789 30.3301 -20.3168 15.4486 6.9944 -15.9512 49.2422 -3.8745 -4.8611 14.6838 -39.5252 -9.3886 -1.5440 61.8621 -2.2432 -6.4996 -24.2374 -13.3325 1.6608 0.3771 -1.8579 -28.4467 -34.3989 -9.3209 1.4868 62.0730 2.3591 20.1842 -25.7966 -1.2474 -1.4822 0.7900 1.0277
-3.5473 83.7030 -6.3944 4.1773 1.1960 14.2897 -1.4213 14.8768 -0.6017 -0.7646 0.3424 1.1973 -2.6271 16.4936 -1.4264 8.0144 32.1101 0.7157 0.7626 -3.6420 3.7490 9.5484 -13.3924 -0.6935 -0.0230 -0.0337 0.1048 0.5785 -10.1970 -3.6950 -0.6198 -10.1858 3.9099 1.9194 14.9595 -1.2970 -52.2458 -30.2685 -13.2461 1.6490 0.1666 -103.4795 6.3121 54.8266 19.8584 -16.9452 10.3083 15.2188 -60.5029 1.2374 1.5095 -7.5869 16.2832 12.6022 64.8279 -10.7698 -46.8956 -2.2624 -0.7299 89.5500 -5.7907 29.8410 -20.8823 15.4628 6.9696 -15.9462 49.2844 -3.8425 -4.8443 14.5191 -38.9318 -8.5216 -1.5123 61.7073 -2.1690 -6.6917 -24.2752 -12.7215 1.6610 0.4303 -1.8693 -28.5490 -34.4634 -8.5631 1.4598 62.2293 2.2997 19.9244 -25.8381 -1.0178 -1.4755 0.8344 1.0180
-3.7994 83.7353 -6.4724 4.4348 0.7988 13.2972 -1.1646 14.6889 -0.6762 -0.6412 0.2370 0.9237 -2.0032 16.7644 -1.6261 8.4683 32.7953 0.4942 0.6166 -3.6647 3.6711 8.5557 -12.8987 -0.4669 -0.0294 -0.0580 0.1038 0.5616 -10.2386 -3.6918 -0.6153 -10.2288 3.9090 1.4718 15.4119 -1.9478 -51.6253 -29.5778 -10.1893 1.4711 0.1483 -103.3172 3.4549 53.4200 16.9664 -16.9486 10.1767 15.1631 -60.4063 1.1947 1.5486 -7.3239 16.1405 12.7611 64.8300 -11.2200 -48.3267 -2.0226 -1.1154 92.4232 -5.5062 29.4926 -21.0668 15.4593 6.9330 -15.9552 49.3064 -3.8429 -4.8321 14.1513 -38.2141 -7.3160 -1.4377 61.4178 -2.0444 -6.7982 -24.2707 -12.3976 1.6588 0.4467 -1.8722 -28.7850 -34.3729 -7.7044 1.4455 62.3855 2.2510 19.6486 -25.9468 -0.8424 -1.4632 0.8934 1.0244
-4.0630 83.8154 -6.4125 4.7839 0.4139 12.3983 -0.8688 14.4069 -0.7392 -0.5120 0.1004 0.6386 -1.3826 16.8985 -1.7913 8.9734 33.5067 0.2105 0.4619 -3.6736 3.6049 7.6220 -12.2135 -0.2764 -0.0427 -0.0791 0.1128 0.5391 -10.2819 -3.6790 -0.6210 -10.2732 3.9212 1.0360 15.8334 -2.5388 -51.2201 -29.0897 -7.4702 1.2708 0.1259 -102.6219 0.8889 51.8651 14.3921 -17.0180 9.9972 15.0879 -60.2599 1.1925 1.5622 -7.0262 15.9485 12.8377 65.0309 -11.7975 -49.2775 -1.8550 -1.1603 94.5129 -5.0182 29.4812 -21.2288 15.4496 6.8822 -15.9509 49.3176 -3.8840 -4.8350 13.6606 -37.4067 -5.9514 -1.3258 60.9747 -1.8999 -6.8332 -24.2599 -12.2803 1.6559 0.4127 -1.8666 -29.0679 -34.1218 -6.9105 1.4340 62.4056 2.2154 19.4295 -26.1226 -0.6943 -1.4490 0.9552 1.0259
-4.2824 83.9657 -6.2507 5.1967 0.1239 11.6586 -0.5510 14.0220 -0.8165 -0.3689 -0.0623 0.3592 -0.7639 16.8707 -1.9374 9.4550 34.0671 -0.1586 0.3325 -3.6802 3.4961 6.7417 -11.4985 -0.1746 -0.0536 -0.0985 0.1218 0.5198 -10.3270 -3.6661 -0.6240 -10.3183 3.9319 0.6487 16.2130 -3.0733 -51.1540 -28.5852 -5.0099 1.0892 0.0983 -101.7477 -1.4814 50.0195 12.0046 -17.0907 9.8511 15.0606 -60.0859 1.1773 1.6793 -6.5914 15.7357 12.8107 65.1870 -12.4056 -49.7486 -1.7215 -0.9551 95.9619 -4.3650 29.8863 -21.5727 15.4938 6.8617 -15.9704 49.4273 -3.9015 -4.8311 13.0899 -36.5338 -4.6381 -1.2164 60.3005 -1.7684 -6.8260 -24.1946 -12.2314 1.6530 0.3507 -1.8586 -29.3526 -33.7839 -6.2607 1.4047 62.2450 2.1733 19.2913 -26.2606 -0.6525 -1.4374 1.0276 1.0235
-4.4675 84.2286 -5.9711 5.6838 -0.0635 11.0664 -0.2266 13.5495 -0.9101 -0.2246 -0.2512 0.1007 -0.1439 16.6997 -2.0598 9.9155 34.3803 -0.6008 0.2353 -3.7048 3.2668 5.9083 -10.7544 -0.1735 -0.0584 -0.1144 0.1295 0.5127 -10.3621 -3.6558 -0.6252 -10.3535 3.9397 0.2894 16.5526 -3.5591 -51.2681 -27.8273 -2.7826 0.9772 0.1220 -100.8567 -4.0157 47.4961 9.7161 -17.1135 9.7401 15.0444 -59.8657 1.1384 1.7977 -5.9437 15.4989 12.7146 65.1527 -12.9077 -50.0059 -1.5017 -0.7443 97.1442 -3.9548 30.7158 -22.1801 15.5160 6.8996 -15.9620 49.5768 -3.8870 -4.8406 12.3745 -35.5830 -3.2979 -1.1268 59.3359 -1.6694 -6.7721 -24.0400 -12.2048 1.6532 0.2697 -1.8478 -29.6776 -33.3415 -5.7232 1.3717 61.8496 2.1349 19.2530 -26.3297 -0.7178 -1.4305 1.1028 1.0185
-4.6200 84.6342 -5.6226 6.2585 -0.1512 10.5636 0.0869 13.0147 -0.9972 -0.0784 -0.4525 -0.1507 0.4319 16.4064 -2.2040 10.3560 34.3807 -1.0479 0.1098 -3.7352 2.9488 5.1196 -10.0175 -0.3370 -0.0548 -0.1280 0.1297 0.5240 -10.4131 -3.6647 -0.6292 -10.3998 3.9491 -0.1268 16.8871 -4.0194 -51.3475 -26.7492 -0.6304 0.9083 0.1867 -99.9190 -6.6723 44.1550 7.5667 -17.0035 9.7387 15.0774 -59.6834 1.1135 1.8923 -5.0884 15.2209 12.5981 64.7103 -13.1299 -49.9451 -1.2686 -0.5967 98.2447 -3.7923 31.6177 -22.9310 15.5007 6.9788 -15.9693 49.7078 -3.8680 -4.8408 11.4927 -34.5377 -1.8503 -1.0631 58.0314 -1.5988 -6.6982 -23.7236 -12.2145 1.6567 0.1324 -1.8278 -30.0388 -32.8266 -5.2377 1.3134 61.2125 2.0718 19.2032 -26.3152 -0.8292 -1.4303 1.1408 1.0109
-4.7245 85.1796 -5.1974 6.9107 -0.1639 10.2099 0.3941 12.4119 -1.1283 0.0506 -0.6673 -0.3732 0.9585 16.0725 -2.3503 10.7719 34.0512 -1.4811 -0.0144 -3.7527 2.4964 4.2427 -9.4398 -0.5892 -0.0462 -0.1409 0.1224 0.5410 -10.4583 -3.6860 -0.6287 -10.4430 3.9529 -0.6329 17.2700 -4.3747 -51.3360 -25.4682 1.4436 0.8260 0.2842 -98.6643 -9.2087 40.0865 5.6685 -16.7546 9.8195 15.1523 -59.4713 1.0990 1.9981 -4.1042 14.9268 12.3772 63.8368 -13.0138 -49.6047 -1.0239 -0.3643 99.3646 -3.5124 32.6263 -23.7287 15.5478 7.0467 -16.0096 49.8524 -3.8337 -4.8650 10.4955 -33.3525 -0.4091 -0.9834 56.3214 -1.4968 -6.6400 -23.2290 -12.3190 1.6603 -0.0202 -1.8107 -30.4191 -32.1803 -4.8972 1.2276 60.2146 1.9917 19.1049 -26.1526 -1.0434 -1.4360 1.1398 0.9852
-4.8374 85.8238 -4.7421 7.5619 -0.1283 9.8532 0.7194 11.7831 -1.1918 0.1812 -0.8997 -0.6014 1.4524 15.7760 -2.4683 11.1444 33.5916 -1.8726 -0.1942 -3.7712 1.9910 3.3447 -8.9796 -0.8991 -0.0474 -0.1528 0.1159 0.5591 -10.5031 -3.7085 -0.6496 -10.4847 3.9625 -1.2064 17.7196 -4.6214 -51.2732 -24.0162 3.4785 0.8997 0.3205 -96.9414 -11.2522 35.6547 4.2459 -16.3962 9.9896 15.2663 -59.3623 1.1004 2.0902 -3.0871 14.6552 12.1424 62.5714 -12.5762 -49.1145 -0.8556 -0.0909 100.6276 -3.0801 33.7184 -24.5579 15.6651 7.1150 -16.0730 50.0738 -3.8106 -4.9113 9.4907 -32.0532 1.0131 -0.9461 54.3504 -1.4354 -6.5890 -22.6191 -12.4488 1.6607 -0.1547 -1.8083 -30.7231 -31.4630 -4.6312 1.1272 58.9878 1.9014 18.9194 -25.8788 -1.2481 -1.4435 1.0811 0.9554
-4.9154 86.5384 -4.2471 8.1082 -0.1188 9.4206 1.0552 11.1428 -1.2214 0.3052 -1.1285 -0.7751 1.9401 15.5077 -2.5251 11.4051 33.1383 -2.2860 -0.3894 -3.7885 1.5071 2.4676 -8.6691 -1.2017 -0.0499 -0.1612 0.1095 0.5707 -10.5329 -3.7229 -0.6649 -10.5051 3.9646 -1.8382 18.1741 -4.7050 -51.2831 -22.5504 5.6092 0.9664 0.3699 -94.5839 -12.7591 31.2458 3.3109 -16.0363 10.1146 15.3807 -59.2067 1.0901 2.1309 -2.0489 14.4007 11.9795 61.0984 -12.0994 -48.6893 -0.7158 0.2623 101.9558 -2.4228 34.7547 -25.2749 15.7934 7.1683 -16.1407 50.2727 -3.8119 -4.9481 8.6506 -30.5510 2.4157 -0.9067 52.1513 -1.3851 -6.6369 -21.9241 -12.6200 1.6649 -0.2816 -1.8269 -30.8641 -30.6234 -4.4951 1.0476 57.4933 1.8302 18.6154 -25.4753 -1.2773 -1.4521 1.0241 0.9308
-5.0036 87.2630 -3.7506 8.4861 -0.1612 8.8864 1.3843 10.5255 -1.2183 0.4242 -1.3644 -0.9323 2.4312 15.2776 -2.5070 11.6391 32.7665 -2.6141 -0.6162 -3.8191 1.0002 1.6754 -8.4588 -1.5298 -0.0490 -0.1652 0.1003 0.5867 -10.5749 -3.7401 -0.6784 -10.5383 3.9608 -2.4445 18.5721 -4.6380 -51.5136 -21.1640 8.0818 0.9834 0.3083 -91.5562 -13.7688 27.5997 2.8315 -15.7523 10.1673 15.4454 -59.1435 1.0941 2.1050 -0.9785 14.1456 11.9065 59.6720 -11.8229 -48.5044 -0.5862 0.4978 103.4135 -1.8346 35.8567 -26.0042 15.8665 7.2301 -16.1931 50.4454 -3.7993 -4.9625 8.0646 -28.9597 3.6910 -0.8759 49.9433 -1.3420 -6.7320 -21.2182 -12.7646 1.6706 -0.4185 -1.8435 -30.7831 -29.6755 -4.4930 0.9588 55.8504 1.7386 18.3089 -25.0559 -1.1514 -1.4568 0.9833 0.9189
-5.0973 87.9622 -3.2503 8.6834 -0.2510 8.2842 1.6824 9.8947 -1.1936 0.5241 -1.6100 -1.0658 2.9145 15.0770 -2.4719 11.9405 32.4777 -2.8718 -0.8644 -3.8637 0.4737 0.9796 -8.4091 -1.8882 -0.0515 -0.1698 0.0971 0.5880 -10.6157 -3.7458 -0.6834 -10.5681 3.9579 -2.9740 18.9398 -4.4713 -52.0276 -19.9952 10.9818 0.8552 0.1927 -87.8311 -14.4291 25.1546 2.7096 -15.5597 10.1324 15.4354 -59.1899 1.0871 2.0490 0.1160 13.8680 11.9346 58.5222 -11.9821 -48.6497 -0.3644 0.6576 104.9893 -1.3375 36.8544 -26.7424 15.7913 7.2996 -16.2257 50.4856 -3.7845 -4.9655 7.7831 -27.3467 4.7974 -0.8429 47.8101 -1.2857 -6.8689 -20.6069 -12.9040 1.6747 -0.5431 -1.8478 -30.5166 -28.6713 -4.6238 0.8876 54.1550 1.6521 18.0085 -24.5952 -0.8559 -1.4592 0.9262 0.9276
-5.2204 88.5980 -2.7422 8.7021 -0.4033 7.7211 1.9222 9.2573 -1.1384 0.6039 -1.8651 -1.2269 3.3624 14.8577 -2.4538 12.3542 32.2036 -3.0924 -1.0823 -3.9159 -0.0306 0.3623 -8.5045 -2.2062 -0.0496 -0.1765 0.0852 0.5909 -10.6522 -3.7590 -0.6810 -10.5954 3.9435 -3.3216 19.2611 -4.2205 -52.5835 -18.8750 13.9243 0.6315 0.0751 -83.4334 -14.9381 23.5900 2.8275 -15.4173 10.0835 15.4071 -59.2635 1.1115 2.0157 1.2715 13.5479 11.9583 57.7773 -12.4906 -48.9269 -0.0774 0.6708 106.8158 -0.8745 37.7277 -27.5144 15.6719 7.3575 -16.2385 50.4815 -3.7860 -4.9604 7.7890 -25.7662 5.6338 -0.8071 45.7964 -1.2245 -7.0484 -20.0507 -13.0647 1.6743 -0.6272 -1.8263 -30.0402 -27.5960 -4.8931 0.8053 52.5002 1.5364 17.6966 -24.1182 -0.4791 -1.4590 0.9146 0.9502
-5.3400 89.1537 -2.2609 8.5699 -0.6379 7.2022 2.0804 8.5882 -1.1127 0.6423 -2.1240 -1.3460 3.7458 14.6117 -2.5011 12.8558 31.9571 -3.3702 -1.2749 -3.9749 -0.4333 -0.0648 -8.6545 -2.4503 -0.0442 -0.1805 0.0674 0.6043 -10.6831 -3.7822 -0.6827 -10.6097 3.9270 -3.4698 19.5351 -3.9388 -52.9891 -17.7503 16.5399 0.2097 0.0658 -78.7995 -15.3104 22.6457 3.1370 -15.2809 10.0221 15.3353 -59.2530 1.1351 1.9575 2.4916 13.2006 11.9570 57.4765 -13.1899 -49.2103 0.1582 0.6088 108.9402 -0.3876 38.6600 -28.1653 15.5712 7.4109 -16.2025 50.5110 -3.8084 -4.9147 8.0446 -24.2110 6.1802 -0.7730 43.9653 -1.1607 -7.2867 -19.6020 -13.1548 1.6690 -0.6772 -1.7949 -29.4378 -26.4518 -5.2720 0.7454 50.9402 1.4513 17.4532 -23.6859 -0.1934 -1.4566 0.9814 0.9806
-5.4401 89.6189 -1.8118 8.3038 -0.9809 6.7141 2.1765 7.8974 -1.0473 0.6384 -2.4026 -1.4694 4.0202 14.3321 -2.5942 13.4083 31.7841 -3.6636 -1.4216 -4.0370 -0.7696 -0.2872 -8.8603 -2.6318 -0.0457 -0.1773 0.0536 0.6140 -10.7083 -3.8019 -0.6945 -10.6196 3.9195 -3.6026 19.7709 -3.6913 -53.1508 -16.6365 18.6125 -0.3132 -0.0278 -74.5165 -15.4078 22.3921 3.5912 -15.2086 9.9857 15.2411 -59.2889 1.2030 1.8458 3.7153 12.9097 11.9269 57.5658 -13.7985 -49.3732 0.3697 0.5152 111.0825 0.1620 39.6042 -28.6154 15.5441 7.4397 -16.1699 50.5491 -3.8104 -4.9063 8.4633 -22.6384 6.3780 -0.7369 42.3572 -1.1007 -7.5748 -19.3125 -13.0104 1.6618 -0.7186 -1.7817 -28.7273 -25.1724 -5.6651 0.6717 49.4736 1.3610 17.2399 -23.3287 -0.0347 -1.4524 1.0895 1.0024
-5.4466 90.0570 -1.3723 7.9259 -1.4230 6.2221 2.2499 7.1558 -1.0300 0.6050 -2.6674 -1.5066 4.1574 14.0563 -2.7453 13.8248 31.6463 -3.9569 -1.4815 -4.0866 -1.0236 -0.2615 -9.0001 -2.8309 -0.0646 -0.1796 0.0648 0.6024 -10.7084 -3.7871 -0.7191 -10.6070 3.9339 -3.9643 19.9992 -3.4535 -53.2599 -15.7348 20.1840 -0.7766 -0.0793 -71.2467 -15.1728 22.6887 4.1046 -15.2016 9.9267 15.1585 -59.2537 1.2690 1.7804 4.6496 12.6441 11.8437 57.8745 -14.1128 -49.3427 0.7223 0.5521 112.6729 0.8130 40.3186 -28.8406 15.5205 7.4266 -16.1630 50.5223 -3.8248 -4.8879 8.9722 -20.9860 6.3414 -0.6679 40.8517 -1.0129 -7.7652 -19.1313 -12.6717 1.6578 -0.7880 -1.7881 -27.9636 -23.6826 -6.0608 0.6073 47.8571 1.2926 17.0451 -22.9311 0.0210 -1.4468 1.1287 1.0045
-5.3430 90.5046 -0.9554 7.4886 -1.9097 5.6815 2.3076 6.3887 -0.9945 0.5591 -2.9524 -1.5540 4.0932 13.7567 -2.9144 14.0553 31.6008 -4.2331 -1.4458 -4.0999 -1.2117 0.0005 -9.0311 -3.0971 -0.0932 -0.1863 0.0950 0.5750 -10.6969 -3.7473 -0.7487 -10.5863 3.9656 -4.6229 20.2199 -3.2132 -53.4225 -15.0251 21.4595 -1.0299 -0.0491 -69.3898 -14.8054 23.0550 4.7306 -15.2627 9.8607 15.1327 -59.2356 1.3427 1.8256 5.1837 12.4191 11.7271 58.2439 -14.0141 -49.1399 1.1758 0.5955 113.6602 1.4604 40.7328 -29.0739 15.4716 7.3755 -16.1775 50.4212 -3.8340 -4.9019 9.4320 -19.2713 6.1784 -0.5948 39.4189 -0.9247 -7.7906 -19.0177 -12.1427 1.6533 -0.9161 -1.8011 -27.2156 -22.0418 -6.3938 0.5455 46.0318 1.2398 16.9297 -22.4314 0.1220 -1.4396 1.0657 0.9865
-5.0983 90.9567 -0.5688 7.0509 -2.3855 5.0523 2.3168 5.5950 -0.9438 0.5128 -3.2215 -1.5516 3.8417 13.3963 -3.0428 14.1465 31.6663 -4.5391 -1.3708 -4.1018 -1.3846 0.3996 -9.0406 -3.3867 -0.1086 -0.1934 0.1112 0.5612 -10.6792 -3.7255 -0.7638 -10.5604 3.9802 -5.5899 20.3162 -2.9817 -53.6664 -14.3444 22.5765 -1.0142 0.0947 -69.1073 -14.5078 23.1255 5.3523 -15.3559 9.7827 15.0999 -59.2794 1.4002 1.8979 5.4311 12.2492 11.5369 58.5794 -13.8098 -48.9401 1.5582 0.7094 114.3759 2.2902 41.2974 -29.2813 15.4893 7.3200 -16.1808 50.3988 -3.8460 -4.9608 9.7964 -17.4718 6.0079 -0.5329 37.9331 -0.8420 -7.7905 -18.9262 -11.4459 1.6493 -0.9764 -1.8209 -26.5817 -20.3139 -6.6468 0.4865 43.9464 1.1890 16.9348 -21.7764 0.2676 -1.4319 0.9802 0.9545
-4.7565 91.3899 -0.1669 6.5681 -2.8261 4.3136 2.2979 4.7820 -0.8467 0.4562 -3.4988 -1.4930 3.4947 13.0534 -3.0963 14.0756 31.8180 -4.7862 -1.2942 -4.0969 -1.6112 0.8763 -9.0183 -3.6968 -0.1059 -0.1871 0.1027 0.5694 -10.6638 -3.7373 -0.7648 -10.5475 3.9725 -6.9224 20.3073 -2.7381 -53.7931 -13.6302 23.4968 -0.7404 0.2759 -70.4469 -14.6450 22.6001 5.8560 -15.3793 9.7555 15.1143 -59.4372 1.4811 1.9623 5.5780 12.0711 11.3611 58.6825 -13.7669 -48.8132 1.7195 0.6537 114.9737 3.1874 41.8517 -29.3722 15.5164 7.3166 -16.1596 50.3848 -3.8482 -4.9937 10.1240 -15.7095 5.9655 -0.4964 36.4824 -0.7941 -7.9294 -18.8547 -10.6533 1.6476 -0.9930 -1.8438 -26.0186 -18.6232 -6.8756 0.4271 41.7174 1.1309 16.9863 -20.9793 0.5879 -1.4281 0.9033 0.9257
-4.3255 91.8227 0.1779 6.0252 -3.2394 3.4707 2.2468 3.9452 -0.7339 0.3818 -3.7512 -1.3607 3.1293 12.7532 -3.0379 13.8450 31.9913 -4.8542 -1.2243 -4.0891 -1.9344 1.3886 -8.9154 -4.1098 -0.0987 -0.1681 0.0890 0.5746 -10.6402 -3.7565 -0.7542 -10.5267 3.9599 -8.5516 20.1631 -2.5000 -53.6215 -12.9631 24.0941 -0.3896 0.5342 -72.8080 -15.1795 21.3687 6.2495 -15.3406 9.7836 15.2106 -59.5369 1.5408 2.0203 5.8205 11.9185 11.2176 58.4551 -14.1110 -48.4907 1.7266 0.5353 115.2226 4.0736 42.0954 -29.3682 15.5271 7.2987 -16.0947 50.3022 -3.8475 -5.0014 10.4940 -14.0194 6.1307 -0.4620 35.0743 -0.7622 -8.1551 -18.7473 -9.9333 1.6482 -1.0072 -1.8672 -25.4837 -17.0018 -7.2143 0.3860 39.3008 1.0930 17.0295 -19.9738 1.1344 -1.4305 0.8197 0.9029
-3.8462 92.2237 0.4982 5.4532 -3.6707 2.5231 2.1592 3.1358 -0.6189 0.2940 -3.9808 -1.1555 2.7356 12.5190 -2.9120 13.4377 32.2108 -4.7024 -1.1803 -4.0836 -2.2585 1.8469 -8.7253 -4.5462 -0.0920 -0.1443 0.0791 0.5777 -10.6180 -3.7709 -0.7436 -10.5134 3.9509 -10.2108 19.9606 -2.2323 -53.1839 -12.4456 24.4353 -0.1467 0.7508 -75.5168 -15.7573 19.6415 6.8376 -15.2763 9.8262 15.3533 -59.5158 1.5851 2.1264 6.0952 11.7634 11.1738 57.8954 -14.6720 -47.6741 1.6258 0.4745 114.9478 5.2464 42.1291 -29.1229 15.5868 7.2753 -16.0824 50.2389 -3.8613 -5.0442 10.8681 -12.4052 6.4810 -0.4320 33.7941 -0.7252 -8.3832 -18.6450 -9.2912 1.6521 -1.0408 -1.8815 -24.9927 -15.4484 -7.5708 0.3482 36.8349 1.0556 17.1503 -18.8445 1.8574 -1.4324 0.6949 0.8796
-3.2916 92.5689 0.7436 4.8743 -4.1409 1.4520 2.0414 2.4349 -0.4775 0.2087 -4.2005 -0.9543 2.2985 12.3502 -2.6777 12.7703 32.4264 -4.3753 -1.1341 -4.0626 -2.4474 2.2115 -8.5264 -4.9578 -0.0860 -0.1188 0.0763 0.5811 -10.6113 -3.7836 -0.7340 -10.5162 3.9548 -11.7023 19.7189 -1.9850 -52.5018 -12.1913 24.7102 -0.1408 0.8005 -78.0898 -16.2262 18.0796 7.6800 -15.2011 9.8814 15.4899 -59.4633 1.6283 2.1917 6.3128 11.6394 11.2363 57.1912 -15.2482 -46.2296 1.5127 0.4685 114.0952 6.7335 42.0149 -28.6242 15.7037 7.2249 -16.1179 50.1910 -3.9063 -5.1045 11.2711 -10.9160 6.9856 -0.4100 32.7788 -0.7040 -8.5951 -18.6270 -8.7074 1.6531 -1.0444 -1.8910 -24.5578 -14.0070 -7.8079 0.3050 34.5245 0.9959 17.3417 -17.6740 2.6782 -1.4366 0.5566 0.8673
-2.7577 92.8223 0.8761 4.3065 -4.6240 0.2300 1.9103 1.8420 -0.3478 0.1314 -4.3798 -0.6971 1.8204 12.2253 -2.4261 11.8270 32.4945 -3.8253 -1.0494 -4.0411 -2.5660 2.4328 -8.4405 -5.2191 -0.0764 -0.0940 0.0707 0.5884 -10.6050 -3.7963 -0.7245 -10.5220 3.9519 -12.9929 19.3679 -1.7214 -51.5914 -12.1213 24.8480 -0.2781 0.7194 -80.1680 -16.5150 16.9329 8.6664 -15.1743 9.9659 15.6120 -59.4541 1.6628 2.1987 6.3497 11.5913 11.4143 56.5472 -15.7212 -44.1708 1.3848 0.5323 112.7877 8.5223 41.8138 -27.9213 15.8473 7.1907 -16.1791 50.2500 -3.9107 -5.1720 11.6664 -9.6042 7.5400 -0.3881 32.0789 -0.6718 -8.8336 -18.6723 -8.0253 1.6523 -0.9656 -1.8828 -24.1976 -12.7855 -7.8986 0.2760 32.4663 0.9567 17.5550 -16.5246 3.5450 -1.4382 0.4783 0.8582
-2.1727 93.0128 0.9218 3.7881 -5.0838 -1.1318 1.7536 1.3900 -0.2148 0.0678 -4.5300 -0.4089 1.3014 12.1528 -2.1561 10.6484 32.2286 -3.0983 -0.9653 -4.0342 -2.6089 2.5446 -8.5378 -5.3093 -0.0721 -0.0724 0.0707 0.5906 -10.5984 -3.7990 -0.7202 -10.5323 3.9539 -14.0955 18.9183 -1.5095 -50.5297 -12.1930 24.7304 -0.3736 0.6325 -81.4941 -16.6878 16.4343 9.5152 -15.1074 10.0458 15.6987 -59.4547 1.6818 2.1462 6.1906 11.6002 11.6773 56.1281 -16.0015 -41.6460 1.2035 0.6354 111.1267 10.4357 41.6822 -27.0595 15.9562 7.1800 -16.2482 50.3056 -3.8992 -5.2136 11.9633 -8.5459 8.1637 -0.3534 31.7367 -0.6229 -9.0028 -18.7500 -7.1739 1.6488 -0.7951 -1.8787 -23.9013 -11.8480 -7.7996 0.2575 30.7076 0.9218 17.6939 -15.4371 4.4528 -1.4379 0.4222 0.8499
-1.5695 93.1349 0.8423 3.3673 -5.4798 -2.5051 1.5632 1.0756 -0.0866 0.0113 -4.6373 -0.0949 0.7450 12.1190 -1.9069 9.3428 31.4960 -2.2297 -0.8592 -4.0371 -2.6383 2.6494 -8.8642 -5.2741 -0.0681 -0.0589 0.0676 0.5933 -10.5773 -3.7999 -0.7175 -10.5234 3.9484 -15.0075 18.3876 -1.4132 -49.5048 -12.4133 24.4974 -0.4071 0.6107 -82.0868 -16.7104 16.5712 10.1517 -15.0306 10.1047 15.7496 -59.4904 1.6963 2.0530 5.8482 11.6471 11.9671 56.0106 -16.0446 -39.0172 0.8890 0.6977 109.3600 12.1141 41.5442 -26.2158 16.0096 7.1956 -16.3065 50.3325 -3.8608 -5.2412 12.1472 -7.8058 8.8282 -0.3031 31.7054 -0.5625 -9.0316 -18.8574 -6.3274 1.6474 -0.5647 -1.8860 -23.7435 -11.2050 -7.6052 0.2609 29.1957 0.9229 17.8001 -14.4105 5.3336 -1.4356 0.3532 0.8394
-0.9648 93.2133 0.6440 3.0226 -5.7473 -3.7317 1.3354 0.9077 -0.0064 -0.0308 -4.7060 0.2435 0.1321 12.1109 -1.6888 7.9956 30.2789 -1.3030 -0.7948 -4.0354 -2.6418 2.7888 -9.4580 -5.1809 -0.0649 -0.0544 0.0689 0.5958 -10.5537 -3.7927 -0.7164 -10.5118 3.9459 -15.7057 17.8116 -1.4772 -48.7637 -12.8936 24.4094 -0.4547 0.6359 -82.1275 -16.3750 16.9633 10.6588 -14.9868 10.1574 15.8194 -59.5353 1.6840 1.9858 5.3788 11.6798 12.2617 56.2639 -15.8682 -36.7167 0.5993 0.7404 107.6840 13.2679 41.1270 -25.6818 16.0144 7.1923 -16.3335 50.3130 -3.8294 -5.2572 12.1983 -7.4669 9.4573 -0.2492 31.9356 -0.4994 -8.8914 -18.9787 -5.5699 1.6482 -0.3784 -1.9009 -23.6419 -10.8579 -7.3835 0.2783 27.8762 0.9664 17.8621 -13.4411 6.0642 -1.4291 0.2342 0.8300
-0.3626 93.2799 0.3591 2.7591 -5.8177 -4.7262 1.0591 0.8404 0.0727 -0.0809 -4.7385 0.5609 -0.5322 12.0895 -1.5156 6.6458 28.7727 -0.3491 -0.7844 -4.0194 -2.6198 2.9532 -10.3125 -5.0756 -0.0567 -0.0550 0.0673 0.5979 -10.5075 -3.7829 -0.7052 -10.4792 3.9334 -16.2196 17.2633 -1.7047 -48.3571 -13.6043 24.5581 -0.4620 0.6231 -81.8485 -15.4454 17.0947 11.1265 -15.0388 10.1891 15.8283 -59.6233 1.6580 1.9821 4.9031 11.7506 12.5332 56.9041 -15.5802 -35.0777 0.4953 0.7862 106.2401 13.8165 40.5997 -25.5632 15.9913 7.2026 -16.3560 50.2858 -3.8140 -5.2523 12.1223 -7.5149 10.0443 -0.2196 32.2453 -0.4780 -8.6979 -19.0388 -5.0378 1.6538 -0.2419 -1.9121 -23.5629 -10.7530 -7.1217 0.2952 26.6430 1.0200 17.8971 -12.4691 6.5505 -1.4232 0.0723 0.8238
0.2000 93.3818 0.0007 2.5671 -5.7023 -5.4578 0.7354 0.7992 0.1621 -0.1500 -4.7470 0.8633 -1.2132 12.0434 -1.3727 5.2506 27.2789 0.5809 -0.8596 -4.0064 -2.6031 3.1055 -11.2831 -5.0352 -0.0428 -0.0567 0.0545 0.6069 -10.4602 -3.7862 -0.6893 -10.4457 3.9088 -16.6015 16.7551 -2.0617 -48.1052 -14.4099 24.7586 -0.4114 0.6242 -81.3155 -14.1011 16.8565 11.4869 -15.1063 10.2364 15.8120 -59.6861 1.6326 1.9825 4.4692 11.8376 12.7403 57.7778 -15.1900 -34.0003 0.5224 0.8280 105.0555 13.8792 40.1243 -25.6724 15.9549 7.2215 -16.3799 50.2432 -3.8403 -5.2722 11.9531 -7.8268 10.5651 -0.2133 32.4259 -0.4840 -8.5731 -18.9756 -4.6887 1.6594 -0.1124 -1.9182 -23.4842 -10.7688 -6.8811 0.3109 25.3664 1.0574 17.9774 -11.5173 6.8427 -1.4225 -0.1336 0.8314
0.6980 93.5062 -0.3799 2.3941 -5.4644 -5.9577 0.3897 0.7456 0.2427 -0.2309 -4.7461 1.1333 -1.8946 11.9563 -1.2214 3.6884 26.0712 1.4701 -0.9751 -3.9921 -2.6277 3.1148 -12.1622 -5.0293 -0.0264 -0.0525 0.0337 0.6215 -10.4200 -3.8011 -0.6741 -10.4218 3.8787 -16.8649 16.2884 -2.4227 -47.7285 -15.1463 24.6922 -0.3092 0.6135 -80.5129 -12.6730 16.6120 11.7521 -15.1383 10.3144 15.7830 -59.6961 1.6518 1.9651 3.9911 11.9462 12.8646 58.6153 -14.5061 -32.9518 0.4962 0.8423 104.0017 13.7687 39.8024 -25.7526 15.9471 7.2347 -16.3890 50.1940 -3.8726 -5.3223 11.7913 -8.2901 11.0443 -0.2262 32.4673 -0.5236 -8.6010 -18.8504 -4.4969 1.6656 0.0264 -1.9320 -23.3817 -10.8272 -6.7102 0.3131 24.0775 1.0723 18.0799 -10.6678 6.9902 -1.4246 -0.2868 0.8353
1.0753 93.6434 -0.7350 2.1975 -5.1787 -6.2823 0.0596 0.6506 0.3262 -0.3142 -4.7722 1.3854 -2.5393 11.8585 -1.0908 1.8552 25.3633 2.3209 -1.0984 -3.9866 -2.7212 2.9907 -12.8356 -5.0548 -0.0144 -0.0447 0.0333 0.6318 -10.4090 -3.7976 -0.6637 -10.4276 3.8709 -17.0539 15.8700 -2.7472 -47.0449 -15.6935 24.1851 -0.1434 0.6298 -79.4521 -11.4348 16.4706 11.9671 -15.1073 10.4280 15.7750 -59.7655 1.6966 1.9261 3.4837 12.1295 12.9142 59.2243 -13.6087 -31.6412 0.3561 0.7949 103.0886 13.8985 39.4211 -25.6495 15.9926 7.2359 -16.4259 50.1562 -3.9082 -5.3611 11.7102 -8.7825 11.4147 -0.2470 32.3882 -0.5524 -8.7382 -18.6611 -4.4081 1.6696 0.1564 -1.9404 -23.1668 -10.8814 -6.5652 0.3048 22.9046 1.0611 18.0797 -9.9164 6.9901 -1.4275 -0.4405 0.8437
1.3397 93.7638 -1.0122 1.9815 -4.9228 -6.4495 -0.2405 0.5193 0.3868 -0.3978 -4.7936 1.6282 -3.1418 11.7139 -0.9906 -0.1637 25.1585 3.1399 -1.2060 -4.0022 -2.8823 2.7184 -13.1781 -5.0621 -0.0062 -0.0343 0.0426 0.6360 -10.4089 -3.7859 -0.6550 -10.4399 3.8743 -17.2300 15.4657 -3.0304 -46.0813 -16.1113 23.3950 -0.0580 0.6909 -78.2181 -10.3895 16.4332 12.1540 -15.0663 10.5219 15.7792 -59.7996 1.7517 1.8881 2.9422 12.3202 12.8578 59.5752 -12.6071 -30.0717 0.2457 0.7892 102.2080 14.4438 39.0357 -25.3508 16.0711 7.1969 -16.4654 50.0880 -3.9442 -5.3899 11.7401 -9.1918 11.6476 -0.2562 32.1877 -0.5691 -8.9514 -18.4196 -4.3734 1.6727 0.2489 -1.9472 -22.8961 -10.8193 -6.3767 0.2969 21.8740 1.0519 17.9964 -9.3136 6.7906 -1.4285 -0.5396 0.8532
1.4690 93.8854 -1.2070 1.7760 -4.7284 -6.4670 -0.5160 0.3591 0.4357 -0.4828 -4.8350 1.8380 -3.7135 11.5732 -0.9198 -2.2362 25.3080 3.8994 -1.3110 -4.0134 -3.0725 2.3679 -13.1698 -5.1323 -0.0018 -0.0233 0.0582 0.6378 -10.4258 -3.7673 -0.6516 -10.4654 3.8859 -17.3500 15.0805 -3.2835 -44.9529 -16.3200 22.3628 0.0741 0.7504 -77.0210 -9.5872 16.8297 12.3595 -15.0199 10.6083 15.8120 -59.8406 1.8164 1.8517 2.4527 12.4948 12.7737 59.6370 -11.6625 -28.4084 0.1371 0.7734 101.3789 15.3002 38.7106 -24.9371 16.1663 7.1447 -16.5080 49.9775 -3.9987 -5.4326 11.8378 -9.4654 11.6838 -0.2665 31.9081 -0.5906 -9.1786 -18.1550 -4.3199 1.6742 0.3179 -1.9615 -22.5867 -10.6602 -6.1486 0.2828 21.0903 1.0480 17.8016 -8.8960 6.4494 -1.4286 -0.6524 0.8598
1.4697 93.9796 -1.3311 1.5949 -4.6039 -6.3370 -0.7738 0.1863 0.4760 -0.5627 -4.8918 2.0106 -4.2676 11.4338 -0.8819 -4.2379 25.6546 4.6238 -1.4105 -4.0152 -3.2982 1.9614 -12.9128 -5.2748 -0.0027 -0.0177 0.0822 0.6367 -10.4597 -3.7439 -0.6556 -10.5058 3.9098 -17.4089 14.7670 -3.5092 -43.8934 -16.5569 21.2892 0.1546 0.7895 -75.9491 -9.0298 17.6663 12.6331 -14.9897 10.6502 15.8530 -59.8803 1.8593 1.8289 2.0393 12.5983 12.7220 59.4489 -10.8251 -26.8562 -0.0023 0.7868 100.6355 16.5202 38.5024 -24.3541 16.2254 7.0727 -16.5212 49.8100 -4.0527 -5.4514 11.9935 -9.6111 11.5276 -0.2726 31.6097 -0.6059 -9.4391 -17.8901 -4.2575 1.6767 0.3620 -1.9699 -22.2821 -10.4166 -5.8943 0.2683 20.5626 1.0536 17.5762 -8.7146 6.0268 -1.4298 -0.7605 0.8709
1.3527 94.0294 -1.3788 1.4336 -4.5659 -6.0729 -1.0063 0.0355 0.4986 -0.6359 -4.9470 2.1398 -4.7918 11.2906 -0.8359 -6.0771 26.0312 5.2470 -1.5054 -4.0157 -3.5055 1.5257 -12.5282 -5.4691 -0.0045 -0.0182 0.1022 0.6340 -10.5059 -3.7258 -0.6595 -10.5599 3.9321 -17.4330 14.4542 -3.6938 -43.0164 -16.7619 20.2848 0.1922 0.7953 -75.1632 -8.6584 18.6075 12.9380 -14.9850 10.6613 15.9144 -59.9235 1.8769 1.8306 1.7869 12.6367 12.6935 59.0417 -10.2636 -25.6682 -0.1245 0.8254 100.1075 17.7976 38.2113 -23.6969 16.2601 6.9968 -16.4994 49.6647 -4.0953 -5.4703 12.2337 -9.6543 11.2047 -0.2773 31.3640 -0.6269 -9.7609 -17.6839 -4.2755 1.6785 0.3902 -1.9785 -22.0031 -10.1114 -5.6560 0.2600 20.3285 1.0492 17.3829 -8.8203 5.5511 -1.4303 -0.8498 0.8948
1.1217 94.0212 -1.3967 1.2759 -4.6045 -5.6300 -1.2067 -0.0718 0.5137 -0.6933 -4.9855 2.2413 -5.2529 11.1549 -0.8159 -7.6223 26.2973 5.7810 -1.5735 -4.0325 -3.7278 1.1195 -12.1639 -5.7254 -0.0031 -0.0234 0.1050 0.6357 -10.5607 -3.7225 -0.6606 -10.6147 3.9330 -17.3848 14.1390 -3.8386 -42.5305 -16.9319 19.3793 0.2047 0.6984 -74.6488 -8.3965 19.7029 13.2483 -15.0170 10.6649 15.9457 -60.0277 1.8877 1.8094 1.7100 12.6198 12.6495 58.4711 -10.1274 -25.0178 -0.2345 0.8059 99.7799 18.8539 37.9168 -23.0659 16.2700 6.9730 -16.5044 49.6304 -4.1324 -5.4621 12.5377 -9.6852 10.6948 -0.2838 31.2843 -0.6454 -10.1201 -17.5476 -4.3578 1.6815 0.3554 -1.9815 -21.7239 -9.8313 -5.5369 0.2539 20.4632 1.0324 17.2452 -9.1233 5.1228 -1.4297 -0.8904 0.9252
0.8055 93.9541 -1.3569 1.1444 -4.6897 -5.0304 -1.3774 -0.1315 0.5412 -0.7456 -5.0002 2.3285 -5.6141 11.0276 -0.8382 -8.8556 26.4058 6.2402 -1.6181 -4.0657 -4.0650 0.7361 -11.9055 -6.0016 0.0011 -0.0311 0.0948 0.6424 -10.6222 -3.7372 -0.6608 -10.6743 3.9246 -17.3101 13.8299 -3.9671 -42.4864 -17.0656 18.6008 0.2003 0.6483 -74.2940 -8.1844 20.9001 13.5361 -15.0503 10.6665 15.9732 -60.1226 1.8878 1.7656 1.7524 12.6095 12.5965 57.8504 -10.4508 -24.8786 -0.3576 0.7286 99.5518 19.4255 37.8966 -22.5962 16.2926 6.9705 -16.4934 49.7113 -4.1409 -5.4300 12.8720 -9.7507 9.9946 -0.2894 31.3916 -0.6627 -10.5230 -17.5206 -4.4479 1.6834 0.3127 -1.9910 -21.4992 -9.7406 -5.6484 0.2488 21.0436 1.0061 17.2429 -9.5354 4.8302 -1.4327 -0.8752 0.9462
0.3570 93.8077 -1.3020 1.0359 -4.7809 -4.2463 -1.4885 -0.1380 0.5542 -0.7945 -4.9899 2.3660 -5.8427 10.9120 -0.8809 -9.8179 26.3546 6.5567 -1.6459 -4.0948 -4.4827 0.3561 -11.7849 -6.2358 0.0089 -0.0357 0.0694 0.6544 -10.6699 -3.7656 -0.6585 -10.7187 3.8982 -17.2708 13.5742 -4.0910 -42.9378 -17.1251 18.0214 0.1217 0.6662 -74.1519 -7.9861 22.2931 13.7829 -15.0546 10.6782 16.0100 -60.1933 1.8760 1.7373 1.8304 12.5969 12.5133 57.3553 -11.1292 -25.2173 -0.4491 0.6027 99.3426 19.0016 38.1205 -22.4802 16.3451 6.9963 -16.4750 49.9047 -4.0915 -5.4044 13.2212 -9.9296 9.0908 -0.2911 31.7267 -0.6591 -10.9277 -17.5773 -4.5943 1.6836 0.2415 -2.0097 -21.3026 -9.8806 -6.0161 0.2553 22.1069 0.9992 17.2727 -10.1315 4.6136 -1.4359 -0.7949 0.9527
-0.1155 93.6179 -1.2246 0.9815 -4.8332 -3.3849 -1.5438 -0.1395 0.5648 -0.8300 -4.9687 2.3750 -5.9933 10.8500 -0.9459 -10.5932 26.1824 6.7765 -1.6914 -4.1080 -4.8877 -0.0017 -11.7340 -6.4099 0.0237 -0.0349 0.0408 0.6730 -10.7006 -3.7992 -0.6482 -10.7464 3.8685 -17.3789 13.4037 -4.1736 -43.6863 -16.9678 17.6868 0.0094 0.6397 -74.3245 -7.9097 23.4733 13.9866 -15.0869 10.6365 16.0169 -60.2714 1.8324 1.7199 1.9969 12.5555 12.4200 57.0734 -11.9638 -25.8598 -0.5120 0.4783 99.2219 17.5366 38.4465 -22.7920 16.3833 7.0430 -16.4152 50.1241 -4.0138 -5.3722 13.5436 -10.2193 8.1627 -0.2828 32.1929 -0.6353 -11.3722 -17.6461 -4.8010 1.6828 0.1980 -2.0344 -21.1530 -10.2438 -6.4450 0.2653 23.5383 0.9871 17.2449 -10.9000 4.4231 -1.4390 -0.6356 0.9536
-0.6204 93.4477 -1.1216 0.9820 -4.8081 -2.6093 -1.5471 -0.1651 0.5667 -0.8458 -4.9509 2.3749 -6.0744 10.8389 -0.9756 -11.2860 25.9684 6.9593 -1.7487 -4.1142 -5.2058 -0.3469 -11.6953 -6.4737 0.0378 -0.0310 0.0205 0.6853 -10.7208 -3.8251 -0.6325 -10.7614 3.8483 -17.6829 13.3447 -4.1487 -44.5756 -16.5108 17.6685 -0.1325 0.6187 -74.7728 -8.0008 24.0973 14.0130 -15.1032 10.5948 16.0313 -60.3529 1.7830 1.7081 2.2093 12.4810 12.3334 57.1190 -12.6818 -26.6412 -0.5857 0.3293 99.3599 15.4458 38.7938 -23.4292 16.3773 7.1037 -16.3330 50.3100 -3.9207 -5.3236 13.8312 -10.4994 7.3422 -0.2725 32.5181 -0.6134 -11.8106 -17.6801 -5.0566 1.6788 0.1751 -2.0443 -21.0245 -10.7257 -6.8312 0.2836 25.0256 0.9855 17.1477 -11.7256 4.3067 -1.4397 -0.4684 0.9539
-1.1300 93.3154 -0.9881 1.0422 -4.7357 -1.9693 -1.5092 -0.2115 0.5525 -0.8512 -4.9389 2.3935 -6.1015 10.8746 -0.9902 -11.9403 25.8662 7.1470 -1.8240 -4.1259 -5.4305 -0.6559 -11.6764 -6.4357 0.0446 -0.0295 0.0117 0.6865 -10.7366 -3.8385 -0.6207 -10.7720 3.8415 -18.0793 13.4294 -4.0026 -45.6562 -15.7323 18.0930 -0.2732 0.5963 -75.3465 -8.1582 24.3496 13.9837 -15.1715 10.5941 16.0823 -60.4237 1.7492 1.7395 2.3774 12.3907 12.2302 57.4790 -13.0300 -27.3366 -0.6602 0.2595 99.8283 13.2674 38.9052 -24.1973 16.3372 7.1575 -16.2567 50.4368 -3.8458 -5.2561 14.0732 -10.6235 6.6539 -0.2593 32.5421 -0.6075 -12.2318 -17.6451 -5.2645 1.6733 0.1792 -2.0404 -20.9247 -11.1950 -7.1748 0.3041 26.3576 0.9983 16.9840 -12.5126 4.2133 -1.4352 -0.3619 0.9677
-1.6297 93.2623 -0.8107 1.1191 -4.6272 -1.5074 -1.4353 -0.2580 0.5270 -0.8433 -4.9394 2.4380 -6.0418 10.9369 -0.9825 -12.5688 25.9752 7.3719 -1.9281 -4.1201 -5.5352 -0.9294 -11.7133 -6.3242 0.0450 -0.0237 0.0173 0.6820 -10.7485 -3.8360 -0.6161 -10.7728 3.8507 -18.4331 13.6444 -3.7162 -46.9692 -14.5958 19.0059 -0.3294 0.5439 -75.9044 -8.1429 24.4044 14.0601 -15.2610 10.5996 16.1028 -60.4884 1.7210 1.7700 2.4759 12.3924 12.0814 58.0123 -12.9245 -27.7808 -0.6581 0.3200 100.6720 11.5394 38.6000 -24.7423 16.3337 7.1955 -16.2044 50.5082 -3.8289 -5.2034 14.2908 -10.5378 6.0516 -0.2586 32.2563 -0.6241 -12.6054 -17.5124 -5.3500 1.6678 0.1743 -2.0318 -20.8091 -11.5929 -7.5073 0.3404 27.3861 1.0292 16.8653 -13.1015 4.2423 -1.4289 -0.3012 0.9843
-2.0858 93.2581 -0.5796 1.1758 -4.4831 -1.2726 -1.3441 -0.2679 0.4972 -0.8195 -4.9316 2.4566 -5.8646 10.9584 -0.9178 -13.1427 26.1933 7.6105 -2.0454 -4.1166 -5.5611 -1.1941 -11.8005 -6.1890 0.0399 -0.0171 0.0332 0.6749 -10.7573 -3.8214 -0.6206 -10.7709 3.8706 -18.5480 13.9984 -3.2905 -48.6614 -13.1673 20.4805 -0.2533 0.5310 -76.3749 -7.8058 24.3973 14.3809 -15.3515 10.5756 16.0474 -60.5424 1.7017 1.7802 2.5430 12.4506 11.8720 58.4292 -12.2689 -27.7231 -0.5754 0.4239 101.8919 10.4789 37.8275 -24.8568 16.3602 7.2453 -16.1968 50.5859 -3.8202 -5.2032 14.4987 -10.2932 5.5254 -0.2650 31.7553 -0.6578 -12.9071 -17.3477 -5.2372 1.6648 0.1717 -2.0213 -20.6509 -11.9700 -7.8523 0.3787 28.1459 1.0522 16.7617 -13.5271 4.4282 -1.4264 -0.2441 0.9927
-2.5249 93.2840 -0.3600 1.2091 -4.2745 -1.1473 -1.2350 -0.2076 0.4666 -0.7938 -4.9381 2.4035 -5.5790 10.9778 -0.8221 -13.5674 26.3476 7.7921 -2.1283 -4.1260 -5.5528 -1.5093 -12.0407 -6.0340 0.0313 -0.0147 0.0428 0.6653 -10.7766 -3.8126 -0.6298 -10.7769 3.8858 -18.3427 14.4580 -2.8007 -50.7209 -11.6567 22.5141 -0.1707 0.5909 -76.7385 -6.9564 24.7011 15.0426 -15.4049 10.5383 15.9557 -60.5690 1.6963 1.7668 2.6283 12.5150 11.5543 58.4793 -11.1998 -27.0063 -0.5414 0.4720 103.2783 10.1066 36.6917 -24.5520 16.3668 7.2802 -16.2694 50.5861 -3.8400 -5.2251 14.6919 -10.0363 4.9848 -0.2661 31.1848 -0.6855 -13.1472 -17.1933 -4.9316 1.6610 0.1191 -1.9959 -20.4397 -12.3839 -8.2088 0.3999 28.7128 1.0784 16.6197 -13.8218 4.6531 -1.4264 -0.2216 1.0038
-2.9310 93.3368 -0.1677 1.2446 -4.0190 -1.1288 -1.1246 -0.0818 0.4092 -0.7708 -4.9304 2.3760 -5.2122 10.9829 -0.7982 -13.8127 26.3401 7.8807 -2.1942 -4.1437 -5.6302 -1.8560 -12.4378 -5.8640 0.0155 -0.0186 0.0398 0.6486 -10.7871 -3.8131 -0.6444 -10.7774 3.8846 -17.7585 14.9603 -2.3164 -53.1987 -10.1245 25.1483 -0.0592 0.7227 -76.9896 -5.3120 25.3842 16.1073 -15.5464 10.4744 15.8156 -60.6706 1.7026 1.7239 2.7772 12.5601 11.1339 58.1468 -9.9859 -25.8463 -0.4919 0.5759 104.5794 10.2394 35.4350 -23.9724 16.2993 7.3199 -16.3625 50.5664 -3.8529 -5.2769 14.8426 -9.7580 4.4573 -0.2542 30.5373 -0.7113 -13.3534 -17.0041 -4.4656 1.6548 -0.0157 -1.9634 -20.2197 -12.8552 -8.5795 0.4094 29.1723 1.1070 16.4221 -13.9980 4.8887 -1.4305 -0.2249 0.9970
-3.2880 93.3969 0.0400 1.3034 -3.7554 -1.1224 -1.0337 0.0990 0.3493 -0.7524 -4.8995 2.2846 -4.7873 10.9872 -0.8231 -13.7972 26.1511 7.8042 -2.2884 -4.1555 -5.7556 -2.2081 -12.9242 -5.7717 0.0000 -0.0220 0.0189 0.6358 -10.7756 -3.8270 -0.6624 -10.7620 3.8627 -16.8109 15.4025 -1.9388 -55.8895 -8.4570 28.0487 0.0922 0.8211 -77.0238 -2.7257 26.3669 17.6154 -15.7031 10.3927 15.6651 -60.7111 1.7238 1.6928 3.0502 12.5513 10.7495 57.5500 -9.0220 -24.6791 -0.2709 0.7039 105.3844 10.5072 34.5837 -23.4456 16.1856 7.3399 -16.3958 50.4661 -3.8819 -5.2722 14.9392 -9.4629 3.9479 -0.2465 29.8179 -0.7364 -13.5405 -16.7354 -3.9402 1.6515 -0.2626 -1.9503 -20.0356 -13.3317 -8.9530 0.4209 29.5413 1.1580 16.2170 -14.0420 5.1169 -1.4386 -0.2642 0.9784
-3.6335 93.4544 0.1893 1.3682 -3.5377 -1.0999 -0.9500 0.2983 0.2993 -0.7353 -4.8659 2.1196 -4.3008 11.0116 -0.8583 -13.5774 25.8534 7.5970 -2.3515 -4.1698 -5.9598 -2.5180 -13.3938 -5.7419 -0.0048 -0.0265 -0.0057 0.6321 -10.7783 -3.8458 -0.6686 -10.7593 3.8339 -15.7796 15.7520 -1.6932 -58.1498 -6.7382 30.4324 0.3748 0.8107 -76.7962 -0.0690 27.0260 18.9856 -15.8545 10.3679 15.5405 -60.7810 1.7780 1.6531 3.4504 12.4544 10.5775 56.7389 -8.4683 -23.8949 0.0227 0.7591 105.5152 10.6575 34.4788 -23.0559 16.0542 7.3868 -16.4002 50.3785 -3.8933 -5.2569 14.9760 -9.1629 3.4743 -0.2318 29.1391 -0.7443 -13.7135 -16.4708 -3.3976 1.6500 -0.5837 -1.9629 -19.8730 -13.7032 -9.1944 0.4235 29.8694 1.1702 16.0016 -14.0932 5.2534 -1.4477 -0.3021 0.9434
-3.9671 93.4738 0.3354 1.4269 -3.3732 -1.0813 -0.8518 0.4764 0.2569 -0.7146 -4.8031 1.9613 -3.7632 11.0257 -0.9121 -13.2674 25.4346 7.2991 -2.3682 -4.1850 -6.2288 -2.8325 -13.7861 -5.7209 0.0004 -0.0336 -0.0499 0.6317 -10.7553 -3.8833 -0.6575 -10.7461 3.7802 -14.9795 16.0228 -1.5642 -59.6144 -5.3277 32.0408 0.5360 0.6965 -76.2149 1.6740 26.8959 19.5340 -15.9397 10.3977 15.5212 -60.8010 1.8552 1.6092 3.9108 12.2818 10.5549 55.8726 -8.3102 -23.3788 0.2218 0.8860 104.9488 10.7832 34.7597 -22.5623 15.9563 7.4463 -16.3926 50.3835 -3.8602 -5.2158 15.0014 -8.8641 3.0560 -0.2150 28.5290 -0.7299 -13.8670 -16.2863 -2.8856 1.6529 -0.8257 -1.9809 -19.7477 -13.8914 -9.2224 0.4135 30.0754 1.1261 15.7956 -14.2237 5.1536 -1.4548 -0.3789 0.9249
-4.3122 93.4554 0.4580 1.4709 -3.2625 -1.1011 -0.7476 0.6195 0.2680 -0.6944 -4.7549 1.7766 -3.1565 11.0648 -0.9853 -12.9937 24.9704 6.8437 -2.4131 -4.1880 -6.3938 -3.1643 -14.0885 -5.7551 0.0062 -0.0334 -0.1304 0.6310 -10.7077 -3.9527 -0.6451 -10.7160 3.6854 -14.4249 16.2584 -1.5830 -60.4756 -4.2319 33.0010 0.4850 0.3888 -75.3505 2.4210 26.3648 19.3086 -15.9984 10.4438 15.5499 -60.7341 1.9487 1.5330 4.4340 12.1127 10.5980 55.0024 -8.5370 -22.9965 0.3597 1.0371 103.7932 10.7486 34.8728 -22.0324 15.7918 7.5534 -16.4221 50.4874 -3.7443 -5.1376 15.0258 -8.5393 2.6701 -0.1932 28.0032 -0.6829 -14.0556 -16.1691 -2.4087 1.6561 -0.8573 -1.9948 -19.6096 -14.0266 -9.1286 0.3777 30.3578 1.0282 15.5913 -14.4833 4.9088 -1.4584 -0.5393 0.9281
