HIERARCHY
ROOT Hips
{
	OFFSET 0.0000 0.0000 0.0000
	CHANNELS 6 Xposition Yposition Zposition Zrotation Xrotation Yrotation
	JOINT Spine1
	{
		OFFSET -0.0137 5.0038 -0.0537
		CHANNELS 3 Zrotation Xrotation Yrotation
		JOINT Spine2
		{
			OFFSET -0.0000 7.1253 -0.0298
			CHANNELS 3 Zrotation Xrotation Yrotation
			JOINT Chest
			{
				OFFSET -0.0000 7.5501 -0.8160
				CHANNELS 3 Zrotation Xrotation Yrotation
				JOINT Neck1
				{
					OFFSET -0.1817 26.3113 -0.5533
					CHANNELS 3 Zrotation Xrotation Yrotation
					JOINT Neck2
					{
						OFFSET -0.0000 7.7094 2.3026
						CHANNELS 3 Zrotation Xrotation Yrotation
						JOINT Head
						{
							OFFSET -0.0000 6.1289 1.9537
							CHANNELS 3 Zrotation Xrotation Yrotation
							JOINT Jaw
							{
								OFFSET 0.0026 0.4756 3.0949
								CHANNELS 3 Zrotation Xrotation Yrotation
								End Site
								{
									OFFSET 0.0 1.0 0.0
								}
							}
							JOINT LeftEye
							{
								OFFSET 3.2064 5.3802 7.5869
								CHANNELS 3 Zrotation Xrotation Yrotation
								End Site
								{
									OFFSET 0.0 1.0 0.0
								}
							}
							JOINT RightEye
							{
								OFFSET -3.2224 5.3619 7.5582
								CHANNELS 3 Zrotation Xrotation Yrotation
								End Site
								{
									OFFSET 0.0 1.0 0.0
								}
							}
						}
					}
				}
				JOINT LeftShoulder
				{
					OFFSET 1.6217 23.2372 5.1134
					CHANNELS 3 Zrotation Xrotation Yrotation
					JOINT LeftArm
					{
						OFFSET 14.9198 0.0000 -5.5023
						CHANNELS 3 Zrotation Xrotation Yrotation
						JOINT LeftForeArm
						{
							OFFSET 28.7393 0.0000 -0.0026
							CHANNELS 3 Zrotation Xrotation Yrotation
							JOINT LeftHand
							{
								OFFSET 27.0940 -0.0000 0.0026
								CHANNELS 3 Zrotation Xrotation Yrotation
								JOINT LeftHandThumbEnd
								{
									OFFSET 12.2686 -3.2202 4.8331
									CHANNELS 3 Zrotation Xrotation Yrotation
									End Site
									{
										OFFSET 0.0 1.0 0.0
									}
								}
								JOINT LeftHandMiddleEnd
								{
									OFFSET 19.0120 -0.3129 -0.0340
									CHANNELS 3 Zrotation Xrotation Yrotation
									End Site
									{
										OFFSET 0.0 1.0 0.0
									}
								}
							}
						}
					}
				}
				JOINT RightShoulder
				{
					OFFSET -1.3801 23.1803 5.2142
					CHANNELS 3 Zrotation Xrotation Yrotation
					JOINT RightArm
					{
						OFFSET -15.0372 0.0000 -5.5456
						CHANNELS 3 Zrotation Xrotation Yrotation
						JOINT RightForeArm
						{
							OFFSET -28.7366 0.0000 -0.0026
							CHANNELS 3 Zrotation Xrotation Yrotation
							JOINT RightHand
							{
								OFFSET -27.1336 -0.0000 0.0026
								CHANNELS 3 Zrotation Xrotation Yrotation
								JOINT RightHandThumbEnd
								{
									OFFSET -12.2642 -3.2115 4.8040
									CHANNELS 3 Zrotation Xrotation Yrotation
									End Site
									{
										OFFSET 0.0 1.0 0.0
									}
								}
								JOINT RightHandMiddleEnd
								{
									OFFSET -19.0006 -0.3066 -0.0316
									CHANNELS 3 Zrotation Xrotation Yrotation
									End Site
									{
										OFFSET 0.0 1.0 0.0
									}
								}
							}
						}
					}
				}
			}
		}
	}
	JOINT LeftLeg
	{
		OFFSET 10.0432 -8.4345 2.5957
		CHANNELS 3 Zrotation Xrotation Yrotation
		JOINT LeftShin
		{
			OFFSET -0.0000 -43.2218 -0.8029
			CHANNELS 3 Zrotation Xrotation Yrotation
			JOINT LeftFoot
			{
				OFFSET 0.0000 -42.1551 -3.4815
				CHANNELS 3 Zrotation Xrotation Yrotation
				JOINT LeftToeBase
				{
					OFFSET 0.0000 -5.0595 13.2315
					CHANNELS 3 Zrotation Xrotation Yrotation
					End Site
					{
						OFFSET 0.0 1.0 0.0
					}
				}
			}
		}
	}
	JOINT RightLeg
	{
		OFFSET -10.0473 -8.2953 2.6203
		CHANNELS 3 Zrotation Xrotation Yrotation
		JOINT RightShin
		{
			OFFSET 0.0000 -43.3622 -0.8056
			CHANNELS 3 Zrotation Xrotation Yrotation
			JOINT RightFoot
			{
				OFFSET 0.0000 -42.1174 -3.4784
				CHANNELS 3 Zrotation Xrotation Yrotation
				JOINT RightToeBase
				{
					OFFSET -0.0000 -5.0796 13.2842
					CHANNELS 3 Zrotation Xrotation Yrotation
					End Site
					{
						OFFSET 0.0 1.0 0.0
					}
				}
			}
		}
	}
}
MOTION
Frames: 60
Frame Time: 0.033333
-4.6496 96.3723 3.3694 2.3272 -3.5994 -0.4492 -0.4231 -0.3442 -0.0793 -0.7882 -5.6339 0.6532 -0.0469 14.0031 -2.5121 12.2233 22.1105 -0.7201 -0.3328 -3.8033 1.4708 3.1570 -10.4177 -0.5574 -0.0545 0.0807 0.1340 0.6029 -10.3364 -3.6964 -0.7000 -10.3109 3.9883 14.8107 15.7403 -9.5369 -64.8510 -43.2099 -23.1716 0.0535 1.7939 -118.3182 2.2981 38.9182 40.7560 -17.0867 10.1046 15.4138 -61.7453 1.7001 1.9159 -8.9798 14.0568 21.1627 33.3147 -24.6744 17.8637 -4.1181 2.3554 74.7439 30.0041 38.3479 -25.4607 15.4866 7.2898 -16.1172 50.4865 -3.7817 -5.4166 12.8335 -6.6910 10.1767 -0.1597 18.0317 -0.1982 -16.7186 -9.2500 -7.9775 1.5870 -0.2856 -1.9090 -15.6317 -6.2623 -3.2692 0.1051 22.0042 0.6235 13.5443 -13.2758 -1.2070 -1.4072 0.8505 1.1381
-4.6599 96.9279 3.1956 2.4721 -1.6832 -0.2741 -0.4967 0.3619 -0.2040 -0.8339 -5.3911 0.7520 -0.2675 13.5362 -2.6489 13.1497 19.3176 -1.0365 -0.3714 -3.8647 1.2212 3.5852 -10.8842 -1.0491 -0.0677 0.0469 0.1347 0.5954 -10.3911 -3.7095 -0.7179 -10.3425 4.0052 14.7049 15.8054 -9.6572 -63.9292 -42.5984 -23.9166 -0.1974 1.5497 -118.5304 1.6168 37.0548 39.9628 -16.5507 10.0452 15.2835 -61.2450 1.6256 1.7264 -8.6038 13.9642 21.0472 31.9252 -25.1414 16.0540 -3.6857 2.4296 77.1516 29.1567 34.4815 -26.6343 15.5710 7.2913 -16.2677 50.5193 -3.8739 -5.3770 12.1170 -7.7494 9.3251 -0.1812 15.9060 -0.2507 -16.7183 -7.5391 -7.4067 1.5722 -0.2365 -1.9694 -15.5164 -7.7757 -3.5055 0.0775 20.4126 0.6629 13.6149 -11.7538 -1.6119 -1.4125 1.1495 1.0859
-4.5368 97.7043 2.7198 2.6271 1.4106 -0.2351 -0.4403 1.1865 -0.3072 -0.8497 -5.0657 0.8868 -0.3080 12.9221 -2.6858 13.8647 14.5985 -1.2124 -0.4730 -3.8710 0.8414 3.9217 -11.5116 -1.8261 -0.0627 0.0210 0.1461 0.5863 -10.4251 -3.7061 -0.6985 -10.3718 4.0221 14.4398 15.4817 -10.0670 -64.7740 -42.1369 -23.0090 -0.5129 1.2026 -119.7986 1.2881 34.7668 39.3947 -16.0285 9.9746 15.2447 -60.6239 1.6486 1.7618 -7.4222 13.7514 21.3468 29.9363 -26.4036 12.5371 -2.7513 2.2775 81.7321 28.3566 30.0780 -28.5446 15.6897 7.2382 -16.2946 50.3364 -3.9350 -5.2905 11.1186 -9.7308 8.2399 -0.1571 12.8398 -0.2798 -16.5600 -4.8807 -6.7044 1.5505 -0.3410 -1.9687 -15.4071 -10.5237 -4.0750 0.0856 17.8931 0.6999 13.6991 -9.2904 -1.4033 -1.4204 1.4017 1.0447
-4.2490 98.5571 1.9376 2.7512 5.3519 -0.6103 -0.1901 2.1718 -0.3636 -0.7878 -4.6669 1.0057 -0.1305 12.3692 -2.4682 13.8082 8.0089 -1.0838 -0.6675 -3.8159 0.4480 4.1723 -12.6352 -2.5067 -0.0520 -0.0139 0.1608 0.5765 -10.4628 -3.6953 -0.6662 -10.4076 4.0369 14.3411 14.7461 -10.3378 -67.3519 -42.0564 -20.5441 -0.6859 0.8695 -122.6846 2.3817 32.5869 39.9026 -15.5621 9.9717 15.2332 -60.3087 1.7448 1.9111 -5.5038 13.5471 22.3348 27.1251 -28.6525 7.4470 -2.0162 2.1487 88.8901 28.1074 26.5397 -30.5376 15.7057 7.2631 -16.3473 50.2413 -3.8747 -5.2793 10.0310 -12.4768 7.1788 -0.1103 9.3453 -0.3125 -16.2333 -1.7120 -5.5432 1.5257 -0.4634 -1.9457 -15.2667 -14.0607 -4.5162 0.0894 14.4476 0.7004 13.9040 -6.0761 -0.6764 -1.4260 1.4834 1.0081
-3.8061 99.3300 0.9285 2.9338 9.6687 -1.4951 0.1725 3.4136 -0.3634 -0.7010 -4.1613 1.1645 0.1131 12.0578 -2.1014 12.6734 0.6062 -0.5677 -0.7712 -3.7365 0.3601 4.5072 -14.4755 -3.0037 -0.0458 -0.0500 0.1887 0.5827 -10.5304 -3.6641 -0.6618 -10.4688 4.0611 14.0026 13.7472 -10.2468 -70.3241 -42.4189 -17.2367 -0.9082 0.6236 -126.9515 4.4371 28.8783 41.1405 -15.1929 9.9357 15.1888 -60.4213 1.8550 2.1011 -3.1335 13.5063 23.9659 23.5397 -32.7890 1.5846 -1.6638 1.9149 97.8570 28.5962 23.5168 -31.4734 15.8232 7.3710 -16.4317 50.3402 -3.7325 -5.3815 8.8959 -15.7098 6.3084 -0.0617 6.0236 -0.3224 -15.7750 1.5470 -3.9639 1.5122 -0.4281 -1.9413 -15.2283 -17.8241 -4.4607 0.0770 10.2312 0.6241 14.3452 -2.2722 0.0672 -1.4253 1.6174 0.9655
-3.1667 99.8180 -0.2667 3.1289 13.9168 -2.8176 0.5398 4.8294 -0.2214 -0.6021 -3.5414 1.1737 0.3365 12.1449 -1.7588 10.5584 -5.8601 0.2241 -0.6743 -3.7257 0.6952 5.0351 -16.7383 -3.3695 -0.0459 -0.0785 0.2314 0.5927 -10.6133 -3.6140 -0.6734 -10.5421 4.0963 11.9311 12.8219 -10.1946 -69.7671 -43.2537 -15.8758 -1.0482 0.5116 -130.9881 6.4938 25.0069 42.6374 -15.2030 9.9061 15.1546 -60.8079 1.9225 2.1606 -1.0055 13.3973 26.0445 19.5395 -38.6986 -2.9230 -1.5821 1.1634 105.9007 29.1373 20.5690 -31.2661 15.8897 7.5411 -16.5754 50.4803 -3.6451 -5.5380 7.7361 -19.5182 6.0953 -0.0271 3.8824 -0.2672 -15.2702 4.1353 -2.5557 1.5195 -0.2527 -1.9950 -15.4180 -21.5360 -3.7664 0.0416 5.8236 0.4705 14.9170 1.8539 0.5752 -1.4211 1.6463 0.9353
-2.3358 99.8735 -1.5051 3.3433 17.4597 -4.2570 0.7269 6.3275 0.0213 -0.4510 -2.7245 0.9630 0.5410 12.7615 -1.5663 8.2227 -10.2749 0.9734 -0.4249 -3.7395 1.1268 5.5723 -18.9209 -3.4670 -0.0499 -0.0938 0.2479 0.5847 -10.6602 -3.5789 -0.6759 -10.5918 4.0978 7.9812 12.0886 -10.9759 -65.1464 -44.7804 -16.6577 -1.3109 0.5578 -133.3521 8.1697 21.9401 43.7194 -15.3494 9.9275 15.2207 -61.0212 1.9655 2.1183 0.4299 13.0646 28.1599 15.3734 -44.5877 -4.1123 -1.6965 0.3543 110.8010 29.6638 18.6315 -30.7966 15.7829 7.5691 -16.6748 50.4652 -3.6308 -5.7315 6.5980 -23.6508 6.4526 -0.0202 3.8032 -0.1894 -14.6768 5.2208 -1.6010 1.5517 0.0414 -2.0892 -15.9508 -25.2915 -2.6175 0.0299 3.0485 0.3423 15.4646 5.1306 0.9803 -1.4119 1.5947 0.9132
-1.4865 99.5845 -2.7090 3.2597 20.1213 -5.4785 0.8862 7.9563 0.2877 -0.2345 -1.7581 0.6661 0.9341 13.9741 -1.5051 6.6001 -12.5728 1.2727 -0.2182 -3.7413 1.6114 5.8799 -20.7241 -3.2050 -0.0579 -0.0878 0.2706 0.5719 -10.6793 -3.5361 -0.6800 -10.6142 4.1073 3.8056 11.6505 -12.4480 -59.0685 -47.2841 -18.2581 -1.7330 0.7090 -134.4559 9.4794 18.0538 42.9028 -15.4192 10.0022 15.3439 -60.9916 2.0090 2.1267 0.9893 12.5394 29.8403 11.3651 -49.3194 -2.0113 -1.9583 -0.2365 112.8160 29.7999 17.1287 -30.9527 15.6269 7.5816 -16.7309 50.4207 -3.5905 -5.8723 5.9406 -27.9536 6.7702 -0.0409 5.7958 -0.2027 -14.1659 4.6186 -0.8022 1.5710 0.6746 -2.1744 -16.4094 -28.9217 -1.4916 0.0164 2.0917 0.2536 15.9046 7.3074 1.4787 -1.3999 1.5745 0.9144
-0.6701 99.1043 -3.7989 2.8689 22.1168 -6.3274 1.1291 9.6201 0.5587 -0.0196 -0.7719 0.4495 1.6898 15.7921 -1.3373 6.3550 -12.8671 1.0557 -0.3196 -3.7024 2.0401 6.0026 -21.7384 -2.6699 -0.0570 -0.0510 0.2578 0.5848 -10.6333 -3.5342 -0.6917 -10.5639 4.0809 0.6255 11.4519 -14.1459 -54.1678 -50.8040 -19.3033 -2.3687 0.9510 -134.8983 10.4292 11.7361 38.7584 -15.5033 10.1317 15.4751 -60.8644 2.0543 2.2238 1.0240 11.7745 30.8186 8.0095 -53.3145 2.0032 -1.9819 -0.4166 113.1128 29.2159 14.6587 -32.0668 15.5563 7.6547 -16.8000 50.4427 -3.4816 -5.9481 5.9293 -32.3672 6.4465 -0.0737 9.2172 -0.3067 -13.7893 2.9690 0.0459 1.5733 1.4687 -2.2109 -16.4667 -32.2368 -1.0003 0.0030 2.0769 0.2034 16.2410 8.6802 2.2796 -1.3910 1.5610 0.9464
-0.0486 98.6635 -4.6921 2.7648 23.7283 -6.5535 1.3308 11.1183 0.7507 0.1703 0.1476 0.3556 2.5867 18.0049 -0.8617 7.3314 -11.1850 0.7231 -0.6884 -3.6827 2.2500 6.0682 -21.7637 -1.9926 -0.0474 -0.0294 0.2466 0.5914 -10.5750 -3.5308 -0.6772 -10.4936 4.0504 -1.2720 11.2973 -15.6288 -52.3398 -54.9745 -18.6319 -3.2390 1.1239 -134.5188 11.4096 3.6120 32.1053 -15.4789 10.2570 15.5377 -60.2928 2.1343 2.3656 1.3655 10.9693 31.5496 5.4450 -57.4530 6.1938 -1.5083 -0.2938 112.9987 27.1205 10.8014 -33.9344 15.2695 7.8323 -16.8622 50.4196 -3.3174 -5.9555 5.9977 -36.3504 5.4650 -0.1105 12.5182 -0.4128 -13.2685 1.7558 0.8660 1.5860 2.0387 -2.1737 -16.6466 -35.1708 -1.0350 0.0089 2.4607 0.2555 16.6624 9.4068 3.2865 -1.3865 1.5416 1.0268
0.3893 98.3727 -5.3183 3.2065 25.1997 -6.1152 1.5424 12.3958 0.8676 0.4289 0.9445 0.3209 3.4974 20.3689 0.0091 8.3636 -7.4406 0.6700 -0.8505 -3.6902 2.5632 5.9045 -20.9530 -0.7711 -0.0477 -0.0519 0.2890 0.5613 -10.6910 -3.4954 -0.6460 -10.6006 4.0964 -1.7612 11.3091 -16.2694 -54.3235 -58.6837 -15.8668 -3.8149 1.0157 -133.0872 12.3919 -1.9949 26.7344 -15.3221 10.2382 15.3623 -59.3957 2.2108 2.3642 2.0256 10.3916 32.3454 4.5588 -61.0388 8.3784 -0.7470 -0.0918 114.1676 24.3505 5.7388 -36.2553 14.7265 7.8918 -16.7912 50.3218 -3.2600 -5.8540 5.6322 -39.5026 4.4851 -0.1364 14.5239 -0.4594 -12.5162 1.4933 1.4416 1.6077 2.3207 -2.0582 -17.3663 -37.5910 -1.0092 0.0137 2.8106 0.3670 17.0447 9.6607 3.9486 -1.3894 1.5971 1.1441
0.6744 98.1671 -5.7072 4.1220 26.4599 -5.1671 1.8617 13.5346 1.0008 0.7775 1.6674 0.3708 4.4071 22.5645 1.0252 8.9179 -1.6434 0.8882 -0.5754 -3.6753 3.3678 5.4018 -18.9395 1.1016 -0.0702 -0.1019 0.3607 0.5426 -10.9936 -3.4461 -0.6729 -10.9050 4.1905 -1.4416 11.6947 -15.8057 -58.3387 -60.7928 -12.2677 -3.6894 0.6907 -130.5504 12.8696 -3.3385 23.6325 -15.3370 10.2352 15.2589 -58.8933 2.2597 2.3263 2.8039 10.1267 32.9079 5.3700 -62.1289 7.7091 -0.1657 0.2228 116.4565 23.1574 3.1811 -37.9684 14.4634 7.8131 -16.7284 50.3312 -3.3884 -5.7848 4.8347 -41.6727 3.6322 -0.1244 15.2147 -0.4045 -11.6971 1.9326 1.8040 1.6368 2.3887 -1.9439 -18.6790 -39.4131 -0.6747 0.0022 3.1908 0.5332 17.2424 9.5787 4.0248 -1.4035 1.7030 1.2472
0.9220 97.9978 -5.9407 5.3923 27.5762 -3.8953 2.2087 14.5124 1.1557 1.1574 2.2964 0.4308 5.2895 24.5059 1.9292 9.3532 6.1725 1.3722 -0.1680 -3.6180 4.7550 4.8458 -15.4348 2.9630 -0.1132 -0.1667 0.3945 0.5026 -11.0825 -3.3659 -0.7239 -11.0832 4.1949 -0.6055 12.3689 -14.3204 -63.1892 -61.2934 -8.4621 -3.2752 0.2074 -127.2789 13.1724 -2.1082 21.8854 -15.4316 10.4030 15.4611 -58.8950 2.2471 2.2998 3.5635 10.0530 32.9573 7.2346 -60.4054 4.8454 0.1552 0.8800 118.3844 25.4196 7.1468 -38.9453 14.7203 7.7557 -17.1759 50.7312 -3.5370 -5.7720 3.8059 -43.0804 2.6935 -0.0873 15.0081 -0.2568 -10.7751 2.6266 2.3677 1.6578 2.3514 -1.8659 -20.2493 -41.1351 -0.3826 -0.0223 3.9917 0.7425 17.3773 9.2755 3.9381 -1.4132 1.7522 1.3104
1.1287 97.8138 -6.0439 6.8213 28.6989 -2.6272 2.5094 15.3431 1.2456 1.4164 2.8072 0.4209 6.0476 26.0814 2.5828 9.9113 14.8164 2.4350 -0.0049 -3.5853 5.9935 4.8339 -11.6185 4.2178 -0.1099 -0.2138 0.3597 0.4416 -10.8378 -3.3252 -0.6578 -10.9655 4.0975 1.0000 13.0824 -12.3196 -68.1928 -60.6019 -4.6428 -2.7266 -0.4047 -124.7241 13.6137 -0.2992 21.6721 -15.4128 10.6488 15.9269 -59.0936 2.0910 2.2294 3.7271 10.3481 32.1034 10.1931 -57.9793 1.0775 0.6818 1.4632 118.5533 28.9045 17.1716 -38.9618 15.0786 7.6045 -17.3069 50.8187 -3.6956 -5.6111 2.5261 -44.2500 2.0515 -0.0418 14.5618 -0.1387 -9.8737 3.1770 3.1414 1.6719 2.2522 -1.8488 -21.9744 -43.2477 -0.0167 -0.0241 5.5746 0.8789 17.5706 8.6962 4.0423 -1.4117 1.8578 1.3424
1.3451 97.6036 -6.1232 8.1509 29.8904 -1.5009 2.7576 16.0577 1.1607 1.4928 3.2467 0.3683 6.6170 27.4500 2.9138 10.4890 22.0733 3.7751 0.0981 -3.5596 6.4429 4.8472 -8.6541 5.2316 -0.0869 -0.2120 0.3132 0.3806 -10.5361 -3.3439 -0.5487 -10.7489 4.0196 2.9835 13.5739 -10.4395 -72.8082 -59.5178 -0.9931 -2.0247 -0.8186 -123.9034 14.2049 0.7240 22.3994 -15.3415 10.7833 16.2096 -59.2707 1.9444 2.0503 3.3204 11.0732 30.7823 13.8450 -56.8865 -2.2481 0.8157 1.5924 116.9381 30.6789 29.7633 -37.4430 15.1630 7.5199 -16.6885 50.6719 -3.6726 -5.2834 1.0958 -45.5697 1.9421 0.0018 14.3074 -0.0996 -9.1946 3.4890 3.8093 1.6784 2.0141 -1.8833 -23.7970 -45.8091 0.6700 0.0169 7.8814 1.0024 17.8245 7.8972 4.2373 -1.4022 2.0774 1.3446
1.5305 97.3513 -6.2067 9.1126 31.0353 -0.6244 2.8991 16.6998 0.9762 1.4974 3.6364 0.2797 7.0183 28.5521 3.0333 10.8512 27.0210 4.5235 0.2017 -3.5415 6.5469 4.4709 -7.5206 6.0978 -0.0723 -0.1847 0.2715 0.3318 -10.3252 -3.4003 -0.4666 -10.5831 3.9858 4.8768 13.8929 -8.7516 -76.2028 -58.4042 1.5063 -1.2298 -0.9275 -124.2902 14.8206 1.4864 23.2888 -15.2738 10.8054 16.2884 -59.0953 1.8754 1.8939 2.8793 11.7915 29.6884 17.5260 -56.7781 -4.4952 0.5548 1.4774 115.2581 30.8060 40.5296 -35.7792 15.1128 7.4604 -16.1092 50.4319 -3.6168 -5.0186 -0.1380 -47.0350 2.2281 0.0265 14.4232 -0.1112 -8.7606 3.4354 4.1597 1.6740 1.8055 -1.9158 -25.3165 -48.2716 1.4050 0.0754 10.1107 1.0630 18.1924 7.1119 4.4901 -1.3965 2.2943 1.3423
1.6974 97.1492 -6.2690 9.5520 31.9023 -0.1263 2.9372 17.3484 0.8491 1.4719 3.8919 0.1715 7.2485 29.3103 2.9996 10.9316 29.7618 4.6704 0.0794 -3.5317 6.4970 4.1450 -7.3463 6.6090 -0.0492 -0.1777 0.2239 0.3491 -10.2800 -3.4903 -0.4366 -10.5511 3.9680 6.4258 14.1615 -7.4894 -77.7499 -57.0425 2.2701 -0.5493 -0.9480 -125.5622 15.1508 1.7760 23.5137 -15.3088 10.7813 16.2839 -58.9529 1.7598 1.8887 2.8761 12.2186 28.9415 20.5859 -56.4667 -5.1366 0.4238 1.1473 114.8325 29.1552 45.4849 -35.6731 15.1025 7.5920 -15.9249 50.6262 -3.5130 -4.8652 -0.8153 -48.3258 2.4878 0.0112 14.8781 -0.1345 -8.5602 3.1368 4.3433 1.6645 1.8542 -1.8975 -26.0379 -50.0988 1.6729 0.1307 11.6344 1.0488 18.5812 6.5464 4.8495 -1.3997 2.4557 1.3653
1.8111 97.0096 -6.2912 9.5576 32.4829 0.1484 2.9065 17.8720 0.7165 1.3912 4.0287 0.0473 7.3603 29.7476 2.8577 10.6445 31.2627 4.4957 -0.0379 -3.5725 6.1461 4.0790 -7.2661 6.6624 -0.0650 -0.1851 0.1531 0.3503 -10.3114 -3.5902 -0.4699 -10.5550 3.9268 7.9623 14.4841 -6.4675 -78.7094 -54.9625 2.3672 -0.2237 -0.9650 -127.2902 15.0886 2.1398 23.5503 -15.3238 10.8326 16.3118 -59.0701 1.6481 1.9235 3.2084 12.5905 28.2640 23.4262 -55.2033 -4.4241 0.5717 0.7076 115.0904 26.3490 47.3401 -37.0100 15.0947 7.7380 -15.9504 50.9555 -3.4485 -4.7974 -1.1420 -49.3739 2.8571 -0.0147 15.5831 -0.1546 -8.5876 2.6616 4.2727 1.6561 2.0320 -1.8693 -25.8258 -51.3610 1.1814 0.1709 12.5974 1.0258 18.8990 6.0753 5.3682 -1.4105 2.5008 1.3804
1.9245 96.9281 -6.2608 9.2914 32.6853 0.4182 2.8741 18.2436 0.5641 1.2777 4.0565 -0.0905 7.4021 30.0004 2.6408 10.0183 32.0581 4.0967 0.0083 -3.6748 5.5613 4.2286 -7.1998 6.2526 -0.1022 -0.2013 0.0841 0.3325 -10.3649 -3.6748 -0.5268 -10.5438 3.8834 9.5539 14.9524 -5.6257 -79.8418 -52.3466 2.3145 -0.1066 -0.8446 -128.8597 14.6087 2.7970 23.8421 -15.2316 10.9622 16.3492 -59.3123 1.5891 1.8889 3.7651 13.0134 27.5076 26.2865 -53.1332 -3.0699 0.9338 0.4260 115.5712 23.3070 48.0725 -39.0106 15.1623 7.8572 -16.0863 51.3552 -3.3889 -4.8196 -1.4192 -50.0985 3.5120 -0.0465 16.4127 -0.1973 -8.7196 2.2164 3.7497 1.6472 2.2092 -1.8535 -24.9653 -51.9386 0.1134 0.1945 13.0796 1.0108 19.0583 5.7267 5.7305 -1.4182 2.4486 1.3995
1.9947 96.9509 -6.2670 8.8928 32.4976 0.7787 2.8190 18.4378 0.4367 1.1762 4.0327 -0.2424 7.3387 30.1272 2.3489 9.1313 32.3102 3.5592 0.2088 -3.7815 4.8802 4.5422 -7.1949 5.5041 -0.1302 -0.2137 0.0440 0.3262 -10.4117 -3.7221 -0.5773 -10.5221 3.8585 10.7853 15.4794 -5.1456 -81.0217 -49.9202 2.3575 -0.0548 -0.7067 -129.5631 13.7224 3.7219 24.4472 -15.1390 11.0704 16.3353 -59.5837 1.5870 1.7994 4.3758 13.4590 26.7198 29.2460 -50.7661 -1.8911 1.2742 0.3086 116.0066 20.4344 48.0077 -41.3097 15.2739 7.9179 -16.2526 51.7518 -3.3789 -4.8381 -1.6201 -50.3756 4.2074 -0.0780 17.1126 -0.2197 -8.8483 1.9624 3.0100 1.6411 2.2632 -1.8386 -23.8761 -51.7708 -1.1166 0.1867 13.1250 0.9705 19.0877 5.5560 5.8090 -1.4197 2.3287 1.4164
2.0342 96.9828 -6.3139 8.4338 31.9932 1.2375 2.7353 18.4998 0.3524 1.0621 3.9639 -0.3973 7.1458 30.1202 1.9340 8.0366 32.2550 2.9809 0.4533 -3.8673 4.1570 4.9105 -7.2027 4.6155 -0.1494 -0.2244 0.0309 0.3356 -10.4537 -3.7382 -0.6238 -10.5168 3.8542 11.7612 16.0283 -4.9615 -82.1551 -48.2899 2.5252 -0.0132 -0.6959 -129.2129 12.5518 5.1361 25.5728 -14.9783 11.2189 16.3258 -59.7722 1.6333 1.6694 5.0035 13.9619 25.8361 32.3243 -48.3618 -1.1691 1.4869 0.1950 116.4347 17.5314 47.4216 -43.9289 15.4309 7.9004 -16.3645 52.1463 -3.4678 -4.8110 -1.7471 -50.3175 4.8586 -0.1214 17.6678 -0.2363 -9.0339 1.8164 2.0751 1.6370 2.2585 -1.8293 -22.7537 -51.0786 -2.3898 0.1665 12.9496 0.9052 19.0290 5.4797 5.6844 -1.4202 2.2149 1.4084
2.0449 97.0168 -6.4139 7.9413 31.1569 1.8059 2.6398 18.4434 0.3396 0.9537 3.8731 -0.5482 6.8419 29.9698 1.3823 6.8178 32.0857 2.3997 0.6957 -3.9303 3.3845 5.2583 -7.2342 3.6936 -0.1601 -0.2322 0.0279 0.3588 -10.5243 -3.7483 -0.6693 -10.5645 3.8622 12.6310 16.3887 -5.1172 -82.9289 -47.7699 2.7161 -0.0322 -0.8004 -127.8581 11.4179 6.9240 27.0565 -14.8598 11.3436 16.3183 -59.8932 1.7218 1.5585 5.5236 14.5630 24.7980 35.6651 -46.2531 -1.2083 1.7156 0.0389 116.5769 14.6691 46.7280 -46.3089 15.6015 7.8432 -16.3932 52.4237 -3.5549 -4.7603 -1.7744 -49.9977 5.4424 -0.1873 18.2520 -0.2927 -9.2744 1.6641 0.9816 1.6363 2.2448 -1.8411 -21.6208 -50.0565 -3.7345 0.1344 12.8839 0.8249 18.9063 5.3026 5.5093 -1.4233 2.1314 1.3611
2.0357 96.9981 -6.5617 7.4216 29.9943 2.4606 2.5271 18.3113 0.3660 0.8451 3.7558 -0.6684 6.4548 29.7375 0.7707 5.3842 31.8450 1.7767 0.9032 -3.9736 2.5308 5.6470 -7.2924 2.7919 -0.1640 -0.2380 0.0236 0.3829 -10.6247 -3.7571 -0.7020 -10.6493 3.8658 13.4831 16.6037 -5.6220 -83.4738 -48.5004 3.2008 -0.1247 -1.0153 -125.9149 10.3722 8.8087 28.6471 -14.8030 11.3990 16.3403 -59.9714 1.7783 1.5228 5.7564 15.2047 23.6000 39.2631 -44.4126 -2.0311 1.9346 -0.1582 116.2644 11.8212 45.9722 -47.9461 15.7431 7.7921 -16.3267 52.5674 -3.6056 -4.6789 -1.7756 -49.4913 6.0635 -0.2675 19.0045 -0.3774 -9.4850 1.4591 -0.2878 1.6378 2.2645 -1.8656 -20.5832 -48.8224 -5.0538 0.1041 13.1282 0.7565 18.7933 4.8983 5.2784 -1.4294 2.0854 1.3001
2.0217 96.9359 -6.7572 6.9057 28.5361 3.1547 2.4009 18.1313 0.4091 0.7705 3.6230 -0.7709 5.9797 29.4958 0.1821 3.8603 31.4070 1.2113 1.0089 -3.9861 1.6212 6.0456 -7.4042 1.8388 -0.1811 -0.2349 0.0154 0.3827 -10.7475 -3.7666 -0.7398 -10.7509 3.8669 14.1778 16.7107 -6.3717 -84.1559 -50.2885 4.2847 -0.3792 -1.1821 -123.9118 9.6624 10.1570 30.0866 -14.8055 11.3460 16.3497 -60.0218 1.7872 1.6032 5.5993 15.8322 22.3679 42.7652 -42.6736 -3.4117 2.0823 -0.2608 115.5876 9.3204 44.6292 -48.4066 15.8331 7.7292 -16.1677 52.5256 -3.6069 -4.6108 -1.8026 -48.7848 6.7372 -0.3387 19.9004 -0.4692 -9.5957 1.1903 -1.6862 1.6393 2.2777 -1.8844 -19.7582 -47.4023 -6.2020 0.0937 13.6960 0.7035 18.6611 4.3196 4.9924 -1.4350 1.9905 1.2465
1.9923 96.8570 -6.9645 6.3984 26.8558 3.8337 2.2724 17.9425 0.4507 0.7467 3.4807 -0.8324 5.3992 29.2724 -0.3453 2.3565 30.5768 0.8657 0.9763 -3.9787 0.6782 6.5032 -7.5925 0.7681 -0.2326 -0.2205 0.0107 0.3384 -10.8373 -3.7630 -0.8027 -10.8191 3.8749 14.6035 16.7505 -7.1684 -85.5451 -52.6493 6.3092 -0.8578 -1.2825 -122.4128 9.7129 10.7128 31.1951 -14.7756 11.2844 16.3803 -59.9467 1.7946 1.7595 5.1479 16.3093 21.3003 45.6856 -40.9519 -5.0846 2.2443 -0.2690 114.7155 7.4563 42.3808 -47.8015 15.8163 7.6841 -16.0026 52.2840 -3.5769 -4.6206 -1.8108 -47.9128 7.4557 -0.3804 20.9417 -0.5355 -9.6538 0.8533 -3.2489 1.6450 2.2590 -1.9069 -19.1810 -45.8062 -7.0859 0.0939 14.4938 0.6835 18.6013 3.6210 4.5988 -1.4375 1.8724 1.2285
1.8983 96.7667 -7.1454 5.8753 25.0667 4.5168 2.1517 17.7271 0.4819 0.7494 3.3245 -0.8390 4.8371 29.0561 -0.7450 1.1615 29.3455 0.7766 0.7070 -3.9538 -0.2097 6.9804 -7.8209 -0.3702 -0.2875 -0.2004 0.0161 0.2964 -10.8835 -3.7523 -0.8752 -10.8557 3.8947 14.8028 16.6835 -7.7848 -87.6012 -54.7101 8.9201 -1.4612 -1.3656 -121.9607 10.5686 10.5914 31.9308 -14.7011 11.1416 16.3532 -59.8121 1.7670 1.9132 4.6296 16.6233 20.5303 47.5610 -39.2143 -6.6257 2.3357 -0.1905 114.0036 6.6233 40.0470 -46.6333 15.7937 7.6567 -15.8933 52.0357 -3.6065 -4.6748 -1.6602 -46.9647 8.0799 -0.4202 22.0610 -0.5814 -9.6764 0.5241 -4.8231 1.6487 2.2377 -1.9157 -18.8056 -44.0805 -7.6531 0.0971 15.3940 0.6964 18.5869 2.9243 4.0217 -1.4353 1.7661 1.2336
1.7844 96.6684 -7.3224 5.3288 23.2584 5.1245 2.0201 17.4964 0.5236 0.7411 3.1310 -0.7870 4.3706 28.7560 -1.0028 0.4841 27.8934 0.9323 0.2598 -3.9235 -1.0139 7.3791 -8.1930 -1.5356 -0.3250 -0.1748 0.0344 0.2605 -10.8750 -3.7288 -0.9183 -10.8456 3.9196 14.9463 16.5452 -8.0993 -89.2787 -55.9088 10.9471 -1.9751 -1.2711 -122.5654 11.5153 10.3099 32.2876 -14.6600 10.9956 16.2693 -59.7811 1.7475 1.9824 4.2172 16.7907 20.0454 48.3132 -37.4706 -7.7853 2.3674 -0.0931 113.3853 6.5945 37.9987 -45.2670 15.7441 7.6067 -15.7968 51.7287 -3.6626 -4.7086 -1.2972 -45.9478 8.5215 -0.4606 23.1701 -0.6280 -9.6635 0.2000 -6.2886 1.6559 2.1825 -1.9060 -18.4617 -42.3324 -8.0959 0.0976 16.3439 0.7095 18.6182 2.2506 3.4036 -1.4333 1.7227 1.2426
1.6590 96.5711 -7.4540 4.7398 21.4644 5.6234 1.9171 17.2398 0.5429 0.6889 2.8973 -0.6851 4.0549 28.3661 -1.1080 0.1417 26.3223 1.0891 -0.2186 -3.9008 -1.6779 7.6786 -8.7907 -2.6686 -0.3331 -0.1504 0.0578 0.2456 -10.8356 -3.6956 -0.9232 -10.8033 3.9340 15.0597 16.3768 -8.1412 -89.6301 -56.0637 11.6067 -2.4373 -1.0601 -123.8107 11.8274 10.3469 32.4592 -14.6701 10.8794 16.1396 -59.8433 1.7266 1.9234 3.8875 16.8859 19.6609 48.1665 -35.8266 -8.4516 2.4055 0.0491 112.6857 6.9522 36.4841 -43.9506 15.6715 7.5652 -15.7061 51.3739 -3.7101 -4.7337 -0.6658 -44.8886 8.6999 -0.5043 24.2671 -0.6707 -9.6117 -0.1782 -7.5358 1.6643 2.1641 -1.8936 -18.0514 -40.6030 -8.5555 0.1110 17.3105 0.7088 18.6399 1.5529 2.9316 -1.4346 1.6799 1.2430
1.5429 96.4846 -7.5363 4.1885 19.6548 6.0421 1.7865 16.8977 0.5267 0.5818 2.6197 -0.5398 3.8379 27.9284 -1.1368 0.0467 24.6028 1.2086 -0.6370 -3.8923 -2.2539 7.8615 -9.4538 -3.7570 -0.3251 -0.1264 0.0819 0.2498 -10.7813 -3.6623 -0.9128 -10.7515 3.9448 15.0648 16.2148 -8.0037 -87.7441 -55.3011 10.0610 -2.6755 -0.7764 -125.2123 11.3189 10.8569 32.6194 -14.7257 10.8038 16.0205 -60.0123 1.7020 1.8266 3.6936 16.9257 19.3581 47.4152 -34.2002 -8.6265 2.4347 0.2681 111.8817 7.5063 35.6521 -42.7295 15.6062 7.5312 -15.6199 51.0330 -3.7281 -4.7681 0.1014 -43.6855 8.6629 -0.5389 25.2545 -0.7068 -9.5240 -0.5981 -8.5492 1.6705 2.1161 -1.8862 -17.6372 -38.8570 -9.0664 0.1404 18.2349 0.7193 18.6111 0.8445 2.5867 -1.4379 1.6118 1.2291
1.4082 96.3923 -7.5359 3.7084 17.8157 6.3757 1.6410 16.4857 0.4974 0.4641 2.3101 -0.3705 3.6647 27.4070 -1.1548 0.0975 22.6981 1.2879 -0.9876 -3.8829 -2.8112 7.9637 -10.2214 -4.8746 -0.3116 -0.0992 0.1064 0.2709 -10.7398 -3.6423 -0.9073 -10.7019 3.9684 15.0514 16.1158 -7.7568 -84.3187 -53.8662 6.9036 -2.7628 -0.5027 -126.2992 10.3536 11.7040 32.8732 -14.7148 10.8326 15.9677 -60.1411 1.6924 1.7485 3.6256 16.9344 19.0945 46.1860 -32.5484 -8.3792 2.5412 0.4761 111.1017 8.1446 35.1819 -41.6187 15.5980 7.4852 -15.5411 50.7730 -3.7191 -4.7995 0.9185 -42.3225 8.4978 -0.5581 26.1204 -0.7322 -9.4462 -1.0828 -9.3527 1.6754 2.0768 -1.8680 -17.3049 -37.0944 -9.5576 0.1827 19.1421 0.7266 18.4917 0.1297 2.3116 -1.4424 1.5158 1.2114
1.2722 96.3269 -7.5046 3.3153 15.9651 6.6445 1.5101 16.0251 0.4772 0.3707 1.9764 -0.2245 3.4362 26.8018 -1.1530 0.1680 20.5269 1.3413 -1.3012 -3.8533 -3.3872 7.9142 -11.1019 -6.0721 -0.3002 -0.0667 0.1332 0.3048 -10.7161 -3.6402 -0.9192 -10.6716 4.0165 14.9093 16.1085 -7.5529 -80.2575 -51.9847 3.0031 -2.7565 -0.2950 -126.9177 9.5353 12.5372 32.9998 -14.6187 10.8665 15.9189 -60.1632 1.6795 1.7098 3.7130 16.9558 18.8870 44.6380 -30.7577 -7.7401 2.6254 0.7253 110.5408 8.9401 34.7476 -40.5602 15.6402 7.4610 -15.5552 50.6260 -3.7256 -4.8818 1.6706 -40.8351 8.3765 -0.5673 26.9129 -0.7621 -9.3843 -1.6289 -10.0709 1.6779 1.9917 -1.8409 -17.0654 -35.3548 -9.9667 0.2080 20.0804 0.7129 18.3057 -0.6220 2.1169 -1.4471 1.4064 1.1962
1.0765 96.2488 -7.3962 3.0232 14.0927 6.8162 1.4074 15.5267 0.4480 0.3026 1.6352 -0.1028 3.1545 26.1590 -1.1383 0.2296 18.1860 1.4642 -1.6331 -3.7983 -3.9905 7.5806 -12.3196 -7.3098 -0.2864 -0.0373 0.1646 0.3365 -10.7045 -3.6482 -0.9238 -10.6488 4.0839 14.6397 16.1771 -7.4399 -76.4786 -49.8496 -0.7452 -2.5908 -0.2369 -127.0460 9.1710 13.2974 33.0242 -14.5170 10.9240 15.9141 -60.1958 1.7032 1.7565 3.9135 17.0163 18.7562 42.8419 -28.8589 -6.7141 2.5714 1.0453 110.1781 10.2192 34.3430 -39.5905 15.6749 7.4737 -15.6128 50.5971 -3.7190 -4.9716 2.3671 -39.2067 8.3754 -0.5793 27.5857 -0.7965 -9.4333 -2.2037 -10.7005 1.6753 1.8269 -1.8161 -16.9530 -33.6089 -10.2822 0.2206 21.0064 0.7088 18.0940 -1.4174 1.9822 -1.4498 1.3108 1.1851
0.8320 96.1505 -7.2439 2.8158 12.2220 6.8799 1.3614 15.0210 0.3832 0.2345 1.3021 0.0032 2.8595 25.5480 -1.0888 0.2141 15.9738 1.6603 -1.9213 -3.7201 -4.5791 6.8342 -13.9368 -8.3863 -0.2665 -0.0157 0.1966 0.3630 -10.6639 -3.6499 -0.9103 -10.5985 4.1428 14.2055 16.3399 -7.4115 -73.0562 -47.7289 -4.1462 -2.2185 -0.2520 -126.8634 9.2692 14.1061 33.1421 -14.4866 11.0013 15.9602 -60.2497 1.7335 1.8446 4.1352 17.1019 18.6188 40.9830 -26.9960 -5.4575 2.4576 1.4270 110.0047 12.1084 33.7416 -38.5751 15.6203 7.4726 -15.6897 50.4857 -3.7009 -5.1138 3.0138 -37.5052 8.4781 -0.5696 28.1889 -0.7884 -9.6047 -2.8090 -11.2910 1.6713 1.6140 -1.7947 -16.9158 -31.9451 -10.5505 0.2285 21.9875 0.7333 17.8544 -2.2627 1.8687 -1.4495 1.2416 1.1653
0.5544 96.0396 -7.0586 2.7013 10.3097 6.8016 1.3339 14.5457 0.3219 0.1933 0.9726 0.0465 2.5582 24.9884 -1.0375 0.1609 14.3213 1.8764 -2.1783 -3.6353 -5.0438 5.7792 -15.6145 -9.1233 -0.2417 0.0020 0.2234 0.3891 -10.5596 -3.6337 -0.8865 -10.4958 4.1713 13.6354 16.6363 -7.4638 -70.0657 -45.7524 -7.0183 -1.7328 -0.3073 -126.5072 9.7229 15.0292 33.5055 -14.4781 11.0768 15.9891 -60.3604 1.7561 1.9204 4.1865 17.2655 18.4303 39.3619 -25.5129 -4.1191 2.3593 1.7596 109.7518 13.9525 33.1649 -37.6711 15.5583 7.4805 -15.7569 50.4215 -3.6465 -5.2150 3.6106 -35.6658 8.7240 -0.5638 28.7347 -0.7787 -9.8570 -3.4839 -11.8300 1.6678 1.4381 -1.7945 -17.0031 -30.3258 -10.6792 0.2294 23.0664 0.7440 17.6297 -3.1721 1.8765 -1.4489 1.2160 1.1465
0.2656 95.9024 -6.8461 2.7312 8.3236 6.6603 1.2900 14.0514 0.2309 0.1676 0.6538 0.0428 2.2315 24.5313 -1.0466 0.1645 13.4159 2.0824 -2.3329 -3.5628 -5.3628 4.5830 -16.8878 -9.4166 -0.2075 0.0162 0.2304 0.4264 -10.4390 -3.6219 -0.8551 -10.3892 4.1616 12.8815 17.0637 -7.5301 -67.1429 -43.8903 -9.5739 -1.2503 -0.3505 -126.0844 10.2349 16.1307 34.2195 -14.5523 11.1427 16.0241 -60.4996 1.7653 1.9462 4.0031 17.5032 18.1667 38.2147 -24.6807 -2.7897 2.2261 1.9621 109.3046 14.9058 33.1118 -37.1299 15.4975 7.4759 -15.8399 50.3016 -3.6020 -5.2977 4.1036 -33.6471 9.0489 -0.5626 29.1572 -0.7635 -10.1477 -4.1521 -12.2242 1.6673 1.2919 -1.8148 -17.2679 -28.6951 -10.7222 0.2378 24.1935 0.7740 17.4334 -4.1613 1.9205 -1.4480 1.2331 1.1421
-0.0587 95.7381 -6.5584 2.9263 6.1869 6.4465 1.2160 13.5399 0.0690 0.1416 0.3395 0.0626 1.9139 24.1718 -1.0959 0.3064 13.3341 2.1795 -2.4367 -3.5231 -5.5546 3.3827 -17.7460 -9.3196 -0.1768 0.0319 0.2291 0.4622 -10.3533 -3.6130 -0.8281 -10.3161 4.1373 12.0508 17.5939 -7.5960 -64.0503 -42.0352 -12.1185 -0.8382 -0.4040 -125.5057 10.6375 17.4808 35.3056 -14.6727 11.1995 16.0678 -60.6335 1.7324 1.9403 3.5797 17.7564 17.7378 37.3416 -24.3627 -1.2810 2.0109 1.9637 108.5698 14.5833 33.7946 -37.0314 15.4761 7.4698 -15.9120 50.1518 -3.5540 -5.3338 4.4689 -31.3496 9.4565 -0.5586 29.4719 -0.7473 -10.3807 -4.7991 -12.5475 1.6688 1.1255 -1.8383 -17.7670 -26.9768 -10.7171 0.2656 25.4008 0.8274 17.2418 -5.2156 2.0929 -1.4481 1.2302 1.1587
-0.3717 95.5433 -6.2433 3.2226 3.9299 6.1790 1.1406 13.0222 -0.0611 0.1365 -0.0015 0.0461 1.6464 23.9042 -1.1628 0.5866 14.0294 2.1798 -2.5065 -3.5309 -5.6556 2.2386 -18.3275 -8.9658 -0.1516 0.0444 0.2247 0.4900 -10.2991 -3.6076 -0.8055 -10.2773 4.1143 11.3668 18.1407 -7.5367 -60.9424 -40.0985 -14.7758 -0.5461 -0.3927 -124.8373 10.7693 19.1525 36.8796 -14.9029 11.2612 16.1450 -60.8351 1.6979 1.9457 2.8365 18.0079 17.1656 36.6501 -24.2462 0.4097 1.7304 1.8501 107.6002 13.1992 34.7278 -37.3082 15.5032 7.4217 -15.9373 49.9518 -3.4996 -5.3353 4.8038 -28.8796 9.8719 -0.5509 29.7972 -0.7131 -10.5668 -5.4983 -12.8200 1.6712 0.9597 -1.8593 -18.4250 -25.1774 -10.6560 0.2996 26.6930 0.8814 17.0563 -6.3404 2.3222 -1.4474 1.1906 1.1760
-0.6917 95.3162 -5.9121 3.5447 1.6130 5.8278 1.1023 12.5214 -0.1670 0.1389 -0.3569 0.0306 1.4708 23.7020 -1.1971 0.8393 15.2217 2.1085 -2.5556 -3.5553 -5.7203 1.2040 -18.7615 -8.4813 -0.1258 0.0551 0.2122 0.5190 -10.2577 -3.6106 -0.7828 -10.2531 4.0838 10.9352 18.6194 -7.3759 -58.0933 -38.1042 -17.3961 -0.2988 -0.4130 -124.1301 10.5295 20.7818 38.6976 -15.1159 11.2804 16.2129 -60.9635 1.6404 2.0379 1.8724 18.2454 16.5593 35.8724 -24.1475 2.2510 1.3828 1.6944 106.5740 11.7214 35.2766 -37.7775 15.6003 7.3582 -15.9350 49.8622 -3.4497 -5.3236 5.1728 -26.3403 10.3224 -0.5349 30.1555 -0.6805 -10.7157 -6.2045 -13.0659 1.6708 0.7760 -1.8763 -19.1326 -23.3118 -10.5139 0.3337 28.0171 0.9294 16.8543 -7.4399 2.5704 -1.4453 1.1094 1.1731
-1.0057 95.0687 -5.6044 3.7800 -0.6579 5.3630 1.1326 12.0663 -0.2388 0.1647 -0.7166 0.0031 1.3988 23.5108 -1.2012 0.9306 16.5868 2.0284 -2.5599 -3.5851 -5.7589 0.2667 -19.1195 -7.9098 -0.1047 0.0594 0.1987 0.5400 -10.2363 -3.6171 -0.7616 -10.2436 4.0566 10.7583 18.9928 -7.1685 -56.0660 -36.2839 -19.3506 -0.1437 -0.3917 -123.5186 9.9004 21.7656 40.3339 -15.3157 11.2656 16.2393 -61.1010 1.6016 2.1570 0.7875 18.4451 16.0660 34.9985 -23.9427 4.1260 0.9606 1.5874 105.6896 10.8581 35.1251 -38.1802 15.7108 7.3142 -15.9799 49.8656 -3.4400 -5.2968 5.6866 -23.8894 10.7865 -0.5139 30.5802 -0.6493 -10.8818 -6.9090 -13.2565 1.6683 0.5868 -1.8826 -19.7122 -21.3760 -10.1921 0.3591 29.2338 0.9520 16.5980 -8.4710 2.7264 -1.4408 1.0283 1.1626
-1.3309 94.8488 -5.3125 3.9266 -2.7516 4.8247 1.2233 11.5975 -0.2769 0.2077 -1.0397 -0.0324 1.4308 23.3238 -1.2284 0.8501 17.8530 1.9826 -2.5700 -3.6160 -5.7590 -0.6028 -19.3251 -7.3529 -0.0804 0.0619 0.1733 0.5601 -10.2173 -3.6364 -0.7330 -10.2353 4.0179 10.6889 19.2632 -7.0101 -54.9248 -34.8495 -20.4718 -0.0559 -0.3769 -122.9886 9.0924 22.1927 41.6246 -15.4916 11.2372 16.2382 -61.1592 1.5705 2.2687 -0.2072 18.6211 15.7725 33.9386 -23.7624 5.9858 0.5418 1.5351 104.9969 10.6761 34.4800 -38.5874 15.8447 7.2742 -16.0469 49.9636 -3.4765 -5.2793 6.3285 -21.5973 11.2003 -0.4933 30.8891 -0.6244 -11.0380 -7.4695 -13.3584 1.6660 0.4130 -1.8893 -20.1001 -19.4552 -9.7692 0.3815 30.1980 0.9797 16.3780 -9.3446 2.7847 -1.4365 0.9965 1.1623
-1.6775 94.6920 -5.0183 4.0416 -4.6033 4.3006 1.3285 11.0856 -0.3225 0.2610 -1.3438 -0.0686 1.5595 23.1690 -1.2557 0.6210 19.0081 1.9778 -2.5693 -3.6500 -5.7908 -1.4280 -19.4233 -6.8035 -0.0580 0.0615 0.1456 0.5784 -10.2127 -3.6624 -0.7061 -10.2393 3.9811 10.6968 19.4532 -6.9268 -54.3332 -33.8368 -21.0950 0.0576 -0.3639 -122.4721 8.2705 22.5405 42.7835 -15.6431 11.2065 16.2269 -61.2244 1.5435 2.3656 -1.0450 18.7371 15.6419 32.7114 -23.6602 7.8256 0.1534 1.5459 104.3590 11.0926 34.0509 -38.9520 15.9447 7.2339 -16.1035 50.0893 -3.4992 -5.2555 6.9888 -19.4550 11.5099 -0.4711 30.9491 -0.5977 -11.2248 -7.8428 -13.2913 1.6643 0.2645 -1.8884 -20.3466 -17.6474 -9.3355 0.4067 30.9062 1.0038 16.1954 -10.0219 2.7632 -1.4340 0.9810 1.1613
-2.0599 94.5851 -4.7634 4.1695 -6.2831 3.7914 1.4426 10.5481 -0.3551 0.3173 -1.6116 -0.1105 1.7285 23.0296 -1.2960 0.2998 20.0968 2.0516 -2.5726 -3.6777 -5.8917 -2.2307 -19.4368 -6.3055 -0.0444 0.0621 0.1301 0.5896 -10.2064 -3.6731 -0.6899 -10.2387 3.9565 10.7823 19.5728 -6.9273 -53.9939 -33.0686 -21.5269 0.2308 -0.3253 -121.9148 7.5225 23.0812 43.9856 -15.7588 11.2080 16.2255 -61.3020 1.5423 2.4440 -1.8208 18.7502 15.6232 31.5026 -23.6178 9.6519 -0.1223 1.5990 103.6666 11.6333 33.9619 -39.4885 16.0049 7.2071 -16.1470 50.2110 -3.5134 -5.2363 7.6242 -17.3966 11.7534 -0.4574 30.7887 -0.5893 -11.4685 -8.0830 -13.1397 1.6654 0.1412 -1.9004 -20.5125 -15.9405 -8.8975 0.4166 31.4616 1.0005 16.0572 -10.5855 2.7189 -1.4323 0.9762 1.1504
-2.4198 94.4961 -4.5190 4.3294 -7.8423 3.3085 1.5614 10.0166 -0.3813 0.3783 -1.8551 -0.1712 1.8882 22.8847 -1.3710 -0.0693 21.1576 2.1791 -2.5881 -3.7035 -5.9827 -3.0273 -19.4281 -5.8030 -0.0314 0.0625 0.1077 0.6005 -10.2085 -3.6937 -0.6748 -10.2432 3.9285 10.8917 19.6614 -7.0002 -53.7595 -32.4333 -21.8767 0.4260 -0.2426 -121.3515 6.7319 23.7185 45.0697 -15.8530 11.1899 16.2087 -61.3102 1.5332 2.4685 -2.5661 18.7125 15.6802 30.4233 -23.5713 11.5660 -0.4857 1.6521 102.9384 12.1848 34.3347 -40.2323 16.0549 7.1870 -16.1648 50.3410 -3.5109 -5.2356 8.2114 -15.3739 11.9931 -0.4543 30.4268 -0.5936 -11.7479 -8.1871 -12.9181 1.6683 0.0465 -1.9097 -20.6585 -14.2962 -8.5037 0.4285 31.8872 0.9995 15.9656 -11.0894 2.7064 -1.4305 0.9839 1.1340
-2.7925 94.4536 -4.2551 4.5116 -9.2132 2.8596 1.6927 9.4792 -0.4083 0.4352 -2.0665 -0.2162 2.0233 22.7119 -1.4791 -0.4933 22.0086 2.3378 -2.5910 -3.7170 -6.0309 -3.7849 -19.3531 -5.2996 -0.0173 0.0655 0.0767 0.6137 -10.1998 -3.7243 -0.6598 -10.2376 3.8936 10.9274 19.7256 -7.1496 -53.4729 -31.8680 -22.2025 0.5489 -0.0850 -120.7653 5.7094 24.3432 45.9616 -15.9357 11.1831 16.1920 -61.3970 1.5264 2.4812 -3.2360 18.5977 15.7776 29.6211 -23.5535 13.4423 -0.8396 1.6726 102.2650 12.6257 35.0064 -41.0875 16.0858 7.1980 -16.1853 50.4952 -3.5077 -5.2308 8.7370 -13.4824 12.2112 -0.4425 29.9147 -0.5900 -12.0500 -8.1789 -12.6504 1.6689 -0.0401 -1.9113 -20.7707 -12.7762 -8.1718 0.4335 32.1725 0.9951 15.8690 -11.5095 2.7384 -1.4290 0.9589 1.1109
-3.1587 94.4375 -4.0047 4.7187 -10.4195 2.4157 1.8395 8.9609 -0.4583 0.4849 -2.2561 -0.2585 2.1316 22.5139 -1.5958 -0.9500 22.6492 2.5235 -2.5976 -3.7309 -6.0079 -4.5171 -19.2048 -4.7706 -0.0047 0.0682 0.0492 0.6269 -10.1943 -3.7532 -0.6477 -10.2314 3.8635 10.8834 19.7775 -7.3619 -53.1145 -31.2559 -22.5526 0.6820 0.1134 -120.2237 4.4923 24.9840 46.6679 -15.9990 11.1753 16.1753 -61.4764 1.5310 2.4742 -3.9154 18.4208 15.9282 29.1348 -23.5675 15.2716 -1.2122 1.6325 101.7707 13.0625 36.0547 -41.8867 16.1212 7.2342 -16.1916 50.6772 -3.5012 -5.2175 9.2054 -11.7120 12.4609 -0.4288 29.2944 -0.5782 -12.3956 -8.0842 -12.3772 1.6680 -0.1158 -1.9136 -20.8552 -11.4188 -7.8668 0.4397 32.4076 1.0017 15.7150 -11.8720 2.8276 -1.4287 0.9442 1.0905
-3.4863 94.4516 -3.7807 4.9828 -11.4325 1.9383 2.0012 8.4454 -0.5155 0.5262 -2.4232 -0.2850 2.2355 22.2613 -1.7168 -1.4385 23.0540 2.7041 -2.5949 -3.7383 -5.9310 -5.2416 -18.9459 -4.2389 0.0040 0.0681 0.0309 0.6376 -10.1918 -3.7745 -0.6409 -10.2270 3.8463 10.7200 19.7755 -7.6759 -52.7968 -30.6728 -22.7866 0.7210 0.3282 -119.6838 3.0883 25.5849 47.0931 -16.0626 11.1494 16.1273 -61.5004 1.5473 2.4655 -4.5285 18.1618 16.0960 28.8685 -23.7498 17.0537 -1.4466 1.5895 101.4103 13.4877 37.2286 -42.5048 16.0751 7.2605 -16.1607 50.7970 -3.4890 -5.1955 9.5800 -10.0717 12.7904 -0.4187 28.5255 -0.5649 -12.8057 -7.8746 -12.1507 1.6686 -0.1837 -1.9196 -20.9683 -10.2447 -7.5627 0.4453 32.5455 1.0025 15.5397 -12.1606 2.9797 -1.4284 0.9259 1.0670
-3.8119 94.4985 -3.6022 5.2894 -12.2633 1.4265 2.1717 7.9494 -0.5599 0.5710 -2.5908 -0.3422 2.3483 22.0144 -1.8264 -1.8981 23.2373 2.8655 -2.5994 -3.7469 -5.8092 -5.9393 -18.6562 -3.6850 0.0086 0.0658 0.0251 0.6408 -10.2072 -3.7866 -0.6348 -10.2419 3.8455 10.4605 19.8019 -8.0482 -52.5664 -30.2644 -22.8641 0.7738 0.4758 -119.2318 1.7981 26.1522 47.2763 -16.0502 11.1107 16.0598 -61.4692 1.5553 2.4314 -5.1033 17.8691 16.2393 28.7342 -24.1679 18.8305 -1.5884 1.4633 101.2112 13.7627 38.2069 -43.0364 15.9969 7.2847 -16.1426 50.9346 -3.4673 -5.1689 9.8486 -8.5650 13.2345 -0.4016 27.6358 -0.5407 -13.2604 -7.5778 -12.0247 1.6661 -0.2759 -1.9284 -21.1019 -9.2766 -7.2811 0.4557 32.5953 0.9973 15.3266 -12.3697 3.2252 -1.4272 0.8840 1.0441
-4.0417 94.5760 -3.4610 5.6370 -12.9016 0.8842 2.3511 7.4831 -0.5914 0.6328 -2.7386 -0.4244 2.4780 21.7503 -1.9498 -2.2622 23.2100 2.9620 -2.6104 -3.7584 -5.6352 -6.6070 -18.3712 -3.0982 0.0106 0.0614 0.0278 0.6424 -10.2171 -3.7888 -0.6325 -10.2494 3.8531 10.1231 19.8126 -8.5177 -52.6867 -30.1103 -22.5542 0.8031 0.6252 -119.0145 0.9526 26.6740 47.2984 -16.0070 11.0952 15.9980 -61.4449 1.5497 2.4322 -5.6517 17.5652 16.3184 28.6160 -24.7581 20.6694 -1.6618 1.3708 101.1257 14.0499 38.9464 -43.4191 15.9147 7.3017 -16.1481 51.0820 -3.4301 -5.1461 10.0149 -7.1821 13.7578 -0.3848 26.5747 -0.5109 -13.7226 -7.1915 -11.9299 1.6619 -0.3830 -1.9398 -21.2893 -8.5071 -7.0163 0.4640 32.4886 0.9962 15.1278 -12.4602 3.5329 -1.4250 0.8107 1.0307
-4.2156 94.6708 -3.3516 6.0171 -13.3890 0.3234 2.5364 7.0388 -0.6110 0.7013 -2.8927 -0.5701 2.6209 21.5246 -2.0712 -2.4492 23.0168 2.9896 -2.6078 -3.7658 -5.4261 -7.2120 -18.0349 -2.5380 0.0140 0.0568 0.0302 0.6458 -10.2347 -3.7919 -0.6290 -10.2655 3.8603 9.6582 19.7917 -9.0766 -53.0527 -30.2560 -21.8791 0.8348 0.6554 -119.0353 0.7417 27.1229 47.1932 -15.9362 11.0469 15.8746 -61.3693 1.5464 2.4383 -6.0982 17.2213 16.3584 28.5140 -25.5510 22.4781 -1.5596 1.2009 101.1326 13.8912 39.4535 -43.6835 15.7580 7.3183 -16.1576 51.1800 -3.3677 -5.1320 10.0780 -5.9086 14.3467 -0.3685 25.4203 -0.4787 -14.1246 -6.7475 -11.8651 1.6578 -0.4941 -1.9484 -21.5206 -7.9055 -6.7790 0.4716 32.2939 0.9987 14.9364 -12.4697 3.8468 -1.4242 0.7217 1.0330
-4.3883 94.7929 -3.2820 6.4007 -13.7799 -0.1549 2.7087 6.5819 -0.6683 0.7709 -3.0427 -0.7385 2.7898 21.3477 -2.2380 -2.4141 22.7285 2.9332 -2.5862 -3.7719 -5.2027 -7.7222 -17.6300 -1.9745 0.0228 0.0502 0.0164 0.6480 -10.2557 -3.8095 -0.6126 -10.2817 3.8459 9.0962 19.6861 -9.7220 -53.6701 -30.6409 -20.9271 0.9060 0.6494 -119.2570 1.3358 27.4174 46.9081 -15.9311 10.9655 15.7340 -61.3251 1.5557 2.4744 -6.4255 16.8146 16.3219 28.5171 -26.4286 24.2464 -1.3449 1.0780 101.1320 13.4871 39.5240 -43.5332 15.5911 7.3167 -16.1715 51.2050 -3.3080 -5.1432 10.0626 -4.6869 14.9201 -0.3467 24.1308 -0.4418 -14.4979 -6.2393 -11.8774 1.6566 -0.5843 -1.9492 -21.7678 -7.3556 -6.6095 0.4734 31.9730 0.9986 14.7809 -12.4447 4.1271 -1.4245 0.5925 1.0495
-4.5584 94.9384 -3.2174 6.6958 -14.1595 -0.4612 2.8802 6.1383 -0.7238 0.8277 -3.1991 -0.9561 2.9792 21.2520 -2.4122 -2.0756 22.4843 2.7759 -2.6037 -3.7946 -4.9591 -8.0561 -17.2099 -1.5417 0.0293 0.0410 0.0030 0.6480 -10.2896 -3.8260 -0.5985 -10.3074 3.8332 8.5685 19.5707 -10.4064 -54.3925 -31.2617 -19.9651 1.0195 0.5794 -119.5062 2.6747 27.6948 46.5592 -15.9200 10.8686 15.5815 -61.2281 1.5754 2.4887 -6.5982 16.4063 16.1977 28.6180 -27.2323 25.8425 -1.0936 0.9548 100.9643 13.0569 39.1157 -43.0021 15.4355 7.2850 -16.1934 51.1723 -3.2654 -5.1711 10.0891 -3.5601 15.3802 -0.3391 22.8868 -0.4140 -14.8285 -5.7278 -11.9826 1.6569 -0.6602 -1.9463 -21.9460 -6.7298 -6.5172 0.4583 31.5557 0.9877 14.7019 -12.4209 4.2844 -1.4232 0.4910 1.0703
-4.7458 95.0811 -3.1728 6.8896 -14.5570 -0.5456 3.0064 5.6687 -0.8031 0.8580 -3.3414 -1.1328 3.1989 21.2019 -2.6296 -1.4682 22.3959 2.5350 -2.6257 -3.8293 -4.7514 -8.1893 -16.7409 -1.2672 0.0359 0.0314 -0.0259 0.6480 -10.3178 -3.8542 -0.5843 -10.3303 3.8003 8.2637 19.4807 -11.0258 -55.0038 -32.1251 -19.4484 1.1477 0.5535 -119.5313 4.0950 28.1040 46.1776 -15.9852 10.7622 15.4524 -61.1576 1.5680 2.4905 -6.6693 16.0294 16.0068 28.9679 -27.8088 27.1616 -0.9962 0.9553 100.4266 12.9137 39.0693 -42.5043 15.3500 7.2520 -16.1768 51.1555 -3.2540 -5.1732 10.1844 -2.5363 15.7279 -0.3280 21.7122 -0.3924 -15.0927 -5.2115 -12.2708 1.6589 -0.7555 -1.9435 -22.0680 -5.9710 -6.6044 0.4376 30.9854 0.9712 14.6372 -12.3828 4.3267 -1.4196 0.3771 1.0744
-4.9214 95.2361 -3.1046 6.9808 -15.0092 -0.4065 3.0852 5.2230 -0.8348 0.8518 -3.4921 -1.3310 3.3970 21.1694 -2.8291 -0.6747 22.5148 2.2378 -2.6779 -3.8519 -4.5182 -8.0886 -16.2116 -1.2007 0.0354 0.0250 -0.0288 0.6467 -10.3510 -3.8577 -0.5826 -10.3575 3.7991 8.2554 19.4491 -11.5188 -55.2304 -33.1713 -19.7140 1.2369 0.5579 -119.2528 5.0510 28.7257 45.9502 -16.0289 10.6719 15.3294 -61.1061 1.5843 2.4191 -6.6585 15.7752 15.8291 29.6081 -28.2527 27.9344 -0.9619 0.9605 99.4839 12.9193 39.8255 -42.3322 15.3250 7.2272 -16.0896 51.1525 -3.2794 -5.1600 10.3650 -1.6050 15.9950 -0.3336 20.6800 -0.3973 -15.2878 -4.7326 -12.7239 1.6607 -0.8522 -1.9598 -22.1283 -5.0942 -6.8359 0.4129 30.3575 0.9394 14.5582 -12.3321 4.3478 -1.4170 0.2871 1.0616
-5.0758 95.3657 -3.0233 6.9703 -15.4878 -0.0322 3.0952 4.7834 -0.8769 0.8271 -3.6280 -1.4952 3.5589 21.1204 -3.0303 0.1657 22.8076 1.8972 -2.6935 -3.8731 -4.2709 -7.8109 -15.6013 -1.2317 0.0311 0.0181 -0.0185 0.6442 -10.3820 -3.8463 -0.5877 -10.3820 3.8092 8.5436 19.4130 -11.8518 -54.9676 -34.3388 -20.9222 1.3524 0.6367 -118.7338 5.5154 29.6167 45.7766 -16.0469 10.5560 15.2148 -61.0596 1.5731 2.3160 -6.5900 15.5620 15.6664 30.4746 -28.5582 28.2963 -1.0923 1.0183 98.2110 13.0670 41.3082 -42.3055 15.2931 7.2457 -15.9869 51.1693 -3.3066 -5.1619 10.6014 -0.8000 16.1265 -0.3411 19.7819 -0.4108 -15.4528 -4.2696 -13.2882 1.6649 -0.9307 -1.9757 -22.1482 -4.1571 -7.2724 0.3943 29.7018 0.9068 14.4818 -12.2722 4.3056 -1.4158 0.1936 1.0349
-5.2329 95.4501 -2.9535 6.8771 -15.9757 0.4737 3.0524 4.3843 -0.9025 0.7979 -3.7663 -1.6232 3.6672 21.0471 -3.2043 1.0088 23.2261 1.5840 -2.7091 -3.8884 -4.0213 -7.3846 -14.9869 -1.3261 0.0232 0.0159 0.0024 0.6387 -10.4044 -3.8226 -0.5966 -10.3910 3.8302 9.0493 19.3049 -12.0479 -54.2474 -35.5642 -22.9025 1.4209 0.7667 -118.0978 5.5237 30.5698 45.4502 -16.0000 10.4003 15.1118 -60.9087 1.5332 2.2506 -6.5109 15.3964 15.5359 31.4056 -28.7854 28.3193 -1.3146 0.9886 96.8298 13.1803 42.9353 -42.3853 15.2563 7.2652 -15.8722 51.1714 -3.3316 -5.1196 10.9044 -0.1318 16.1532 -0.3589 19.0751 -0.4211 -15.5897 -3.9222 -13.9021 1.6679 -0.9845 -1.9784 -22.1528 -3.2806 -7.8175 0.3753 29.1742 0.8747 14.4613 -12.2157 4.2266 -1.4188 0.1443 1.0147
-5.3437 95.5120 -2.8758 6.7423 -16.4018 1.0544 2.9688 4.0221 -0.9187 0.7655 -3.9037 -1.6894 3.7169 20.9368 -3.3391 1.7472 23.6726 1.3044 -2.6934 -3.8925 -3.8141 -6.8836 -14.4377 -1.4429 0.0147 0.0211 0.0172 0.6308 -10.4063 -3.8028 -0.6049 -10.3747 3.8435 9.6630 19.1516 -12.1265 -53.1565 -36.8822 -25.4272 1.4213 0.8489 -117.4137 5.3682 31.5473 44.9680 -15.9512 10.2533 15.0684 -60.7122 1.4677 2.2514 -6.4975 15.2384 15.4201 32.3438 -28.9706 28.1061 -1.5938 0.9704 95.5206 13.3970 44.4263 -42.3838 15.2674 7.3021 -15.8115 51.2164 -3.3376 -5.0778 11.1818 0.3925 16.0684 -0.3716 18.4837 -0.4303 -15.7384 -3.6301 -14.4221 1.6689 -1.0194 -1.9678 -22.1326 -2.5014 -8.3748 0.3615 28.7138 0.8659 14.4838 -12.1330 4.0945 -1.4235 0.1065 0.9931
-5.4118 95.5586 -2.8176 6.6010 -16.7205 1.5691 2.8725 3.7131 -0.9158 0.7401 -4.0420 -1.7441 3.7251 20.8058 -3.3780 2.2893 24.0417 1.1082 -2.6569 -3.8870 -3.6950 -6.3629 -13.9803 -1.6110 0.0060 0.0240 0.0344 0.6261 -10.4142 -3.7816 -0.6165 -10.3634 3.8590 10.2673 18.9490 -12.1019 -52.0269 -38.1992 -28.0018 1.4110 0.8105 -116.8821 5.2903 32.6715 44.6039 -15.9547 10.1558 15.0631 -60.6457 1.4280 2.2546 -6.5144 15.0556 15.3399 33.2107 -29.1232 27.7022 -1.9049 0.9092 94.4839 13.5587 45.8893 -42.3265 15.2671 7.3384 -15.7411 51.3084 -3.3094 -5.0427 11.3922 0.7925 15.8947 -0.3802 17.9546 -0.4378 -15.8827 -3.3574 -14.7378 1.6672 -1.0978 -1.9569 -22.1098 -1.8638 -8.8291 0.3519 28.2851 0.8573 14.6051 -11.9779 3.9463 -1.4274 0.0608 0.9753
-5.4296 95.6320 -2.7625 6.4911 -16.9109 1.9266 2.7736 3.4812 -0.9275 0.7263 -4.1473 -1.7603 3.7205 20.6131 -3.3400 2.5567 24.2641 1.0159 -2.5711 -3.8716 -3.7037 -5.9309 -13.6567 -1.7394 0.0029 0.0217 0.0291 0.6211 -10.4301 -3.7864 -0.6172 -10.3662 3.8533 10.7715 18.6673 -11.9707 -51.2604 -39.2299 -30.1739 1.4310 0.7326 -116.6070 5.4453 33.9612 44.4482 -16.0850 10.1371 15.0747 -60.8074 1.4043 2.2066 -6.5397 14.8478 15.3084 33.9918 -29.1242 27.2818 -2.3621 0.9318 93.7079 13.7674 47.2373 -41.9431 15.2557 7.4003 -15.7179 51.3947 -3.2857 -5.0530 11.5047 1.1196 15.6911 -0.3776 17.4565 -0.4344 -16.0195 -3.0787 -14.8424 1.6723 -1.2185 -1.9460 -22.0671 -1.3479 -9.0858 0.3416 27.8316 0.8484 14.7796 -11.8032 3.7718 -1.4315 0.0028 0.9660
-5.4154 95.7190 -2.7668 6.3875 -16.9548 2.1317 2.6928 3.2921 -0.9298 0.7184 -4.2368 -1.7658 3.7570 20.3410 -3.2540 2.5846 24.3602 1.0299 -2.4993 -3.8608 -3.8017 -5.5934 -13.4033 -1.8594 0.0015 0.0130 0.0093 0.6170 -10.4490 -3.8099 -0.6150 -10.3821 3.8361 11.1408 18.2528 -11.7490 -51.1372 -39.8872 -31.6996 1.4844 0.6212 -116.5665 5.9073 35.4362 44.4934 -16.3861 10.1522 15.0422 -61.1411 1.3711 2.1479 -6.5962 14.6065 15.3126 34.7562 -28.8184 26.9702 -3.1483 1.0245 93.0818 13.9900 48.4373 -41.2089 15.2297 7.4937 -15.7530 51.5916 -3.2717 -5.0992 11.5466 1.3733 15.4499 -0.3680 16.9426 -0.4198 -16.1498 -2.7625 -14.7455 1.6822 -1.2944 -1.9214 -21.9615 -0.9600 -9.1509 0.3208 27.3611 0.8005 14.9203 -11.6767 3.5605 -1.4358 -0.0726 0.9791
-5.4149 95.8374 -2.8296 6.2735 -16.8560 2.2106 2.6168 3.1019 -0.8694 0.6717 -4.3303 -1.7642 3.8799 20.0421 -3.1932 2.4584 24.3439 1.0794 -2.4649 -3.8386 -3.8056 -5.3268 -13.1139 -2.1247 0.0007 0.0054 -0.0149 0.6100 -10.4478 -3.8356 -0.6093 -10.3829 3.8125 11.4187 17.7858 -11.4803 -51.6089 -40.2543 -32.5693 1.5174 0.4371 -116.6102 6.6530 36.7795 44.5052 -16.8657 10.1778 14.9705 -61.5997 1.2445 2.1086 -6.7113 14.3687 15.3348 35.6342 -28.4160 26.7133 -4.1080 1.2084 92.4720 13.9817 49.3556 -40.4992 15.2175 7.6222 -15.8495 51.8146 -3.2692 -5.1117 11.5641 1.4884 15.1544 -0.3541 16.5317 -0.3957 -16.3006 -2.4402 -14.5762 1.6916 -1.3538 -1.8921 -21.7992 -0.7163 -9.1365 0.2896 26.8892 0.6910 15.0025 -11.6551 3.3990 -1.4381 -0.2735 1.0038
