HIERARCHY
ROOT Hips
{
	OFFSET 0.0000 0.0000 0.0000
	CHANNELS 6 Xposition Yposition Zposition Zrotation Xrotation Yrotation
	JOINT Spine1
	{
		OFFSET -0.0137 5.0038 -0.0537
		CHANNELS 3 Zrotation Xrotation Yrotation
		JOINT Spine2
		{
			OFFSET -0.0000 7.1253 -0.0298
			CHANNELS 3 Zrotation Xrotation Yrotation
			JOINT Chest
			{
				OFFSET -0.0000 7.5501 -0.8160
				CHANNELS 3 Zrotation Xrotation Yrotation
				JOINT Neck1
				{
					OFFSET -0.1817 26.3113 -0.5533
					CHANNELS 3 Zrotation Xrotation Yrotation
					JOINT Neck2
					{
						OFFSET -0.0000 7.7094 2.3026
						CHANNELS 3 Zrotation Xrotation Yrotation
						JOINT Head
						{
							OFFSET -0.0000 6.1289 1.9537
							CHANNELS 3 Zrotation Xrotation Yrotation
							JOINT Jaw
							{
								OFFSET 0.0026 0.4756 3.0949
								CHANNELS 3 Zrotation Xrotation Yrotation
								End Site
								{
									OFFSET 0.0 1.0 0.0
								}
							}
							JOINT LeftEye
							{
								OFFSET 3.2064 5.3802 7.5869
								CHANNELS 3 Zrotation Xrotation Yrotation
								End Site
								{
									OFFSET 0.0 1.0 0.0
								}
							}
							JOINT RightEye
							{
								OFFSET -3.2224 5.3619 7.5582
								CHANNELS 3 Zrotation Xrotation Yrotation
								End Site
								{
									OFFSET 0.0 1.0 0.0
								}
							}
						}
					}
				}
				JOINT LeftShoulder
				{
					OFFSET 1.6217 23.2372 5.1134
					CHANNELS 3 Zrotation Xrotation Yrotation
					JOINT LeftArm
					{
						OFFSET 14.9198 0.0000 -5.5023
						CHANNELS 3 Zrotation Xrotation Yrotation
						JOINT LeftForeArm
						{
							OFFSET 28.7393 0.0000 -0.0026
							CHANNELS 3 Zrotation Xrotation Yrotation
							JOINT LeftHand
							{
								OFFSET 27.0940 -0.0000 0.0026
								CHANNELS 3 Zrotation Xrotation Yrotation
								JOINT LeftHandThumbEnd
								{
									OFFSET 12.2686 -3.2202 4.8331
									CHANNELS 3 Zrotation Xrotation Yrotation
									End Site
									{
										OFFSET 0.0 1.0 0.0
									}
								}
								JOINT LeftHandMiddleEnd
								{
									OFFSET 19.0120 -0.3129 -0.0340
									CHANNELS 3 Zrotation Xrotation Yrotation
									End Site
									{
										OFFSET 0.0 1.0 0.0
									}
								}
							}
						}
					}
				}
				JOINT RightShoulder
				{
					OFFSET -1.3801 23.1803 5.2142
					CHANNELS 3 Zrotation Xrotation Yrotation
					JOINT RightArm
					{
						OFFSET -15.0372 0.0000 -5.5456
						CHANNELS 3 Zrotation Xrotation Yrotation
						JOINT RightForeArm
						{
							OFFSET -28.7366 0.0000 -0.0026
							CHANNELS 3 Zrotation Xrotation Yrotation
							JOINT RightHand
							{
								OFFSET -27.1336 -0.0000 0.0026
								CHANNELS 3 Zrotation Xrotation Yrotation
								JOINT RightHandThumbEnd
								{
									OFFSET -12.2642 -3.2115 4.8040
									CHANNELS 3 Zrotation Xrotation Yrotation
									End Site
									{
										OFFSET 0.0 1.0 0.0
									}
								}
								JOINT RightHandMiddleEnd
								{
									OFFSET -19.0006 -0.3066 -0.0316
									CHANNELS 3 Zrotation Xrotation Yrotation
									End Site
									{
										OFFSET 0.0 1.0 0.0
									}
								}
							}
						}
					}
				}
			}
		}
	}
	JOINT LeftLeg
	{
		OFFSET 10.0432 -8.4345 2.5957
		CHANNELS 3 Zrotation Xrotation Yrotation
		JOINT LeftShin
		{
			OFFSET -0.0000 -43.2218 -0.8029
			CHANNELS 3 Zrotation Xrotation Yrotation
			JOINT LeftFoot
			{
				OFFSET 0.0000 -42.1551 -3.4815
				CHANNELS 3 Zrotation Xrotation Yrotation
				JOINT LeftToeBase
				{
					OFFSET 0.0000 -5.0595 13.2315
					CHANNELS 3 Zrotation Xrotation Yrotation
					End Site
					{
						OFFSET 0.0 1.0 0.0
					}
				}
			}
		}
	}
	JOINT RightLeg
	{
		OFFSET -10.0473 -8.2953 2.6203
		CHANNELS 3 Zrotation Xrotation Yrotation
		JOINT RightShin
		{
			OFFSET 0.0000 -43.3622 -0.8056
			CHANNELS 3 Zrotation Xrotation Yrotation
			JOINT RightFoot
			{
				OFFSET 0.0000 -42.1174 -3.4784
				CHANNELS 3 Zrotation Xrotation Yrotation
				JOINT RightToeBase
				{
					OFFSET -0.0000 -5.0796 13.2842
					CHANNELS 3 Zrotation Xrotation Yrotation
					End Site
					{
						OFFSET 0.0 1.0 0.0
					}
				}
			}
		}
	}
}
MOTION
Frames: 120
Frame Time: 0.033333
-0.3312 95.1405 -2.1000 0.6440 2.0940 0.1742 -1.4956 4.5481 0.1180 -0.8213 -3.4103 0.2501 -1.5949 13.1092 -1.8426 -7.3886 14.1329 5.4788 3.1060 -3.9019 13.5452 -2.9597 -8.3409 16.6043 0.0630 -0.0651 -0.2233 0.7936 -10.5775 -4.0650 -0.6783 -10.5687 3.6272 -6.8930 11.9986 -8.3890 -48.5130 -10.5660 7.6216 1.2255 -0.1098 -107.9942 -5.3559 -19.8108 -6.9522 -14.7163 10.8434 15.6417 -59.7615 1.9896 2.4904 9.6800 14.3493 12.0550 48.5655 10.4309 -3.2774 0.6129 1.1447 93.3804 -16.5924 10.4597 -0.3716 16.0463 7.8060 -17.0806 50.4932 -3.6725 -5.7945 9.3297 -27.5270 26.6008 -0.2174 29.1313 -0.3699 -10.3778 -2.1869 -1.9461 1.6174 -0.1419 -1.8574 -17.3332 -11.8303 -8.6330 0.1542 22.5899 0.6266 18.4411 -13.5967 1.0807 -1.4331 -0.9997 1.2026
-0.2851 94.8305 -2.2013 0.5595 1.8680 0.7042 -1.4695 4.6701 0.1221 -0.8263 -3.3685 0.3508 -1.7005 13.2375 -1.8333 -7.4348 14.6669 5.5287 3.1070 -3.9500 13.6942 -2.9883 -8.4296 16.4460 0.0473 -0.0624 -0.1857 0.7740 -10.5747 -4.0167 -0.6914 -10.5590 3.6597 -6.5237 12.0096 -8.2392 -48.9120 -11.2704 6.0999 1.1258 -0.1910 -107.5533 -4.9722 -19.0586 -7.2022 -14.8192 10.7582 15.5769 -59.8565 1.9900 2.4594 9.2608 14.5371 12.1131 48.2135 10.5919 -3.5738 0.5675 1.2268 93.0251 -17.0752 10.3348 -0.0636 16.0828 7.8041 -17.0939 50.5754 -3.6994 -5.7839 9.5968 -28.2797 25.9819 -0.2456 30.7190 -0.3904 -10.3923 -2.8622 -2.3967 1.6321 -0.1379 -1.9054 -17.3849 -12.2317 -8.9812 0.1528 24.0136 0.6098 18.4956 -14.3499 0.9728 -1.4483 -0.9165 1.1674
-0.2240 94.3770 -2.2670 0.4817 1.5114 1.3800 -1.4585 4.7743 0.1416 -0.8348 -3.3323 0.4260 -1.7538 13.4470 -1.7502 -7.5377 15.4637 5.6946 3.1053 -3.9948 13.7522 -2.9760 -8.5338 16.3696 0.0385 -0.0507 -0.1601 0.7614 -10.5783 -3.9794 -0.6973 -10.5574 3.6770 -5.9784 12.0653 -7.9637 -49.4617 -11.9212 4.2829 1.1407 -0.2694 -107.0725 -4.8720 -18.0878 -7.3493 -14.8801 10.7248 15.5467 -59.9440 1.9883 2.4267 8.8302 14.7988 12.2851 47.7146 10.8600 -3.8760 0.5674 1.1728 92.7165 -17.9601 10.4913 -0.0296 16.1120 7.7712 -17.0008 50.6068 -3.6959 -5.7491 9.9177 -29.1276 25.3618 -0.2656 32.7020 -0.4096 -10.3167 -3.7919 -2.9663 1.6413 -0.0120 -1.9462 -17.5771 -12.7765 -9.5711 0.1656 25.9831 0.6099 18.7344 -15.4769 1.0863 -1.4545 -0.7440 1.1511
-0.1931 93.8469 -2.2823 0.3576 1.0378 1.9000 -1.4544 4.8801 0.1770 -0.8487 -3.3053 0.5440 -1.7561 13.6828 -1.5787 -7.6772 16.3770 5.8423 3.1047 -4.0176 13.8534 -2.8568 -8.6759 16.4335 0.0316 -0.0383 -0.1409 0.7544 -10.5812 -3.9504 -0.7048 -10.5552 3.6878 -5.3617 12.2291 -7.5591 -50.0302 -12.5656 2.5781 1.2255 -0.3377 -106.6888 -4.8416 -17.1173 -7.4426 -14.9595 10.6852 15.5010 -60.0520 1.9642 2.3892 8.4090 15.1333 12.5056 47.3184 11.0996 -3.8716 0.4416 1.0612 92.3177 -18.6994 10.8032 -0.0758 16.1077 7.7711 -16.8887 50.6331 -3.6363 -5.7124 10.3380 -29.9124 24.9496 -0.2833 34.8093 -0.4179 -10.2921 -4.8153 -3.5553 1.6420 0.1474 -1.9717 -17.8109 -13.2536 -10.0900 0.1879 28.0509 0.6272 19.0938 -16.6545 1.3426 -1.4519 -0.6036 1.1301
-0.1172 93.3564 -2.2243 0.2070 0.5795 2.3007 -1.4525 4.9288 0.2242 -0.8596 -3.3106 0.6399 -1.7914 13.9048 -1.3960 -7.7791 17.2194 5.9346 3.1340 -4.0277 14.0480 -2.5914 -8.7610 16.5667 0.0236 -0.0319 -0.1234 0.7443 -10.5765 -3.9196 -0.7114 -10.5492 3.6965 -4.9453 12.4487 -7.1432 -50.2261 -13.1690 1.3435 1.2911 -0.3988 -106.5786 -4.7135 -16.3983 -7.4440 -15.0524 10.6373 15.4238 -60.1411 1.9495 2.3353 8.0373 15.4354 12.7148 47.1585 11.1785 -3.6565 0.3067 0.9651 91.9094 -19.1604 10.8654 -0.0533 16.0580 7.7849 -16.8250 50.6281 -3.6147 -5.6862 10.7642 -30.5562 24.7096 -0.3012 36.6744 -0.4431 -10.2532 -5.8046 -4.1170 1.6367 0.3042 -1.9623 -18.0134 -13.5529 -10.4506 0.2165 29.8138 0.6720 19.4672 -17.6210 1.5662 -1.4475 -0.4950 1.1318
-0.0413 92.9973 -2.1366 0.0660 0.2268 2.5816 -1.4741 4.9071 0.2703 -0.8795 -3.3248 0.7177 -1.8473 14.0501 -1.2670 -7.8675 17.8470 5.9398 3.1992 -4.0438 14.2812 -2.2536 -8.7632 16.7301 0.0206 -0.0309 -0.1174 0.7332 -10.5717 -3.9005 -0.7069 -10.5450 3.6930 -4.8496 12.5968 -6.8713 -49.9932 -13.5011 0.6744 1.4179 -0.4143 -106.6814 -4.5599 -15.9981 -7.4741 -15.1079 10.6320 15.3887 -60.1827 1.9499 2.2773 7.7685 15.6364 12.8627 47.2503 11.0988 -3.3399 0.1819 0.8935 91.5814 -19.3699 10.5987 0.1350 15.9478 7.8024 -16.8172 50.5448 -3.6550 -5.6723 11.1070 -30.9761 24.5325 -0.3125 38.0219 -0.4653 -10.1217 -6.5634 -4.4566 1.6311 0.4148 -1.9347 -18.1361 -13.6597 -10.5522 0.2519 31.0671 0.7370 19.6546 -18.2823 1.6075 -1.4436 -0.4478 1.1472
-0.0128 92.7786 -2.0413 -0.0527 0.0038 2.7687 -1.5093 4.8289 0.2729 -0.9171 -3.3243 0.8084 -1.9059 14.0796 -1.1961 -7.9241 18.3124 5.8996 3.2291 -4.0580 14.4818 -1.9501 -8.6978 16.8686 0.0195 -0.0281 -0.1109 0.7237 -10.5658 -3.8892 -0.6990 -10.5400 3.6925 -5.0148 12.6445 -6.7802 -49.5110 -13.5079 0.4703 1.5267 -0.3883 -106.8452 -4.4117 -15.7940 -7.5694 -15.1414 10.6892 15.4260 -60.2541 1.9639 2.2513 7.5848 15.7348 12.9544 47.6170 11.0392 -2.9398 0.0017 0.9573 91.3554 -19.4570 10.2010 0.3698 15.8768 7.8436 -16.8176 50.5272 -3.6552 -5.6758 11.3619 -31.1974 24.3410 -0.3142 38.8179 -0.4875 -9.9735 -7.0392 -4.5520 1.6277 0.4394 -1.8948 -18.1707 -13.6119 -10.4977 0.2919 31.7765 0.8253 19.7130 -18.6381 1.4685 -1.4391 -0.4742 1.1625
-0.0167 92.7051 -1.9834 -0.1425 -0.1074 2.8416 -1.5513 4.7315 0.2970 -0.9472 -3.3403 0.8572 -1.9789 14.0334 -1.1636 -7.9774 18.6180 5.8738 3.2429 -4.0523 14.6138 -1.7331 -8.5469 16.9397 0.0157 -0.0285 -0.1028 0.7125 -10.5607 -3.8781 -0.6958 -10.5388 3.7020 -5.3694 12.6530 -6.7939 -48.8757 -13.2601 0.5455 1.6738 -0.3397 -107.0095 -4.2420 -15.7150 -7.6576 -15.1018 10.7602 15.4820 -60.2907 1.9852 2.2459 7.4604 15.7402 13.0238 48.1553 11.0240 -2.5490 -0.1128 1.0521 91.2156 -19.4679 9.8790 0.6155 15.8417 7.8653 -16.8497 50.5120 -3.6421 -5.6950 11.5096 -31.2242 24.2371 -0.3269 39.1162 -0.5219 -9.8061 -7.2916 -4.4530 1.6282 0.4138 -1.8573 -18.1293 -13.4411 -10.2955 0.3124 32.0068 0.8778 19.6916 -18.7754 1.2892 -1.4380 -0.6042 1.1789
-0.0319 92.7287 -1.9301 -0.2130 -0.1655 2.8686 -1.5865 4.6464 0.2826 -0.9763 -3.3477 0.9103 -2.0518 13.9436 -1.1841 -8.0366 18.8315 5.8584 3.2249 -4.0442 14.6851 -1.6371 -8.4058 16.9512 0.0113 -0.0225 -0.0900 0.7012 -10.5571 -3.8660 -0.6925 -10.5439 3.7146 -5.7619 12.6508 -6.8636 -48.2314 -12.9584 0.8676 1.7823 -0.3071 -107.1823 -4.0233 -15.7225 -7.8595 -15.0404 10.8114 15.5376 -60.2512 1.9905 2.2649 7.3711 15.6646 13.0326 48.7123 11.1582 -2.1409 -0.2521 1.1387 91.2446 -19.3771 9.7122 0.8464 15.8638 7.8748 -16.8826 50.5301 -3.6294 -5.7251 11.6210 -31.1054 24.1306 -0.3247 39.0383 -0.5261 -9.6908 -7.3912 -4.2854 1.6285 0.3962 -1.8309 -18.0252 -13.2049 -10.0653 0.3223 31.9431 0.9165 19.5916 -18.7926 1.0601 -1.4377 -0.7369 1.1742
-0.0897 92.8013 -1.9117 -0.2583 -0.2043 2.8596 -1.6331 4.5838 0.2732 -0.9919 -3.3577 0.8987 -2.1102 13.8380 -1.2239 -8.1048 18.9944 5.8640 3.1826 -4.0339 14.6987 -1.6061 -8.3370 16.8658 0.0125 -0.0174 -0.0835 0.6975 -10.5474 -3.8593 -0.6865 -10.5382 3.7225 -6.1033 12.6617 -6.9852 -47.7056 -12.6483 1.4261 1.8239 -0.2700 -107.3742 -3.7605 -15.8604 -8.0870 -15.0226 10.8419 15.5567 -60.2383 1.9998 2.2835 7.3359 15.5311 12.9643 49.1134 11.3760 -1.8183 -0.2678 1.1421 91.4818 -19.2506 9.6879 1.0397 15.9204 7.8664 -16.9262 50.5874 -3.5970 -5.7245 11.7154 -30.8821 24.0295 -0.3329 38.7364 -0.5421 -9.6888 -7.3531 -4.1231 1.6337 0.3744 -1.8206 -17.8914 -12.9599 -9.8622 0.3236 31.7653 0.9329 19.4261 -18.7582 0.8711 -1.4423 -0.8156 1.1715
-0.1839 92.8550 -1.9583 -0.2943 -0.2312 2.8712 -1.6669 4.5390 0.2573 -1.0026 -3.3740 0.8618 -2.1314 13.7819 -1.2724 -8.1813 19.1079 5.8674 3.1174 -4.0303 14.6512 -1.6266 -8.3634 16.7488 0.0134 -0.0112 -0.0796 0.6967 -10.5396 -3.8557 -0.6832 -10.5324 3.7224 -6.3088 12.6975 -7.1067 -47.2340 -12.4255 2.0697 1.8454 -0.2368 -107.6428 -3.5137 -16.2105 -8.3100 -15.0327 10.8303 15.5508 -60.1935 1.9950 2.3014 7.3079 15.3950 12.8210 49.3354 11.6374 -1.6773 -0.2478 1.1392 92.0818 -19.1369 9.6076 1.2087 15.9656 7.8566 -16.9503 50.6360 -3.5907 -5.7342 11.8497 -30.7298 23.8260 -0.3376 38.4768 -0.5379 -9.8031 -7.2411 -3.9673 1.6366 0.3708 -1.8200 -17.7379 -12.8101 -9.7052 0.3241 31.7113 0.9323 19.2843 -18.8140 0.6578 -1.4468 -0.7993 1.1635
-0.3536 92.8527 -2.0376 -0.3268 -0.2748 2.8753 -1.6704 4.5065 0.2456 -1.0038 -3.3961 0.8177 -2.1151 13.7720 -1.3175 -8.2041 19.1856 5.9149 3.0686 -4.0300 14.5180 -1.6740 -8.4550 16.6078 0.0160 -0.0090 -0.0847 0.7008 -10.5311 -3.8619 -0.6818 -10.5242 3.7174 -6.4509 12.7609 -7.2058 -46.7799 -12.3065 2.6725 1.8339 -0.1610 -107.8519 -3.3037 -16.5655 -8.5776 -15.0396 10.8174 15.5638 -60.1288 1.9804 2.3283 7.3226 15.2733 12.6809 49.3746 11.8204 -1.7676 -0.1515 1.0898 92.8617 -19.1331 9.4658 1.3761 15.9891 7.8344 -16.9657 50.6455 -3.5983 -5.7320 12.0435 -30.6481 23.5658 -0.3318 38.3322 -0.5174 -9.9392 -7.1254 -3.8480 1.6404 0.3756 -1.8269 -17.5761 -12.7888 -9.5675 0.3124 31.8928 0.8989 19.1468 -18.9869 0.4816 -1.4532 -0.7714 1.1639
-0.5810 92.8083 -2.1058 -0.3429 -0.3864 2.8869 -1.6525 4.4937 0.2534 -0.9943 -3.4210 0.7738 -2.0540 13.8221 -1.3653 -8.1925 19.2775 5.9627 3.0314 -4.0346 14.3573 -1.7269 -8.5399 16.4798 0.0157 -0.0107 -0.0911 0.7048 -10.5380 -3.8719 -0.6864 -10.5302 3.7146 -6.5246 12.8345 -7.2688 -46.2981 -12.2453 3.1438 1.8550 -0.1293 -107.9505 -3.1434 -16.9322 -8.9371 -15.0349 10.8031 15.5736 -60.0647 1.9585 2.3454 7.3455 15.1990 12.5646 49.2809 11.8903 -1.9577 -0.0327 0.9950 93.6904 -19.2921 9.3056 1.4725 15.9702 7.8172 -16.9565 50.6123 -3.6019 -5.7179 12.2865 -30.6089 23.3250 -0.3258 38.3206 -0.4976 -10.0797 -7.0251 -3.7706 1.6406 0.3897 -1.8393 -17.4345 -12.8424 -9.4614 0.3012 32.3181 0.8679 18.9914 -19.2787 0.3718 -1.4570 -0.7673 1.1621
-0.8729 92.7110 -2.1672 -0.3299 -0.5766 2.9014 -1.6095 4.4783 0.2648 -0.9871 -3.4468 0.7269 -1.9559 13.9317 -1.3979 -8.1888 19.4272 5.9968 3.0106 -4.0382 14.2159 -1.7705 -8.5314 16.4078 0.0149 -0.0169 -0.0990 0.7070 -10.5505 -3.8837 -0.6904 -10.5398 3.7107 -6.5983 12.9032 -7.3233 -45.7520 -12.2220 3.5675 1.8890 -0.1443 -107.9431 -3.0596 -17.3381 -9.3092 -15.0292 10.7934 15.5772 -60.0396 1.9248 2.3536 7.3969 15.2034 12.5053 49.0994 11.8511 -2.1590 0.0617 0.9044 94.4351 -19.5426 9.0640 1.5536 15.9253 7.8152 -16.9443 50.5827 -3.5974 -5.6910 12.5719 -30.5645 23.1710 -0.3260 38.3772 -0.4852 -10.2225 -6.9058 -3.8053 1.6398 0.4019 -1.8507 -17.3267 -12.9170 -9.3715 0.3015 32.9513 0.8527 18.7832 -19.6947 0.3100 -1.4564 -0.7654 1.1642
-1.2045 92.5988 -2.2281 -0.2806 -0.8142 2.9210 -1.5423 4.4453 0.2763 -0.9733 -3.4786 0.6718 -1.8433 14.0382 -1.4223 -8.2046 19.6054 6.0134 2.9995 -4.0206 14.1094 -1.7853 -8.4013 16.3538 0.0112 -0.0259 -0.1021 0.7079 -10.5643 -3.8885 -0.6990 -10.5484 3.7122 -6.7211 12.9519 -7.3728 -45.1343 -12.2321 4.0040 1.9091 -0.2064 -107.8291 -3.0078 -17.7862 -9.6496 -15.0502 10.7840 15.5749 -60.0600 1.8850 2.3495 7.4948 15.2329 12.4906 48.8708 11.7522 -2.2955 0.1209 0.8004 95.0608 -19.7491 8.6430 1.7025 15.8664 7.8160 -16.9199 50.5552 -3.6024 -5.6675 12.8545 -30.4845 23.1336 -0.3362 38.4096 -0.4917 -10.3781 -6.7692 -3.9780 1.6374 0.4527 -1.8515 -17.2532 -12.9621 -9.2704 0.3103 33.6497 0.8409 18.5930 -20.1191 0.2725 -1.4525 -0.7437 1.1741
-1.5761 92.4930 -2.2429 -0.2140 -1.0628 2.9420 -1.4514 4.3756 0.2591 -0.9506 -3.5071 0.6153 -1.7165 14.0906 -1.4429 -8.2528 19.7851 6.0068 2.9878 -3.9963 14.0157 -1.7454 -8.2057 16.3113 0.0034 -0.0339 -0.0919 0.7024 -10.5771 -3.8798 -0.7100 -10.5585 3.7275 -6.9049 12.9920 -7.4242 -44.5205 -12.2442 4.5013 1.8830 -0.2214 -107.6499 -2.9531 -18.2907 -9.9558 -15.0805 10.7567 15.5471 -60.0762 1.8542 2.3390 7.6467 15.2793 12.4937 48.5616 11.6214 -2.3228 0.1724 0.7417 95.5377 -19.8530 8.1008 1.8674 15.7968 7.7865 -16.9285 50.4975 -3.6665 -5.6739 13.1374 -30.3572 23.1614 -0.3441 38.3730 -0.5089 -10.5639 -6.5984 -4.1960 1.6360 0.4734 -1.8445 -17.1924 -12.9480 -9.2450 0.3369 34.2923 0.8547 18.4406 -20.5759 0.2526 -1.4473 -0.6604 1.1850
-1.9621 92.4174 -2.2029 -0.1340 -1.2919 2.9894 -1.3407 4.2602 0.2421 -0.9209 -3.5445 0.5677 -1.5697 14.0819 -1.4841 -8.3233 19.9092 5.9960 2.9968 -3.9779 13.9178 -1.6451 -7.9685 16.2452 -0.0043 -0.0410 -0.0788 0.6950 -10.5754 -3.8650 -0.7183 -10.5541 3.7429 -7.1371 12.9976 -7.4677 -44.0150 -12.2128 5.0572 1.7814 -0.2262 -107.4989 -2.9360 -18.9392 -10.1905 -15.1047 10.7575 15.5266 -60.0521 1.8539 2.3350 7.8613 15.3488 12.4913 48.1694 11.5308 -2.2828 0.1955 0.7903 95.9143 -19.7913 7.5010 2.0035 15.7819 7.7855 -16.9638 50.5136 -3.6941 -5.6937 13.3922 -30.1170 23.1741 -0.3551 38.1451 -0.5405 -10.7548 -6.4017 -4.3504 1.6355 0.4681 -1.8337 -17.1279 -12.8234 -9.2521 0.3554 34.7237 0.8608 18.3172 -20.9470 0.2202 -1.4403 -0.5529 1.1898
-2.3431 92.4004 -2.1191 -0.0139 -1.4840 3.0909 -1.2181 4.0988 0.2131 -0.8846 -3.5987 0.5286 -1.4100 14.0244 -1.5402 -8.4135 19.9919 5.9652 3.0101 -3.9800 13.7967 -1.5093 -7.6630 16.1203 -0.0097 -0.0453 -0.0682 0.6898 -10.5804 -3.8524 -0.7236 -10.5546 3.7526 -7.4157 12.9789 -7.5416 -43.5880 -12.0342 5.6448 1.7235 -0.2511 -107.4557 -3.0384 -19.7226 -10.2579 -15.1341 10.7588 15.5165 -59.9905 1.8503 2.3330 8.1503 15.4157 12.4643 47.6432 11.5197 -2.2711 0.2196 0.8134 96.3009 -19.5866 6.8651 2.0717 15.7456 7.7856 -16.9947 50.5272 -3.7146 -5.6921 13.5780 -29.7598 23.1700 -0.3724 37.7150 -0.5768 -10.9405 -6.1412 -4.4036 1.6352 0.4269 -1.8138 -17.0678 -12.5922 -9.2593 0.3720 34.9599 0.8777 18.2093 -21.2417 0.0855 -1.4345 -0.4580 1.1918
-2.7017 92.4649 -2.0033 0.1710 -1.6150 3.2123 -1.1034 3.8984 0.1802 -0.8450 -3.6571 0.4819 -1.2698 13.8913 -1.6175 -8.5099 19.9680 5.9347 3.0328 -3.9808 13.6488 -1.3726 -7.3112 15.9409 -0.0104 -0.0481 -0.0653 0.6900 -10.5843 -3.8520 -0.7250 -10.5585 3.7587 -7.7627 12.9263 -7.6223 -43.1709 -11.6490 6.2156 1.7470 -0.2099 -107.5018 -3.2538 -20.6752 -10.1480 -15.1248 10.7698 15.5206 -59.9511 1.8321 2.3385 8.5010 15.4296 12.4381 47.0593 11.6499 -2.2928 0.2196 0.8582 96.6698 -19.3401 6.3265 2.1013 15.7026 7.7724 -17.0219 50.5128 -3.7198 -5.6888 13.6158 -29.2605 23.2388 -0.3857 37.0060 -0.6102 -11.1049 -5.7892 -4.3953 1.6359 0.3449 -1.7886 -17.0297 -12.2779 -9.2187 0.3732 34.9836 0.8762 18.0928 -21.4788 -0.1347 -1.4321 -0.3994 1.1891
-3.0501 92.6146 -1.8385 0.4215 -1.6869 3.3595 -0.9927 3.6565 0.1365 -0.8034 -3.7240 0.4282 -1.1544 13.7085 -1.6799 -8.5736 19.8519 5.8973 3.0412 -3.9634 13.4701 -1.2953 -6.9498 15.7351 -0.0089 -0.0513 -0.0684 0.6912 -10.5841 -3.8595 -0.7229 -10.5605 3.7606 -8.1658 12.8987 -7.7121 -42.7923 -11.1447 6.7992 1.8239 -0.1225 -107.5663 -3.5582 -21.6964 -9.9563 -15.1092 10.7728 15.5214 -59.9120 1.8217 2.3468 8.8942 15.3754 12.3952 46.4283 11.9475 -2.3930 0.2115 0.9143 97.0796 -19.0494 5.9642 2.0613 15.6922 7.7593 -17.0330 50.5273 -3.7005 -5.6650 13.5386 -28.6005 23.3506 -0.4015 35.9935 -0.6395 -11.2779 -5.3458 -4.3436 1.6374 0.2282 -1.7681 -17.0317 -11.8611 -9.1409 0.3555 34.7474 0.8678 17.9314 -21.6189 -0.4638 -1.4334 -0.3890 1.1764
-3.4055 92.8186 -1.6468 0.6828 -1.7108 3.5398 -0.8675 3.3976 0.0960 -0.7651 -3.8034 0.3998 -1.0521 13.5229 -1.7385 -8.5916 19.6981 5.8726 3.0358 -3.9479 13.2481 -1.2928 -6.6227 15.4984 -0.0096 -0.0518 -0.0677 0.6912 -10.5848 -3.8637 -0.7238 -10.5607 3.7653 -8.5456 12.9360 -7.7999 -42.5217 -10.6403 7.4135 1.9407 -0.0494 -107.6550 -3.8662 -22.7185 -9.7025 -15.0938 10.7838 15.5167 -59.9060 1.8205 2.3665 9.2961 15.2803 12.3275 45.8134 12.3348 -2.5648 0.1415 0.9554 97.5439 -18.5991 5.7526 1.9912 15.6997 7.7582 -17.0406 50.5529 -3.6564 -5.6626 13.4070 -27.8821 23.4223 -0.4169 34.8138 -0.6589 -11.4798 -4.8432 -4.2357 1.6395 0.1046 -1.7610 -17.0199 -11.3923 -9.0568 0.3318 34.3197 0.8435 17.7192 -21.6582 -0.8608 -1.4368 -0.4169 1.1561
-3.7570 93.0585 -1.4343 0.9177 -1.7246 3.7063 -0.7090 3.1373 0.0749 -0.7283 -3.8901 0.3715 -0.9349 13.3351 -1.7731 -8.6091 19.5468 5.8526 3.0133 -3.9264 13.0490 -1.3573 -6.3015 15.2708 -0.0106 -0.0497 -0.0636 0.6891 -10.5789 -3.8617 -0.7234 -10.5561 3.7712 -8.8966 12.9640 -7.8468 -42.3607 -10.1316 8.1337 2.0477 0.0039 -107.7465 -4.1942 -23.7436 -9.3977 -15.0603 10.8039 15.5287 -59.8621 1.8344 2.3850 9.6953 15.1483 12.2666 45.1970 12.7202 -2.8870 0.1216 1.0341 98.1251 -18.0882 5.4646 1.8921 15.7282 7.7498 -17.0449 50.5738 -3.6526 -5.6617 13.2884 -27.1091 23.5077 -0.4306 33.5136 -0.6733 -11.7504 -4.2998 -4.1468 1.6399 0.0127 -1.7653 -16.9677 -10.8614 -9.0067 0.3087 33.7373 0.8139 17.4586 -21.6157 -1.2136 -1.4400 -0.4271 1.1274
-4.1130 93.2793 -1.2063 1.0822 -1.7434 3.8720 -0.5290 2.8725 0.0616 -0.6888 -3.9803 0.3527 -0.7737 13.1591 -1.7804 -8.6335 19.4050 5.8566 2.9753 -3.9154 12.8702 -1.4275 -5.9698 15.0201 -0.0117 -0.0484 -0.0601 0.6887 -10.5699 -3.8594 -0.7249 -10.5478 3.7757 -9.2304 12.9619 -7.8275 -42.2619 -9.6684 9.0031 2.1213 0.0464 -107.8731 -4.4717 -24.8162 -9.1082 -15.0661 10.8235 15.5488 -59.8823 1.8352 2.4107 10.1040 14.9996 12.2048 44.6235 12.9851 -3.3691 0.1693 1.0943 98.7753 -17.5592 5.1636 1.7857 15.7446 7.7368 -17.0360 50.5598 -3.6552 -5.6768 13.2642 -26.3765 23.5705 -0.4380 32.2602 -0.6820 -12.0633 -3.7531 -4.0565 1.6423 -0.0725 -1.7673 -16.8536 -10.2830 -9.0046 0.2872 33.0825 0.7818 17.2716 -21.5437 -1.5506 -1.4435 -0.4260 1.1100
-4.4679 93.4577 -0.9521 1.1717 -1.7784 4.0513 -0.3380 2.6108 0.0556 -0.6489 -4.0750 0.3299 -0.5844 12.9997 -1.7581 -8.6066 19.2893 5.8707 2.9247 -3.9128 12.6605 -1.5278 -5.6383 14.7819 -0.0121 -0.0475 -0.0568 0.6872 -10.5687 -3.8576 -0.7239 -10.5471 3.7801 -9.4988 12.9658 -7.7745 -42.2646 -9.3474 10.1031 2.0971 0.0124 -108.0645 -4.6794 -25.8033 -8.9053 -15.0838 10.8112 15.5370 -59.8714 1.8273 2.4223 10.5241 14.8748 12.1458 44.1237 13.0830 -3.9617 0.2561 1.1133 99.5428 -17.1436 4.9060 1.6277 15.7202 7.7424 -17.0344 50.5510 -3.6538 -5.6818 13.3478 -25.7538 23.5341 -0.4388 31.1913 -0.6782 -12.3882 -3.2978 -4.0027 1.6448 -0.1417 -1.7666 -16.6728 -9.7094 -9.0596 0.2626 32.4997 0.7393 17.1132 -21.5102 -1.8413 -1.4462 -0.4086 1.1028
-4.8166 93.5954 -0.7134 1.1977 -1.8463 4.2777 -0.1612 2.3566 0.0539 -0.6058 -4.1630 0.3028 -0.3778 12.8481 -1.7314 -8.5149 19.1705 5.8684 2.8748 -3.9086 12.4431 -1.6503 -5.3526 14.5691 -0.0117 -0.0465 -0.0542 0.6879 -10.5691 -3.8590 -0.7237 -10.5494 3.7862 -9.6961 12.9725 -7.6703 -42.3139 -9.1125 11.3009 2.0014 -0.0073 -108.2743 -4.9117 -26.7615 -8.7345 -15.1387 10.7762 15.5572 -59.8421 1.8290 2.4538 10.9240 14.7436 12.0499 43.7562 13.0940 -4.5476 0.3442 1.0961 100.3731 -16.7852 4.5765 1.4578 15.6754 7.7157 -17.0171 50.5000 -3.6623 -5.6860 13.5444 -25.2337 23.3815 -0.4303 30.3291 -0.6613 -12.7248 -2.9115 -3.9662 1.6460 -0.1909 -1.7507 -16.4492 -9.1301 -9.1762 0.2416 32.0097 0.7037 16.9790 -21.4779 -2.1154 -1.4488 -0.3897 1.1199
-5.1449 93.6717 -0.4280 1.1580 -1.9710 4.5486 0.0106 2.1195 0.0605 -0.5696 -4.2426 0.2454 -0.1605 12.7136 -1.6885 -8.3483 19.0521 5.8395 2.8306 -3.8904 12.2642 -1.7745 -5.0893 14.3957 -0.0097 -0.0428 -0.0563 0.6958 -10.5745 -3.8658 -0.7276 -10.5546 3.7889 -9.8030 12.9728 -7.5386 -42.3576 -8.8170 12.4483 1.9008 -0.0632 -108.5058 -5.1471 -27.5526 -8.5058 -15.1851 10.7559 15.5485 -59.8644 1.8235 2.4581 11.3128 14.6453 11.9271 43.5309 13.0700 -5.0225 0.3972 1.0278 101.2192 -16.4568 4.2238 1.3483 15.5709 7.6824 -16.9889 50.4402 -3.6781 -5.6750 13.8531 -24.8182 23.1071 -0.4277 29.7448 -0.6559 -13.0224 -2.6524 -3.9144 1.6453 -0.2444 -1.7441 -16.1731 -8.5235 -9.3060 0.2153 31.6524 0.6565 16.8757 -21.5243 -2.4019 -1.4496 -0.3183 1.1388
-5.4543 93.6952 -0.1326 1.0742 -2.1606 4.8417 0.1771 1.8720 0.0649 -0.5408 -4.3182 0.2111 0.0461 12.5937 -1.6624 -8.1498 18.9837 5.7698 2.7945 -3.8745 12.1067 -1.8305 -4.8433 14.2449 -0.0086 -0.0401 -0.0597 0.7049 -10.5815 -3.8731 -0.7344 -10.5598 3.7892 -9.9360 12.9755 -7.3789 -42.3472 -8.4557 13.4520 1.7915 -0.1126 -108.7564 -5.3761 -28.2309 -8.2027 -15.2216 10.7861 15.5875 -59.9353 1.8268 2.4669 11.6906 14.5784 11.7778 43.4233 13.1499 -5.3007 0.3633 0.9989 102.0058 -16.1252 3.9255 1.2850 15.4609 7.6564 -16.9347 50.3732 -3.6860 -5.6472 14.2448 -24.4249 22.6506 -0.4182 29.4029 -0.6478 -13.2910 -2.5436 -3.7613 1.6416 -0.2898 -1.7438 -15.8799 -7.8379 -9.4395 0.1983 31.3382 0.6399 16.7937 -21.6121 -2.7685 -1.4493 -0.2455 1.1570
-5.6773 93.7073 0.1996 0.9722 -2.4049 5.0726 0.3605 1.6042 0.0752 -0.5045 -4.4037 0.2104 0.1964 12.4950 -1.6530 -7.9756 18.9382 5.7043 2.7659 -3.8533 12.0142 -1.7730 -4.5633 14.1048 -0.0137 -0.0454 -0.0481 0.7082 -10.5964 -3.8627 -0.7481 -10.5725 3.8038 -10.2574 13.0037 -7.1776 -42.2433 -8.0003 14.2586 1.7586 -0.1601 -109.1722 -5.5865 -28.6268 -7.8590 -15.2514 10.8131 15.5879 -60.0691 1.8397 2.4476 11.9884 14.5818 11.6598 43.4253 13.3704 -5.4390 0.3196 1.0207 102.6480 -15.9115 3.8101 1.2454 15.3746 7.6665 -16.9103 50.3281 -3.6825 -5.6258 14.6732 -23.9769 22.1539 -0.4126 29.2059 -0.6501 -13.4913 -2.5852 -3.5043 1.6382 -0.3600 -1.7462 -15.6234 -6.9842 -9.4918 0.1792 30.8968 0.6337 16.7098 -21.7115 -3.1427 -1.4482 -0.2024 1.1609
-5.8046 93.7476 0.5723 0.8965 -2.6667 5.2372 0.5600 1.3022 0.0622 -0.4690 -4.4806 0.2517 0.2479 12.3755 -1.6402 -7.8673 18.8677 5.6407 2.7571 -3.8311 11.9868 -1.6007 -4.2046 13.9720 -0.0228 -0.0541 -0.0265 0.7034 -10.6000 -3.8418 -0.7617 -10.5765 3.8306 -10.8162 13.0333 -6.9087 -42.1324 -7.5769 14.9017 1.6199 -0.0754 -109.8342 -5.7697 -28.8826 -7.4767 -15.2478 10.8412 15.5918 -60.1052 1.8722 2.4261 12.1240 14.5889 11.5793 43.6038 13.7602 -5.4998 0.3225 1.1524 103.1641 -15.7455 3.7372 1.1716 15.3199 7.6669 -16.9053 50.2667 -3.6902 -5.6280 15.0221 -23.4044 21.6873 -0.3932 29.0296 -0.6357 -13.5838 -2.7444 -3.1758 1.6352 -0.4756 -1.7489 -15.4755 -5.9963 -9.4848 0.1640 30.2039 0.6358 16.6780 -21.6739 -3.4752 -1.4460 -0.2150 1.1585
-5.8078 93.8201 0.9927 0.8623 -2.9134 5.2647 0.7680 0.9910 0.0674 -0.4266 -4.5727 0.2895 0.1970 12.2065 -1.5872 -7.8354 18.7962 5.6099 2.7728 -3.8139 12.0205 -1.4103 -3.8260 13.8302 -0.0308 -0.0572 -0.0094 0.6961 -10.5928 -3.8232 -0.7706 -10.5708 3.8497 -11.5731 13.0125 -6.5968 -41.9648 -7.0294 15.4894 1.5012 0.0393 -110.8777 -5.9854 -29.2391 -7.0969 -15.2402 10.8412 15.5776 -60.0192 1.8915 2.3933 12.1340 14.5912 11.5251 43.8117 14.3533 -5.6011 0.3395 1.2242 103.7640 -15.5636 3.5662 1.2292 15.2685 7.6570 -16.9064 50.2425 -3.6873 -5.6334 15.2741 -22.7241 21.3002 -0.3817 28.8696 -0.6255 -13.5798 -3.0293 -2.7704 1.6356 -0.5867 -1.7527 -15.4515 -4.9115 -9.3943 0.1494 29.2715 0.6217 16.7512 -21.5494 -3.7256 -1.4421 -0.2095 1.1408
-5.6812 93.9157 1.4496 0.8240 -3.1266 5.1781 0.9861 0.6788 0.0570 -0.3747 -4.6631 0.3610 0.0983 11.9898 -1.4832 -7.8922 18.7030 5.6108 2.8051 -3.8002 12.0468 -1.2086 -3.4749 13.6967 -0.0363 -0.0518 0.0004 0.6898 -10.5719 -3.8115 -0.7753 -10.5505 3.8598 -12.5475 12.9438 -6.2329 -41.6245 -6.4432 16.0261 1.4174 0.1785 -112.2019 -6.3269 -29.9836 -6.6916 -15.2101 10.8600 15.6069 -59.9673 1.8863 2.3881 12.0755 14.5617 11.5094 44.0112 15.1120 -5.6539 0.2284 1.2565 104.4113 -15.3652 3.3137 1.4771 15.2289 7.6625 -16.9001 50.2466 -3.6511 -5.6550 15.4575 -21.9917 21.0280 -0.3718 28.6953 -0.6215 -13.5879 -3.3872 -2.2869 1.6394 -0.6584 -1.7613 -15.5010 -3.7686 -9.2724 0.1291 28.0801 0.6002 16.8747 -21.2981 -3.8742 -1.4400 -0.2001 1.1134
-5.4644 94.0260 1.9158 0.7542 -3.2899 4.9185 1.2102 0.3635 0.0565 -0.3284 -4.7611 0.4820 -0.0156 11.7859 -1.3444 -8.0063 18.5934 5.6538 2.8380 -3.7995 12.0757 -1.0255 -3.1361 13.5810 -0.0385 -0.0452 0.0043 0.6849 -10.5592 -3.8071 -0.7748 -10.5396 3.8640 -13.6518 12.8491 -5.8333 -40.9594 -5.8743 16.5677 1.3909 0.2961 -113.6661 -6.8077 -31.0793 -6.2273 -15.1870 10.8541 15.6302 -59.8739 1.8822 2.4012 12.0984 14.5367 11.5692 43.9754 15.8560 -5.6650 0.0633 1.1951 105.0740 -15.2366 3.0636 1.8295 15.1593 7.6707 -16.8826 50.2216 -3.6355 -5.6525 15.6196 -21.3022 20.9417 -0.3607 28.5686 -0.6043 -13.5903 -3.7777 -1.8110 1.6397 -0.7495 -1.7643 -15.5827 -2.6111 -9.1220 0.0994 26.6459 0.5798 17.0406 -20.8981 -3.8915 -1.4396 -0.2163 1.0905
-5.1365 94.1544 2.3803 0.6637 -3.4187 4.4629 1.4252 0.0630 0.0779 -0.2852 -4.8674 0.6297 -0.1429 11.6182 -1.1620 -8.1718 18.4757 5.7192 2.8587 -3.8000 12.1282 -0.8943 -2.7812 13.4921 -0.0381 -0.0399 0.0083 0.6808 -10.5379 -3.8011 -0.7701 -10.5233 3.8673 -14.7211 12.7683 -5.4088 -40.0400 -5.4222 17.1780 1.4199 0.3984 -115.0631 -7.3296 -32.4912 -5.7422 -15.2111 10.8250 15.6494 -59.8026 1.9084 2.4114 12.1547 14.4607 11.7089 43.7312 16.4885 -5.5517 -0.0251 1.1206 105.6541 -15.1139 2.7359 2.2822 15.1487 7.6743 -16.8479 50.2422 -3.5870 -5.6326 15.7562 -20.6629 21.0394 -0.3572 28.5657 -0.6013 -13.5670 -4.2403 -1.3362 1.6414 -0.8403 -1.7729 -15.7140 -1.4842 -8.8864 0.0698 25.0811 0.5385 17.2842 -20.3490 -3.7928 -1.4418 -0.2637 1.0706
-4.6880 94.2614 2.8045 0.5362 -3.5132 3.8084 1.6214 -0.1689 0.1106 -0.2514 -4.9444 0.8010 -0.2471 11.4721 -0.9645 -8.4153 18.3333 5.7956 2.8708 -3.8090 12.2296 -0.8246 -2.4423 13.4848 -0.0366 -0.0348 0.0137 0.6783 -10.5280 -3.7955 -0.7648 -10.5162 3.8710 -15.5669 12.6743 -4.9849 -38.9378 -5.1959 17.9691 1.4721 0.4390 -116.1867 -7.8754 -34.3091 -5.2954 -15.2825 10.7680 15.6526 -59.7552 1.9215 2.4156 12.1195 14.3321 11.9132 43.4226 16.9798 -5.1005 -0.0678 1.0471 106.0569 -14.9400 2.2243 2.8473 15.1551 7.6456 -16.8148 50.2861 -3.5835 -5.6045 15.8863 -20.1577 21.2907 -0.3537 28.7799 -0.5863 -13.5536 -4.7837 -0.9198 1.6412 -0.8813 -1.7811 -15.8689 -0.5126 -8.5585 0.0497 23.5718 0.4973 17.6097 -19.7271 -3.6047 -1.4427 -0.3235 1.0565
-4.1310 94.3116 3.1421 0.3438 -3.5611 2.9216 1.7991 -0.2868 0.1572 -0.2253 -4.9824 0.9646 -0.3056 11.3622 -0.7408 -8.7613 18.1194 5.8783 2.8918 -3.8217 12.3855 -0.8154 -2.2007 13.5632 -0.0349 -0.0300 0.0178 0.6809 -10.5286 -3.7927 -0.7647 -10.5160 3.8761 -16.1285 12.5573 -4.5850 -37.6807 -5.2295 18.9169 1.5845 0.4267 -116.9077 -8.4350 -36.7709 -4.8829 -15.3952 10.7411 15.6851 -59.7103 1.9237 2.4176 11.9344 14.1987 12.2194 43.1328 17.2087 -4.2755 -0.0397 0.9748 106.2864 -14.7051 1.4481 3.4817 15.1837 7.6175 -16.7819 50.3461 -3.5565 -5.5754 16.0493 -19.8704 21.6608 -0.3467 29.2893 -0.5664 -13.5618 -5.3828 -0.4672 1.6397 -0.8749 -1.7943 -16.0383 0.1702 -8.1223 0.0361 22.2970 0.4717 17.9954 -19.0737 -3.2896 -1.4445 -0.3607 1.0550
-3.4826 94.3192 3.3623 0.1039 -3.5108 1.7756 1.9198 -0.2538 0.2343 -0.2042 -4.9765 1.1007 -0.3065 11.3017 -0.5336 -9.1982 17.7033 5.9825 2.9554 -3.8365 12.5372 -0.8591 -2.1557 13.7843 -0.0321 -0.0300 0.0129 0.6907 -10.5586 -3.8024 -0.7697 -10.5402 3.8756 -16.3518 12.4110 -4.2347 -36.3900 -5.5609 19.9618 1.8420 0.4111 -117.1131 -9.0446 -39.6225 -4.5274 -15.4528 10.7101 15.6976 -59.7208 1.9106 2.4120 11.5497 14.0723 12.6226 42.9665 17.1671 -3.0300 -0.0462 0.8387 106.4255 -14.4248 0.6969 4.0426 15.1726 7.5937 -16.7427 50.4080 -3.5553 -5.5370 16.1723 -19.8791 22.1039 -0.3323 30.1449 -0.5346 -13.5412 -6.0390 0.0751 1.6330 -0.8111 -1.8069 -16.2278 0.4029 -7.5785 0.0392 21.3732 0.4673 18.3938 -18.4232 -2.8012 -1.4446 -0.4108 1.0634
-2.7189 94.2666 3.4505 -0.1720 -3.2990 0.4414 1.9449 -0.0450 0.2954 -0.1992 -4.9158 1.2313 -0.2644 11.2604 -0.3383 -9.6952 16.9374 6.0496 3.0706 -3.8540 12.7686 -0.9203 -2.4318 14.1432 -0.0288 -0.0339 0.0030 0.7092 -10.5906 -3.8181 -0.7824 -10.5635 3.8719 -16.2057 12.2167 -3.9731 -35.1858 -6.2772 21.1067 2.1603 0.3890 -116.7372 -9.6661 -42.5231 -4.3383 -15.4580 10.7105 15.7197 -59.7963 1.9002 2.4123 10.9635 13.9086 13.0316 43.0574 16.8216 -1.5466 -0.0499 0.6908 106.5203 -14.0741 -0.1336 4.5361 15.1752 7.5915 -16.7102 50.4343 -3.5480 -5.5173 16.1861 -20.2473 22.6817 -0.2968 31.2689 -0.4948 -13.4074 -6.7590 0.6436 1.6263 -0.7325 -1.8299 -16.4706 0.1426 -7.0113 0.0565 20.7130 0.4890 18.8491 -17.7480 -2.1178 -1.4424 -0.4887 1.0654
-1.8464 94.2068 3.3454 -0.4959 -2.7792 -0.9901 1.8519 0.3511 0.3582 -0.2174 -4.8038 1.3475 -0.2620 11.2001 -0.2057 -10.1736 15.7201 6.0725 3.2187 -3.8868 13.0867 -1.0300 -3.1174 14.6730 -0.0266 -0.0416 0.0013 0.7319 -10.6267 -3.8278 -0.8013 -10.5947 3.8787 -15.5805 11.8691 -3.8847 -34.2048 -7.4377 22.5729 2.4712 0.3504 -115.7224 -10.1148 -45.6322 -4.4812 -15.4615 10.7529 15.7573 -59.9213 1.9038 2.3990 10.1824 13.6192 13.4124 43.5648 16.2598 0.0620 -0.0591 0.6186 106.6492 -13.7538 -1.2417 4.9499 15.2141 7.5993 -16.6951 50.4408 -3.5666 -5.4734 15.9743 -21.1605 23.4230 -0.2685 32.6105 -0.4850 -13.0545 -7.5261 1.2511 1.6225 -0.6997 -1.8470 -16.6926 -0.7286 -6.4626 0.0791 20.2018 0.5375 19.3039 -16.9836 -1.3035 -1.4369 -0.6318 1.0661
-0.9162 94.1858 3.0817 -0.8361 -1.8391 -2.4325 1.5923 0.8856 0.4097 -0.2891 -4.6483 1.4825 -0.3927 11.0680 -0.1657 -10.5376 14.0918 6.0801 3.3497 -3.9233 13.5105 -1.1986 -4.3314 15.3409 -0.0241 -0.0534 0.0087 0.7494 -10.6447 -3.8250 -0.8140 -10.6076 3.8915 -14.4336 11.3415 -4.0764 -33.4929 -9.1860 24.5265 2.6733 0.3073 -113.9116 -10.1488 -49.5916 -5.1195 -15.4442 10.8334 15.8463 -59.8490 1.9297 2.4109 9.3394 13.2458 13.7230 44.5499 15.3986 1.6009 0.0827 0.5776 106.8138 -13.5067 -2.4975 5.2883 15.2708 7.5813 -16.7069 50.4030 -3.5948 -5.4295 15.4504 -22.6202 24.4029 -0.2649 33.8732 -0.5195 -12.6401 -8.1465 1.7612 1.6278 -0.6989 -1.8423 -16.8679 -2.1740 -5.9692 0.0965 19.5609 0.5923 19.7871 -16.0446 -0.4264 -1.4315 -0.7685 1.0657
0.0378 94.2581 2.6581 -1.1843 -0.4895 -3.7864 1.1249 1.4887 0.4641 -0.4291 -4.4491 1.5914 -0.6803 10.8523 -0.2202 -10.8027 12.3707 6.1655 3.4324 -3.9648 13.9439 -1.4516 -5.9590 15.9351 -0.0186 -0.0526 0.0134 0.7619 -10.6691 -3.8271 -0.8150 -10.6245 3.9028 -12.6814 10.7049 -4.5670 -32.8450 -11.4224 26.6225 2.9387 0.2332 -110.8822 -9.6143 -54.3656 -6.1839 -15.4582 10.9072 15.9245 -59.6134 1.9571 2.4512 8.4015 12.8537 13.9584 46.0785 14.2938 3.1012 0.2690 0.4962 107.0707 -13.4205 -3.6240 5.6876 15.3744 7.5578 -16.7086 50.3853 -3.6421 -5.4210 14.5835 -24.5602 25.6510 -0.3043 34.9166 -0.5986 -12.2614 -8.5138 2.0442 1.6345 -0.6872 -1.8363 -16.9518 -4.0691 -5.6248 0.1001 18.6467 0.6254 20.3538 -14.9125 0.4294 -1.4297 -0.9294 1.0685
0.9901 94.3717 2.1312 -1.7102 1.0779 -5.0525 0.5062 2.0978 0.5107 -0.6271 -4.2356 1.6406 -1.0013 10.6060 -0.2571 -11.0604 10.9510 6.3022 3.4779 -4.0095 14.2663 -1.7399 -7.5427 16.3581 -0.0106 -0.0380 0.0034 0.7699 -10.6808 -3.8430 -0.8069 -10.6321 3.8954 -10.4691 10.1117 -5.2833 -31.7104 -14.2346 28.1605 3.1646 0.1002 -106.0869 -8.8353 -58.5782 -7.2927 -15.5277 10.9754 15.9270 -59.4945 1.9754 2.5081 7.4216 12.4437 14.0309 47.8758 13.1859 4.8473 0.4401 0.3096 107.3188 -13.5229 -4.4562 6.3026 15.5096 7.5530 -16.7227 50.3842 -3.6721 -5.5035 13.6991 -26.9133 27.0933 -0.3738 35.8778 -0.7006 -12.0108 -8.7218 2.0708 1.6422 -0.6398 -1.8525 -16.7777 -6.1667 -5.4270 0.1018 17.5151 0.6224 20.9689 -13.6002 1.2469 -1.4319 -1.1142 1.0596
1.8454 94.4442 1.5382 -2.5541 2.6196 -6.2717 -0.1385 2.6559 0.5298 -0.8723 -4.0249 1.6273 -1.2969 10.4049 -0.3272 -11.3111 10.0968 6.4548 3.4891 -4.0465 14.5081 -2.0138 -8.7201 16.6604 -0.0046 -0.0146 -0.0139 0.7702 -10.6990 -3.8640 -0.7952 -10.6505 3.8765 -8.0525 9.6164 -6.1739 -29.4989 -17.4529 28.6313 3.2838 -0.1930 -99.3224 -8.3766 -61.3538 -7.9822 -15.6461 11.0798 15.8930 -59.6376 2.0279 2.5578 6.5910 12.0277 13.9059 49.3933 12.2376 6.9249 0.6653 0.0543 107.7071 -13.6972 -5.4023 7.1080 15.6051 7.5660 -16.7556 50.3615 -3.6746 -5.6238 13.1614 -29.5542 28.4474 -0.4360 36.9717 -0.7778 -11.8778 -8.9760 1.8362 1.6443 -0.4994 -1.8723 -16.1387 -8.2746 -5.2919 0.1000 16.5352 0.5940 21.4962 -12.2258 1.8314 -1.4349 -1.2688 1.0526
2.5977 94.4296 0.9962 -3.6685 3.8916 -7.4104 -0.8045 3.1562 0.5362 -1.1550 -3.8356 1.5141 -1.5993 10.3137 -0.5054 -11.4777 9.8571 6.6526 3.4583 -4.0851 14.6948 -2.1660 -9.4660 16.8517 -0.0015 0.0071 -0.0289 0.7650 -10.7172 -3.8771 -0.7843 -10.6696 3.8552 -5.5443 9.1794 -7.2560 -25.9209 -20.7418 27.8223 3.1645 -0.6697 -90.7314 -8.5060 -62.8975 -8.0447 -15.7745 11.1727 15.7595 -59.7617 2.1026 2.5612 6.0266 11.6256 13.5736 50.4226 11.5429 9.3231 0.8546 -0.1705 108.1511 -13.8370 -6.4366 7.8744 15.6572 7.5495 -16.7593 50.3047 -3.6503 -5.7018 13.1099 -32.2071 29.4929 -0.4899 38.2224 -0.8468 -11.7370 -9.3428 1.4652 1.6428 -0.3168 -1.8804 -15.1527 -10.2142 -5.0900 0.1060 16.0469 0.6085 21.8673 -10.9982 2.1211 -1.4343 -1.3584 1.0716
3.2499 94.3389 0.5054 -4.9168 4.8162 -8.4353 -1.5569 3.6051 0.5150 -1.4572 -3.6481 1.3153 -1.9533 10.3285 -0.8169 -11.4649 9.9432 6.8720 3.4094 -4.0877 14.8412 -2.1540 -9.8781 16.9633 0.0004 0.0197 -0.0381 0.7608 -10.7162 -3.8804 -0.7773 -10.6717 3.8400 -2.9293 8.8163 -8.5537 -21.1084 -23.7513 25.6549 2.7354 -1.1288 -80.6161 -9.2086 -63.0230 -7.6066 -15.9071 11.1836 15.4722 -59.8951 2.2135 2.4919 5.8399 11.2134 13.1043 50.9190 11.1273 11.6924 1.0196 -0.2483 108.5722 -14.0587 -7.6393 8.5161 15.6587 7.5632 -16.7308 50.2776 -3.6120 -5.6910 13.4873 -34.6926 30.1912 -0.5436 39.5883 -0.9240 -11.5633 -9.7878 1.1481 1.6410 -0.1526 -1.8834 -14.0046 -11.9251 -4.7549 0.1251 16.1442 0.7087 21.9473 -10.0396 2.2516 -1.4322 -1.4707 1.1046
3.8020 94.1628 0.0791 -6.2412 5.4020 -9.2322 -2.3702 4.0167 0.4207 -1.7582 -3.4472 1.0501 -2.3307 10.3632 -1.2856 -11.2116 10.1213 7.1198 3.3481 -4.0612 14.9658 -2.0039 -10.1105 17.1054 0.0014 0.0211 -0.0492 0.7489 -10.7104 -3.8858 -0.7627 -10.6747 3.8188 -0.0821 8.6199 -9.9832 -15.7642 -26.3359 22.4585 1.8946 -1.5594 -69.9119 -10.3650 -62.0689 -6.7452 -15.9874 11.0974 15.1820 -59.9816 2.3190 2.4289 5.9945 10.7891 12.5566 50.9941 11.0868 13.7597 1.1328 -0.0939 109.0603 -14.3421 -8.9482 8.9047 15.6637 7.6352 -16.7526 50.3259 -3.5892 -5.6835 14.2937 -37.0247 30.3849 -0.5753 41.1873 -0.9784 -11.4183 -10.3219 0.8778 1.6487 -0.0414 -1.8725 -12.7751 -13.3580 -4.3429 0.1469 16.7653 0.8575 21.8482 -9.5208 2.3339 -1.4293 -1.5522 1.1171
4.2593 93.8570 -0.2666 -7.6444 5.7098 -9.8779 -3.2037 4.4306 0.3184 -2.0166 -3.2442 0.7240 -2.6687 10.3459 -1.8715 -10.8015 10.2302 7.2951 3.2973 -4.0574 15.1585 -1.6664 -10.2577 17.0978 0.0081 0.0149 -0.0681 0.7398 -10.7002 -3.9029 -0.7393 -10.6718 3.7939 2.9598 8.5792 -11.5396 -10.5346 -28.7800 18.8460 0.5336 -1.9537 -59.6443 -11.8788 -61.1424 -5.5009 -16.0632 10.9492 15.0275 -59.9413 2.3467 2.4120 6.5359 10.3488 11.9351 50.6279 11.3661 15.3790 1.1257 0.2006 109.8032 -14.5865 -10.6596 9.1963 15.6929 7.6457 -16.7719 50.3863 -3.6159 -5.6833 15.5702 -39.2965 30.0587 -0.6317 43.1473 -1.0728 -11.3475 -10.9800 0.6438 1.6547 0.0639 -1.8482 -11.5199 -14.5842 -3.8445 0.1654 17.8357 0.9901 21.7403 -9.3979 2.4584 -1.4269 -1.5809 1.1393
4.6885 93.4039 -0.5637 -9.0353 5.8094 -10.4227 -4.0041 4.8809 0.2214 -2.2212 -3.0375 0.3627 -2.9040 10.2703 -2.5130 -10.3374 10.1616 7.3856 3.2875 -4.0973 15.3742 -1.2486 -10.3880 17.0387 0.0220 0.0030 -0.0982 0.7351 -10.7060 -3.9385 -0.7053 -10.6843 3.7622 6.0391 8.6191 -13.0764 -6.0337 -31.3319 15.2059 -0.9476 -2.1123 -50.7521 -13.5743 -60.4206 -3.8635 -16.1666 10.8118 15.0574 -59.9572 2.3112 2.4376 7.3503 10.0171 11.2974 49.8918 11.6777 16.3839 0.9123 0.3405 110.7821 -14.6477 -12.4448 9.4535 15.7644 7.6030 -16.7966 50.3584 -3.6760 -5.7100 17.2155 -41.4847 29.1587 -0.6977 45.5116 -1.1613 -11.3906 -11.7586 0.5854 1.6593 0.1173 -1.8232 -10.3627 -15.7619 -3.3177 0.1870 19.3512 1.0757 21.7511 -9.5839 2.7132 -1.4279 -1.5750 1.1634
5.1175 92.8160 -0.8257 -10.3000 5.7132 -11.0216 -4.7123 5.3563 0.1446 -2.3920 -2.8445 0.0172 -3.0217 10.1924 -3.0879 -9.9336 9.9324 7.4367 3.3633 -4.1456 15.4595 -0.8439 -10.6527 17.0279 0.0438 -0.0097 -0.1354 0.7453 -10.7112 -3.9843 -0.6703 -10.6972 3.7235 8.8694 8.6973 -14.4962 -2.5639 -33.6152 11.8173 -1.9076 -1.9488 -43.7106 -14.8666 -59.5986 -2.2770 -16.3261 10.6550 15.1310 -60.1198 2.2700 2.4742 8.2450 9.8647 10.7251 48.9195 11.6462 16.7239 0.6195 0.3301 111.6377 -14.6593 -13.8705 9.5054 15.7865 7.5298 -16.8154 50.2815 -3.7184 -5.7614 19.0741 -43.4128 27.8265 -0.7695 48.1649 -1.2454 -11.5659 -12.6892 0.8515 1.6606 0.2058 -1.8156 -9.4228 -17.0373 -2.8622 0.2290 21.3659 1.1347 21.8765 -10.0338 3.2183 -1.4325 -1.5448 1.1785
5.5343 92.1012 -1.0487 -11.3867 5.4299 -11.7435 -5.2706 5.8443 0.0748 -2.5396 -2.6694 -0.2619 -3.0440 10.1788 -3.5703 -9.6745 9.5912 7.4617 3.5150 -4.1796 15.4026 -0.5356 -11.0102 17.0903 0.0641 -0.0299 -0.1630 0.7625 -10.7207 -4.0196 -0.6454 -10.7118 3.6936 11.1472 8.7731 -15.6501 -0.1352 -35.4510 9.0302 -2.0814 -1.6057 -39.0221 -15.4956 -59.0424 -1.0657 -16.4523 10.5378 15.2325 -60.3273 2.2577 2.5175 8.9957 9.7499 10.3227 47.9800 11.1654 16.4028 0.3272 0.2615 112.1908 -14.8360 -14.6408 9.2735 15.7950 7.4851 -16.8263 50.2031 -3.7463 -5.8100 21.1063 -44.9942 26.0927 -0.8279 51.0130 -1.2924 -11.8641 -13.7056 1.5300 1.6585 0.3456 -1.8319 -8.7139 -18.4089 -2.5006 0.3150 23.8021 1.2514 22.0510 -10.8215 3.8315 -1.4355 -1.4695 1.1761
5.9654 91.3331 -1.2544 -12.2508 5.0562 -12.6549 -5.6737 6.2530 0.0448 -2.6490 -2.5162 -0.4477 -3.0523 10.2306 -3.9489 -9.6708 9.1833 7.5047 3.6709 -4.2210 15.3199 -0.2866 -11.2987 17.1945 0.0868 -0.0551 -0.1899 0.7824 -10.7190 -4.0499 -0.6194 -10.7101 3.6607 12.5522 8.7464 -16.4223 1.4562 -36.8892 7.0987 -1.8621 -1.3447 -37.3202 -15.1003 -58.6724 -0.7186 -16.6188 10.4624 15.3412 -60.5649 2.2305 2.5236 9.6874 9.7155 10.1227 47.1543 10.3136 15.6134 0.0658 0.1805 112.4557 -15.2505 -14.8718 8.8349 15.7244 7.3985 -16.7688 50.0291 -3.7726 -5.8088 23.0356 -46.2279 24.3782 -0.8705 53.8091 -1.3209 -12.2456 -14.6814 2.4544 1.6557 0.5178 -1.8678 -8.2521 -19.8511 -2.0220 0.4188 26.4211 1.3603 22.1935 -11.7600 4.3793 -1.4396 -1.3966 1.1610
6.3575 90.6390 -1.4288 -12.8818 4.6574 -13.6250 -5.9626 6.5817 0.0536 -2.6939 -2.3864 -0.5838 -3.1198 10.3557 -4.2210 -9.9016 8.7741 7.5815 3.7788 -4.2597 15.3014 -0.1444 -11.4500 17.3491 0.1056 -0.0779 -0.2068 0.8030 -10.7257 -4.0705 -0.6026 -10.7113 3.6408 13.1385 8.6659 -16.8155 2.5041 -37.7881 6.0776 -1.7555 -1.2713 -38.3736 -13.7359 -58.1466 -1.4497 -16.7262 10.4098 15.4439 -60.7423 2.1970 2.4999 10.2533 9.7920 10.1104 46.6693 9.2747 14.5534 -0.0929 0.0348 112.6200 -15.9067 -14.5973 8.2809 15.6849 7.3144 -16.6860 49.8669 -3.7719 -5.7934 24.6919 -47.1547 22.9619 -0.9159 56.3102 -1.3694 -12.6623 -15.4692 3.4121 1.6512 0.7138 -1.8821 -7.9632 -21.2309 -1.4882 0.5048 28.9195 1.4443 22.2780 -12.6686 4.9479 -1.4438 -1.3158 1.1330
6.6536 90.0329 -1.5747 -13.3235 4.3216 -14.4853 -6.1601 6.8035 0.0371 -2.7287 -2.2681 -0.6142 -3.2130 10.5202 -4.4365 -10.3581 8.4927 7.7297 3.8598 -4.2746 15.2140 -0.1172 -11.5375 17.5859 0.1156 -0.0949 -0.2042 0.8184 -10.7300 -4.0756 -0.5979 -10.7137 3.6453 13.1700 8.6628 -16.8691 3.1907 -37.9820 6.0050 -1.8347 -1.3701 -41.2026 -12.2086 -57.4180 -2.6364 -16.7303 10.3358 15.5131 -60.8137 2.1737 2.4865 10.5887 9.8844 10.1386 46.7448 8.5216 13.4983 -0.1363 0.0739 112.8640 -16.6370 -14.1986 7.7116 15.6151 7.2220 -16.5959 49.7711 -3.7976 -5.7778 25.9891 -47.8042 21.9093 -0.9216 58.2346 -1.3733 -13.0178 -16.0955 4.2076 1.6428 0.9135 -1.8930 -7.8119 -22.4006 -1.0497 0.5720 31.0098 1.5172 22.3484 -13.4886 5.3579 -1.4400 -1.2731 1.0966
6.8485 89.5847 -1.6757 -13.6335 4.0733 -15.1407 -6.2649 6.9737 0.0181 -2.7464 -2.1635 -0.5753 -3.3062 10.7042 -4.5731 -10.9973 8.3729 7.9811 3.8809 -4.2728 15.1147 -0.1960 -11.5229 17.7427 0.1272 -0.1036 -0.1992 0.8381 -10.7349 -4.0777 -0.5939 -10.7145 3.6518 12.9665 8.7241 -16.5762 3.3374 -37.9985 6.8166 -2.0508 -1.5405 -45.0571 -10.6687 -56.6928 -3.8086 -16.6863 10.2385 15.4955 -60.7416 2.1460 2.4734 10.7442 10.0744 10.0978 47.1386 8.3847 12.6518 0.0076 0.2491 113.3904 -17.3117 -14.0980 7.5515 15.5970 7.1516 -16.5099 49.7772 -3.8509 -5.7644 26.9893 -48.2201 21.1044 -0.9633 59.5593 -1.4331 -13.2343 -16.5404 4.7843 1.6338 1.1242 -1.8836 -7.6734 -23.3233 -0.8647 0.6403 32.6291 1.5854 22.4851 -14.0650 5.8115 -1.4326 -1.2773 1.0691
6.9004 89.2577 -1.7604 -13.8042 3.9151 -15.6034 -6.3026 7.1273 -0.0145 -2.7424 -2.0845 -0.5357 -3.3517 10.8642 -4.5818 -11.6851 8.4445 8.2889 3.8125 -4.2613 15.0812 -0.3929 -11.3481 17.7799 0.1303 -0.1060 -0.1841 0.8502 -10.7335 -4.0644 -0.6010 -10.7048 3.6673 12.8110 8.7536 -16.0383 2.5319 -37.9361 8.7237 -2.1733 -1.8092 -49.8007 -8.8095 -55.7330 -5.0802 -16.5963 10.1765 15.4413 -60.7363 2.1060 2.4474 10.7881 10.3060 9.9313 47.6675 9.0568 12.2350 0.2333 0.5037 114.3443 -17.6959 -14.2158 7.6996 15.6715 7.0988 -16.5065 49.8591 -3.8818 -5.7847 27.6424 -48.4480 20.6033 -1.0059 60.3081 -1.4819 -13.3262 -16.8707 5.1412 1.6285 1.3492 -1.8555 -7.5592 -24.0361 -0.8726 0.7015 33.8312 1.6368 22.6078 -14.5253 6.2046 -1.4283 -1.2132 1.0544
6.8243 89.0244 -1.8196 -13.8181 3.8737 -15.8937 -6.3059 7.2737 -0.0491 -2.7153 -2.0371 -0.5059 -3.3382 10.9608 -4.4586 -12.2729 8.6721 8.5325 3.6935 -4.2379 15.0781 -0.6680 -11.1394 17.7928 0.1246 -0.1030 -0.1659 0.8541 -10.7410 -4.0497 -0.6176 -10.7095 3.6912 12.7711 8.8241 -15.3893 0.8127 -37.7207 11.6118 -2.0268 -2.0209 -55.1971 -6.5552 -54.3897 -6.5920 -16.4623 10.1484 15.3739 -60.7480 2.0734 2.4098 10.7774 10.5499 9.6470 48.1983 10.2947 12.2701 0.4970 0.7192 115.5570 -17.7745 -14.0884 7.7883 15.7596 7.0951 -16.5499 49.9123 -3.9118 -5.8107 27.9363 -48.5828 20.4034 -1.0462 60.6469 -1.5414 -13.3469 -17.1862 5.4185 1.6236 1.5737 -1.8146 -7.5120 -24.5868 -0.9724 0.7297 34.6859 1.6393 22.6107 -15.0254 6.4733 -1.4250 -1.0942 1.0631
6.6510 88.8965 -1.8955 -13.6963 3.8943 -16.0846 -6.2682 7.3909 -0.0795 -2.6964 -1.9968 -0.4318 -3.2429 10.9809 -4.2645 -12.7113 8.9786 8.6749 3.6111 -4.2279 15.0173 -0.9797 -10.9179 17.8381 0.1150 -0.1010 -0.1591 0.8485 -10.7417 -4.0439 -0.6302 -10.7106 3.6994 12.7339 8.8058 -14.6885 -1.4711 -37.4047 14.9915 -1.5844 -2.1071 -60.8983 -3.7923 -52.3658 -8.4338 -16.3079 10.1495 15.3039 -60.8769 2.0533 2.3695 10.7305 10.7520 9.2401 48.6935 11.7383 12.6738 0.8369 0.9787 116.7998 -17.6337 -13.9385 7.7737 15.8598 7.0889 -16.5860 49.9795 -3.9029 -5.8180 27.9256 -48.6208 20.5131 -1.0514 60.6470 -1.5540 -13.3422 -17.4006 5.5606 1.6226 1.7045 -1.7698 -7.5012 -25.0642 -1.0890 0.7547 35.3844 1.6550 22.4807 -15.5052 6.5687 -1.4252 -0.9979 1.0814
6.3834 88.8165 -1.9517 -13.4326 3.8998 -16.1862 -6.2060 7.4690 -0.0851 -2.6858 -1.9573 -0.3626 -3.1049 10.9717 -4.0625 -12.8647 9.3315 8.7215 3.5097 -4.1909 14.9488 -1.2349 -10.6819 17.8236 0.1053 -0.0932 -0.1574 0.8379 -10.7270 -4.0359 -0.6397 -10.6939 3.6980 12.6282 8.7670 -14.0018 -3.8259 -37.1439 18.1944 -1.0026 -2.0637 -66.2634 -0.7669 -49.6163 -10.2571 -16.1991 10.2007 15.2838 -61.1988 2.0426 2.3370 10.6868 10.8286 8.8667 49.0528 13.0230 13.2647 1.1710 1.2045 117.7265 -17.5474 -13.7020 7.7360 15.9753 7.1117 -16.6538 50.0615 -3.8939 -5.8285 27.7141 -48.5503 20.8452 -1.0475 60.4520 -1.5622 -13.3968 -17.5080 5.5449 1.6240 1.7251 -1.7457 -7.5642 -25.4993 -1.2317 0.7865 36.1130 1.7043 22.2492 -15.9635 6.6229 -1.4310 -0.9251 1.1139
6.0508 88.7710 -2.0391 -13.0653 3.7872 -16.1487 -6.1356 7.5410 -0.0873 -2.6832 -1.9067 -0.3143 -2.9395 10.9586 -3.8815 -12.8124 9.6311 8.6732 3.4454 -4.1554 14.8770 -1.3935 -10.4884 17.8661 0.0993 -0.0809 -0.1670 0.8222 -10.6986 -4.0368 -0.6357 -10.6694 3.6820 12.3754 8.6968 -13.4422 -5.5560 -36.7063 20.4881 -0.3598 -1.9090 -70.8150 1.7712 -46.9411 -11.5230 -16.1442 10.2214 15.2858 -61.6063 2.0315 2.3188 10.6666 10.7325 8.6716 49.2346 13.9362 13.8467 1.4291 1.4209 118.0889 -17.5848 -13.4971 7.6932 16.1012 7.1269 -16.6807 50.1364 -3.8933 -5.8506 27.4516 -48.2903 21.2712 -1.0542 60.1401 -1.5626 -13.5451 -17.4921 5.3425 1.6318 1.6528 -1.7504 -7.7061 -25.8111 -1.3343 0.8133 36.9409 1.7279 21.9508 -16.4390 6.7274 -1.4393 -0.8496 1.1347
5.6250 88.6739 -2.1201 -12.6518 3.5083 -15.9737 -6.0417 7.6215 -0.0732 -2.6923 -1.8310 -0.3292 -2.7427 10.9784 -3.7300 -12.6165 9.7452 8.5562 3.4138 -4.1047 14.8897 -1.4938 -10.3403 17.9877 0.0925 -0.0690 -0.1729 0.8066 -10.6608 -4.0316 -0.6340 -10.6296 3.6669 12.0462 8.6547 -13.1231 -6.3169 -35.8902 21.7064 0.2930 -1.6826 -74.8365 3.7582 -45.1975 -12.2998 -16.1036 10.2363 15.2859 -61.9200 2.0137 2.3229 10.6447 10.5494 8.6402 49.1370 14.4157 14.3922 1.4959 1.5360 117.9748 -17.7752 -13.5303 7.6785 16.1778 7.1073 -16.6777 50.1701 -3.8838 -5.8913 27.3380 -47.8969 21.6014 -1.0675 59.8287 -1.5591 -13.6994 -17.4358 5.0017 1.6357 1.5725 -1.7678 -7.9187 -25.9870 -1.3554 0.8289 37.9677 1.7214 21.6448 -17.0609 6.8278 -1.4450 -0.7188 1.1360
5.1487 88.5110 -2.2440 -12.2268 3.1264 -15.6739 -5.9327 7.7389 -0.0774 -2.6988 -1.7749 -0.4001 -2.5235 11.0428 -3.5937 -12.4876 9.6508 8.4178 3.4813 -4.0821 14.9221 -1.5596 -10.2811 18.1918 0.0868 -0.0577 -0.1760 0.8005 -10.6127 -4.0217 -0.6399 -10.5792 3.6536 11.7931 8.6985 -13.0270 -6.3050 -34.7077 22.1141 0.8943 -1.5392 -78.9737 5.1574 -44.8016 -12.7785 -16.0401 10.1934 15.2401 -61.9924 1.9626 2.3389 10.6035 10.3921 8.7465 48.7492 14.4601 14.8391 1.3817 1.5528 117.4286 -18.1338 -13.8071 7.6222 16.1496 7.0941 -16.6348 50.1946 -3.8967 -5.8921 27.3548 -47.5165 21.8131 -1.0932 59.6693 -1.5646 -13.8109 -17.3843 4.6019 1.6338 1.5587 -1.7891 -8.1641 -26.1665 -1.3175 0.8251 39.3038 1.6622 21.3334 -17.7830 6.9686 -1.4532 -0.5727 1.1301
4.6141 88.2844 -2.3816 -11.7840 2.7075 -15.3127 -5.8442 7.8998 -0.0981 -2.6790 -1.7491 -0.5095 -2.3107 11.1487 -3.4969 -12.4409 9.4079 8.3061 3.5558 -4.0655 14.9920 -1.6488 -10.3411 18.4401 0.0760 -0.0546 -0.1679 0.7982 -10.5755 -4.0001 -0.6608 -10.5366 3.6544 11.8355 8.9291 -13.0715 -6.1573 -33.3185 22.3230 1.4848 -1.5133 -83.6974 6.0437 -45.6601 -13.0330 -15.8964 10.1811 15.2045 -61.8562 1.9280 2.3494 10.5181 10.2886 8.8544 48.1487 14.2383 15.0743 1.2222 1.4247 116.6555 -18.5509 -14.1701 7.3895 16.0683 7.0864 -16.5725 50.2252 -3.8855 -5.8589 27.4355 -47.2039 21.8763 -1.1100 59.6562 -1.5739 -13.8879 -17.2537 4.2424 1.6298 1.5719 -1.8198 -8.3809 -26.4125 -1.2884 0.8103 40.8796 1.6062 21.0040 -18.5906 7.1477 -1.4570 -0.4370 1.1196
4.0824 88.0746 -2.5555 -11.3736 2.2877 -15.0035 -5.7531 8.0609 -0.1407 -2.6572 -1.7230 -0.5729 -2.0766 11.2925 -3.4815 -12.5164 9.1156 8.2712 3.5966 -4.0502 15.0771 -1.7846 -10.4132 18.6790 0.0664 -0.0552 -0.1560 0.7978 -10.5378 -3.9784 -0.6807 -10.4917 3.6615 12.1039 9.2693 -13.1024 -6.3359 -32.0933 22.6585 1.9175 -1.4629 -88.7278 6.5652 -47.0300 -13.1467 -15.7212 10.2061 15.1728 -61.6152 1.9081 2.3296 10.3729 10.3030 8.9490 47.4433 13.8813 15.0349 1.1408 1.2373 115.9905 -18.9129 -14.4622 6.9150 15.9540 7.1032 -16.5078 50.2247 -3.8621 -5.8185 27.5927 -46.9278 21.8886 -1.1119 59.6436 -1.5817 -13.9549 -16.9965 3.8950 1.6237 1.6057 -1.8555 -8.5498 -26.6572 -1.2988 0.8093 42.3934 1.5684 20.6701 -19.3324 7.4348 -1.4570 -0.3352 1.0950
3.5396 87.8913 -2.7195 -11.0055 1.8900 -14.7474 -5.6516 8.2085 -0.1960 -2.5957 -1.7228 -0.6424 -1.8498 11.4637 -3.4753 -12.7260 8.9037 8.2754 3.6183 -4.0365 15.1476 -1.9416 -10.4528 18.9104 0.0629 -0.0557 -0.1485 0.8024 -10.5042 -3.9662 -0.6934 -10.4494 3.6677 12.4137 9.6428 -13.0771 -6.7978 -30.9987 23.1047 2.2580 -1.3573 -93.6539 6.7706 -48.2180 -13.1015 -15.5327 10.2377 15.1500 -61.3916 1.8901 2.3209 10.1762 10.3726 8.9993 46.7137 13.6257 14.7471 1.1324 1.0604 115.6044 -19.0419 -14.5748 6.2923 15.8606 7.1390 -16.4719 50.2328 -3.8305 -5.7781 27.7973 -46.6502 21.9202 -1.1086 59.5494 -1.5860 -14.0094 -16.6860 3.4937 1.6157 1.6549 -1.8690 -8.6614 -26.8645 -1.3297 0.8229 43.7468 1.5479 20.3468 -19.9673 7.7690 -1.4547 -0.2997 1.0825
3.0064 87.7468 -2.8496 -10.6705 1.4990 -14.5975 -5.5166 8.3243 -0.2310 -2.5317 -1.7402 -0.7273 -1.6427 11.6526 -3.4754 -13.0304 8.8071 8.3203 3.6497 -4.0153 15.1736 -2.0999 -10.4054 19.0836 0.0576 -0.0547 -0.1336 0.8033 -10.4804 -3.9471 -0.7064 -10.4152 3.6827 12.5398 9.9543 -13.0086 -7.3960 -29.9489 23.6084 2.5388 -1.1528 -98.0378 6.8890 -49.0013 -13.0495 -15.3403 10.2585 15.0894 -61.1814 1.8720 2.3193 9.9916 10.5116 9.0126 45.9516 13.5845 14.3992 1.0841 0.9687 115.5589 -18.9060 -14.5222 5.6467 15.8060 7.1941 -16.4835 50.2441 -3.8289 -5.7665 28.0325 -46.3138 22.0357 -1.1015 59.3318 -1.5864 -14.1303 -16.3671 3.1174 1.6078 1.6834 -1.8697 -8.7217 -26.9835 -1.3441 0.8384 44.8875 1.5168 19.9845 -20.5237 8.0757 -1.4507 -0.2917 1.0729
2.4513 87.6530 -2.9856 -10.3319 1.1281 -14.4957 -5.3527 8.4005 -0.2535 -2.4567 -1.7659 -0.8253 -1.4886 11.8300 -3.4800 -13.3533 8.8219 8.3595 3.6766 -3.9962 15.1522 -2.2677 -10.3664 19.2169 0.0509 -0.0508 -0.1141 0.7999 -10.4644 -3.9249 -0.7178 -10.3898 3.7039 12.4096 10.2288 -12.9257 -8.0838 -28.7726 24.0716 2.8632 -0.9231 -101.8565 6.9325 -49.5076 -12.9830 -15.1920 10.2675 15.0200 -61.0563 1.8549 2.3156 9.7847 10.7093 8.9840 45.2325 13.6299 14.0245 1.0383 0.9199 115.7794 -18.5905 -14.3885 5.0595 15.7587 7.2328 -16.4934 50.2477 -3.8158 -5.7689 28.1852 -45.9274 22.2933 -1.0927 58.9829 -1.5782 -14.2502 -16.0140 2.6722 1.5972 1.7026 -1.8570 -8.7575 -27.0030 -1.3863 0.8613 45.8128 1.5084 19.6296 -21.0155 8.2930 -1.4431 -0.2910 1.0793
1.8948 87.6532 -3.0563 -9.9604 0.7785 -14.3640 -5.1601 8.4170 -0.2595 -2.3920 -1.7957 -0.9219 -1.3811 12.0048 -3.5217 -13.6396 8.9133 8.3662 3.7064 -3.9792 15.0827 -2.4609 -10.2615 19.3007 0.0486 -0.0446 -0.1057 0.8026 -10.4713 -3.9232 -0.7259 -10.3932 3.7208 12.0002 10.4153 -12.8434 -8.9832 -27.3740 24.4536 3.2757 -0.6755 -105.2819 6.9109 -49.7866 -12.8452 -15.0853 10.2838 14.9502 -60.9948 1.8360 2.2852 9.6044 10.9744 8.9730 44.5741 13.6752 13.5566 1.0069 0.9355 116.1052 -18.1270 -14.1812 4.5471 15.7394 7.2469 -16.5145 50.2402 -3.8040 -5.7768 28.1838 -45.4338 22.7119 -1.0460 58.3952 -1.5252 -14.4005 -15.5521 2.2010 1.5890 1.7032 -1.8516 -8.7807 -26.8779 -1.4674 0.8691 46.4744 1.4821 19.2104 -21.4019 8.3900 -1.4358 -0.2356 1.0831
1.3250 87.7645 -3.1404 -9.5784 0.4581 -14.1349 -4.9653 8.3823 -0.2802 -2.3339 -1.8091 -0.9782 -1.3126 12.1671 -3.6192 -13.8784 9.0967 8.3623 3.7062 -3.9595 14.9405 -2.6509 -10.1794 19.3442 0.0526 -0.0417 -0.1082 0.8095 -10.4702 -3.9293 -0.7253 -10.3936 3.7209 11.3013 10.5879 -12.7606 -10.1657 -26.0536 24.7759 3.6281 -0.4825 -108.4728 6.9028 -49.8686 -12.5982 -15.0400 10.2894 14.9088 -60.9372 1.7892 2.2790 9.4444 11.2067 8.9670 44.0187 13.7297 13.0519 1.0184 1.0783 116.3527 -17.5971 -13.8685 4.1102 15.6763 7.2576 -16.5724 50.2197 -3.8417 -5.7599 28.0414 -44.7906 23.2374 -0.9833 57.4454 -1.4619 -14.5367 -14.9363 1.7232 1.5827 1.6748 -1.8440 -8.7671 -26.5257 -1.6493 0.8654 46.7306 1.4601 18.7778 -21.6388 8.3493 -1.4293 -0.1507 1.0894
0.7343 88.0399 -3.1698 -9.1841 0.2090 -13.7279 -4.7518 8.3205 -0.3248 -2.2694 -1.8605 -1.0323 -1.2854 12.3377 -3.7289 -14.0688 9.4076 8.3198 3.6731 -3.9420 14.7818 -2.8327 -10.1019 19.2724 0.0619 -0.0409 -0.1216 0.8175 -10.4753 -3.9468 -0.7150 -10.3998 3.7092 10.3704 10.7718 -12.6884 -11.8078 -24.8346 25.0762 3.8230 -0.3309 -111.5477 6.8027 -50.0123 -12.1224 -14.9754 10.3036 14.8624 -60.8017 1.7603 2.2749 9.2782 11.3964 8.9701 43.5260 13.8513 12.5095 0.9960 1.2468 116.4167 -17.0868 -13.5452 3.8559 15.5751 7.2985 -16.6397 50.2387 -3.8270 -5.7385 27.6921 -44.0404 23.8608 -0.9521 56.1053 -1.4457 -14.6168 -14.1820 1.2702 1.5766 1.6084 -1.8346 -8.6995 -25.9535 -2.0157 0.8402 46.5635 1.4144 18.3600 -21.7277 8.2296 -1.4253 -0.0226 1.0993
0.1511 88.4854 -3.1772 -8.7542 0.0462 -13.1312 -4.5303 8.2153 -0.3706 -2.2078 -1.9065 -1.0439 -1.3134 12.4812 -3.8629 -14.1445 9.8948 8.2772 3.5910 -3.9057 14.6046 -3.0539 -10.0501 19.0738 0.0675 -0.0413 -0.1346 0.8168 -10.4711 -3.9645 -0.7030 -10.3988 3.6985 9.3104 10.9445 -12.6038 -13.9468 -23.4868 25.2321 3.8403 -0.2965 -114.6176 6.5771 -50.1585 -11.4258 -14.9148 10.3445 14.8252 -60.6169 1.7843 2.2616 9.1394 11.5461 8.9998 43.0901 13.9635 11.8130 0.9726 1.4548 116.2708 -16.5567 -13.1334 3.7152 15.5360 7.3864 -16.7249 50.3086 -3.7896 -5.6909 27.0986 -43.1206 24.5139 -0.9096 54.3137 -1.4165 -14.6531 -13.2204 0.8002 1.5790 1.4640 -1.8259 -8.6238 -25.1571 -2.6207 0.7898 45.8787 1.3546 17.9545 -21.5731 8.0687 -1.4269 0.0772 1.0863
-0.4238 89.0530 -3.1394 -8.2896 -0.0051 -12.3276 -4.3157 8.0914 -0.4357 -2.1290 -1.9616 -0.9958 -1.3936 12.5589 -3.9638 -14.1464 10.5939 8.2421 3.4956 -3.8723 14.4211 -3.2072 -10.0239 18.6591 0.0626 -0.0386 -0.1304 0.8056 -10.4698 -3.9633 -0.7015 -10.4064 3.7077 8.2353 11.0396 -12.4728 -16.3866 -21.8352 25.0469 3.7524 -0.2756 -117.5009 6.1992 -50.3036 -10.5953 -14.8558 10.3871 14.8447 -60.4417 1.8182 2.2610 8.9909 11.6381 9.0905 42.7278 13.9768 10.8188 0.9566 1.5595 116.0549 -16.0810 -12.4702 3.6698 15.5522 7.4997 -16.8163 50.4856 -3.7262 -5.6694 26.3201 -42.0585 25.0758 -0.8818 52.1418 -1.3914 -14.6853 -12.0343 0.3545 1.5879 1.2496 -1.8316 -8.5648 -24.1981 -3.3967 0.7160 44.7746 1.2867 17.5289 -21.2504 7.8936 -1.4321 0.1017 1.0546
-0.9798 89.6555 -3.0751 -7.8135 0.0126 -11.3174 -4.0820 7.9654 -0.4365 -2.0449 -2.0309 -0.9503 -1.4870 12.5808 -3.9860 -14.0883 11.5136 8.1717 3.3691 -3.8446 14.3004 -3.3149 -10.0155 18.0823 0.0520 -0.0256 -0.1150 0.7857 -10.4682 -3.9502 -0.7035 -10.4160 3.7311 7.2753 11.0397 -12.3083 -18.9253 -20.0210 24.4157 3.5729 -0.2548 -120.0196 5.6478 -50.3886 -9.6389 -14.8596 10.4113 14.9116 -60.3880 1.8375 2.2487 8.7434 11.6026 9.2461 42.5691 13.8950 9.6689 0.9190 1.5190 115.9622 -15.9255 -11.7777 3.8885 15.5650 7.5625 -16.9118 50.5810 -3.7330 -5.7008 25.4959 -40.9537 25.4356 -0.8588 49.8143 -1.3537 -14.7564 -10.7275 -0.1483 1.5998 1.0222 -1.8446 -8.5218 -23.1456 -4.2367 0.6345 43.4889 1.1915 17.1410 -20.9367 7.5969 -1.4387 0.1177 1.0275
-1.5374 90.2233 -3.0399 -7.3536 0.0652 -10.1221 -3.8070 7.8139 -0.4332 -1.9629 -2.1058 -0.8842 -1.5564 12.5856 -3.9287 -13.9608 12.5858 8.1142 3.2197 -3.8224 14.1248 -3.3791 -10.0314 17.4076 0.0410 -0.0061 -0.1032 0.7659 -10.4604 -3.9365 -0.7048 -10.4169 3.7429 6.5167 10.9925 -12.1061 -21.4727 -18.2918 23.3187 3.3777 -0.1737 -121.9890 5.1752 -50.3303 -8.7554 -14.9501 10.4309 15.0291 -60.4874 1.8404 2.2696 8.3897 11.5131 9.4134 42.6077 13.6634 8.7569 0.8465 1.3513 115.9868 -16.0830 -11.1085 4.2568 15.5113 7.5642 -16.9872 50.5437 -3.7655 -5.7574 24.7072 -39.9153 25.5172 -0.8231 47.5350 -1.3026 -14.8104 -9.4310 -0.6935 1.6145 0.7831 -1.8583 -8.4931 -22.1086 -5.0985 0.5528 42.2618 1.0870 16.7998 -20.7444 7.0835 -1.4447 0.1607 1.0129
-2.0568 90.6740 -3.0015 -6.9607 0.0935 -8.8495 -3.4928 7.6558 -0.3756 -1.8683 -2.1953 -0.8452 -1.5743 12.6146 -3.7913 -13.8159 13.7143 8.0483 3.0373 -3.8005 13.9163 -3.4050 -10.0398 16.7365 0.0284 0.0084 -0.0845 0.7443 -10.4540 -3.9136 -0.7090 -10.4203 3.7639 5.8977 10.9246 -11.9228 -23.8915 -16.9001 22.0125 3.1636 -0.1554 -123.3536 4.8333 -50.1934 -7.9566 -15.1038 10.4455 15.1438 -60.6296 1.8605 2.3114 7.9582 11.3915 9.5911 42.7563 13.3130 8.2485 0.9562 1.2496 115.9707 -16.4633 -10.3720 4.5852 15.4776 7.5449 -17.0602 50.4767 -3.8151 -5.8261 24.0803 -39.0395 25.3654 -0.7773 45.5782 -1.2424 -14.8017 -8.2759 -1.3157 1.6231 0.5397 -1.8644 -8.4701 -21.1448 -5.8889 0.4968 41.2612 1.0045 16.5226 -20.6639 6.4322 -1.4523 0.2059 1.0291
-2.4631 90.9636 -2.9300 -6.6046 0.0046 -7.6724 -3.1466 7.4763 -0.3151 -1.7580 -2.2804 -0.7726 -1.5340 12.6992 -3.6113 -13.7788 14.8185 8.0222 2.8722 -3.7998 13.7125 -3.3774 -10.0013 16.1563 0.0101 0.0110 -0.0512 0.7189 -10.4646 -3.8739 -0.7198 -10.4356 3.7965 5.3469 10.8552 -11.6895 -26.1504 -15.8252 20.6201 2.9655 -0.2249 -124.1801 4.6007 -49.8447 -7.3250 -15.2886 10.4483 15.2810 -60.7135 1.8785 2.3531 7.4253 11.3432 9.8392 42.9018 12.9522 8.2953 1.1124 1.1819 115.8214 -16.9270 -9.5596 4.7636 15.4479 7.5401 -17.0940 50.4528 -3.8178 -5.8749 23.6037 -38.2908 25.1986 -0.7432 44.0877 -1.2025 -14.7617 -7.4256 -1.9435 1.6287 0.3498 -1.8609 -8.5255 -20.2841 -6.4890 0.4626 40.6116 0.9570 16.3062 -20.7117 5.7827 -1.4580 0.2031 1.0505
-2.7472 91.1033 -2.8302 -6.2542 -0.2615 -6.7253 -2.7895 7.3396 -0.2330 -1.6478 -2.3661 -0.6934 -1.4366 12.8200 -3.3661 -13.8828 15.8071 8.0868 2.7400 -3.7962 13.5130 -3.3372 -9.9080 15.6915 -0.0091 0.0060 -0.0148 0.6994 -10.4764 -3.8314 -0.7397 -10.4496 3.8346 4.8519 10.8240 -11.3408 -28.2195 -14.9284 19.2989 2.7837 -0.3640 -124.5831 4.3037 -49.2189 -6.8232 -15.4162 10.4681 15.4123 -60.7525 1.8815 2.3778 6.7552 11.4117 10.2034 43.0503 12.6982 8.7766 1.2868 1.0879 115.6056 -17.4929 -8.7852 4.8612 15.4179 7.5259 -17.0806 50.4856 -3.7765 -5.9099 23.2615 -37.6304 25.1717 -0.7206 43.1937 -1.1675 -14.7353 -6.9689 -2.5596 1.6300 0.2547 -1.8688 -8.7396 -19.5236 -6.7763 0.4472 40.3831 0.9189 16.1507 -20.9213 5.2286 -1.4600 0.2350 1.0641
-2.8636 91.0739 -2.7224 -5.9140 -0.6549 -6.0441 -2.4214 7.2316 -0.1514 -1.5323 -2.4363 -0.5990 -1.3067 12.9511 -3.1057 -14.1343 16.5890 8.2045 2.6453 -3.7979 13.3387 -3.2552 -9.7877 15.4092 -0.0303 -0.0014 0.0252 0.6889 -10.4893 -3.7884 -0.7725 -10.4635 3.8792 4.3348 10.8472 -10.8465 -29.9709 -14.1685 18.1020 2.5977 -0.4185 -124.7151 3.7682 -48.6124 -6.2207 -15.4743 10.4741 15.5071 -60.7851 1.8477 2.3891 5.9760 11.5759 10.6647 43.1604 12.6301 9.5723 1.4011 1.0024 115.3736 -18.1544 -7.9675 4.8968 15.3471 7.5158 -17.0116 50.5087 -3.7221 -5.8982 23.0212 -37.0789 25.2975 -0.7077 42.8659 -1.1334 -14.7439 -6.8809 -3.0975 1.6281 0.2796 -1.8827 -9.1063 -18.8860 -6.8188 0.4454 40.5261 0.8984 16.0934 -21.2717 4.7519 -1.4593 0.2922 1.0704
-2.8775 90.9214 -2.5951 -5.5779 -1.0784 -5.6187 -2.0497 7.1506 -0.0843 -1.3990 -2.5076 -0.5235 -1.1778 13.0703 -2.8435 -14.4821 17.0560 8.3167 2.6184 -3.7875 13.1986 -3.1689 -9.6387 15.3667 -0.0385 -0.0085 0.0388 0.6986 -10.5088 -3.7735 -0.8000 -10.4730 3.8963 3.7040 10.9022 -10.1981 -31.2348 -13.5263 17.1103 2.4237 -0.5093 -124.7169 2.8964 -48.3633 -5.4090 -15.4311 10.4753 15.5451 -60.8145 1.7897 2.3823 5.1927 11.8304 11.1880 43.1532 12.8629 10.5083 1.3920 0.8477 115.3581 -18.9029 -7.0178 4.9378 15.2910 7.5216 -16.9419 50.5427 -3.6265 -5.8802 22.7744 -36.7229 25.6435 -0.6705 43.0412 -1.0703 -14.6835 -7.1211 -3.5632 1.6255 0.4103 -1.8996 -9.5695 -18.4350 -6.6579 0.4480 40.9542 0.8804 16.0533 -21.7127 4.4129 -1.4544 0.4125 1.0531
-2.7575 90.7378 -2.4422 -5.3044 -1.3741 -5.3042 -1.6974 7.0262 -0.0393 -1.2747 -2.5654 -0.4508 -1.0608 13.1409 -2.6316 -14.8304 17.2236 8.3592 2.6554 -3.7940 13.1231 -3.0936 -9.4766 15.4866 -0.0356 -0.0159 0.0296 0.7191 -10.5268 -3.7836 -0.8153 -10.4844 3.8875 2.9627 10.9747 -9.5422 -31.8694 -12.9542 16.3485 2.3024 -0.5690 -124.6752 1.8623 -48.5340 -4.4595 -15.3643 10.4842 15.5345 -60.8188 1.7421 2.3716 4.6525 12.0764 11.6275 42.9624 13.4595 11.3148 1.3113 0.6995 115.6797 -19.5524 -6.1399 5.0183 15.2240 7.5039 -16.8881 50.5008 -3.5670 -5.8634 22.4799 -36.6420 26.1382 -0.6338 43.4503 -1.0162 -14.5164 -7.5120 -4.0916 1.6175 0.5546 -1.8994 -10.0604 -18.1614 -6.5153 0.4595 41.3727 0.8966 16.1583 -22.0860 4.1302 -1.4469 0.5839 1.0412
-2.5130 90.6625 -2.2820 -5.0856 -1.4818 -4.9428 -1.4015 6.8005 -0.0398 -1.1731 -2.6287 -0.3679 -0.9517 13.2040 -2.4919 -15.1315 17.2473 8.3264 2.7374 -3.8155 13.0700 -3.0316 -9.2750 15.6992 -0.0245 -0.0241 0.0070 0.7339 -10.5451 -3.8058 -0.8078 -10.5009 3.8608 2.1207 11.0690 -8.9760 -31.9211 -12.5760 15.7647 2.1924 -0.6022 -124.5988 0.8787 -48.7300 -3.7188 -15.2661 10.5028 15.4736 -60.7722 1.7404 2.3350 4.4663 12.3528 11.9604 42.6611 14.2888 11.7371 1.2780 0.5735 116.2482 -20.1221 -5.5109 5.3245 15.1811 7.5045 -16.8609 50.4500 -3.5611 -5.8266 21.9841 -36.6770 26.7366 -0.6179 43.7162 -1.0025 -14.2208 -7.8398 -4.6774 1.6078 0.6738 -1.8809 -10.5197 -17.9166 -6.5669 0.4769 41.3832 0.9243 16.3877 -22.1725 3.8912 -1.4380 0.7258 1.0435
-2.1733 90.8407 -2.1251 -4.8871 -1.3571 -4.4717 -1.2106 6.4650 -0.0542 -1.1060 -2.7217 -0.2792 -0.8535 13.1945 -2.4226 -15.3589 17.2882 8.2487 2.8670 -3.8552 13.0502 -2.9077 -8.9639 15.8818 -0.0143 -0.0309 -0.0096 0.7356 -10.5564 -3.8231 -0.7890 -10.5107 3.8417 1.3850 11.0691 -8.5652 -31.6472 -12.2948 15.1758 1.9555 -0.5374 -124.3807 0.2146 -48.8789 -3.5789 -15.1708 10.5207 15.3975 -60.5937 1.7472 2.2848 4.5472 12.5743 12.1466 42.6155 15.4134 11.9707 1.2439 0.5518 116.5573 -20.6632 -5.5697 6.1426 15.1090 7.5199 -16.8211 50.4426 -3.5684 -5.7297 21.1738 -36.5352 27.3501 -0.6237 43.3253 -1.0325 -13.8185 -7.8553 -5.1067 1.6034 0.7200 -1.8491 -10.9379 -17.4808 -6.8739 0.4865 40.4823 0.9625 16.7552 -21.7828 3.6039 -1.4329 0.7542 1.0543
-1.7965 91.3517 -1.9794 -4.6580 -0.9675 -3.8447 -1.1334 6.0707 -0.0564 -1.0758 -2.8729 -0.2080 -0.8024 13.0429 -2.3831 -15.4028 17.4715 8.1461 2.9570 -3.8603 13.0204 -2.7525 -8.5470 15.9066 -0.0070 -0.0278 -0.0222 0.7321 -10.5755 -3.8379 -0.7705 -10.5351 3.8283 0.9037 10.9201 -8.3766 -31.2744 -11.8197 14.2535 1.8992 -0.5745 -123.9451 -0.1747 -48.8581 -3.9768 -15.0215 10.5285 15.3285 -60.2521 1.7916 2.2314 4.7485 12.7110 12.1459 43.0365 16.8215 12.2981 1.1169 0.5385 116.2661 -21.1731 -6.1186 7.3585 15.0965 7.5558 -16.7740 50.4789 -3.5574 -5.6464 19.9688 -36.0637 27.8893 -0.6276 42.0399 -1.0667 -13.3449 -7.4581 -5.3020 1.6004 0.7147 -1.8016 -11.2627 -16.7554 -7.2725 0.4502 38.4891 0.9539 17.1833 -20.8937 3.0831 -1.4335 0.6513 1.0550
-1.4057 92.1380 -1.8464 -4.4422 -0.3910 -3.1173 -1.1403 5.6427 -0.0639 -1.0639 -3.0324 -0.1360 -0.7865 12.6725 -2.3603 -15.2604 17.7485 8.0977 3.0060 -3.8494 13.0099 -2.5495 -8.0269 15.7906 -0.0065 -0.0154 -0.0214 0.7218 -10.5753 -3.8406 -0.7584 -10.5428 3.8318 0.5620 10.6767 -8.3963 -30.8962 -11.3498 13.1027 1.9265 -0.6358 -123.1464 -0.4295 -48.9572 -4.8099 -14.8489 10.5510 15.3033 -59.7460 1.8392 2.2220 5.1077 12.7203 11.9793 43.7575 18.4027 12.8051 0.9404 0.4823 115.2686 -21.6171 -6.8484 8.8190 15.1490 7.5976 -16.7434 50.5747 -3.5723 -5.5943 18.5892 -35.2009 28.2627 -0.6037 39.8498 -1.0649 -12.9276 -6.6603 -5.3567 1.6003 0.6750 -1.7646 -11.4628 -15.6542 -7.7068 0.3703 35.4043 0.8958 17.5910 -19.4615 2.3338 -1.4405 0.4727 1.0468
-0.9899 93.0525 -1.6745 -4.2375 0.2536 -2.3526 -1.1908 5.1959 -0.0666 -1.0556 -3.1919 -0.0849 -0.8041 12.2266 -2.3500 -14.9079 17.9924 8.0355 2.9676 -3.8200 13.0292 -2.3554 -7.4373 15.5970 -0.0116 -0.0052 -0.0073 0.7095 -10.5724 -3.8279 -0.7557 -10.5482 3.8483 0.1308 10.3675 -8.5490 -30.3645 -10.9263 11.8781 2.1915 -0.5963 -121.9796 -0.8376 -49.1503 -5.8232 -14.7727 10.5582 15.2784 -59.4171 1.8696 2.2178 5.6957 12.7353 11.7143 44.3017 19.7462 13.0829 0.7320 0.4062 114.0991 -21.9741 -7.2806 10.2009 15.2197 7.6442 -16.7107 50.7353 -3.5415 -5.5395 17.2396 -34.0538 28.4186 -0.5732 37.1233 -1.0405 -12.6430 -5.5695 -5.2327 1.6057 0.5813 -1.7477 -11.5743 -14.2590 -8.1453 0.2816 31.6468 0.8181 17.8726 -17.6619 1.5558 -1.4479 0.2502 1.0367
-0.5648 93.9121 -1.4768 -4.0416 0.9295 -1.7061 -1.2479 4.7120 -0.0514 -1.0518 -3.3489 -0.0419 -0.8546 11.7994 -2.3349 -14.4838 18.0689 7.9448 2.9180 -3.7843 13.0342 -2.1616 -6.8354 15.4013 -0.0158 0.0013 0.0044 0.6979 -10.5561 -3.8144 -0.7520 -10.5358 3.8593 -0.4552 10.0405 -8.7671 -29.6941 -10.6452 10.9042 2.5325 -0.4147 -120.3049 -1.2804 -49.2576 -6.9210 -14.7540 10.5646 15.2766 -59.2967 1.8822 2.2167 6.4216 12.7330 11.4333 44.4322 20.6605 12.8211 0.6301 0.4155 113.2349 -22.2313 -7.4744 11.4716 15.2559 7.6564 -16.6880 50.8067 -3.5065 -5.4995 16.0141 -32.9192 28.4871 -0.5322 34.3962 -0.9761 -12.5280 -4.4525 -5.1086 1.6120 0.4688 -1.7451 -11.6805 -12.8481 -8.4385 0.2000 27.7752 0.7045 18.0864 -15.7699 0.7603 -1.4521 0.0014 1.0275
-0.1585 94.5794 -1.2786 -3.8643 1.5581 -1.2925 -1.2861 4.2371 -0.0153 -1.0429 -3.5028 -0.0176 -0.9482 11.4537 -2.2872 -14.0736 17.9503 7.8188 2.8627 -3.7725 13.0984 -1.9268 -6.2877 15.2026 -0.0196 0.0011 0.0107 0.6942 -10.5341 -3.8046 -0.7562 -10.5181 3.8646 -1.0859 9.7632 -8.9515 -29.0373 -10.6999 10.4541 2.7896 -0.2538 -118.1168 -1.4925 -49.3042 -8.0848 -14.7458 10.5924 15.2975 -59.2909 1.8874 2.2329 7.1042 12.6527 11.2102 44.0623 21.2244 12.0718 0.6360 0.5300 112.9059 -22.3959 -7.5949 12.5788 15.2716 7.6440 -16.7029 50.8169 -3.5004 -5.5060 14.9946 -32.0559 28.5826 -0.4928 32.2126 -0.8949 -12.5340 -3.6214 -5.0927 1.6131 0.3977 -1.7558 -11.8168 -11.6950 -8.4925 0.1193 24.4140 0.5672 18.2311 -14.1333 -0.0556 -1.4556 -0.1817 1.0322
0.2289 94.9946 -1.1737 -3.7002 2.0238 -1.2193 -1.3128 3.8348 0.0122 -1.0247 -3.6420 0.0146 -1.0399 11.2482 -2.2080 -13.8215 17.7918 7.7174 2.8402 -3.7972 13.1505 -1.7362 -5.8074 15.1000 -0.0187 -0.0067 0.0066 0.7014 -10.5293 -3.8067 -0.7606 -10.5193 3.8554 -1.7318 9.6109 -9.0245 -28.5785 -11.0458 10.5117 3.0166 -0.2181 -115.5635 -1.5457 -49.0891 -9.0395 -14.7622 10.5992 15.3240 -59.3352 1.8791 2.2810 7.5302 12.5237 11.0865 43.2513 21.3765 11.1571 0.7186 0.6284 112.9876 -22.4151 -7.6781 13.2153 15.2755 7.6173 -16.6985 50.8441 -3.5086 -5.5163 14.2162 -31.5108 28.8480 -0.4655 30.8600 -0.8217 -12.5504 -3.1590 -5.1153 1.6085 0.3979 -1.7607 -12.0084 -11.0305 -8.3541 0.0693 22.1166 0.4694 18.2881 -13.0428 -0.6966 -1.4549 -0.3143 1.0540
0.5811 95.1818 -1.1401 -3.4765 2.2446 -1.4997 -1.3602 3.5686 0.0448 -1.0119 -3.7362 0.0551 -1.1392 11.1757 -2.1160 -13.7606 17.7111 7.7019 2.8425 -3.8175 13.2231 -1.6425 -5.3730 15.1266 -0.0178 -0.0190 0.0007 0.7121 -10.5356 -3.8118 -0.7693 -10.5279 3.8470 -2.3672 9.6040 -9.0434 -28.3781 -11.6124 10.9974 3.1732 -0.3340 -112.6209 -1.5721 -48.3348 -9.7595 -14.8124 10.6214 15.3790 -59.4640 1.8815 2.3336 7.6435 12.4261 11.0946 42.1998 21.0174 10.3420 0.9072 0.6700 113.1329 -22.2893 -7.5578 13.1834 15.2376 7.6131 -16.7020 50.8186 -3.5023 -5.5662 13.6013 -31.1175 29.3062 -0.4501 30.2907 -0.7715 -12.5182 -3.0843 -5.0427 1.6039 0.4603 -1.7741 -12.3598 -10.8740 -8.0290 0.0514 21.0394 0.4324 18.2666 -12.5259 -1.0040 -1.4507 -0.3856 1.0708
0.8672 95.1682 -1.2095 -3.1944 2.2393 -2.0000 -1.4378 3.4570 0.1066 -1.0106 -3.7815 0.0674 -1.2603 11.2148 -2.0548 -13.8935 17.7669 7.7866 2.8502 -3.8316 13.2865 -1.6283 -5.0264 15.2544 -0.0169 -0.0346 -0.0016 0.7250 -10.5446 -3.8154 -0.7817 -10.5401 3.8474 -2.9107 9.7283 -9.0434 -28.3967 -12.3812 11.7648 3.1739 -0.4280 -109.4559 -1.4688 -47.1365 -10.3227 -14.8456 10.7038 15.4084 -59.6791 1.8877 2.3410 7.4313 12.4145 11.2209 41.1366 20.1764 9.7713 1.1558 0.6963 113.2140 -22.0565 -7.0921 12.5828 15.1276 7.6167 -16.6707 50.7348 -3.5041 -5.5871 13.1482 -30.8873 29.8305 -0.4331 30.4055 -0.7161 -12.4773 -3.2421 -4.8862 1.5999 0.5788 -1.8009 -12.8361 -11.1851 -7.6071 0.0660 21.1297 0.4584 18.2142 -12.5500 -0.9968 -1.4457 -0.4298 1.0820
1.0236 95.0109 -1.3921 -2.9488 2.0855 -2.5501 -1.4883 3.4702 0.1432 -1.0295 -3.7773 0.1251 -1.3838 11.3335 -2.0528 -14.1486 17.8987 7.8884 2.8723 -3.8269 13.3133 -1.6907 -4.8126 15.4774 -0.0134 -0.0426 -0.0086 0.7326 -10.5367 -3.8243 -0.7819 -10.5338 3.8385 -3.3930 9.9685 -9.0734 -28.4580 -13.3133 12.5498 3.0910 -0.4836 -106.3568 -1.1463 -45.5345 -10.7863 -14.9078 10.7919 15.3849 -59.9437 1.9045 2.2998 7.0228 12.4716 11.3733 40.1821 18.9952 9.4331 1.4200 0.8366 113.2547 -21.6565 -6.4698 11.6565 15.0690 7.6113 -16.6420 50.6279 -3.5096 -5.5908 12.9007 -30.8626 30.2831 -0.4071 30.9941 -0.6604 -12.4100 -3.5227 -4.7769 1.5946 0.6935 -1.8185 -13.2713 -11.7946 -7.2090 0.1154 22.0349 0.5478 18.1552 -12.8777 -0.8003 -1.4386 -0.4684 1.0839
1.0685 94.7761 -1.6222 -2.7456 1.8321 -2.9677 -1.5268 3.5787 0.1813 -1.0463 -3.7615 0.1593 -1.5430 11.5250 -2.0933 -14.3998 18.0489 8.0083 2.9092 -3.8017 13.3102 -1.7702 -4.6755 15.6742 -0.0081 -0.0435 -0.0176 0.7385 -10.5177 -3.8330 -0.7775 -10.5168 3.8272 -3.8066 10.2747 -9.1357 -28.5278 -14.3847 13.2233 2.9341 -0.4795 -103.4317 -0.7293 -43.5497 -11.2197 -14.9196 10.8298 15.3170 -60.1592 1.9466 2.2262 6.5798 12.6097 11.5463 39.3659 17.7072 9.1688 1.6630 1.0064 113.3185 -21.2864 -5.7126 10.6612 15.0420 7.5959 -16.6325 50.4810 -3.5337 -5.5884 12.8464 -30.9812 30.5134 -0.3879 31.8367 -0.6192 -12.3391 -3.8559 -4.7173 1.5936 0.7841 -1.8364 -13.6266 -12.5103 -6.9125 0.1841 23.4112 0.6612 18.0804 -13.4191 -0.4928 -1.4340 -0.5145 1.0908
0.9225 94.4688 -1.8857 -2.6325 1.5297 -3.1039 -1.5574 3.7336 0.1853 -1.0645 -3.7199 0.1819 -1.6885 11.7245 -2.1605 -14.5648 18.2400 8.1315 2.9384 -3.7910 13.3131 -1.8497 -4.5821 15.8065 -0.0042 -0.0394 -0.0197 0.7382 -10.5033 -3.8342 -0.7699 -10.5051 3.8238 -4.1912 10.5909 -9.2591 -28.4906 -15.5000 13.6805 2.7579 -0.3926 -100.9046 -0.3001 -41.5568 -11.7106 -14.9425 10.8076 15.2590 -60.3287 1.9907 2.1936 6.2166 12.7481 11.6780 38.6858 16.5133 8.8754 1.8434 1.1655 113.4804 -21.0198 -4.9309 9.7373 15.0499 7.5408 -16.6304 50.3537 -3.5731 -5.5874 13.0223 -31.2557 30.4208 -0.3767 32.7725 -0.6025 -12.3112 -4.1584 -4.6719 1.5996 0.8124 -1.8418 -13.8079 -13.2241 -6.7349 0.2468 25.1085 0.7394 18.0180 -14.1368 -0.2613 -1.4318 -0.5143 1.1082
0.6350 94.1188 -2.1423 -2.6107 1.1890 -2.9977 -1.6016 3.9055 0.1952 -1.0792 -3.6536 0.1597 -1.7975 11.9394 -2.2118 -14.6117 18.4498 8.2322 2.9455 -3.7890 13.3208 -1.9459 -4.5281 15.9116 0.0056 -0.0313 -0.0337 0.7497 -10.4951 -3.8479 -0.7615 -10.4948 3.8049 -4.4976 10.8780 -9.4315 -28.3794 -16.5231 13.9301 2.6426 -0.3181 -98.9439 0.0968 -39.6549 -12.2001 -14.9952 10.7524 15.2517 -60.4987 2.0137 2.2137 5.9449 12.8571 11.7258 38.1010 15.4689 8.5649 1.9358 1.2565 113.8082 -20.8424 -4.2905 8.9379 15.0451 7.4551 -16.6289 50.2218 -3.6128 -5.6130 13.4048 -31.6705 30.0598 -0.3783 33.7719 -0.6054 -12.3094 -4.4089 -4.6733 1.6102 0.8096 -1.8301 -13.7991 -13.8818 -6.6373 0.2906 27.0237 0.7686 17.9191 -14.9924 -0.1950 -1.4319 -0.4721 1.1270
0.1837 93.7316 -2.3842 -2.6796 0.7788 -2.5979 -1.6484 4.0941 0.1821 -1.1048 -3.5660 0.1164 -1.8615 12.1980 -2.2618 -14.5207 18.6604 8.2730 2.9590 -3.7973 13.3308 -2.1020 -4.5845 16.0679 0.0266 -0.0142 -0.0696 0.7806 -10.4939 -3.8882 -0.7498 -10.4849 3.7654 -4.7055 11.1445 -9.6665 -28.2533 -17.4683 14.0138 2.5411 -0.2460 -97.5579 0.4835 -37.8206 -12.6390 -15.0432 10.6812 15.2734 -60.6535 2.0213 2.2642 5.7896 12.9709 11.6724 37.4815 14.4057 8.1742 2.0083 1.2803 114.2808 -20.6588 -3.7480 8.1458 14.9712 7.3610 -16.5959 50.0833 -3.6199 -5.6254 14.0020 -32.1677 29.4239 -0.3956 34.7457 -0.6362 -12.3443 -4.5558 -4.7650 1.6203 0.8242 -1.8093 -13.6113 -14.4416 -6.7232 0.3202 29.1300 0.7726 17.8230 -15.9628 -0.2980 -1.4341 -0.3591 1.1531
-0.3983 93.3478 -2.6098 -2.8359 0.3453 -1.8567 -1.6902 4.2633 0.1707 -1.1328 -3.5233 0.0167 -1.8708 12.5349 -2.2978 -14.2936 18.9717 8.2634 2.9902 -3.7898 13.2514 -2.3496 -4.6847 16.2474 0.0478 0.0022 -0.1078 0.8127 -10.4937 -3.9296 -0.7384 -10.4775 3.7208 -4.8355 11.5190 -9.9254 -28.2208 -18.3240 13.8334 2.4443 -0.2989 -96.8070 0.8867 -36.2009 -12.9428 -15.1240 10.6612 15.2916 -60.7936 1.9975 2.3026 5.8380 13.0639 11.5196 36.7312 13.4516 7.6268 2.0048 1.2263 114.9289 -20.4170 -3.3757 7.3449 14.8627 7.3423 -16.5683 50.0016 -3.5854 -5.6044 14.7479 -32.7129 28.5192 -0.4089 35.5845 -0.6732 -12.3949 -4.5933 -5.0322 1.6225 0.8741 -1.7927 -13.2379 -14.8252 -7.1949 0.3428 31.1385 0.7801 17.7103 -16.9973 -0.4463 -1.4360 -0.1932 1.1788
-1.0241 93.0950 -2.7288 -2.9917 -0.0076 -0.8608 -1.7327 4.3158 0.1341 -1.1559 -3.5080 -0.0387 -1.8875 12.8826 -2.3631 -13.9685 19.3077 8.2027 2.9665 -3.7899 13.2318 -2.5471 -4.5568 16.3294 0.0587 -0.0010 -0.1264 0.8237 -10.4963 -3.9491 -0.7287 -10.4756 3.7017 -5.0857 11.9065 -10.1067 -28.3862 -18.7431 13.3421 2.2769 -0.3018 -96.7752 1.2386 -35.5047 -13.2156 -15.2193 10.6919 15.3285 -60.7852 1.9694 2.3217 6.1804 13.1471 11.3518 35.8703 12.6577 6.9183 2.0332 1.1289 115.4778 -20.1334 -3.4732 6.7583 14.7812 7.3696 -16.6011 49.9737 -3.5920 -5.5855 15.3953 -33.0425 27.5976 -0.4246 35.8629 -0.7302 -12.4695 -4.4600 -5.4453 1.6129 0.9175 -1.7722 -12.8414 -14.8692 -7.9362 0.3552 32.4997 0.7925 17.6553 -17.7966 -0.6894 -1.4351 -0.0231 1.2059
-1.5999 93.0586 -2.7739 -3.0225 -0.2157 0.3368 -1.7744 4.2296 0.0868 -1.1681 -3.5415 -0.0561 -1.9518 13.1606 -2.4546 -13.6619 19.7121 8.0813 2.9304 -3.7893 13.2005 -2.6689 -4.2120 16.3067 0.0662 -0.0135 -0.1397 0.8240 -10.5137 -3.9630 -0.7136 -10.4924 3.6853 -5.4893 12.2047 -10.1538 -28.8910 -18.0922 12.4224 2.1810 -0.2576 -97.5076 1.1639 -35.6732 -13.3518 -15.2082 10.7450 15.3453 -60.5986 1.9608 2.2810 6.6186 13.3595 11.2216 35.2062 12.1963 6.2687 1.9351 0.9905 115.6824 -19.8851 -3.9679 6.5488 14.7427 7.3985 -16.6466 50.0084 -3.6019 -5.5507 15.6852 -32.9520 26.8058 -0.4479 35.2747 -0.7897 -12.5860 -3.9486 -5.8787 1.6033 0.9130 -1.7570 -12.5221 -14.5565 -8.7956 0.3612 33.0011 0.7924 17.5302 -18.1627 -0.9609 -1.4331 0.1247 1.2098
-2.0971 93.2577 -2.7375 -2.9183 -0.2222 1.5883 -1.7804 4.0249 0.0608 -1.1813 -3.5987 -0.0208 -2.0659 13.2494 -2.5079 -13.4008 20.0473 7.9310 2.9152 -3.7912 13.1091 -2.6583 -3.8836 16.1581 0.0610 -0.0257 -0.1310 0.8145 -10.5415 -3.9596 -0.7138 -10.5176 3.6996 -6.0431 12.3241 -10.0451 -29.6626 -16.2139 11.0353 2.1285 -0.0679 -98.8564 0.4577 -36.6294 -13.1438 -15.1232 10.8488 15.3976 -60.2541 1.9951 2.2237 6.9517 13.5998 11.0986 34.8985 12.2490 5.7421 1.6946 0.9543 115.5738 -19.7770 -4.6396 6.5362 14.7326 7.4667 -16.6926 50.1377 -3.5469 -5.4897 15.5805 -32.4908 26.1714 -0.4652 33.9111 -0.8459 -12.7498 -3.1325 -6.1459 1.5979 0.8354 -1.7463 -12.3302 -13.9490 -9.5359 0.3534 32.5913 0.7729 17.4177 -18.0707 -1.3774 -1.4321 0.2436 1.1913
-2.4646 93.6156 -2.5942 -2.7365 -0.0319 2.7443 -1.7387 3.7259 0.0548 -1.1769 -3.6844 0.0834 -2.2241 13.1476 -2.5191 -13.1372 20.2033 7.8163 2.9131 -3.7874 12.9992 -2.5990 -3.7232 15.9142 0.0526 -0.0327 -0.1153 0.8048 -10.5540 -3.9503 -0.7210 -10.5288 3.7259 -6.7528 12.3536 -9.7718 -30.6413 -13.5122 9.2969 2.1306 0.2134 -100.5309 -0.7670 -37.9661 -12.4175 -15.0085 10.9594 15.5075 -59.9547 2.0200 2.1825 7.1174 13.7998 11.0047 34.8138 12.7590 5.3670 1.3803 0.9991 115.3037 -19.9257 -5.3104 6.6448 14.7697 7.5150 -16.7093 50.2809 -3.4876 -5.4270 15.1863 -31.8078 25.6748 -0.4519 32.0532 -0.8474 -12.9139 -2.1614 -6.2281 1.5967 0.7078 -1.7310 -12.1943 -13.1557 -10.0915 0.3147 31.4028 0.7160 17.3812 -17.6563 -1.9080 -1.4306 0.2932 1.1498
-2.7275 94.0494 -2.4167 -2.5285 0.2605 3.7197 -1.6559 3.3836 0.0719 -1.1636 -3.7980 0.2431 -2.4168 12.9258 -2.4668 -12.8652 20.1998 7.6878 2.9082 -3.7763 12.9162 -2.5401 -3.7181 15.6642 0.0487 -0.0354 -0.1082 0.7996 -10.5434 -3.9470 -0.7239 -10.5176 3.7399 -7.5682 12.4360 -9.4099 -31.6931 -10.7079 7.4827 2.0879 0.5169 -102.2106 -2.0039 -39.0635 -11.4832 -14.9386 10.9841 15.6252 -59.7723 2.0151 2.1747 7.1280 13.9370 10.9346 34.7837 13.5603 5.1331 1.1275 1.0604 115.0411 -20.2096 -6.0133 6.9089 14.8138 7.5327 -16.7152 50.3522 -3.4541 -5.3969 14.6644 -31.0032 25.3416 -0.4337 29.9629 -0.8296 -13.0843 -1.1194 -6.2590 1.5987 0.5708 -1.7155 -12.1078 -12.2102 -10.4290 0.2616 29.6578 0.6308 17.4289 -17.0142 -2.5486 -1.4283 0.2807 1.1140
-2.8796 94.4838 -2.2229 -2.3412 0.5944 4.5522 -1.5456 3.0300 0.1072 -1.1409 -3.9174 0.3810 -2.6228 12.6274 -2.3419 -12.6233 20.1153 7.5663 2.9154 -3.7771 12.8758 -2.5364 -3.7540 15.4851 0.0456 -0.0332 -0.1053 0.7943 -10.5245 -3.9432 -0.7244 -10.5010 3.7434 -8.3821 12.5110 -9.0236 -32.5703 -8.1628 5.8266 1.9955 0.7121 -103.6588 -2.8564 -39.7734 -10.7229 -14.9931 10.9667 15.7164 -59.7445 1.9924 2.1860 7.0177 14.0226 10.8700 34.7232 14.5798 5.0605 1.0142 1.1277 114.9368 -20.4015 -6.6874 7.2801 14.8629 7.5096 -16.6947 50.3427 -3.4381 -5.3825 14.1202 -30.2150 25.1410 -0.4208 27.9192 -0.8092 -13.3218 -0.1466 -6.3226 1.6003 0.4378 -1.6984 -12.0513 -11.2073 -10.6088 0.1999 27.6732 0.5488 17.5054 -16.2615 -3.2491 -1.4251 0.2687 1.0923
-2.9120 94.8703 -2.0332 -2.1778 0.9448 5.2612 -1.4379 2.6658 0.1295 -1.1243 -4.0191 0.4978 -2.8022 12.2951 -2.1864 -12.4281 19.9742 7.4850 2.9469 -3.8020 12.8837 -2.5831 -3.6992 15.3999 0.0441 -0.0291 -0.1054 0.7872 -10.5001 -3.9398 -0.7201 -10.4775 3.7402 -9.1058 12.5546 -8.7335 -33.1212 -6.1300 4.4734 1.9286 0.8432 -104.6940 -3.2767 -40.1389 -10.3032 -15.1078 10.9625 15.8123 -59.7760 1.9738 2.2276 6.8897 14.0443 10.7772 34.6116 15.6697 5.1657 1.0548 1.2149 114.9617 -20.3827 -7.1202 7.6360 14.9051 7.4638 -16.7049 50.2231 -3.4389 -5.4307 13.5557 -29.5462 25.1105 -0.3969 26.1421 -0.7777 -13.5749 0.6369 -6.4903 1.5978 0.3383 -1.6823 -12.0486 -10.2519 -10.7449 0.1503 25.6698 0.4893 17.6119 -15.4276 -3.9696 -1.4238 0.2577 1.0871
-2.8205 95.1730 -1.8869 -2.0445 1.2833 5.8362 -1.3561 2.3381 0.1629 -1.1155 -4.1255 0.5311 -2.9072 11.9952 -2.0058 -12.2734 19.7892 7.4349 2.9661 -3.8238 12.9192 -2.6873 -3.5422 15.3700 0.0456 -0.0282 -0.1089 0.7864 -10.4926 -3.9388 -0.7165 -10.4709 3.7323 -9.6009 12.5689 -8.5979 -33.3481 -4.7205 3.4936 1.9232 0.8045 -105.2291 -3.3885 -40.1763 -10.0441 -15.2004 10.9705 15.8394 -59.8773 1.9750 2.2564 6.8453 14.0545 10.6912 34.4999 16.6234 5.3350 1.2135 1.2894 115.0320 -20.2358 -7.1080 7.7971 14.9613 7.4249 -16.7175 50.1045 -3.4508 -5.4784 13.0054 -29.1141 25.2228 -0.3745 24.8796 -0.7376 -13.7573 1.1394 -6.7712 1.5928 0.2993 -1.6674 -12.1031 -9.4762 -10.8939 0.1084 23.9285 0.4431 17.7340 -14.6680 -4.5478 -1.4244 0.2846 1.0931
-2.6346 95.3810 -1.7762 -1.9433 1.5780 6.2831 -1.3209 2.0763 0.1777 -1.1220 -4.2123 0.5513 -2.9378 11.7446 -1.8864 -12.1534 19.5814 7.4329 2.9835 -3.8528 12.9396 -2.8002 -3.4020 15.4174 0.0458 -0.0290 -0.1123 0.7855 -10.5035 -3.9425 -0.7153 -10.4846 3.7286 -9.8322 12.5578 -8.5521 -33.2155 -3.9788 2.8559 1.9150 0.6970 -105.3273 -3.3221 -40.1388 -9.9756 -15.2612 10.9520 15.8048 -59.8613 1.9773 2.2748 6.9033 14.0499 10.6104 34.4888 17.3290 5.4962 1.4066 1.4540 115.0610 -20.0664 -6.8992 7.8179 14.9720 7.3770 -16.7055 50.0026 -3.4652 -5.5163 12.5071 -28.9053 25.3811 -0.3504 24.1397 -0.6999 -13.8706 1.3927 -7.0417 1.5873 0.3123 -1.6616 -12.2373 -8.9106 -11.0416 0.0882 22.5534 0.4241 17.8826 -14.0331 -4.9735 -1.4251 0.3186 1.1029
-2.3606 95.5267 -1.6903 -1.8573 1.8231 6.5666 -1.3493 1.8893 0.1945 -1.1245 -4.2804 0.5555 -2.9189 11.5426 -1.8204 -12.0587 19.3358 7.4024 3.0081 -3.8557 13.0190 -2.8987 -3.2899 15.5235 0.0431 -0.0321 -0.1112 0.7815 -10.5112 -3.9422 -0.7173 -10.4964 3.7328 -9.8835 12.5131 -8.5740 -32.8066 -3.6838 2.5014 1.9216 0.5856 -105.1606 -3.1685 -40.1341 -10.0161 -15.2780 10.9145 15.7374 -59.8678 1.9677 2.2845 7.0714 14.0652 10.5451 34.6088 17.7421 5.5744 1.6229 1.6954 115.0208 -19.9705 -6.6248 7.8056 14.9392 7.3563 -16.6861 49.9386 -3.4699 -5.5198 12.0335 -28.8487 25.6196 -0.3330 23.8356 -0.6665 -13.8775 1.4658 -7.2845 1.5860 0.3143 -1.6675 -12.4318 -8.5202 -11.1283 0.0818 21.4966 0.4182 18.0012 -13.5362 -5.2168 -1.4255 0.3007 1.1165
-2.0243 95.6184 -1.6305 -1.7926 2.0306 6.7061 -1.4055 1.7718 0.2071 -1.1362 -4.3287 0.5585 -2.8882 11.3733 -1.8308 -11.9428 19.0644 7.3570 3.0359 -3.8567 13.1510 -2.9673 -3.1819 15.6719 0.0364 -0.0367 -0.1023 0.7734 -10.5173 -3.9355 -0.7222 -10.5019 3.7452 -9.7537 12.4235 -8.6244 -32.2335 -3.6157 2.3445 1.9812 0.5000 -104.8396 -3.0351 -40.1349 -10.1724 -15.2487 10.8813 15.6887 -59.8257 1.9676 2.2884 7.2923 14.0345 10.4595 34.8133 17.9855 5.5903 1.8695 1.9521 114.9680 -19.9726 -6.3596 7.7622 14.8688 7.3609 -16.6736 49.8694 -3.4404 -5.5212 11.6028 -28.9273 25.9075 -0.3263 23.8889 -0.6427 -13.7691 1.3779 -7.4947 1.5866 0.3451 -1.6771 -12.6675 -8.2274 -11.1554 0.0765 20.6101 0.4186 18.1465 -13.1461 -5.3930 -1.4246 0.2636 1.1257
-1.6485 95.6568 -1.5970 -1.7508 2.2139 6.7121 -1.4886 1.6965 0.1920 -1.1515 -4.3616 0.5650 -2.8355 11.2383 -1.8604 -11.8156 18.7902 7.2796 3.0489 -3.8652 13.3466 -3.0060 -3.1134 15.8206 0.0260 -0.0417 -0.0827 0.7601 -10.5177 -3.9143 -0.7303 -10.5028 3.7675 -9.5170 12.2982 -8.6996 -31.5571 -3.6922 2.3052 2.0919 0.4395 -104.3366 -2.8929 -40.1295 -10.4344 -15.2112 10.8709 15.6715 -59.8319 1.9742 2.2896 7.5360 13.9625 10.3623 35.1440 18.1124 5.5491 2.1332 2.1958 114.8804 -19.9682 -5.9940 7.7013 14.8107 7.3580 -16.6240 49.8069 -3.4154 -5.4933 11.2018 -29.1133 26.2632 -0.3193 24.2269 -0.6244 -13.6195 1.1586 -7.6897 1.5885 0.3575 -1.6853 -12.9228 -8.0387 -11.0885 0.0678 19.8785 0.4150 18.3095 -12.7857 -5.4856 -1.4250 0.1636 1.1398
-1.2302 95.6454 -1.5830 -1.7447 2.3917 6.5828 -1.5921 1.6672 0.1941 -1.1613 -4.3820 0.5102 -2.7588 11.1232 -1.8881 -11.6954 18.5571 7.1983 3.0922 -3.8720 13.5468 -3.0295 -3.1153 16.0366 0.0221 -0.0417 -0.0743 0.7541 -10.5122 -3.9020 -0.7318 -10.4943 3.7727 -9.1936 12.1641 -8.7985 -30.8481 -3.8771 2.4404 2.2703 0.3980 -103.7221 -2.7690 -40.1064 -10.7269 -15.1445 10.8510 15.6542 -59.8695 1.9847 2.2947 7.7662 13.9021 10.2532 35.5183 18.1838 5.4594 2.3320 2.3515 114.8443 -19.9648 -5.5260 7.6530 14.7701 7.3638 -16.5924 49.8131 -3.3919 -5.4989 10.8353 -29.4575 26.7285 -0.3161 24.8447 -0.6005 -13.4449 0.8159 -7.9144 1.5871 0.3999 -1.6808 -13.1627 -7.9937 -10.9358 0.0604 19.3808 0.4169 18.4764 -12.5194 -5.4846 -1.4253 0.0482 1.1637
-0.8114 95.5994 -1.5885 -1.7815 2.5618 6.3939 -1.6935 1.6780 0.2114 -1.1716 -4.3985 0.4135 -2.6601 11.0524 -1.9192 -11.5861 18.4064 7.1263 3.1358 -3.8867 13.7456 -3.0392 -3.1903 16.2744 0.0221 -0.0360 -0.0738 0.7558 -10.5119 -3.8998 -0.7335 -10.4957 3.7717 -8.8339 12.0720 -8.9121 -30.1367 -4.2751 2.7203 2.4300 0.2777 -103.0379 -2.7536 -39.9637 -10.9677 -15.1058 10.8492 15.6445 -59.9863 1.9918 2.2964 7.9464 13.8657 10.1592 35.9737 18.1282 5.2712 2.5032 2.3469 114.8615 -19.9781 -4.8764 7.5825 14.7518 7.3588 -16.5519 49.8119 -3.3841 -5.5163 10.5057 -29.9729 27.2945 -0.3151 25.7398 -0.5728 -13.2283 0.3863 -8.1782 1.5855 0.4467 -1.6694 -13.3664 -8.1156 -10.7452 0.0520 19.1805 0.4055 18.6374 -12.3933 -5.3900 -1.4276 -0.0587 1.1853
-0.4332 95.4811 -1.6573 -1.8516 2.6761 6.1835 -1.7768 1.7344 0.1795 -1.1850 -4.3823 0.3340 -2.5560 11.0214 -1.9788 -11.5128 18.3286 7.0844 3.1875 -3.9075 13.8661 -2.9784 -3.3641 16.5237 0.0210 -0.0298 -0.0729 0.7543 -10.5135 -3.8939 -0.7340 -10.4941 3.7679 -8.4871 11.9981 -9.0396 -29.5531 -4.8766 3.1598 2.5419 0.2569 -102.2922 -2.8626 -39.7385 -11.1485 -15.0551 10.8389 15.6484 -60.0817 1.9899 2.3119 8.0849 13.8639 10.0670 36.4631 17.9176 5.0554 2.6687 2.2938 114.8441 -20.0455 -4.1006 7.4893 14.7540 7.3472 -16.5321 49.8144 -3.3919 -5.5428 10.2441 -30.5724 27.8509 -0.3061 26.8086 -0.5454 -12.9484 -0.1165 -8.5332 1.5851 0.5013 -1.6556 -13.5410 -8.3670 -10.5734 0.0500 19.2789 0.3921 18.7679 -12.4071 -5.2796 -1.4298 -0.1456 1.2099
-0.0957 95.3214 -1.7654 -1.9167 2.7180 5.9428 -1.8570 1.8503 0.1709 -1.1963 -4.3594 0.2248 -2.4688 11.0687 -2.0491 -11.4587 18.3472 7.0473 3.2321 -3.9344 13.9246 -2.9025 -3.5955 16.7542 0.0246 -0.0246 -0.0819 0.7619 -10.5306 -3.9034 -0.7339 -10.5079 3.7570 -8.1331 11.9296 -9.1664 -29.1089 -5.7810 3.8092 2.5441 0.1349 -101.6511 -3.0530 -39.2025 -11.2430 -15.0292 10.8028 15.6042 -60.1623 1.9848 2.3003 8.1409 13.8859 9.9772 36.9233 17.5759 4.7838 2.8001 2.1701 114.8886 -20.2081 -3.2063 7.3504 14.7147 7.3285 -16.5096 49.7758 -3.4203 -5.5566 10.0182 -31.2365 28.3804 -0.2976 28.0775 -0.5109 -12.5934 -0.7059 -8.8905 1.5857 0.5769 -1.6533 -13.7276 -8.7755 -10.3860 0.0590 19.7714 0.3942 18.8867 -12.6214 -5.1101 -1.4306 -0.2081 1.2340
0.1794 95.1156 -1.9272 -1.9502 2.6748 5.6811 -1.9299 2.0052 0.1576 -1.2068 -4.3177 0.1476 -2.4148 11.1834 -2.1405 -11.4131 18.4350 7.0093 3.2385 -3.9515 13.9682 -2.8161 -3.8474 16.9465 0.0335 -0.0244 -0.1020 0.7732 -10.5441 -3.9230 -0.7273 -10.5203 3.7345 -7.8303 11.8659 -9.2265 -28.9518 -6.9009 4.5434 2.4372 0.0719 -101.1817 -3.1913 -38.5502 -11.3303 -15.0470 10.7676 15.5618 -60.2526 1.9707 2.2735 8.1454 13.9319 9.9735 37.3267 17.1362 4.5177 2.8896 2.0314 114.9123 -20.3665 -2.4103 7.2005 14.6434 7.3174 -16.4740 49.7287 -3.4545 -5.5418 9.8473 -31.8311 28.8553 -0.2908 29.3366 -0.4882 -12.2122 -1.3225 -9.1955 1.5864 0.6317 -1.6625 -13.9529 -9.2814 -10.1817 0.0778 20.5750 0.4328 19.0087 -12.9696 -4.8966 -1.4286 -0.2351 1.2508
0.3789 94.9000 -2.1161 -1.9640 2.5221 5.4079 -1.9754 2.1942 0.1477 -1.2093 -4.2695 0.0971 -2.3855 11.3505 -2.2006 -11.3658 18.6213 6.9549 3.2092 -3.9588 13.9870 -2.7437 -4.0839 17.0606 0.0452 -0.0252 -0.1293 0.7890 -10.5663 -3.9527 -0.7187 -10.5423 3.7034 -7.5564 11.8050 -9.2205 -29.0996 -8.0268 5.2547 2.3105 -0.0568 -100.9864 -3.2394 -37.8654 -11.3867 -15.0647 10.7666 15.5391 -60.3186 1.9601 2.2499 8.0778 14.0129 10.0247 37.6776 16.7745 4.3611 2.8197 1.8541 114.9602 -20.4607 -1.8704 7.0960 14.6058 7.3136 -16.4806 49.7287 -3.4944 -5.5570 9.7680 -32.3326 29.2259 -0.2888 30.5668 -0.4797 -11.8294 -1.9088 -9.4641 1.5876 0.6656 -1.6724 -14.1719 -9.7885 -9.9629 0.1045 21.5627 0.4782 19.1227 -13.3900 -4.6579 -1.4231 -0.2335 1.2618
0.5188 94.6729 -2.2969 -1.9844 2.2731 5.1467 -1.9829 2.3916 0.1574 -1.2134 -4.2146 0.0922 -2.3693 11.5405 -2.2680 -11.3030 18.8674 6.9251 3.1587 -3.9498 13.9981 -2.6841 -4.3344 17.0746 0.0500 -0.0278 -0.1394 0.7961 -10.5772 -3.9626 -0.7166 -10.5551 3.6934 -7.3340 11.7568 -9.1453 -29.5295 -8.9825 5.8783 2.1558 -0.1205 -101.0313 -3.1966 -37.3415 -11.3970 -15.0818 10.7949 15.5199 -60.3388 1.9703 2.2203 7.9984 14.1466 10.1328 37.9126 16.4654 4.3193 2.6971 1.7453 114.9784 -20.5522 -1.5233 7.0089 14.5840 7.3005 -16.4649 49.7207 -3.5301 -5.5629 9.8060 -32.7155 29.4886 -0.2899 31.7033 -0.4839 -11.4824 -2.4254 -9.6429 1.5871 0.6809 -1.6725 -14.3760 -10.1915 -9.7149 0.1270 22.5703 0.5233 19.2562 -13.8281 -4.4114 -1.4181 -0.2271 1.2750
0.5633 94.4514 -2.4986 -2.0195 1.9676 4.9314 -1.9627 2.5800 0.1722 -1.2123 -4.1583 0.0829 -2.3448 11.7288 -2.3062 -11.1973 19.1480 6.8718 3.0991 -3.9307 14.0044 -2.6303 -4.5811 17.0384 0.0524 -0.0318 -0.1443 0.7996 -10.5862 -3.9651 -0.7159 -10.5653 3.6882 -7.1405 11.7679 -9.0373 -30.2255 -9.7516 6.3907 2.0048 -0.1628 -101.2896 -3.1470 -36.9228 -11.3313 -15.0978 10.8246 15.5036 -60.2888 1.9943 2.2015 7.8993 14.2546 10.2437 38.0475 16.3158 4.4571 2.4253 1.6667 114.9543 -20.6193 -1.2598 6.9286 14.5619 7.3272 -16.4753 49.7633 -3.5432 -5.5744 9.9607 -33.0172 29.6448 -0.3067 32.6979 -0.5081 -11.2092 -2.8333 -9.7834 1.5857 0.6810 -1.6680 -14.5055 -10.5104 -9.5154 0.1452 23.5689 0.5604 19.3671 -14.2899 -4.1561 -1.4134 -0.2036 1.2877
0.5129 94.2588 -2.7032 -2.0583 1.6571 4.7852 -1.9210 2.7280 0.1638 -1.2056 -4.0938 0.0949 -2.3102 11.8745 -2.3228 -11.0880 19.4503 6.8322 3.0550 -3.9254 13.9980 -2.5647 -4.8182 16.9642 0.0511 -0.0331 -0.1445 0.7934 -10.6026 -3.9654 -0.7108 -10.5836 3.6863 -6.9932 11.8422 -8.9081 -31.1457 -10.2505 6.7356 1.8931 -0.1672 -101.6989 -3.1705 -36.6147 -11.1771 -15.0862 10.8699 15.5426 -60.2345 1.9991 2.1975 7.7929 14.3541 10.3717 38.1365 16.2300 4.6672 2.0839 1.5979 114.8738 -20.6433 -1.0065 6.8246 14.5790 7.3542 -16.4955 49.8358 -3.5490 -5.5692 10.1737 -33.2431 29.6749 -0.3249 33.4901 -0.5300 -11.0127 -3.1101 -9.8581 1.5874 0.6887 -1.6636 -14.5726 -10.7806 -9.3828 0.1689 24.5195 0.5939 19.3914 -14.7517 -3.8995 -1.4121 -0.1549 1.2822
0.4093 94.0940 -2.9077 -2.0817 1.3430 4.6970 -1.8764 2.8548 0.1744 -1.1921 -4.0380 0.0742 -2.2752 11.9894 -2.3139 -10.9566 19.7331 6.7892 3.0090 -3.9202 14.0211 -2.4635 -5.0517 16.8356 0.0491 -0.0302 -0.1434 0.7846 -10.6181 -3.9652 -0.7057 -10.5986 3.6894 -6.9002 11.9460 -8.7644 -32.2140 -10.4748 6.9632 1.8330 -0.1355 -102.2319 -3.2905 -36.3291 -10.9549 -15.0626 10.9229 15.5939 -60.2101 1.9899 2.1960 7.6731 14.4090 10.5058 38.1975 16.1009 4.8758 1.8088 1.4397 114.7612 -20.6477 -0.6688 6.6621 14.5920 7.3676 -16.5347 49.8263 -3.5560 -5.5769 10.4144 -33.3791 29.6248 -0.3543 34.0785 -0.5662 -10.8708 -3.2461 -9.8313 1.5881 0.6964 -1.6629 -14.6088 -10.9900 -9.2934 0.1834 25.4111 0.6068 19.3573 -15.1796 -3.6421 -1.4138 -0.1104 1.2733
0.2369 93.9475 -3.0884 -2.0798 1.0542 4.6543 -1.8312 2.9447 0.1728 -1.1810 -3.9893 0.0744 -2.2415 12.0751 -2.2925 -10.8420 20.0186 6.7922 3.0044 -3.9239 14.0101 -2.3505 -5.2967 16.6888 0.0474 -0.0242 -0.1421 0.7770 -10.6279 -3.9634 -0.7008 -10.6058 3.6908 -6.8579 12.0630 -8.6365 -33.3261 -10.4833 7.1046 1.7953 -0.0442 -102.8446 -3.4678 -36.1174 -10.7568 -15.0276 10.9416 15.6451 -60.2186 1.9534 2.2133 7.5450 14.4480 10.5915 38.2294 15.8115 5.0412 1.6660 1.2537 114.5948 -20.7120 -0.2457 6.4863 14.5961 7.3814 -16.5761 49.8138 -3.5663 -5.5885 10.6473 -33.4254 29.4809 -0.3741 34.4318 -0.5958 -10.7986 -3.2738 -9.7176 1.5898 0.6810 -1.6653 -14.6232 -11.1789 -9.2680 0.1957 26.2020 0.6142 19.2768 -15.5775 -3.4164 -1.4180 -0.0624 1.2548
-0.0146 93.8313 -3.2580 -2.0596 0.8089 4.6322 -1.7826 3.0053 0.1908 -1.1628 -3.9667 0.0631 -2.2176 12.1437 -2.2796 -10.7451 20.2991 6.8825 3.0260 -3.9300 13.9236 -2.2504 -5.5984 16.5788 0.0470 -0.0188 -0.1389 0.7736 -10.6176 -3.9559 -0.6976 -10.5924 3.6903 -6.8772 12.1937 -8.5096 -34.3857 -10.3581 7.1768 1.7506 0.0930 -103.4575 -3.6396 -35.9231 -10.5716 -14.9916 10.9396 15.6752 -60.2725 1.9138 2.2497 7.4121 14.4606 10.6678 38.2437 15.4933 5.1731 1.6119 1.1227 114.3793 -20.8824 0.2329 6.4068 14.5755 7.3714 -16.5995 49.7344 -3.5779 -5.6132 10.8633 -33.4050 29.2671 -0.3889 34.5924 -0.6350 -10.8288 -3.2051 -9.4965 1.5976 0.6153 -1.6656 -14.6180 -11.3491 -9.2736 0.2009 26.8906 0.6204 19.1759 -15.9490 -3.2261 -1.4240 -0.0380 1.2334
-0.2785 93.7402 -3.3892 -2.0221 0.5612 4.6284 -1.7333 3.0394 0.1949 -1.1483 -3.9386 0.0792 -2.1968 12.1987 -2.3158 -10.7067 20.5953 6.9689 3.0438 -3.9649 13.8928 -2.1221 -5.9021 16.4799 0.0518 -0.0217 -0.1482 0.7756 -10.6080 -3.9624 -0.6889 -10.5855 3.6760 -6.9343 12.3490 -8.3529 -35.3960 -10.1305 7.2363 1.7987 0.1557 -104.0559 -3.9040 -35.7491 -10.4150 -15.0020 10.9409 15.7293 -60.3616 1.8456 2.3100 7.2107 14.4186 10.7159 38.3315 15.1952 5.3485 1.5891 1.0628 114.1414 -21.1154 0.6973 6.3723 14.5844 7.3646 -16.6354 49.7626 -3.5561 -5.5992 11.0741 -33.2919 28.9884 -0.3944 34.6237 -0.6675 -10.9234 -3.0651 -9.2544 1.6135 0.5085 -1.6721 -14.5988 -11.4760 -9.3565 0.2000 27.4679 0.6184 19.0405 -16.2780 -3.0483 -1.4284 -0.0868 1.2146
-0.5740 93.6612 -3.4891 -1.9521 0.3199 4.6690 -1.7001 3.0506 0.2140 -1.1254 -3.9233 0.0681 -2.1828 12.2557 -2.3824 -10.7429 20.8254 7.0072 3.0120 -4.0062 13.9000 -1.9066 -6.1064 16.3408 0.0694 -0.0320 -0.1859 0.7924 -10.5951 -3.9987 -0.6695 -10.5744 3.6317 -6.9832 12.4456 -8.1700 -36.4318 -9.7828 7.4003 1.8047 0.2175 -104.6925 -4.1883 -35.3908 -10.3262 -15.0451 10.8951 15.7451 -60.4168 1.7817 2.3747 6.9687 14.2225 10.6834 38.5540 15.0340 5.5214 1.6347 1.0243 113.9561 -21.3145 0.9990 6.3636 14.5650 7.4038 -16.6389 49.8265 -3.4691 -5.5317 11.2621 -33.0928 28.7172 -0.3970 34.4993 -0.6859 -11.0658 -2.8494 -9.0065 1.6316 0.4287 -1.6738 -14.6251 -11.5842 -9.4410 0.1838 28.0200 0.5890 18.9068 -16.5821 -2.9167 -1.4307 -0.2029 1.2063
