HIERARCHY
ROOT Hips
{
	OFFSET 0.0000 0.0000 0.0000
	CHANNELS 6 Xposition Yposition Zposition Zrotation Xrotation Yrotation
	JOINT Spine1
	{
		OFFSET -0.0137 5.0038 -0.0537
		CHANNELS 3 Zrotation Xrotation Yrotation
		JOINT Spine2
		{
			OFFSET -0.0000 7.1253 -0.0298
			CHANNELS 3 Zrotation Xrotation Yrotation
			JOINT Chest
			{
				OFFSET -0.0000 7.5501 -0.8160
				CHANNELS 3 Zrotation Xrotation Yrotation
				JOINT Neck1
				{
					OFFSET -0.1817 26.3113 -0.5533
					CHANNELS 3 Zrotation Xrotation Yrotation
					JOINT Neck2
					{
						OFFSET -0.0000 7.7094 2.3026
						CHANNELS 3 Zrotation Xrotation Yrotation
						JOINT Head
						{
							OFFSET -0.0000 6.1289 1.9537
							CHANNELS 3 Zrotation Xrotation Yrotation
							JOINT Jaw
							{
								OFFSET 0.0026 0.4756 3.0949
								CHANNELS 3 Zrotation Xrotation Yrotation
								End Site
								{
									OFFSET 0.0 1.0 0.0
								}
							}
							JOINT LeftEye
							{
								OFFSET 3.2064 5.3802 7.5869
								CHANNELS 3 Zrotation Xrotation Yrotation
								End Site
								{
									OFFSET 0.0 1.0 0.0
								}
							}
							JOINT RightEye
							{
								OFFSET -3.2224 5.3619 7.5582
								CHANNELS 3 Zrotation Xrotation Yrotation
								End Site
								{
									OFFSET 0.0 1.0 0.0
								}
							}
						}
					}
				}
				JOINT LeftShoulder
				{
					OFFSET 1.6217 23.2372 5.1134
					CHANNELS 3 Zrotation Xrotation Yrotation
					JOINT LeftArm
					{
						OFFSET 14.9198 0.0000 -5.5023
						CHANNELS 3 Zrotation Xrotation Yrotation
						JOINT LeftForeArm
						{
							OFFSET 28.7393 0.0000 -0.0026
							CHANNELS 3 Zrotation Xrotation Yrotation
							JOINT LeftHand
							{
								OFFSET 27.0940 -0.0000 0.0026
								CHANNELS 3 Zrotation Xrotation Yrotation
								JOINT LeftHandThumbEnd
								{
									OFFSET 12.2686 -3.2202 4.8331
									CHANNELS 3 Zrotation Xrotation Yrotation
									End Site
									{
										OFFSET 0.0 1.0 0.0
									}
								}
								JOINT LeftHandMiddleEnd
								{
									OFFSET 19.0120 -0.3129 -0.0340
									CHANNELS 3 Zrotation Xrotation Yrotation
									End Site
									{
										OFFSET 0.0 1.0 0.0
									}
								}
							}
						}
					}
				}
				JOINT RightShoulder
				{
					OFFSET -1.3801 23.1803 5.2142
					CHANNELS 3 Zrotation Xrotation Yrotation
					JOINT RightArm
					{
						OFFSET -15.0372 0.0000 -5.5456
						CHANNELS 3 Zrotation Xrotation Yrotation
						JOINT RightForeArm
						{
							OFFSET -28.7366 0.0000 -0.0026
							CHANNELS 3 Zrotation Xrotation Yrotation
							JOINT RightHand
							{
								OFFSET -27.1336 -0.0000 0.0026
								CHANNELS 3 Zrotation Xrotation Yrotation
								JOINT RightHandThumbEnd
								{
									OFFSET -12.2642 -3.2115 4.8040
									CHANNELS 3 Zrotation Xrotation Yrotation
									End Site
									{
										OFFSET 0.0 1.0 0.0
									}
								}
								JOINT RightHandMiddleEnd
								{
									OFFSET -19.0006 -0.3066 -0.0316
									CHANNELS 3 Zrotation Xrotation Yrotation
									End Site
									{
										OFFSET 0.0 1.0 0.0
									}
								}
							}
						}
					}
				}
			}
		}
	}
	JOINT LeftLeg
	{
		OFFSET 10.0432 -8.4345 2.5957
		CHANNELS 3 Zrotation Xrotation Yrotation
		JOINT LeftShin
		{
			OFFSET -0.0000 -43.2218 -0.8029
			CHANNELS 3 Zrotation Xrotation Yrotation
			JOINT LeftFoot
			{
				OFFSET 0.0000 -42.1551 -3.4815
				CHANNELS 3 Zrotation Xrotation Yrotation
				JOINT LeftToeBase
				{
					OFFSET 0.0000 -5.0595 13.2315
					CHANNELS 3 Zrotation Xrotation Yrotation
					End Site
					{
						OFFSET 0.0 1.0 0.0
					}
				}
			}
		}
	}
	JOINT RightLeg
	{
		OFFSET -10.0473 -8.2953 2.6203
		CHANNELS 3 Zrotation Xrotation Yrotation
		JOINT RightShin
		{
			OFFSET 0.0000 -43.3622 -0.8056
			CHANNELS 3 Zrotation Xrotation Yrotation
			JOINT RightFoot
			{
				OFFSET 0.0000 -42.1174 -3.4784
				CHANNELS 3 Zrotation Xrotation Yrotation
				JOINT RightToeBase
				{
					OFFSET -0.0000 -5.0796 13.2842
					CHANNELS 3 Zrotation Xrotation Yrotation
					End Site
					{
						OFFSET 0.0 1.0 0.0
					}
				}
			}
		}
	}
}
MOTION
Frames: 120
Frame Time: 0.033333
-3.1432 91.0172 5.0826 3.8365 3.4832 0.0823 0.2784 1.3634 -0.7326 -0.1389 -4.2858 -1.9574 1.2841 20.4850 -3.6005 14.4063 17.1426 -1.5743 -2.1776 -4.0426 -6.0319 3.1432 -11.2334 -9.5461 -0.0044 -0.0540 0.0449 0.7411 -10.4741 -3.8166 -0.7272 -10.5413 3.8875 -18.0768 19.2042 -12.8560 -43.6467 9.9948 -28.1766 0.8423 -0.5754 -98.2279 25.7874 3.2812 24.1488 -15.3617 11.7053 16.7799 -60.4108 1.7232 2.2637 9.3166 15.0590 10.5822 45.8028 -4.9708 25.7143 0.0409 0.0360 82.6094 -11.0695 8.7650 -3.9198 14.8908 7.4247 -16.4630 50.0285 -3.2326 -5.4375 17.7225 -8.4147 7.1197 -0.2822 22.7940 -0.7357 -25.7445 -13.2426 5.5571 1.6356 -1.9087 -1.9645 -15.2660 -40.1972 -21.1187 0.6494 43.8261 0.9240 12.0831 -9.3454 4.5043 -1.4055 -0.5691 0.9648
-3.1828 91.0308 5.3134 3.8067 3.5477 -0.3275 0.3577 1.4855 -0.8167 -0.0732 -4.2926 -2.0906 1.5057 20.5373 -3.7985 14.5960 16.8172 -1.5142 -2.1705 -4.0611 -6.0300 2.9653 -11.3006 -9.2622 -0.0072 -0.0775 0.0394 0.7382 -10.4948 -3.8240 -0.7290 -10.5602 3.8839 -17.8609 19.2910 -13.0566 -43.8635 9.5483 -28.0681 0.7906 -0.7098 -97.5034 25.7650 3.2791 23.2686 -15.2647 11.6144 16.6565 -60.4140 1.6633 2.1243 9.3580 15.0287 10.3771 46.0231 -5.3425 25.4097 0.3251 -0.0577 83.0783 -10.5217 9.1740 -3.7716 14.8134 7.4925 -16.4499 50.0382 -3.1468 -5.3177 17.6942 -8.1312 7.0901 -0.2905 22.8098 -0.7587 -25.8304 -13.3880 6.1392 1.6364 -1.8582 -1.9720 -15.2272 -40.1891 -20.7658 0.6291 43.9703 0.9075 12.0432 -9.4494 4.4172 -1.4152 -0.5480 0.9466
-3.1989 91.0314 5.4377 3.7721 3.7280 -0.7740 0.4500 1.6770 -0.9110 -0.0001 -4.2522 -2.2914 1.7907 20.5927 -3.9407 14.7441 16.4958 -1.4640 -2.1828 -4.0970 -6.0046 2.7279 -11.3543 -8.9318 -0.0098 -0.0867 0.0462 0.7344 -10.5283 -3.8192 -0.7296 -10.5864 3.8918 -17.4837 19.3138 -13.3660 -44.0799 9.0869 -28.0557 0.7911 -0.7067 -96.7300 25.8270 3.0370 22.4382 -15.1915 11.6130 16.6549 -60.3815 1.6608 2.0945 9.3483 14.9368 10.2117 46.2109 -5.7188 25.1506 0.5494 -0.1335 83.5602 -10.1271 9.4459 -3.6758 14.7652 7.5062 -16.3703 49.9934 -3.0914 -5.2694 17.6268 -8.1366 7.0814 -0.2734 23.0230 -0.7543 -25.8106 -13.4546 6.6739 1.6425 -1.8165 -1.9849 -15.0806 -40.3764 -20.4605 0.6409 44.0687 0.9350 11.9421 -9.3939 4.3204 -1.4189 -0.4429 0.9407
-3.1796 91.0480 5.4552 3.6897 4.0000 -1.3316 0.5668 1.9237 -1.0046 0.0805 -4.1945 -2.4808 2.1437 20.7088 -4.0628 14.7808 16.2480 -1.4224 -2.1769 -4.1228 -5.8916 2.4647 -11.4871 -8.5211 -0.0114 -0.0928 0.0552 0.7322 -10.5523 -3.8100 -0.7287 -10.6023 3.8984 -16.9978 19.3506 -13.7371 -44.1921 8.5457 -28.1796 0.8404 -0.6776 -95.9579 26.0293 2.7997 21.7857 -15.1273 11.6076 16.6436 -60.3573 1.6617 2.0980 9.2353 14.8444 10.0999 46.3246 -6.1074 25.0201 0.6393 -0.2107 84.0424 -9.7057 9.7433 -3.6094 14.7270 7.5014 -16.2968 49.9489 -3.0636 -5.2497 17.5514 -8.3569 7.1333 -0.2538 23.3727 -0.7536 -25.7725 -13.4619 7.1898 1.6456 -1.7755 -1.9968 -14.7913 -40.6711 -20.2114 0.6319 44.0012 0.9353 11.8222 -9.1696 4.3142 -1.4189 -0.3762 0.9253
-3.1003 91.0839 5.3833 3.5746 4.3576 -1.9824 0.7142 2.2321 -1.0755 0.1740 -4.0999 -2.6793 2.5183 20.8554 -4.1707 14.7456 16.0471 -1.4038 -2.1254 -4.1336 -5.6774 2.1715 -11.6667 -8.0562 -0.0082 -0.0956 0.0560 0.7313 -10.5553 -3.8078 -0.7212 -10.6006 3.8968 -16.3782 19.3902 -14.1522 -44.1743 7.9163 -28.3880 0.8646 -0.6832 -95.2391 26.3957 2.4935 21.2012 -15.0439 11.5945 16.6159 -60.2946 1.6769 2.1100 9.0040 14.7358 10.0163 46.3340 -6.4966 25.0951 0.6511 -0.2537 84.5086 -9.1808 10.0864 -3.5922 14.6977 7.4984 -16.2405 49.8758 -3.0556 -5.2200 17.4731 -8.7591 7.2175 -0.2352 23.8405 -0.7520 -25.7433 -13.4407 7.7260 1.6477 -1.7101 -2.0047 -14.3967 -41.0627 -19.9760 0.6053 43.7719 0.9076 11.6828 -8.7850 4.3538 -1.4206 -0.3005 0.9066
-2.9963 91.1213 5.2220 3.4516 4.7789 -2.6820 0.8706 2.5802 -1.1457 0.2657 -3.9801 -2.8670 2.8719 21.0411 -4.2654 14.6206 15.9311 -1.3826 -2.0558 -4.1285 -5.3493 1.8661 -11.8437 -7.5581 -0.0031 -0.0972 0.0530 0.7326 -10.5530 -3.8107 -0.7102 -10.5978 3.8897 -15.6695 19.4197 -14.5638 -44.0093 7.3013 -28.5915 0.8774 -0.7280 -94.7447 26.8736 2.0701 20.7123 -14.9653 11.5813 16.5942 -60.2589 1.6919 2.1381 8.6975 14.6145 9.9828 46.1550 -6.8448 25.3546 0.5979 -0.3128 84.9854 -8.5773 10.4918 -3.6178 14.7399 7.4954 -16.2106 49.8866 -3.0664 -5.2131 17.3793 -9.3349 7.3319 -0.2262 24.4346 -0.7383 -25.6707 -13.4498 8.1945 1.6488 -1.5770 -2.0179 -13.9178 -41.5521 -19.7956 0.5822 43.4538 0.8808 11.5346 -8.2914 4.4368 -1.4212 -0.2179 0.8914
-2.8221 91.1521 4.9837 3.3322 5.2692 -3.4322 1.0219 2.9375 -1.1915 0.3537 -3.8295 -3.0466 3.2061 21.2340 -4.3382 14.4239 15.9140 -1.3907 -1.9741 -4.1219 -4.9676 1.5307 -11.9828 -7.0217 0.0030 -0.0994 0.0467 0.7369 -10.5485 -3.8179 -0.7017 -10.5939 3.8831 -14.9544 19.4451 -14.9715 -43.7144 6.7911 -28.7769 0.9162 -0.7852 -94.4989 27.3762 1.5215 20.3041 -14.9356 11.5465 16.5559 -60.2219 1.7085 2.1500 8.3585 14.4971 9.9753 45.7839 -7.1838 25.7003 0.5904 -0.2948 85.4576 -7.9676 10.8099 -3.6446 14.8102 7.4904 -16.2059 49.9527 -3.0599 -5.2179 17.2789 -10.0587 7.4832 -0.2257 25.1310 -0.7149 -25.6293 -13.4795 8.6281 1.6522 -1.4583 -2.0241 -13.4107 -42.1451 -19.6438 0.5564 43.0607 0.8490 11.3990 -7.6898 4.5735 -1.4215 -0.1866 0.8768
-2.6357 91.1927 4.7130 3.2138 5.8188 -4.1802 1.1722 3.2763 -1.2271 0.4388 -3.6823 -3.2015 3.5066 21.4452 -4.3940 14.1698 15.9749 -1.3769 -1.9003 -4.1187 -4.6271 1.1408 -12.0497 -6.4816 0.0090 -0.0977 0.0358 0.7422 -10.5537 -3.8316 -0.6953 -10.6024 3.8744 -14.2472 19.4492 -15.3403 -43.3665 6.3577 -28.9011 0.8866 -0.8811 -94.4588 27.9035 0.8284 19.9098 -14.9124 11.5363 16.5503 -60.2229 1.7263 2.1708 7.9735 14.3901 9.9922 45.2471 -7.5544 26.0762 0.5999 -0.2954 85.8240 -7.4195 11.0095 -3.5917 14.9174 7.4875 -16.2324 50.0387 -3.0568 -5.2372 17.1560 -10.8984 7.5939 -0.2275 25.9012 -0.6910 -25.6012 -13.5188 9.0967 1.6559 -1.3419 -2.0370 -12.8450 -42.8370 -19.5614 0.5308 42.6609 0.8179 11.2378 -7.0461 4.7287 -1.4188 -0.1770 0.8557
-2.4210 91.2151 4.4200 3.0962 6.3930 -4.8900 1.3086 3.5670 -1.2693 0.5036 -3.5352 -3.2940 3.7907 21.6508 -4.4657 13.8235 16.0867 -1.3612 -1.8082 -4.1101 -4.3587 0.7428 -12.0377 -5.9980 0.0180 -0.0972 0.0184 0.7483 -10.5613 -3.8538 -0.6831 -10.6125 3.8590 -13.6397 19.3859 -15.6441 -43.0454 6.1035 -29.0459 0.8662 -0.9333 -94.5915 28.4588 0.2054 19.6355 -14.9235 11.5224 16.5556 -60.2246 1.7460 2.2034 7.6114 14.3019 10.0016 44.5440 -7.9423 26.5035 0.5822 -0.2934 85.9988 -7.0600 11.0559 -3.4508 15.0515 7.4725 -16.2701 50.1463 -3.0901 -5.2573 17.0226 -11.7527 7.6692 -0.2181 26.6165 -0.6593 -25.6054 -13.5691 9.5452 1.6577 -1.2207 -2.0491 -12.2842 -43.5650 -19.5088 0.5272 42.2653 0.8083 11.0740 -6.3997 4.8871 -1.4136 -0.1811 0.8385
-2.1858 91.2474 4.1833 3.0022 6.9436 -5.5236 1.4098 3.8058 -1.3065 0.5545 -3.4039 -3.3572 4.0207 21.8205 -4.5180 13.4649 16.2435 -1.3482 -1.7096 -4.0942 -4.1647 0.3977 -11.9574 -5.6270 0.0261 -0.1007 0.0059 0.7562 -10.5667 -3.8679 -0.6748 -10.6162 3.8460 -13.1557 19.3102 -15.8591 -42.8122 5.8800 -29.2150 0.8123 -0.9637 -94.8147 28.9713 -0.2877 19.4700 -14.9364 11.5102 16.5591 -60.2172 1.7500 2.2091 7.3107 14.2185 10.0098 43.7736 -8.3158 26.9070 0.5356 -0.2726 85.9686 -6.9997 10.8882 -3.2426 15.1404 7.4760 -16.3071 50.2202 -3.0892 -5.2723 16.8943 -12.5129 7.7380 -0.2155 27.1706 -0.6297 -25.6089 -13.5691 9.9549 1.6611 -1.1514 -2.0640 -11.7899 -44.2420 -19.4444 0.5222 41.8528 0.8034 10.9787 -5.7777 5.0042 -1.4061 -0.1667 0.8299
-1.9864 91.3232 3.9640 2.9126 7.4624 -6.0869 1.4842 4.0054 -1.3242 0.5926 -3.3083 -3.4212 4.1776 21.9562 -4.5328 13.1108 16.3768 -1.3239 -1.6638 -4.0838 -4.0270 0.1662 -11.7921 -5.4049 0.0363 -0.1068 -0.0085 0.7657 -10.5726 -3.8829 -0.6635 -10.6221 3.8287 -12.7768 19.2215 -15.9951 -42.6866 5.6104 -29.4083 0.7301 -0.9515 -95.0721 29.4168 -0.6691 19.3573 -14.9795 11.4772 16.5579 -60.2406 1.7277 2.1921 7.0883 14.1539 10.0317 43.0547 -8.7640 27.1293 0.5554 -0.2883 85.7528 -7.2100 10.5685 -2.9837 15.1970 7.4638 -16.3343 50.2645 -3.0988 -5.2844 16.7660 -13.1950 7.8149 -0.2121 27.5800 -0.6100 -25.5718 -13.5364 10.3059 1.6616 -1.1234 -2.0702 -11.3073 -44.8124 -19.4278 0.5181 41.3979 0.7989 10.9145 -5.1982 5.1051 -1.3999 -0.1367 0.8339
-1.8310 91.3975 3.7796 2.8467 7.9466 -6.4902 1.5370 4.1579 -1.3485 0.6058 -3.2293 -3.4369 4.2846 22.0333 -4.5537 12.8214 16.4839 -1.3052 -1.6251 -4.0780 -3.9863 0.0308 -11.6142 -5.2839 0.0441 -0.1136 -0.0210 0.7723 -10.5780 -3.8983 -0.6543 -10.6275 3.8161 -12.4726 19.1277 -16.0890 -42.6774 5.2813 -29.6816 0.6518 -0.9139 -95.3080 29.8483 -0.9754 19.2282 -15.0191 11.4509 16.5641 -60.2634 1.7163 2.1613 6.9036 14.1042 10.0378 42.4843 -9.1985 27.1735 0.5620 -0.3100 85.4207 -7.6358 10.1354 -2.7073 15.2259 7.4434 -16.3276 50.2823 -3.1041 -5.2691 16.6465 -13.7974 7.8223 -0.2096 27.8492 -0.5804 -25.5051 -13.4427 10.5493 1.6620 -1.1679 -2.0838 -10.8847 -45.2935 -19.4540 0.5047 40.9413 0.7738 10.8894 -4.6808 5.1485 -1.3942 -0.1407 0.8350
-1.7042 91.4984 3.6149 2.7732 8.3756 -6.7061 1.5726 4.2679 -1.3665 0.6017 -3.1690 -3.4304 4.3474 22.0488 -4.5816 12.5891 16.5539 -1.3017 -1.6087 -4.0811 -3.9794 -0.0077 -11.4288 -5.2690 0.0455 -0.1232 -0.0263 0.7704 -10.5729 -3.9044 -0.6481 -10.6251 3.8114 -12.2448 19.0134 -16.1462 -42.7719 4.9713 -30.0784 0.6532 -0.8764 -95.4448 30.2322 -1.1607 19.1650 -15.0605 11.4253 16.5834 -60.2341 1.7141 2.1621 6.7505 14.0681 10.0619 42.0812 -9.5735 27.0638 0.5191 -0.3096 84.9299 -8.2064 9.6032 -2.3857 15.2222 7.4249 -16.3132 50.2569 -3.1044 -5.2670 16.5988 -14.3037 7.7613 -0.2142 27.9338 -0.5710 -25.4619 -13.2731 10.7184 1.6620 -1.2686 -2.0940 -10.4824 -45.6112 -19.5431 0.4743 40.4253 0.7399 10.8735 -4.2172 5.0786 -1.3924 -0.1814 0.8391
-1.6410 91.6171 3.4732 2.6655 8.7609 -6.7365 1.6059 4.3299 -1.3775 0.5955 -3.1226 -3.4118 4.3747 22.0150 -4.6056 12.3933 16.6265 -1.2796 -1.5962 -4.0822 -4.0300 0.0748 -11.2242 -5.3809 0.0398 -0.1345 -0.0245 0.7581 -10.5696 -3.9001 -0.6497 -10.6184 3.8162 -12.0713 18.9025 -16.1701 -42.9655 4.5409 -30.5296 0.6463 -0.8968 -95.4836 30.6178 -1.1987 19.1373 -15.0813 11.4005 16.6046 -60.2472 1.7212 2.1777 6.6103 14.0655 10.0815 41.8142 -9.8711 26.8410 0.4349 -0.3468 84.3158 -8.9286 9.0811 -2.1036 15.2203 7.4044 -16.3109 50.2262 -3.1394 -5.2684 16.6416 -14.7449 7.6136 -0.2133 27.8515 -0.5629 -25.4338 -13.0707 10.8069 1.6617 -1.3770 -2.1023 -10.0479 -45.7959 -19.7487 0.4518 39.8726 0.7110 10.8285 -3.7750 4.9259 -1.3905 -0.2464 0.8318
-1.6336 91.7421 3.3519 2.5337 9.0925 -6.5587 1.6294 4.3653 -1.3790 0.5926 -3.1014 -3.3970 4.3286 21.9164 -4.6119 12.2452 16.7292 -1.2669 -1.6130 -4.0734 -4.0904 0.2133 -11.0522 -5.5834 0.0291 -0.1440 -0.0178 0.7406 -10.5557 -3.8877 -0.6547 -10.6072 3.8226 -11.9047 18.7857 -16.1355 -43.2963 4.0227 -30.9422 0.5552 -0.9541 -95.5171 31.0771 -1.1720 18.9929 -15.0925 11.3532 16.6348 -60.2592 1.7203 2.2224 6.4153 14.0519 10.0959 41.7786 -10.1458 26.3706 0.4710 -0.3615 83.7857 -9.7289 8.4762 -1.8687 15.2366 7.3791 -16.3258 50.1887 -3.1908 -5.2707 16.7753 -15.1954 7.4324 -0.2250 27.7224 -0.5662 -25.4110 -12.8298 10.6784 1.6606 -1.4944 -2.1128 -9.5892 -45.8698 -20.1096 0.4327 39.3402 0.6890 10.7939 -3.4443 4.7142 -1.3908 -0.2779 0.8232
-1.6606 91.8596 3.2056 2.3905 9.3543 -6.1855 1.6440 4.4111 -1.3578 0.5902 -3.0940 -3.3765 4.2140 21.7411 -4.6137 12.1108 16.8665 -1.2530 -1.6170 -4.0639 -4.1841 0.3680 -10.9837 -5.7987 0.0248 -0.1511 -0.0170 0.7298 -10.5337 -3.8813 -0.6533 -10.5883 3.8206 -11.8082 18.6657 -16.0551 -43.6788 3.5692 -31.3321 0.4746 -0.9700 -95.5560 31.5821 -1.1754 18.6823 -15.0827 11.2786 16.6292 -60.2340 1.7110 2.2602 6.2271 14.0676 10.0875 41.8421 -10.3249 25.7664 0.5050 -0.3706 83.4877 -10.5907 7.7720 -1.6085 15.2858 7.3645 -16.3582 50.2061 -3.2412 -5.2744 17.0019 -15.6459 7.2075 -0.2409 27.5649 -0.5652 -25.4543 -12.5810 10.3748 1.6599 -1.6415 -2.1105 -9.1612 -45.8514 -20.5537 0.4165 38.8821 0.6659 10.8116 -3.1884 4.4295 -1.3917 -0.3017 0.8203
-1.7312 91.9512 3.0645 2.2609 9.5590 -5.6278 1.6435 4.4584 -1.3256 0.5873 -3.0944 -3.3461 4.0371 21.5497 -4.5913 11.9413 16.9955 -1.2133 -1.6022 -4.0607 -4.3311 0.5927 -10.9988 -6.0928 0.0229 -0.1550 -0.0168 0.7216 -10.5190 -3.8802 -0.6497 -10.5782 3.8210 -11.8075 18.5593 -15.9646 -43.9880 3.2678 -31.6998 0.4934 -0.9343 -95.6013 32.0965 -1.2602 18.1653 -15.0695 11.1970 16.6153 -60.2071 1.6856 2.2885 6.0487 14.1297 10.0549 41.9516 -10.4812 25.0207 0.5344 -0.3612 83.5265 -11.6531 6.9353 -1.2400 15.3376 7.3730 -16.3838 50.2603 -3.2478 -5.2765 17.2852 -16.1417 6.9238 -0.2631 27.4415 -0.5828 -25.5506 -12.3221 9.9866 1.6589 -1.7797 -2.1059 -8.8105 -45.7926 -21.0464 0.4149 38.5213 0.6550 10.8672 -3.0544 4.0978 -1.3927 -0.3022 0.8230
-1.8352 92.0181 2.8700 2.1317 9.7266 -4.8826 1.6426 4.4969 -1.2852 0.5688 -3.0842 -3.2784 3.8265 21.3679 -4.5543 11.7376 17.0496 -1.1523 -1.5803 -4.0513 -4.5530 0.9118 -11.0047 -6.4841 0.0203 -0.1525 -0.0154 0.7152 -10.5071 -3.8768 -0.6476 -10.5675 3.8199 -11.8973 18.4409 -15.9050 -44.1004 3.1834 -31.9754 0.5450 -0.8822 -95.6462 32.5853 -1.4021 17.6931 -14.9991 11.1578 16.6167 -60.1421 1.6767 2.3198 5.9299 14.1915 10.0224 42.0484 -10.7055 24.1715 0.6255 -0.3315 83.7857 -12.9570 6.0281 -0.7796 15.3529 7.4012 -16.4199 50.2742 -3.2644 -5.2901 17.6102 -16.7142 6.4933 -0.2873 27.4091 -0.6084 -25.6364 -12.0697 9.5443 1.6595 -1.8769 -2.1021 -8.4918 -45.7065 -21.5652 0.4161 38.2554 0.6460 10.9053 -2.9921 3.6392 -1.3947 -0.2923 0.8346
-1.9256 92.0813 2.6097 2.0352 9.8744 -3.9557 1.6211 4.5266 -1.2339 0.5303 -3.0760 -3.1906 3.6013 21.2338 -4.4992 11.5263 17.0996 -1.1133 -1.5518 -4.0411 -4.8302 1.2777 -11.0321 -6.9095 0.0173 -0.1479 -0.0139 0.7114 -10.5107 -3.8796 -0.6511 -10.5712 3.8274 -12.0614 18.3812 -15.9090 -43.9399 3.1705 -32.1383 0.5985 -0.8462 -95.6499 33.0533 -1.4735 17.4801 -14.9576 11.1581 16.6709 -60.1600 1.6819 2.3426 5.8396 14.2692 10.0269 42.1793 -11.0324 23.2585 0.7390 -0.3289 84.1429 -14.3538 5.2545 -0.2951 15.3564 7.4067 -16.4195 50.2848 -3.2620 -5.2856 17.9346 -17.3757 5.9703 -0.2999 27.4230 -0.6300 -25.6950 -11.8067 9.0334 1.6618 -1.9542 -2.0936 -8.2721 -45.6331 -22.0197 0.4192 38.0716 0.6333 10.9594 -2.9784 2.9998 -1.3971 -0.3042 0.8384
-2.0564 92.1356 2.3001 1.9540 10.0073 -2.8802 1.5881 4.5677 -1.1708 0.4794 -3.0534 -3.0821 3.3608 21.1276 -4.4387 11.3861 17.1618 -1.1200 -1.5576 -4.0295 -5.0924 1.6795 -11.0853 -7.3868 0.0127 -0.1435 -0.0083 0.7077 -10.5122 -3.8775 -0.6580 -10.5735 3.8396 -12.2476 18.3351 -15.9725 -43.5692 3.1948 -32.1511 0.6573 -0.7993 -95.5577 33.3925 -1.5679 17.4647 -14.9362 11.1943 16.7220 -60.1993 1.6978 2.3575 5.7820 14.3038 10.0644 42.2981 -11.3668 22.4575 0.8342 -0.3367 84.3803 -15.6304 4.6073 0.1300 15.3348 7.3883 -16.4148 50.2596 -3.2629 -5.2934 18.2820 -18.1445 5.3596 -0.3135 27.5099 -0.6556 -25.7043 -11.5265 8.4261 1.6595 -2.0474 -2.0826 -8.1271 -45.5442 -22.4324 0.4288 37.9034 0.6418 11.0187 -2.9497 2.2334 -1.4005 -0.3552 0.8469
-2.1449 92.1835 1.9428 1.8866 10.1053 -1.7005 1.5520 4.6120 -1.1118 0.4253 -3.0112 -2.9682 3.1382 21.0619 -4.3616 11.3133 17.2173 -1.1378 -1.5784 -4.0182 -5.3570 2.1018 -11.1592 -7.8952 0.0089 -0.1409 -0.0018 0.7009 -10.5142 -3.8764 -0.6587 -10.5771 3.8525 -12.4630 18.2880 -16.0785 -43.0727 3.2616 -32.0654 0.7319 -0.7708 -95.4358 33.6242 -1.6834 17.5786 -14.9271 11.2169 16.7841 -60.1879 1.7042 2.3939 5.7728 14.3255 10.1532 42.3551 -11.6727 21.8352 0.8867 -0.2717 84.4543 -16.6981 4.0462 0.3774 15.3716 7.3621 -16.3842 50.2610 -3.2667 -5.2873 18.6311 -18.9174 4.6383 -0.3332 27.5711 -0.6909 -25.6454 -11.2555 7.8276 1.6569 -2.1136 -2.0713 -8.0588 -45.4106 -22.7794 0.4416 37.7267 0.6597 11.0893 -2.8890 1.3538 -1.4047 -0.4071 0.8600
-2.2375 92.2092 1.5454 1.8285 10.2013 -0.4631 1.5115 4.6716 -1.0516 0.3773 -2.9744 -2.8545 2.9401 21.0249 -4.2515 11.2593 17.3397 -1.1996 -1.5423 -4.0067 -5.6335 2.5384 -11.2495 -8.3554 0.0099 -0.1390 -0.0023 0.6997 -10.5228 -3.8810 -0.6576 -10.5865 3.8572 -12.6380 18.2315 -16.1838 -42.5062 3.3864 -31.9851 0.8332 -0.7927 -95.3716 33.7988 -1.8339 17.7184 -14.9319 11.2224 16.8086 -60.2022 1.7097 2.4016 5.7513 14.3420 10.2925 42.4323 -11.9835 21.2878 0.9384 -0.2048 84.3531 -17.6273 3.4347 0.5210 15.3756 7.3343 -16.3477 50.2376 -3.2509 -5.2673 18.9474 -19.7105 3.7650 -0.3488 27.6773 -0.7278 -25.5853 -11.0808 7.2961 1.6532 -2.1032 -2.0549 -8.0665 -45.3209 -23.0087 0.4530 37.5813 0.6747 11.1721 -2.7851 0.4094 -1.4064 -0.4445 0.8683
-2.3207 92.2157 1.1396 1.7946 10.2593 0.8041 1.4620 4.7446 -1.0256 0.3207 -2.9185 -2.7167 2.7563 20.9915 -4.1362 11.2482 17.4638 -1.2826 -1.5116 -3.9945 -5.8948 3.0090 -11.3238 -8.8132 0.0142 -0.1358 -0.0078 0.7020 -10.5281 -3.8918 -0.6509 -10.5922 3.8542 -12.8074 18.1524 -16.2674 -41.8931 3.5508 -31.8337 0.8769 -0.8348 -95.4104 33.8789 -1.9653 17.8424 -14.9454 11.1959 16.8030 -60.1204 1.7021 2.4133 5.7512 14.3666 10.4845 42.5110 -12.3396 20.8095 1.0340 -0.1250 84.0683 -18.4285 2.7316 0.6387 15.3671 7.2999 -16.3006 50.1821 -3.2495 -5.2463 19.2634 -20.4722 2.7877 -0.3653 27.8297 -0.7586 -25.5710 -10.9350 6.8155 1.6511 -2.0607 -2.0513 -8.2078 -45.2392 -23.1023 0.4571 37.4951 0.6900 11.2944 -2.6850 -0.6041 -1.4099 -0.4691 0.8893
-2.3649 92.1920 0.7131 1.7740 10.2848 2.0701 1.3914 4.8318 -0.9641 0.2690 -2.8764 -2.6194 2.5692 21.0121 -4.0059 11.2876 17.6012 -1.3781 -1.5111 -3.9869 -6.1450 3.5171 -11.4113 -9.2692 0.0155 -0.1300 -0.0104 0.6990 -10.5248 -3.8941 -0.6461 -10.5914 3.8516 -12.9704 18.0570 -16.3579 -41.2415 3.7164 -31.5666 0.8616 -0.8798 -95.5907 33.8557 -1.9721 17.9906 -14.9387 11.1641 16.7517 -60.0525 1.7089 2.3956 5.7780 14.4413 10.7535 42.6191 -12.7776 20.3131 1.1503 -0.1039 83.7280 -19.2145 2.0122 0.6888 15.3431 7.2712 -16.2711 50.1164 -3.2399 -5.2367 19.5617 -21.2661 1.7577 -0.3888 28.1398 -0.7946 -25.5557 -10.8622 6.3341 1.6483 -1.9962 -2.0518 -8.4504 -45.1952 -23.0503 0.4281 37.5358 0.6522 11.4110 -2.6234 -1.6355 -1.4127 -0.5125 0.9049
-2.3523 92.1466 0.2688 1.7609 10.2251 3.3314 1.3009 4.9073 -0.9492 0.2040 -2.8188 -2.4786 2.3726 21.0624 -3.8873 11.3429 17.7131 -1.5047 -1.5027 -3.9828 -6.3737 4.0323 -11.5630 -9.7061 0.0131 -0.1257 -0.0084 0.6920 -10.5071 -3.8886 -0.6453 -10.5741 3.8513 -13.2115 17.9422 -16.4189 -40.5054 3.9215 -31.2338 0.7938 -0.9072 -95.8177 33.7222 -1.8913 18.2125 -14.9527 11.1093 16.6922 -59.9492 1.6863 2.3801 5.8592 14.5167 11.0194 42.8157 -13.2264 19.8904 1.2143 -0.0974 83.3219 -19.9107 1.2883 0.6053 15.3198 7.2229 -16.2147 50.0680 -3.2226 -5.2070 19.8712 -22.0020 0.6793 -0.4027 28.5215 -0.8039 -25.5881 -10.8049 5.8035 1.6439 -1.9307 -2.0415 -8.7692 -45.0895 -22.9747 0.4179 37.6250 0.6424 11.5282 -2.5928 -2.6647 -1.4137 -0.5904 0.9237
-2.3698 92.0768 -0.1582 1.7282 10.0698 4.5734 1.1893 4.9721 -0.9337 0.1304 -2.7531 -2.3522 2.1410 21.1508 -3.7977 11.4060 17.7701 -1.5841 -1.4887 -3.9748 -6.6043 4.5539 -11.7198 -10.1397 0.0125 -0.1241 -0.0077 0.6852 -10.4831 -3.8814 -0.6408 -10.5476 3.8462 -13.5082 17.8128 -16.4581 -39.7412 4.1758 -30.8034 0.7498 -0.9264 -96.0677 33.5987 -1.6467 18.5372 -14.9544 11.0718 16.6504 -59.8454 1.6656 2.3822 5.9822 14.6100 11.2559 43.1115 -13.6774 19.5972 1.1946 -0.1133 82.8254 -20.5072 0.6242 0.4924 15.2973 7.1846 -16.1792 50.0033 -3.2278 -5.1779 20.2130 -22.6541 -0.3565 -0.4186 28.9509 -0.8260 -25.6238 -10.7577 5.2253 1.6402 -1.8763 -2.0315 -9.1239 -44.9133 -22.8669 0.4091 37.7792 0.6380 11.6737 -2.5744 -3.6845 -1.4149 -0.6759 0.9431
-2.4183 91.9683 -0.5601 1.6434 9.8189 5.7317 1.0660 5.0495 -0.9129 0.0492 -2.6933 -2.2262 1.8650 21.2575 -3.6952 11.4504 17.7680 -1.6044 -1.4589 -3.9542 -6.8745 5.0731 -11.8399 -10.5914 0.0115 -0.1173 -0.0059 0.6805 -10.4607 -3.8729 -0.6388 -10.5214 3.8418 -13.8532 17.6974 -16.4858 -39.0021 4.3411 -30.1735 0.7135 -0.9338 -96.3159 33.5921 -1.2339 18.8281 -14.9696 11.0596 16.6246 -59.8125 1.6697 2.3724 6.1297 14.7407 11.4660 43.5304 -14.1958 19.3200 1.1872 -0.1570 82.3044 -21.0825 0.0941 0.3854 15.2740 7.1628 -16.1609 49.9672 -3.2516 -5.1642 20.6228 -23.1496 -1.3706 -0.4354 29.3829 -0.8514 -25.6806 -10.7691 4.6544 1.6385 -1.8163 -2.0334 -9.4292 -44.6536 -22.7892 0.4027 38.0287 0.6359 11.8277 -2.6527 -4.6189 -1.4150 -0.7691 0.9528
-2.5089 91.8503 -0.9102 1.4759 9.4832 6.8098 0.9222 5.1202 -0.8747 -0.0290 -2.6415 -2.1136 1.5428 21.3883 -3.5780 11.4445 17.7179 -1.5636 -1.4194 -3.9341 -7.1628 5.5929 -11.9827 -11.0439 0.0101 -0.1123 -0.0068 0.6735 -10.4434 -3.8677 -0.6361 -10.5025 3.8363 -14.2574 17.6513 -16.4951 -38.2994 4.3797 -29.2370 0.6953 -0.9574 -96.6098 33.6967 -0.6078 18.9730 -14.9825 11.0483 16.6112 -59.8024 1.6742 2.3753 6.2588 14.8955 11.6204 44.1026 -14.6825 19.0997 1.1518 -0.1683 81.8342 -21.6374 -0.2711 0.2182 15.2708 7.1377 -16.1452 49.9726 -3.2723 -5.1608 21.1218 -23.4580 -2.3960 -0.4512 29.7839 -0.8874 -25.7248 -10.8255 4.1725 1.6360 -1.8009 -2.0315 -9.6096 -44.2746 -22.7923 0.4045 38.3536 0.6417 11.9543 -2.8569 -5.4832 -1.4144 -0.8935 0.9662
-2.6789 91.7456 -1.1903 1.2153 9.0567 7.7617 0.7575 5.1866 -0.8429 -0.1139 -2.5868 -1.9895 1.1600 21.5061 -3.4214 11.4261 17.6399 -1.4517 -1.4167 -3.9184 -7.4676 6.1230 -12.1138 -11.5413 0.0114 -0.1066 -0.0148 0.6716 -10.4190 -3.8682 -0.6322 -10.4776 3.8205 -14.6926 17.6407 -16.4130 -37.6564 4.3753 -27.9620 0.6340 -1.0071 -96.9747 33.8764 0.1272 18.8488 -14.9775 11.0480 16.6163 -59.7560 1.6912 2.4025 6.3950 15.0591 11.7258 44.7352 -15.0991 18.9365 1.2013 -0.1735 81.4524 -22.1676 -0.5248 -0.0444 15.2642 7.1072 -16.1168 49.9465 -3.3052 -5.1720 21.7287 -23.4846 -3.4864 -0.4594 30.0789 -0.9234 -25.7505 -10.8943 3.8217 1.6372 -1.8082 -2.0335 -9.6205 -43.7136 -22.8749 0.3908 38.6754 0.6287 12.0308 -3.1837 -6.2812 -1.4127 -0.9977 0.9826
-2.9058 91.6653 -1.3614 0.8328 8.5747 8.4976 0.5852 5.2196 -0.8039 -0.2057 -2.5507 -1.8332 0.7437 21.6207 -3.2073 11.3594 17.6134 -1.3202 -1.4237 -3.8966 -7.7759 6.6568 -12.2831 -12.0711 0.0125 -0.0969 -0.0238 0.6668 -10.4059 -3.8713 -0.6256 -10.4616 3.8047 -15.1661 17.7116 -16.2574 -37.0079 4.4384 -26.4190 0.5511 -1.0600 -97.3737 34.0613 0.8457 18.4240 -14.9849 11.0406 16.6157 -59.7374 1.6975 2.4342 6.5220 15.2065 11.7765 45.2273 -15.2761 19.0238 1.3557 -0.1881 81.1739 -22.5896 -0.4524 -0.4261 15.2441 7.0506 -16.1147 49.8585 -3.3207 -5.2113 22.4813 -23.1895 -4.6271 -0.4527 30.2312 -0.9471 -25.7838 -10.9247 3.6738 1.6402 -1.9059 -2.0296 -9.3815 -43.0018 -23.1061 0.3878 38.9478 0.6231 12.0305 -3.5697 -6.8697 -1.4118 -1.1038 0.9989
-3.1867 91.6230 -1.4137 0.3404 7.9958 8.9322 0.4061 5.2224 -0.7619 -0.3001 -2.5377 -1.6458 0.2663 21.7219 -2.9505 11.2025 17.6573 -1.1472 -1.4389 -3.8830 -8.0596 7.1127 -12.4051 -12.5657 0.0140 -0.0852 -0.0363 0.6612 -10.3971 -3.8787 -0.6177 -10.4513 3.7864 -15.7496 17.8830 -15.9487 -36.2202 4.6735 -24.5695 0.4245 -1.0824 -97.7599 34.1114 1.4665 17.7163 -15.0171 11.0429 16.5861 -59.7928 1.6903 2.4062 6.5503 15.3642 11.8309 45.2589 -14.9157 19.7138 1.5229 -0.2151 81.0598 -22.6648 0.2529 -1.1080 15.2229 7.0022 -16.1338 49.7604 -3.3237 -5.2049 23.3183 -22.4125 -5.7498 -0.4435 30.1452 -0.9776 -25.8325 -10.9179 3.8643 1.6439 -2.0570 -2.0211 -8.8842 -42.0749 -23.5400 0.3924 39.0916 0.6215 11.9096 -3.9617 -7.1155 -1.4118 -1.1922 1.0188
-3.4981 91.6278 -1.3343 -0.2319 7.3767 8.9792 0.2250 5.1666 -0.6841 -0.4034 -2.5626 -1.4352 -0.2388 21.7803 -2.6709 10.9580 17.7908 -0.9548 -1.4333 -3.8800 -8.3240 7.4534 -12.5526 -12.9889 0.0170 -0.0706 -0.0520 0.6587 -10.3886 -3.8901 -0.6092 -10.4378 3.7637 -16.4399 18.1311 -15.5203 -35.2911 5.1159 -22.3954 0.3369 -1.0941 -98.0430 34.0044 2.1027 16.8375 -15.0414 11.0474 16.5446 -59.8474 1.6779 2.3641 6.4381 15.5159 11.8484 44.5049 -13.7579 21.3183 1.6104 -0.1877 81.2002 -21.9534 2.1615 -2.1604 15.2021 6.9553 -16.2028 49.6134 -3.2977 -5.2178 24.1446 -21.1998 -6.7416 -0.4211 29.8366 -0.9785 -25.8556 -10.8646 4.4100 1.6425 -2.1900 -2.0081 -8.1636 -41.0343 -24.1689 0.4108 39.0941 0.6248 11.7205 -4.3259 -6.9162 -1.4138 -1.2721 1.0409
-3.8419 91.6891 -1.1067 -0.8684 6.7021 8.6581 0.0493 5.0190 -0.5795 -0.5323 -2.6363 -1.1764 -0.7664 21.7755 -2.3877 10.6343 18.0153 -0.7237 -1.4129 -3.8679 -8.5855 7.6887 -12.7130 -13.3441 0.0238 -0.0521 -0.0744 0.6568 -10.3728 -3.9078 -0.5944 -10.4193 3.7333 -17.3004 18.4370 -14.9739 -34.0853 5.7829 -19.7920 0.4229 -1.0089 -98.1512 33.6656 2.7749 15.8113 -15.0605 11.0671 16.5062 -59.8921 1.6625 2.3335 6.2151 15.6024 11.7104 42.5645 -11.3437 24.2381 1.3551 0.0713 81.6683 -19.8772 6.5062 -3.6879 15.2832 6.9340 -16.3374 49.4297 -3.2804 -5.2334 24.9535 -19.4764 -7.6608 -0.3799 29.2771 -0.9713 -25.9486 -10.7430 5.3647 1.6392 -2.3384 -2.0082 -7.2450 -39.8357 -25.0029 0.4443 38.9429 0.6338 11.5180 -4.6660 -6.3418 -1.4138 -1.4177 1.0474
-4.2078 91.8014 -0.6948 -1.5570 5.9311 7.9970 -0.1245 4.7891 -0.4528 -0.6834 -2.7710 -0.9130 -1.3234 21.6629 -2.0840 10.2525 18.2624 -0.4504 -1.4337 -3.8315 -8.8542 7.8742 -12.7464 -13.6002 0.0336 -0.0253 -0.1066 0.6609 -10.3259 -3.9325 -0.5789 -10.3758 3.6888 -18.2577 18.7403 -14.2684 -32.5254 6.4173 -16.6574 0.5009 -0.7910 -97.9123 32.7990 3.3496 14.7219 -15.0494 11.0672 16.4602 -59.8818 1.6019 2.3039 6.0215 15.7262 11.4705 39.4107 -7.5768 28.1663 0.7421 0.7028 82.5806 -16.4714 13.1564 -4.8282 15.4682 7.0681 -16.5701 49.4634 -3.2860 -5.2384 25.7255 -17.2806 -8.4740 -0.3174 28.5789 -0.9487 -26.1020 -10.4955 6.5780 1.6379 -2.5448 -2.0400 -6.2076 -38.3901 -26.0195 0.4730 38.6326 0.6419 11.3880 -4.9570 -5.4508 -1.4136 -1.5983 1.0443
-4.5951 91.9697 -0.1612 -2.2513 5.0384 7.1831 -0.2796 4.5272 -0.3198 -0.8309 -2.9464 -0.6329 -1.8601 21.3903 -1.8003 9.7516 18.4507 -0.1810 -1.4534 -3.8215 -9.0739 7.9721 -12.6054 -13.7440 0.0463 -0.0130 -0.1409 0.6716 -10.3057 -3.9591 -0.5642 -10.3607 3.6425 -19.0157 19.0048 -13.4242 -30.6929 6.7954 -13.2551 0.5183 -0.5696 -97.4028 31.2995 3.2751 13.5919 -15.0301 11.0750 16.4115 -59.8726 1.5342 2.2432 5.6902 15.9361 11.2639 36.5574 -3.8530 31.3431 0.3195 1.3063 83.9703 -13.5155 17.5182 -4.6597 15.5616 7.2563 -16.6992 49.7373 -3.2919 -5.1938 26.4120 -14.8308 -9.1105 -0.2628 27.9255 -0.9606 -26.2858 -9.9730 7.7270 1.6506 -2.9678 -2.0792 -5.2284 -36.6825 -27.0273 0.5052 38.2390 0.6570 11.2405 -5.3234 -4.4099 -1.4112 -1.7421 1.0292
-5.0500 92.1804 0.5130 -2.8738 4.1093 6.3895 -0.4411 4.1719 -0.2852 -0.9715 -3.0920 -0.2352 -2.4086 20.9422 -1.6751 9.2071 18.3079 0.1520 -1.5945 -3.8046 -9.2347 7.9872 -12.3265 -13.8219 0.0664 -0.0280 -0.1846 0.6928 -10.2825 -3.9927 -0.5461 -10.3374 3.5816 -19.4418 19.0766 -12.3821 -28.5910 6.7857 -9.7449 0.4202 -0.3914 -96.6891 29.2067 2.6928 12.5313 -14.9628 11.1046 16.3945 -59.8408 1.4955 2.2156 5.2315 16.0488 11.1351 34.4143 -0.8112 33.3525 0.1352 1.5681 85.7349 -11.5043 19.5670 -4.1188 15.5590 7.4145 -16.6762 49.9391 -3.3289 -5.1497 27.0099 -12.3268 -9.7839 -0.1150 27.4104 -0.8338 -26.5974 -9.0034 8.8508 1.7015 -3.2694 -2.0875 -4.4584 -34.8035 -27.8320 0.5019 37.6907 0.6515 11.0160 -5.7073 -3.3818 -1.4103 -1.8349 1.0582
-5.5285 92.4549 1.2439 -3.3800 3.2867 5.5650 -0.6099 3.7642 -0.1445 -1.1105 -3.2882 -0.0055 -2.9100 20.2845 -1.4288 8.4580 17.8657 0.3816 -1.6278 -3.8164 -9.3488 7.8941 -11.8707 -13.7984 0.0722 -0.0186 -0.2063 0.7012 -10.2767 -4.0066 -0.5450 -10.3340 3.5531 -19.5904 18.9877 -11.4817 -26.0585 6.4658 -6.2193 0.4875 -0.0766 -95.9627 26.6152 1.7015 11.8836 -14.8799 11.1430 16.3642 -59.6824 1.4814 2.1051 4.7570 16.0636 10.8676 32.3921 1.8228 34.7138 0.0111 1.7475 87.4781 -10.2474 20.5528 -3.4250 15.4761 7.6538 -16.7378 50.1373 -3.3079 -5.1751 27.6052 -10.3901 -10.1057 -0.0780 27.4289 -0.8716 -26.7675 -7.4846 8.8438 1.7359 -4.5045 -2.1363 -3.8306 -32.9648 -28.2993 0.4987 37.0718 0.6590 10.6269 -6.0607 -2.6749 -1.4083 -1.9152 1.0574
-6.0522 92.7984 1.9962 -3.7840 2.5168 4.6057 -0.7974 3.2413 -0.0716 -1.2512 -3.4816 0.3411 -3.4807 19.4504 -1.2706 7.5292 16.9565 0.6422 -1.7114 -3.8121 -9.4102 7.7414 -11.2640 -13.6508 0.0685 -0.0175 -0.2105 0.7044 -10.2692 -4.0037 -0.5573 -10.3304 3.5455 -19.4001 18.5869 -10.5238 -22.9692 5.6555 -2.6148 0.5480 0.3202 -95.2429 23.4684 0.2538 11.5661 -14.7575 11.1984 16.3894 -59.4989 1.4340 2.0278 4.1396 15.9516 10.5462 30.2581 4.2320 35.8704 -0.1476 2.0179 89.1157 -9.3948 20.4438 -2.8998 15.4083 7.8776 -16.7766 50.3659 -3.2569 -5.1882 28.1900 -8.6427 -10.3205 -0.0551 27.6729 -0.8712 -27.0394 -5.5154 8.3646 1.7804 -6.2235 -2.1931 -3.3317 -31.0242 -28.3664 0.4802 36.1798 0.6489 10.1345 -6.2690 -2.1663 -1.4028 -2.0386 1.0317
-6.5859 93.1997 2.7895 -4.1226 1.7658 3.3207 -0.9543 2.6926 0.0007 -1.3890 -3.7062 0.7117 -4.1198 18.4340 -1.1150 6.3597 15.6537 0.9673 -1.8342 -3.8169 -9.3018 7.5744 -10.4881 -13.3601 0.0622 -0.0255 -0.2122 0.7057 -10.2714 -3.9982 -0.5737 -10.3357 3.5434 -18.9303 17.9318 -9.5966 -19.2481 4.2958 1.0651 0.6451 0.7781 -94.7399 19.7253 -1.3010 11.8772 -14.6637 11.2366 16.3653 -59.3883 1.3705 1.9216 3.1345 15.7910 10.2455 27.9121 6.3725 37.0958 -0.3586 2.4497 90.4891 -8.7521 19.5380 -2.6805 15.2709 8.0876 -16.8067 50.5308 -3.2389 -5.2231 28.7023 -6.9224 -10.1989 -0.0433 27.8963 -0.8771 -27.4308 -3.1194 7.7570 1.8408 -8.3751 -2.2754 -2.9128 -29.0260 -27.9548 0.4581 35.0307 0.6255 9.6020 -6.3574 -1.7274 -1.3919 -2.2357 0.9984
-7.0525 93.6625 3.6015 -4.4605 1.0792 1.6272 -1.0397 2.1161 0.0662 -1.4877 -3.9389 1.1200 -4.7713 17.2503 -0.9482 4.9261 13.9839 1.3538 -1.9517 -3.8089 -8.9114 7.3753 -9.5159 -12.8007 0.0527 -0.0363 -0.2205 0.7074 -10.2738 -4.0011 -0.5965 -10.3408 3.5361 -18.3219 17.0991 -8.8136 -15.0100 2.0032 4.5865 0.7355 1.1538 -94.4447 15.6648 -2.4338 12.6819 -14.6002 11.2871 16.3105 -59.3746 1.3414 1.8067 1.7160 15.5721 10.0595 25.2474 7.9442 38.3492 -0.4864 3.0015 91.4523 -8.1443 18.1828 -2.6530 15.0964 8.2243 -16.7967 50.5568 -3.2808 -5.3023 29.1260 -5.2254 -9.8093 -0.0276 28.0859 -0.8506 -27.7625 -0.3515 7.2341 1.9153 -10.8552 -2.3751 -2.4768 -26.9831 -27.1338 0.4466 33.4833 0.6218 9.1121 -6.2095 -1.1887 -1.3776 -2.4824 0.9589
-7.4468 94.1461 4.3727 -4.8710 0.4220 -0.6663 -1.0512 1.4883 0.1574 -1.5217 -4.1718 1.5871 -5.3082 15.9262 -0.7000 3.2216 12.1390 1.7788 -1.9889 -3.8058 -8.1407 7.1391 -8.3931 -11.9153 0.0466 -0.0472 -0.2369 0.7173 -10.3013 -4.0195 -0.6199 -10.3682 3.5253 -17.5553 16.0655 -8.0802 -10.5004 -1.4531 7.5915 0.9039 1.2635 -94.4354 11.9617 -3.0265 13.4738 -14.5963 11.3003 16.1944 -59.4137 1.2882 1.7085 -0.0924 15.3347 10.1309 22.0243 8.7672 39.5232 -0.5354 3.4732 92.0734 -7.6458 16.8013 -2.6336 14.8594 8.2712 -16.7043 50.4195 -3.3670 -5.3544 29.4543 -3.4282 -9.1277 0.0067 28.3441 -0.8133 -28.0406 2.5746 7.1220 1.9961 -13.5493 -2.4707 -1.9377 -24.9892 -26.0234 0.4484 31.6848 0.6133 8.7747 -5.8666 -0.2775 -1.3643 -2.7810 0.9155
-7.7105 94.5692 5.1228 -5.3394 -0.2669 -3.4828 -0.9936 0.8172 0.2996 -1.4671 -4.4271 2.0339 -5.6291 14.5954 -0.3390 1.4355 10.3525 2.2907 -1.9176 -3.7952 -7.0495 6.9123 -7.2954 -10.9127 0.0369 -0.0489 -0.2041 0.7293 -10.3490 -3.9941 -0.6529 -10.4095 3.5692 -16.4506 14.8644 -7.3302 -6.0820 -6.2635 9.5620 1.1251 1.0117 -94.3548 9.0771 -2.7540 14.2883 -14.6097 11.2447 16.0392 -59.5014 1.2659 1.6546 -2.1873 15.0324 10.5219 18.3206 8.8661 40.6160 -0.7691 3.8263 92.4441 -7.3454 15.8550 -2.5728 14.7425 8.2400 -16.5636 50.1775 -3.4893 -5.4485 29.6878 -1.5865 -8.1347 0.0479 28.8809 -0.7955 -28.3311 5.3431 7.4494 2.0871 -16.2127 -2.5770 -1.3459 -23.1363 -24.8040 0.4659 29.9189 0.5946 8.6587 -5.4504 1.0604 -1.3551 -3.1804 0.8744
-7.7947 94.8783 5.8305 -5.8155 -1.0335 -6.5221 -0.9092 0.1317 0.4627 -1.3625 -4.7118 2.3676 -5.6310 13.3958 0.0760 -0.1289 8.8925 2.8135 -1.7497 -3.7945 -5.8204 6.7007 -6.3915 -9.9435 0.0306 -0.0476 -0.1455 0.7430 -10.3975 -3.9459 -0.6811 -10.4498 3.6417 -14.7167 13.7204 -6.5439 -2.1447 -11.8313 10.2046 1.3535 0.5834 -93.9003 7.4098 -1.3167 15.2931 -14.6779 11.1210 15.9443 -59.5786 1.2635 1.6629 -4.3250 14.5645 11.0896 14.9697 7.9677 41.9274 -1.3233 3.9856 92.4271 -7.0621 15.0795 -2.1719 14.7991 8.0597 -16.4406 50.0292 -3.5838 -5.5254 29.7877 0.3062 -6.9038 0.1028 29.5557 -0.8100 -28.7373 7.5335 8.1082 2.1850 -18.6994 -2.6957 -0.8262 -21.4923 -23.6710 0.4889 28.4604 0.5816 8.8440 -5.1480 2.6275 -1.3515 -3.6357 0.8371
-7.7660 95.1136 6.5509 -6.2392 -1.8489 -9.4300 -0.8574 -0.5184 0.5910 -1.2572 -4.9974 2.5563 -5.2845 12.4160 0.4417 -1.2175 7.7682 3.2272 -1.5404 -3.7755 -4.6747 6.5190 -5.6835 -8.9784 0.0242 -0.0400 -0.0998 0.7476 -10.4452 -3.9090 -0.6996 -10.4816 3.6988 -12.1703 12.8543 -5.7851 1.1073 -17.1621 9.8488 1.8145 0.2419 -93.1538 6.7023 0.8183 16.5969 -14.7574 10.9991 15.9239 -59.6357 1.2768 1.6754 -6.2443 13.9516 11.6617 12.7532 5.6439 43.6325 -2.0806 3.8791 92.0368 -7.0633 14.1491 -1.6595 15.0628 7.7840 -16.3436 50.0633 -3.6614 -5.5915 29.7520 2.0810 -5.6206 0.1492 30.3535 -0.8762 -29.2554 9.2662 8.9423 2.2834 -21.0390 -2.8204 -0.4818 -20.0377 -22.6332 0.5185 27.2974 0.5924 9.2366 -4.9332 4.1762 -1.3492 -4.1462 0.8180
-7.6086 95.2830 7.2715 -6.5781 -2.6159 -12.0160 -0.8639 -1.1484 0.6686 -1.1876 -5.2530 2.6188 -4.6796 11.6348 0.6936 -1.6797 6.9120 3.4518 -1.3933 -3.7386 -3.7637 6.3459 -4.9768 -8.1279 0.0158 -0.0285 -0.0705 0.7441 -10.4604 -3.8875 -0.7131 -10.4853 3.7377 -9.0506 12.2688 -5.0734 3.8110 -21.7736 9.0782 2.2810 0.2942 -92.4724 6.5790 2.4804 17.8769 -14.8351 10.8950 15.9415 -59.7324 1.3510 1.6959 -7.7365 13.1282 12.0924 12.0912 2.1375 45.8248 -2.8620 3.6499 91.3613 -7.6183 13.4331 -1.4517 15.4470 7.5542 -16.2922 50.2670 -3.6966 -5.6262 29.5873 3.6287 -4.5314 0.1745 31.2398 -0.9746 -29.7324 10.8206 9.7022 2.3888 -23.3408 -2.9503 -0.3325 -18.7648 -21.5986 0.5419 26.3028 0.5968 9.6750 -4.7672 5.4977 -1.3466 -4.5868 0.8147
-7.3528 95.4472 8.0553 -6.7835 -3.2563 -14.1590 -0.9138 -1.7810 0.6994 -1.1550 -5.5160 2.5490 -3.9173 11.0258 0.8952 -1.6995 6.3597 3.4564 -1.3206 -3.6792 -3.0948 6.1890 -4.1308 -7.4822 0.0128 -0.0080 -0.0658 0.7389 -10.4431 -3.8837 -0.7135 -10.4505 3.7418 -5.8654 11.9041 -4.4714 6.3020 -25.5887 8.1329 2.5565 0.3254 -92.3168 6.7663 2.8858 18.8259 -14.7769 10.7744 15.9351 -59.9030 1.4146 1.7261 -8.6880 12.2929 12.2951 12.7548 -1.8834 48.1390 -3.4067 3.3171 90.7390 -8.6625 13.1609 -1.8575 15.7016 7.4978 -16.2838 50.5964 -3.6472 -5.6160 29.2829 4.9346 -3.5474 0.1746 31.9244 -1.0603 -30.1045 12.1880 10.2210 2.4907 -25.3390 -3.0650 -0.3995 -17.6635 -20.5654 0.5656 25.4173 0.6063 10.0580 -4.6806 6.5102 -1.3454 -4.9598 0.8277
-7.0189 95.6052 8.8989 -6.8773 -3.7249 -15.8480 -0.9553 -2.4286 0.7064 -1.1288 -5.7442 2.4305 -3.1507 10.4506 1.0020 -1.5017 5.9850 3.2972 -1.2998 -3.6319 -2.6857 6.0268 -3.0805 -7.0534 0.0081 0.0151 -0.0828 0.7271 -10.4081 -3.8979 -0.7106 -10.3985 3.7224 -3.0732 11.6314 -4.0341 9.0257 -28.9769 6.7343 2.4009 0.2218 -92.5609 7.1640 1.7261 19.3823 -14.6068 10.6483 15.9013 -60.0927 1.4500 1.7943 -9.1123 11.5756 12.2408 14.0223 -5.2105 50.1249 -3.5906 3.1241 90.4542 -9.3586 12.9734 -2.5697 15.6126 7.5458 -16.3085 50.6639 -3.6394 -5.5822 28.9735 6.0937 -2.4720 0.1674 31.9713 -1.1340 -30.6107 13.3942 10.3140 2.5887 -27.1904 -3.1741 -0.6544 -16.7118 -19.5367 0.5609 24.5472 0.5966 10.2776 -4.5548 7.2181 -1.3460 -5.2798 0.8357
-6.6664 95.8006 9.8215 -6.8178 -4.0290 -17.2071 -0.9610 -3.0798 0.6968 -1.1124 -5.9648 2.2837 -2.4826 9.8938 1.0258 -1.3029 5.6651 3.1094 -1.3034 -3.6089 -2.4584 5.8487 -1.9452 -6.7533 0.0031 0.0274 -0.0977 0.7187 -10.3915 -3.9060 -0.7122 -10.3685 3.7008 -0.9860 11.4126 -3.7706 12.0920 -32.2066 4.6345 1.9351 0.0849 -92.6496 7.7165 -0.4537 19.7389 -14.5074 10.4736 15.7742 -60.2567 1.4489 1.9070 -9.2456 11.1547 12.0503 15.1422 -6.9084 51.4895 -3.4975 3.0405 90.5874 -9.4869 12.9945 -3.4744 15.4417 7.6373 -16.3786 50.7368 -3.6216 -5.5859 28.6637 7.2092 -1.0632 0.1623 31.2322 -1.1958 -31.1963 14.3579 10.0734 2.6838 -28.8749 -3.2836 -1.0995 -15.8929 -18.4525 0.5404 23.6711 0.6076 10.4298 -4.3431 7.7171 -1.3455 -5.5871 0.8337
-6.3223 96.0306 10.8405 -6.6423 -4.1479 -18.3207 -0.9128 -3.7141 0.6702 -1.1011 -6.1966 2.1228 -1.9692 9.3437 0.9572 -1.1937 5.2072 2.9651 -1.3189 -3.6170 -2.3271 5.6090 -0.8205 -6.4820 0.0001 0.0226 -0.1087 0.7262 -10.4104 -3.9131 -0.7259 -10.3844 3.6871 0.3288 11.1892 -3.7495 15.5404 -35.0715 1.8096 1.5748 0.0866 -92.1972 8.2804 -3.0229 20.0615 -14.5152 10.3280 15.6156 -60.4355 1.4380 1.9642 -9.2254 10.9426 11.8306 15.8257 -6.7618 52.1151 -3.3157 3.1341 91.1522 -9.2279 13.0766 -4.5820 15.3145 7.7391 -16.4543 50.8682 -3.6027 -5.5894 28.3639 8.2427 0.6103 0.1635 29.8931 -1.2173 -31.6129 15.2084 9.7391 2.7657 -30.2789 -3.3770 -1.6673 -15.1826 -17.3540 0.5097 22.7349 0.6051 10.5596 -4.0585 8.0406 -1.3466 -5.8547 0.8175
-6.0131 96.2802 11.8314 -6.4066 -4.0446 -19.2801 -0.8008 -4.2960 0.5949 -1.0817 -6.4108 1.9585 -1.6055 8.7605 0.7965 -1.2407 4.5011 2.9395 -1.3598 -3.6418 -2.2081 5.2983 0.0969 -6.2334 -0.0009 0.0064 -0.1173 0.7415 -10.4441 -3.9218 -0.7437 -10.4268 3.6791 0.9405 10.9271 -3.9501 19.2317 -37.4879 -1.6366 1.3616 0.4142 -91.3378 8.7788 -5.6379 20.1909 -14.6971 10.2059 15.4893 -60.6589 1.4092 2.0093 -9.0501 10.8404 11.6652 16.1023 -5.2686 52.0137 -3.0869 3.4292 92.0212 -8.6898 13.0759 -5.8010 15.2193 7.7911 -16.4492 50.9420 -3.5957 -5.5899 28.1267 9.1114 2.3713 0.1626 28.1735 -1.1815 -31.8390 16.0686 9.4098 2.8243 -31.3844 -3.4416 -2.2471 -14.6442 -16.2385 0.4808 21.7426 0.6081 10.6844 -3.6913 8.2710 -1.3483 -6.0237 0.7947
-5.7100 96.5472 12.7725 -6.0904 -3.6906 -20.1372 -0.6459 -4.8162 0.4973 -1.0563 -6.6235 1.7540 -1.3664 8.2128 0.5450 -1.5170 3.5362 3.0122 -1.3790 -3.6881 -2.0112 4.8998 0.6347 -5.9003 -0.0030 -0.0137 -0.1241 0.7527 -10.4932 -3.9310 -0.7600 -10.4847 3.6755 1.0457 10.6581 -4.2743 23.0929 -39.7384 -5.5597 1.1091 0.8141 -90.4030 9.4887 -8.3522 20.0708 -14.9291 10.1402 15.4352 -60.8804 1.3844 2.0739 -8.6869 10.8472 11.4497 15.9366 -3.0823 51.3020 -2.8662 3.7693 93.2020 -8.0398 13.2365 -7.1624 15.0516 7.8606 -16.4210 50.8966 -3.5825 -5.6241 27.7980 9.7465 4.0994 0.1492 26.2689 -1.1082 -31.8895 16.9426 9.1625 2.8523 -32.2149 -3.4670 -2.8531 -14.4120 -15.0348 0.4546 20.8016 0.6049 10.7906 -3.2093 8.3929 -1.3506 -6.1371 0.7677
-5.4090 96.7549 13.6144 -5.7526 -3.1212 -21.0391 -0.4695 -5.2146 0.3996 -1.0174 -6.8214 1.5011 -1.1433 7.7146 0.2106 -2.0719 2.3616 3.2233 -1.3565 -3.7201 -1.7573 4.3923 0.6595 -5.3359 -0.0055 -0.0331 -0.1334 0.7731 -10.5254 -3.9430 -0.7868 -10.5309 3.6705 0.9856 10.4139 -4.6676 26.8255 -41.7636 -9.4111 0.9555 1.4452 -89.4922 10.2982 -10.8410 19.6782 -15.1164 10.1498 15.3947 -61.0111 1.3825 2.0918 -8.2596 10.8689 11.1558 15.5618 -0.8745 50.0985 -2.6912 4.0590 94.6531 -7.5329 13.5355 -8.4987 14.8404 7.9253 -16.3412 50.7324 -3.5371 -5.6299 27.3726 10.1889 5.7294 0.1416 24.3752 -1.0503 -31.8270 17.6133 9.2090 2.8496 -32.7081 -3.4585 -3.4195 -14.5698 -13.8985 0.4254 20.0628 0.5774 10.9315 -2.7389 8.5847 -1.3535 -6.1297 0.7563
-5.1051 96.8845 14.3810 -5.3762 -2.3610 -22.1032 -0.2824 -5.4671 0.3147 -0.9772 -6.9828 1.1569 -0.8212 7.2968 -0.1466 -2.9198 1.0965 3.5823 -1.2306 -3.7452 -1.4113 3.6877 0.0132 -4.4538 -0.0044 -0.0459 -0.1326 0.8027 -10.5696 -3.9521 -0.8166 -10.5808 3.6803 0.9630 10.1635 -5.0945 30.1404 -43.4699 -12.4101 1.0188 2.1440 -88.6720 11.0680 -12.8938 19.1498 -15.2011 10.2225 15.3490 -60.9340 1.4268 2.0819 -7.7936 10.9180 10.7522 14.9741 0.7451 48.4562 -2.4694 4.2072 96.4692 -7.4907 13.6695 -9.6495 14.5806 8.0305 -16.2979 50.5852 -3.4958 -5.6122 26.7717 10.4791 7.3156 0.1273 22.6003 -1.0124 -31.6783 17.9305 9.5300 2.8367 -32.9710 -3.4504 -3.9475 -15.2305 -12.8851 0.4098 19.7018 0.5353 11.1064 -2.4146 8.8987 -1.3575 -5.9311 0.7576
-4.8120 96.8931 15.0362 -5.0314 -1.3962 -23.3746 -0.0645 -5.5636 0.2013 -0.9103 -7.0576 0.7935 -0.3613 6.9061 -0.5992 -4.0421 -0.1703 4.0872 -1.0516 -3.7611 -0.9636 2.8162 -1.1649 -3.1730 0.0009 -0.0420 -0.1143 0.8348 -10.6160 -3.9527 -0.8405 -10.6293 3.7153 1.1144 9.8672 -5.5265 32.8099 -44.9289 -14.0630 1.2502 2.8516 -88.1213 11.6704 -14.6958 18.5520 -15.3183 10.3383 15.4035 -60.7989 1.4549 2.0961 -7.2756 10.8817 10.2389 14.2405 1.7054 46.5685 -2.2240 4.3254 98.6370 -7.7745 13.1932 -10.4044 14.4312 8.1157 -16.2854 50.5641 -3.5160 -5.5756 26.0711 10.6158 8.9411 0.1280 20.8605 -1.0099 -31.6503 17.8118 10.2136 2.8160 -33.0008 -3.4452 -4.3438 -16.4811 -12.0695 0.4170 19.8220 0.5423 11.2350 -2.2407 9.3910 -1.3593 -5.7203 0.7604
-4.5739 96.8697 15.5503 -4.6928 -0.2682 -24.8052 0.1300 -5.5486 0.0988 -0.8355 -7.0561 0.3691 0.1697 6.5811 -1.0917 -5.2381 -1.2904 4.6309 -0.8824 -3.7667 -0.4268 1.7575 -2.6652 -1.5908 0.0047 -0.0273 -0.0906 0.8596 -10.6526 -3.9487 -0.8595 -10.6608 3.7580 1.5298 9.6417 -5.9000 34.6888 -46.2807 -14.1538 1.6540 3.4475 -88.0057 12.2043 -16.3233 18.0502 -15.4230 10.4624 15.4958 -60.5610 1.4620 2.0935 -6.6738 10.8989 9.6172 13.3684 1.9504 44.6432 -2.0203 4.3851 101.1017 -8.2878 12.4590 -10.8225 14.3347 8.2479 -16.3308 50.7335 -3.5150 -5.5232 25.3400 10.5662 10.6987 0.1400 19.1303 -1.0145 -31.7081 17.5626 10.9864 2.8073 -32.9112 -3.4548 -4.6455 -18.1488 -11.3069 0.4391 20.2267 0.5924 11.3120 -2.0671 10.0520 -1.3569 -5.6232 0.7451
-4.3823 96.8972 15.9635 -4.3506 0.9998 -26.1712 0.2419 -5.4435 -0.0225 -0.7666 -7.0288 -0.1164 0.6933 6.3770 -1.5954 -6.3623 -2.1999 5.0871 -0.7553 -3.7745 0.0968 0.4972 -4.2699 0.1111 0.0066 -0.0118 -0.0630 0.8754 -10.6816 -3.9399 -0.8734 -10.6841 3.8031 2.1955 9.4829 -6.2597 35.9705 -47.5613 -13.0689 2.1512 3.8297 -88.2729 12.6416 -17.7197 17.6434 -15.4814 10.5496 15.5734 -60.2928 1.4756 2.1031 -5.9809 10.9133 8.8448 12.6925 1.6412 42.6913 -1.8602 4.3037 103.7516 -9.1096 11.7037 -10.8468 14.3413 8.3329 -16.3447 50.9150 -3.5309 -5.4298 24.6128 10.2935 12.3893 0.1439 17.3607 -1.0037 -31.8207 17.6820 11.4967 2.7905 -32.8466 -3.4475 -4.8918 -19.9257 -10.6013 0.4589 20.5295 0.6471 11.4078 -1.7023 10.7152 -1.3535 -5.5839 0.7366
-4.2412 97.0398 16.2686 -3.9916 2.3603 -27.2094 0.2558 -5.2202 -0.1600 -0.7252 -6.9627 -0.6859 1.1468 6.2580 -2.1265 -7.3221 -2.7948 5.4680 -0.7203 -3.7980 0.4476 -0.9765 -5.9722 1.6733 -0.0053 -0.0020 -0.0626 0.8768 -10.7285 -3.9559 -0.9009 -10.7288 3.8227 3.1773 9.4465 -6.6775 36.6994 -48.7976 -11.0666 2.7708 4.0512 -88.8935 12.7866 -18.7628 17.4106 -15.4676 10.5516 15.5615 -59.9518 1.5048 2.0914 -5.2522 10.8812 7.8842 12.4045 1.0599 40.6241 -1.8128 4.1781 106.5828 -10.2780 10.9623 -10.4860 14.3567 8.3902 -16.3281 51.0383 -3.5159 -5.3562 23.8971 9.7858 13.7733 0.1266 15.6522 -0.9810 -31.9085 18.0509 11.7539 2.7622 -32.7024 -3.4187 -5.1425 -21.6216 -9.9499 0.4704 20.5694 0.6731 11.5551 -1.1681 11.1895 -1.3531 -5.5452 0.7316
-4.1465 97.2387 16.4694 -3.6352 3.7999 -27.7598 0.1939 -4.8767 -0.3348 -0.6969 -6.8436 -1.2597 1.5173 6.1782 -2.6894 -8.1189 -3.0648 5.7622 -0.7824 -3.8229 0.5541 -2.5944 -7.8367 2.9130 -0.0293 0.0109 -0.0906 0.8604 -10.7793 -3.9957 -0.9348 -10.7679 3.8138 4.4187 9.5148 -7.1000 37.1088 -50.1065 -8.7292 3.4584 4.0666 -90.0374 12.8328 -19.4525 17.2559 -15.4500 10.5432 15.5246 -59.7013 1.5459 2.0711 -4.5054 10.6917 6.7361 12.6612 0.4562 38.2488 -1.8724 3.9449 109.5351 -11.6895 10.1007 -9.6614 14.3923 8.3708 -16.2751 50.9831 -3.5437 -5.2489 23.2266 8.9946 14.7198 0.1095 14.1289 -0.9711 -31.9830 18.5367 11.7404 2.7271 -32.4954 -3.3820 -5.3786 -23.1453 -9.3703 0.4708 20.2835 0.6888 11.6586 -0.5789 11.2980 -1.3581 -5.4598 0.7308
-4.1144 97.4967 16.5338 -3.2026 5.2796 -27.7990 0.0649 -4.4026 -0.5192 -0.6781 -6.6869 -1.8031 1.7736 6.1544 -3.2211 -8.8420 -3.0113 5.9047 -0.9399 -3.8356 0.4266 -4.2813 -9.9177 3.6223 -0.0590 0.0281 -0.1141 0.8372 -10.8192 -4.0240 -0.9751 -10.7944 3.8039 5.8227 9.6318 -7.4674 37.5149 -51.6738 -6.7500 4.1404 3.7082 -91.8961 13.2461 -20.2121 16.8513 -15.4621 10.5879 15.4818 -59.6632 1.6165 2.0277 -3.7512 10.4540 5.4319 13.5633 -0.4894 35.1995 -1.6915 3.6624 112.6689 -13.4546 9.1275 -8.3040 14.4252 8.2837 -16.2076 50.7893 -3.5437 -5.1677 22.5091 7.8770 15.1529 0.0844 12.9938 -0.9580 -32.0028 19.1414 11.4931 2.7020 -32.2805 -3.3522 -5.7162 -24.4988 -8.9106 0.4533 19.7275 0.6642 11.7698 0.0102 11.1079 -1.3677 -5.3116 0.7276
-4.0741 97.8060 16.5016 -2.6895 6.7460 -27.3724 -0.0534 -3.8748 -0.7304 -0.6494 -6.5022 -2.1626 1.9389 6.1855 -3.6889 -9.5651 -2.5633 5.9825 -1.2052 -3.8385 -0.0058 -5.9369 -11.9657 3.7990 -0.0810 0.0456 -0.1098 0.8237 -10.8311 -4.0153 -1.0081 -10.7930 3.8095 7.2352 9.7128 -7.6491 38.0568 -53.8017 -5.8126 4.6364 3.0379 -94.5902 14.5066 -21.3062 15.8173 -15.7490 10.6016 15.3739 -59.9342 1.6298 2.0146 -3.1246 10.2806 4.0820 15.3444 -1.7162 31.3055 -1.3853 3.1460 115.9982 -15.5475 8.1519 -6.4071 14.4308 8.1010 -16.1820 50.4477 -3.5934 -5.1617 21.7485 6.4115 15.1652 0.0488 12.3348 -0.9240 -31.8912 19.8829 11.0440 2.6722 -32.0208 -3.3054 -6.1438 -25.6352 -8.5945 0.4078 18.9147 0.5902 11.9022 0.6246 10.7647 -1.3755 -5.1313 0.7287
-4.0169 98.1056 16.4017 -2.0561 8.0919 -26.7409 -0.1021 -3.3361 -0.9123 -0.6061 -6.3368 -2.4070 2.0451 6.3271 -4.0180 -10.4358 -1.7262 6.0865 -1.4993 -3.8313 -0.6108 -7.5099 -13.6320 3.5518 -0.0893 0.0561 -0.0747 0.8100 -10.8041 -3.9631 -1.0134 -10.7516 3.8275 8.3392 9.7777 -7.5691 38.7683 -56.6141 -6.0505 5.0427 2.4247 -97.8715 16.5401 -22.4980 14.0335 -16.2732 10.6461 15.2295 -60.4268 1.5983 1.9397 -2.8017 10.2592 2.9201 18.0057 -2.9482 26.9791 -1.0428 2.4609 119.4413 -17.7494 7.3934 -4.2062 14.5264 7.8929 -16.1415 50.3229 -3.6285 -5.1329 20.9143 4.8651 14.9165 0.0285 12.0935 -0.9133 -31.7650 20.7851 10.4806 2.6584 -31.7097 -3.2755 -6.7329 -26.6081 -8.3812 0.3652 18.0037 0.5296 12.0742 1.1890 10.4038 -1.3803 -4.9033 0.7392
-3.8997 98.3732 16.3294 -1.2647 9.2132 -26.2589 -0.0605 -2.8290 -1.0205 -0.5512 -6.1698 -2.4920 2.1138 6.5327 -4.2311 -11.5165 -0.3581 6.2871 -1.8106 -3.8323 -1.3680 -8.9103 -14.6863 3.0155 -0.0871 0.0618 -0.0150 0.7918 -10.7700 -3.8824 -0.9927 -10.6968 3.8622 8.9294 9.7939 -7.2477 39.0760 -59.8811 -6.7922 5.3893 2.0585 -101.4385 19.0986 -23.4391 11.5459 -16.9020 10.6478 15.0683 -60.8819 1.5154 1.8192 -2.7821 10.3571 2.1473 21.1689 -3.8317 22.9488 -0.7375 1.7471 122.8026 -19.6801 6.8988 -1.9798 14.7090 7.7232 -16.0652 50.3979 -3.6853 -5.1268 19.8582 3.5585 14.6803 0.0220 12.0655 -0.9026 -31.5760 21.6591 9.9408 2.6625 -31.2851 -3.2740 -7.5375 -27.5025 -8.1472 0.3523 17.2351 0.5035 12.2832 1.6424 10.1279 -1.3774 -4.6677 0.7386
-3.6928 98.5114 16.2548 -0.3440 10.0620 -26.0697 0.0695 -2.4221 -1.0424 -0.4856 -6.0059 -2.4530 2.1289 6.7916 -4.3478 -12.7291 1.5929 6.4794 -2.0935 -3.8293 -2.2333 -10.0966 -14.9189 2.3137 -0.0909 0.0719 0.0472 0.7583 -10.6930 -3.7879 -0.9689 -10.5964 3.8890 8.9393 9.7009 -6.7876 38.1621 -63.1049 -7.2113 5.5911 1.9438 -104.8943 21.7610 -24.2044 8.6393 -17.4622 10.6753 15.0617 -61.3184 1.3960 1.7151 -3.0689 10.4179 1.7752 24.6771 -4.1607 20.0203 -0.4770 1.1038 125.7934 -21.1200 6.6375 0.1444 14.9460 7.6703 -16.0173 50.7211 -3.6782 -5.1793 18.6070 2.6523 14.6313 0.0475 12.1298 -0.8894 -31.4042 22.1512 9.6233 2.6840 -30.6705 -3.3040 -8.5772 -28.3917 -7.8381 0.3795 16.7701 0.5416 12.4869 1.8950 9.9769 -1.3735 -4.4334 0.7173
-3.4595 98.5296 16.1853 0.5463 10.5662 -26.2098 0.2697 -2.1617 -0.9495 -0.4056 -5.8526 -2.3751 2.1122 7.0992 -4.4428 -13.7778 4.0083 6.6386 -2.3343 -3.8253 -3.0904 -11.0349 -14.2493 1.5311 -0.0998 0.0759 0.0946 0.7244 -10.5856 -3.6952 -0.9534 -10.4738 3.8952 8.4257 9.6555 -6.3624 35.2753 -65.6110 -6.0671 5.6804 2.1278 -107.5597 23.5551 -24.4788 6.8547 -17.8367 10.7338 15.1010 -61.6281 1.3259 1.5866 -3.5998 10.3634 1.6638 28.0117 -4.0983 19.0655 -0.2242 0.7447 127.9893 -22.0079 6.8246 1.6630 15.1531 7.6843 -16.0185 51.0528 -3.6577 -5.2871 17.3932 2.2687 14.9694 0.0637 12.0799 -0.8491 -31.0380 22.2953 9.6514 2.7136 -30.0890 -3.3501 -9.6905 -29.1954 -7.3712 0.4251 16.6792 0.6126 12.6593 2.0020 9.9655 -1.3671 -4.3551 0.6773
-3.1951 98.4499 16.1165 1.2285 10.7527 -26.5925 0.5458 -2.0105 -0.8050 -0.3050 -5.7644 -2.3429 2.1221 7.4534 -4.4715 -14.3085 6.6825 6.7326 -2.5864 -3.8063 -3.7969 -11.6610 -12.7141 0.6697 -0.1050 0.0687 0.1152 0.7037 -10.4931 -3.6298 -0.9449 -10.3702 3.8712 7.6503 9.6875 -6.0606 30.0234 -67.0391 -2.7362 5.6632 2.5009 -109.0605 24.3733 -24.5719 6.6234 -17.8344 10.8774 15.2054 -61.6966 1.3739 1.4637 -4.2423 10.1695 1.7353 31.0266 -3.9290 20.0837 -0.0075 0.5905 129.3982 -22.5397 6.9141 2.7406 15.2658 7.6860 -16.0507 51.3023 -3.6326 -5.3924 16.3934 2.2554 15.6501 0.0751 12.0090 -0.7888 -30.3993 21.9954 10.0903 2.7306 -29.6464 -3.3798 -10.6664 -29.8581 -6.7529 0.4722 16.9518 0.6911 12.7884 1.8910 9.9639 -1.3643 -4.3462 0.6632
-2.9763 98.3102 16.0476 1.6566 10.6652 -27.0352 0.8153 -1.9695 -0.6850 -0.2111 -5.6878 -2.3283 2.2362 7.7529 -4.5261 -14.1998 9.3656 6.7766 -2.7903 -3.7720 -4.3156 -11.9843 -10.5110 -0.1679 -0.1040 0.0528 0.1143 0.6976 -10.4035 -3.5921 -0.9342 -10.2767 3.8311 6.8079 9.7270 -5.8738 23.8089 -67.4130 1.4191 5.4198 3.0052 -109.4435 24.4536 -24.8872 7.6263 -17.5842 10.9790 15.3105 -61.5250 1.4929 1.4004 -4.7874 9.8649 1.8653 33.7014 -3.8824 22.6476 0.2264 0.5706 130.0786 -22.9721 6.7942 3.6357 15.2829 7.6859 -16.1356 51.4293 -3.5944 -5.5111 15.7748 2.4342 16.3977 0.0764 12.0579 -0.7331 -29.7425 21.4367 10.6501 2.7262 -29.3680 -3.3799 -11.3988 -30.2205 -6.1212 0.5166 17.3524 0.7721 12.8535 1.6692 9.9248 -1.3635 -4.2983 0.6560
-2.8110 98.1430 15.9885 1.8763 10.3755 -27.3216 1.0472 -2.0090 -0.5952 -0.1348 -5.6620 -2.3942 2.4152 7.9902 -4.5559 -13.4479 11.8829 6.7223 -2.8889 -3.7423 -4.6700 -12.0703 -7.9778 -0.9235 -0.0955 0.0341 0.1097 0.7072 -10.3321 -3.5771 -0.9228 -10.2083 3.8010 6.0663 9.8326 -5.8090 18.1849 -67.0425 5.0634 5.0069 3.4586 -109.2058 24.0229 -25.0866 9.1841 -17.1762 10.9540 15.3831 -61.2623 1.6089 1.4003 -5.1878 9.5304 2.0141 36.0672 -4.0614 25.9064 0.4733 0.5933 130.2768 -23.4220 6.8673 4.2517 15.1863 7.6785 -16.2385 51.4499 -3.5722 -5.5893 15.5110 2.7000 17.0775 0.0642 12.1985 -0.6693 -29.1596 20.7884 11.2052 2.7010 -29.0076 -3.3472 -11.9170 -30.2728 -5.5313 0.5275 17.8153 0.8213 12.8602 1.3452 9.7673 -1.3666 -4.2569 0.6645
-2.6969 97.9796 15.9542 1.8919 9.9863 -27.4554 1.2496 -2.1060 -0.5593 -0.0670 -5.6909 -2.4945 2.6766 8.1511 -4.5568 -12.2472 14.0083 6.5611 -2.8689 -3.7197 -4.8831 -11.9791 -5.5047 -1.5077 -0.0826 0.0126 0.0959 0.7295 -10.2912 -3.5919 -0.9143 -10.1805 3.7824 5.5092 10.0265 -5.8184 13.8815 -66.2693 7.7849 4.5824 3.8824 -108.8739 23.4999 -25.1113 10.5674 -16.7337 10.8593 15.4132 -60.9167 1.6562 1.4599 -5.4427 9.1561 2.1667 38.1384 -4.4652 29.1818 0.8236 0.6474 130.2780 -23.7546 7.1548 4.6149 15.0618 7.6687 -16.3739 51.4195 -3.5635 -5.6207 15.5493 2.9915 17.6711 0.0470 12.3379 -0.6360 -28.7062 20.1522 11.7571 2.6572 -28.5198 -3.2817 -12.1945 -30.0759 -5.0668 0.5113 18.2388 0.8351 12.8823 0.9795 9.5609 -1.3692 -4.1993 0.6706
-2.6270 97.8480 15.9378 1.7950 9.5553 -27.4128 1.4148 -2.2326 -0.5805 -0.0235 -5.7410 -2.5882 2.9979 8.2384 -4.5312 -10.7525 15.6739 6.2943 -2.7721 -3.6932 -4.9236 -11.7524 -3.3271 -1.9550 -0.0686 -0.0008 0.0730 0.7568 -10.2561 -3.6328 -0.9082 -10.1666 3.7687 5.1172 10.2652 -5.8735 11.0631 -65.4636 9.4213 4.1758 4.0090 -108.6919 23.2327 -25.0069 11.3772 -16.3742 10.7351 15.3911 -60.5811 1.6429 1.5515 -5.5863 8.7238 2.2743 39.9827 -5.0122 32.1384 1.2122 0.7313 130.2519 -23.8737 7.5487 4.7023 14.9478 7.6961 -16.5060 51.2833 -3.5750 -5.6078 15.7444 3.2749 18.0766 0.0310 12.4729 -0.6356 -28.3415 19.6109 12.3129 2.6127 -28.1532 -3.2158 -12.3287 -29.7138 -4.7211 0.4777 18.6183 0.8182 12.9342 0.6064 9.3209 -1.3745 -4.1687 0.6872
-2.5860 97.7344 15.9519 1.6621 9.1372 -27.1838 1.5515 -2.3707 -0.6120 -0.0058 -5.7939 -2.6610 3.3241 8.2291 -4.5016 -9.2218 16.9214 5.9326 -2.6236 -3.6623 -4.8079 -11.4357 -1.5971 -2.2713 -0.0493 -0.0051 0.0403 0.7900 -10.2310 -3.6939 -0.8973 -10.1666 3.7541 4.7727 10.3915 -5.9566 9.6467 -64.6130 9.9903 3.8609 3.8392 -108.7328 23.2813 -24.7662 11.7131 -16.1513 10.6746 15.3921 -60.3511 1.6043 1.6629 -5.6983 8.2044 2.3523 41.7268 -5.4598 34.6060 1.4822 0.7777 130.2810 -23.7160 8.2450 4.5520 14.8507 7.7167 -16.6157 51.1002 -3.6039 -5.5996 16.0057 3.5382 18.2798 0.0216 12.5815 -0.6503 -28.1497 19.1554 12.7212 2.5800 -27.9623 -3.1684 -12.3995 -29.2542 -4.4797 0.4479 18.9020 0.8067 12.9970 0.2587 9.0261 -1.3804 -4.0806 0.7052
-2.5750 97.6277 15.9836 1.5423 8.7703 -26.8381 1.6614 -2.5319 -0.6537 -0.0060 -5.8438 -2.7001 3.6258 8.1586 -4.4594 -7.7807 17.8893 5.5331 -2.4966 -3.6338 -4.7016 -11.0331 -0.2737 -2.5005 -0.0251 -0.0033 0.0055 0.8258 -10.2025 -3.7575 -0.8796 -10.1658 3.7380 4.3997 10.4969 -6.0277 9.3290 -63.8001 9.7531 3.6050 3.6005 -108.9765 23.4891 -24.4509 11.8964 -16.0784 10.6530 15.4171 -60.3094 1.5855 1.7674 -5.7722 7.7356 2.3788 43.2886 -5.9456 36.5177 1.6814 0.8492 130.3354 -23.3945 8.9419 4.3480 14.7367 7.7060 -16.6562 50.9300 -3.6233 -5.5606 16.2492 3.7554 18.3960 0.0212 12.6308 -0.6682 -28.0806 18.7594 13.0402 2.5527 -27.7094 -3.1332 -12.4775 -28.7828 -4.2468 0.4219 19.1088 0.7969 13.0376 -0.0390 8.6854 -1.3884 -3.9926 0.7166
-2.5618 97.5590 15.9768 1.4642 8.4255 -26.3377 1.7409 -2.6681 -0.6820 -0.0093 -5.8724 -2.7134 3.8492 8.0568 -4.4516 -6.4862 18.6819 5.1232 -2.3615 -3.6274 -4.6123 -10.5676 0.7569 -2.7051 -0.0069 -0.0055 -0.0221 0.8522 -10.2097 -3.8134 -0.8651 -10.1885 3.7326 4.0741 10.5744 -6.1028 9.6066 -62.9466 9.0928 3.4568 3.4380 -109.2312 23.6549 -24.2229 12.1032 -16.0712 10.6568 15.4523 -60.3151 1.5838 1.8275 -5.9078 7.3543 2.3486 44.6581 -6.4735 37.8613 1.7449 0.8463 130.3934 -22.9376 9.5170 4.1342 14.5987 7.7015 -16.6810 50.7363 -3.6556 -5.5363 16.4767 3.9124 18.3999 0.0181 12.6855 -0.6774 -28.0394 18.3530 13.1925 2.5320 -27.4277 -3.1099 -12.5613 -28.3248 -4.1071 0.4048 19.2959 0.7948 13.0487 -0.2742 8.2611 -1.3932 -3.8913 0.7215
-2.5537 97.4894 15.9612 1.4242 8.0895 -25.7435 1.7978 -2.7552 -0.6798 -0.0048 -5.8875 -2.7519 3.9762 7.9445 -4.4582 -5.3117 19.3753 4.7466 -2.2321 -3.6280 -4.5373 -10.0532 1.5713 -2.8679 0.0006 -0.0062 -0.0344 0.8639 -10.2145 -3.8440 -0.8591 -10.2075 3.7368 3.8071 10.5851 -6.1812 10.1652 -61.9748 8.2695 3.3904 3.2500 -109.4580 23.8789 -24.0284 12.4145 -16.1075 10.6838 15.5038 -60.3989 1.5825 1.8540 -6.1485 7.0179 2.3064 45.8704 -7.0208 38.7091 1.7377 0.8852 130.4233 -22.5472 10.0310 3.7505 14.5346 7.6958 -16.6853 50.6414 -3.6659 -5.5247 16.6703 4.0318 18.3171 0.0232 12.7296 -0.6995 -28.0165 17.8422 13.3215 2.5152 -27.0274 -3.0975 -12.6696 -27.9057 -4.0669 0.3882 19.5221 0.7841 13.0701 -0.4849 7.8234 -1.3985 -3.8353 0.7370
-2.5476 97.4304 15.8957 1.3834 7.8015 -25.1078 1.8315 -2.8250 -0.6719 0.0020 -5.8898 -2.7700 4.0466 7.8431 -4.5053 -4.1982 20.0326 4.3792 -2.1160 -3.6326 -4.4518 -9.4811 2.2573 -2.9989 0.0004 -0.0148 -0.0273 0.8661 -10.2314 -3.8526 -0.8589 -10.2363 3.7599 3.6366 10.5676 -6.2578 10.7354 -60.9866 7.4783 3.3368 3.1361 -109.6340 24.1360 -24.0562 12.7590 -16.1662 10.6857 15.5345 -60.4834 1.5867 1.9016 -6.4334 6.7419 2.2722 46.8596 -7.6349 39.1914 1.6773 0.9685 130.3703 -22.2563 10.4677 3.3046 14.5261 7.6975 -16.6614 50.5928 -3.6798 -5.5076 16.8702 4.0453 18.2495 0.0183 12.7528 -0.7281 -27.9507 17.3537 13.4322 2.4980 -26.5212 -3.0791 -12.7489 -27.5692 -4.0998 0.3789 19.7274 0.7861 13.0611 -0.5954 7.3836 -1.4003 -3.8414 0.7398
-2.5372 97.3815 15.7474 1.3606 7.5787 -24.4728 1.8146 -2.8493 -0.6582 -0.0011 -5.9106 -2.7942 4.0609 7.7767 -4.5170 -3.0914 20.7251 4.0058 -2.0061 -3.6283 -4.3113 -8.8727 2.8364 -3.1028 0.0001 -0.0224 -0.0214 0.8609 -10.2576 -3.8583 -0.8522 -10.2707 3.7802 3.5482 10.5682 -6.3571 11.3056 -60.1266 6.6904 3.3226 2.8922 -109.7481 24.4699 -24.2417 13.0325 -16.1499 10.6781 15.5392 -60.4615 1.6309 1.9182 -6.7002 6.5090 2.2489 47.5751 -8.3679 39.4208 1.5640 1.0026 130.2460 -22.0467 10.8455 2.8738 14.5550 7.7020 -16.6357 50.5950 -3.6682 -5.4693 17.0347 3.9133 18.2000 0.0104 12.8071 -0.7414 -27.7926 16.9336 13.5165 2.4817 -25.8908 -3.0644 -12.7867 -27.3704 -4.2321 0.3663 19.9458 0.7573 13.0759 -0.6263 7.0504 -1.3990 -3.8551 0.7350
-2.5452 97.3496 15.5238 1.3325 7.4100 -23.8232 1.7494 -2.8212 -0.6397 -0.0193 -5.8922 -2.8039 4.0199 7.6883 -4.5500 -1.9423 21.4759 3.6112 -1.9072 -3.6287 -4.0946 -8.2308 3.3433 -3.1505 -0.0058 -0.0272 -0.0066 0.8548 -10.2699 -3.8519 -0.8552 -10.2903 3.8059 3.5907 10.5530 -6.4752 11.7057 -59.4774 6.0050 3.2490 2.6744 -109.8355 24.7180 -24.5895 13.3347 -16.0906 10.6525 15.5510 -60.3676 1.6762 1.9171 -7.0274 6.2145 2.2857 48.2223 -9.2374 39.5197 1.3347 1.0468 130.0025 -21.8607 11.2776 2.3924 14.5784 7.7238 -16.6166 50.5845 -3.6226 -5.4817 17.2323 3.6422 18.2316 -0.0025 12.8544 -0.7628 -27.6601 16.5734 13.5272 2.4540 -25.1260 -3.0302 -12.7707 -27.2568 -4.4099 0.3571 20.1355 0.7454 13.0523 -0.6165 6.7245 -1.3969 -3.8317 0.7375
-2.6032 97.3349 15.1945 1.2529 7.3257 -23.1929 1.6474 -2.7433 -0.6274 -0.0466 -5.8748 -2.8164 3.9548 7.6143 -4.5646 -0.6873 22.3073 3.1929 -1.8242 -3.6384 -3.8499 -7.5591 3.7634 -3.1358 -0.0081 -0.0292 0.0009 0.8498 -10.2906 -3.8549 -0.8527 -10.3191 3.8276 3.7245 10.5093 -6.5939 11.9171 -58.9192 5.3806 3.2526 2.5383 -109.9630 25.0288 -25.1566 13.5292 -16.0150 10.6423 15.5821 -60.1801 1.6836 1.9304 -7.3649 5.9096 2.3930 48.6954 -10.3937 39.5112 1.1039 1.0405 129.5715 -21.7828 11.7507 1.8818 14.6390 7.7176 -16.5819 50.6372 -3.6131 -5.4793 17.4957 3.2129 18.3398 -0.0183 12.8991 -0.7593 -27.5785 16.2401 13.4317 2.4215 -24.3244 -2.9908 -12.6145 -27.3241 -4.6997 0.3536 20.3657 0.7464 12.9658 -0.4989 6.5071 -1.3932 -3.8429 0.7304
-2.7359 97.3234 14.7894 1.1542 7.3131 -22.5521 1.4877 -2.6221 -0.6588 -0.1044 -5.8278 -2.7688 3.8477 7.5193 -4.5761 0.6877 23.2353 2.7157 -1.7258 -3.6386 -3.5282 -6.8385 4.1326 -3.0717 -0.0082 -0.0298 0.0058 0.8457 -10.3251 -3.8634 -0.8461 -10.3590 3.8478 3.9583 10.5194 -6.7399 11.7127 -58.5888 4.9469 3.2280 2.3069 -110.2213 25.5094 -25.8597 13.4326 -15.9448 10.6220 15.5896 -60.0035 1.6839 1.9759 -7.6440 5.5608 2.5222 48.9610 -11.7767 39.4346 0.9150 1.0223 128.9109 -21.6873 12.2909 1.3999 14.6547 7.7261 -16.5709 50.6633 -3.6046 -5.4933 17.7947 2.6766 18.3894 -0.0348 12.8975 -0.7371 -27.5152 16.0758 13.1883 2.3981 -23.6544 -2.9667 -12.3325 -27.5265 -5.1636 0.3565 20.5951 0.7395 12.8293 -0.3080 6.4279 -1.3895 -3.8186 0.7218
-2.8660 97.3327 14.2955 1.0143 7.3763 -21.8612 1.2943 -2.4631 -0.6813 -0.1749 -5.7836 -2.7655 3.7095 7.4032 -4.5756 2.1979 24.3113 2.1353 -1.6246 -3.6409 -3.1067 -6.0689 4.4560 -2.9833 -0.0073 -0.0279 0.0149 0.8442 -10.3649 -3.8691 -0.8396 -10.3949 3.8727 4.2595 10.5530 -6.9418 10.8256 -58.3020 4.8580 3.1258 2.0264 -110.7127 26.3677 -26.8920 12.9031 -15.9101 10.6141 15.6425 -59.9307 1.6458 2.0469 -7.8958 5.0845 2.6680 48.9623 -13.1865 39.5115 0.7044 0.9660 127.9864 -21.5864 13.1543 0.8366 14.6348 7.7333 -16.5788 50.5690 -3.6426 -5.4824 18.1830 2.0095 18.4904 -0.0617 12.7567 -0.7457 -27.5194 16.0735 12.8374 2.3656 -23.0516 -2.9242 -11.9217 -27.8792 -5.7951 0.3620 20.8503 0.7304 12.7172 -0.0632 6.4266 -1.3873 -3.7651 0.7302
-3.0257 97.3450 13.7418 0.8618 7.5175 -21.0900 1.0856 -2.2743 -0.7319 -0.2515 -5.7234 -2.7482 3.5198 7.2813 -4.5807 3.8033 25.4633 1.4838 -1.5353 -3.6502 -2.6765 -5.3049 4.6538 -2.7930 0.0007 -0.0241 0.0149 0.8518 -10.4077 -3.8873 -0.8270 -10.4308 3.8875 4.6350 10.5826 -7.2531 8.8289 -57.7681 5.3749 3.0118 1.8512 -111.4085 27.7524 -28.2286 11.9546 -15.7987 10.5987 15.7152 -59.8165 1.5700 2.1380 -8.2088 4.5259 2.7780 48.7051 -14.6899 39.6674 0.5310 0.9705 126.7697 -21.4893 13.9892 0.3529 14.6224 7.7261 -16.5797 50.4528 -3.6846 -5.4280 18.5815 1.2287 18.6207 -0.0886 12.4885 -0.7505 -27.5100 16.1394 12.4180 2.3192 -22.3776 -2.8678 -11.4115 -28.3376 -6.6295 0.3664 21.0705 0.7213 12.6498 0.2019 6.5003 -1.3854 -3.7387 0.7577
-3.1856 97.3893 13.1009 0.7501 7.7351 -20.2153 0.8665 -2.0705 -0.7768 -0.3202 -5.6752 -2.7533 3.2611 7.2022 -4.5873 5.4394 26.6476 0.8214 -1.4435 -3.6734 -2.2645 -4.6333 4.7470 -2.5704 0.0176 -0.0226 0.0019 0.8699 -10.4760 -3.9203 -0.8081 -10.4958 3.8898 4.9813 10.5983 -7.6554 5.6176 -56.6090 6.3505 3.0177 1.8054 -112.2516 29.5730 -29.5104 10.9466 -15.5808 10.5599 15.7716 -59.6333 1.5291 2.2268 -8.5483 4.0131 2.8788 48.0206 -16.2278 39.8237 0.3846 1.0089 125.2185 -21.4372 14.8232 0.0136 14.6697 7.7067 -16.5838 50.4452 -3.7280 -5.3747 18.9369 0.3693 18.6816 -0.1219 12.0887 -0.7630 -27.4876 16.2938 11.8865 2.2745 -21.6482 -2.8126 -10.8467 -28.9206 -7.6668 0.3710 21.3042 0.7206 12.6046 0.5120 6.6690 -1.3822 -3.7526 0.7797
-3.3503 97.4284 12.4402 0.7017 8.0246 -19.2680 0.6696 -1.8615 -0.8353 -0.3828 -5.6115 -2.8032 2.9577 7.1294 -4.5983 6.9507 27.7506 0.2469 -1.3663 -3.6992 -1.8922 -4.0809 4.6712 -2.3727 0.0360 -0.0209 -0.0098 0.8894 -10.5354 -3.9468 -0.7885 -10.5527 3.8874 5.2833 10.5042 -8.0661 1.2431 -54.6347 7.5280 3.0497 1.5848 -113.2427 31.8628 -30.5966 9.8047 -15.2288 10.4490 15.7721 -59.3651 1.4686 2.2645 -8.9541 3.4946 3.0454 46.9689 -17.4484 39.9826 0.1989 1.0516 123.3366 -21.3774 15.5063 -0.1286 14.7376 7.6861 -16.5818 50.4491 -3.7566 -5.3116 19.1818 -0.4556 18.6849 -0.1603 11.4574 -0.7574 -27.3930 16.5528 11.4285 2.2366 -20.8871 -2.7756 -10.3134 -29.6386 -8.7843 0.3756 21.6036 0.7038 12.5404 0.8570 6.8809 -1.3794 -3.7931 0.7929
-3.4966 97.4274 11.7169 0.7251 8.3773 -18.2527 0.5203 -1.6430 -0.9165 -0.4359 -5.5260 -2.8547 2.6182 7.0519 -4.6454 8.1820 28.6384 -0.2713 -1.3401 -3.7194 -1.5703 -3.6366 4.3499 -2.2024 0.0489 -0.0206 -0.0179 0.9034 -10.5859 -3.9682 -0.7744 -10.6046 3.8878 5.4571 10.3569 -8.4502 -3.9505 -51.7308 8.3088 3.0013 1.2499 -114.3568 34.4990 -31.2505 8.7471 -14.8231 10.2175 15.6431 -59.0844 1.3845 2.2719 -9.4234 3.0494 3.3291 45.5954 -18.1651 39.9527 -0.0133 1.1364 121.0834 -21.2653 15.7505 0.0083 14.8295 7.6637 -16.6175 50.4577 -3.7699 -5.2803 19.3043 -1.1511 18.6226 -0.1907 10.5056 -0.7596 -27.2581 16.7409 11.1288 2.1934 -19.9425 -2.7353 -9.8427 -30.5328 -9.9093 0.3895 22.0759 0.7029 12.4045 1.1343 7.0846 -1.3803 -3.7789 0.7945
-3.6153 97.3675 10.9686 0.8004 8.7870 -17.1618 0.4431 -1.4272 -1.0017 -0.4577 -5.4419 -2.9140 2.2382 7.0215 -4.7365 9.0435 29.0744 -0.6895 -1.3588 -3.7383 -1.3230 -3.2859 3.7905 -2.0646 0.0597 -0.0213 -0.0294 0.9081 -10.6106 -3.9849 -0.7571 -10.6336 3.8788 5.3004 10.2118 -8.7514 -9.2436 -47.8863 8.0328 2.7258 0.9575 -115.4988 36.7175 -31.1853 7.9827 -14.4367 9.9406 15.4455 -58.8612 1.3345 2.2455 -9.8365 2.8459 3.7314 43.9092 -18.2466 39.6554 -0.2182 1.2056 118.5543 -21.1618 15.4320 0.4079 14.9247 7.6240 -16.6649 50.4393 -3.7659 -5.2607 19.2848 -1.7560 18.4284 -0.2108 9.4083 -0.7648 -27.0577 16.7111 11.0919 2.1484 -18.8793 -2.6946 -9.4828 -31.6083 -10.8679 0.3952 22.8626 0.6790 12.1684 1.2262 7.1347 -1.3846 -3.7127 0.7843
-3.7381 97.2143 10.2539 0.9108 9.2140 -15.9995 0.4442 -1.2069 -1.0970 -0.4544 -5.3569 -2.9327 1.8368 7.0742 -4.8943 9.5332 28.9714 -0.9815 -1.4183 -3.7407 -1.1639 -2.9940 2.9274 -1.9912 0.0593 -0.0262 -0.0312 0.8923 -10.6003 -3.9818 -0.7432 -10.6281 3.8741 4.7529 10.0704 -8.9338 -14.4662 -42.7911 6.3212 2.2378 0.8364 -116.5400 38.1248 -30.2706 7.8505 -14.2108 9.7168 15.2047 -58.8195 1.3728 2.1937 -9.9287 3.0266 4.1888 41.8367 -17.6024 39.1684 -0.4456 1.4126 115.8112 -21.0093 14.4707 0.9892 14.9177 7.5500 -16.7263 50.3054 -3.7575 -5.2353 19.2046 -2.3681 18.1994 -0.2322 8.3540 -0.7676 -26.8715 16.3323 11.2647 2.1011 -17.6535 -2.6478 -9.2469 -32.9020 -11.6487 0.4114 24.0946 0.7027 11.8776 1.1554 7.0733 -1.3903 -3.6527 0.7716
-3.9251 96.9570 9.5569 1.0576 9.6235 -14.7861 0.4680 -0.9543 -1.2106 -0.4367 -5.2931 -2.9118 1.4320 7.2515 -5.0769 9.7126 28.2382 -1.0606 -1.4913 -3.7712 -1.1411 -2.7535 1.8737 -2.0270 0.0408 -0.0400 -0.0114 0.8542 -10.5855 -3.9522 -0.7433 -10.6186 3.8908 3.8919 10.0318 -8.9895 -19.6188 -36.6123 2.9596 1.5093 0.9061 -116.9961 39.0543 -28.8223 7.9021 -14.3134 9.5850 15.0385 -59.0689 1.4781 2.1744 -9.5438 3.5903 4.7101 39.5144 -16.2229 38.3632 -0.6822 1.6449 113.0789 -20.7772 12.8913 1.7806 14.8414 7.5050 -16.7194 50.1909 -3.7144 -5.1931 19.0435 -3.0435 17.9951 -0.2391 7.4768 -0.7546 -26.5276 15.5118 11.6800 2.0522 -16.2076 -2.6056 -9.1142 -34.3890 -12.3202 0.4331 25.8170 0.7151 11.6090 0.8163 7.0114 -1.3961 -3.6263 0.7818
-4.1820 96.5511 8.8346 1.2167 9.9834 -13.4315 0.4797 -0.5905 -1.3479 -0.4046 -5.1943 -2.8312 1.0164 7.5180 -5.2754 9.6230 26.8192 -0.9668 -1.5316 -3.8343 -1.2577 -2.4764 0.5454 -2.1138 0.0189 -0.0633 0.0135 0.8183 -10.5751 -3.9209 -0.7546 -10.6094 3.9164 2.7518 10.2119 -8.9903 -24.4380 -29.8100 -2.1830 0.6793 0.9264 -116.0858 39.5700 -27.3617 7.3653 -14.7910 9.5207 15.0133 -59.5811 1.5638 2.2566 -8.6111 4.4119 5.2804 37.0175 -14.3128 36.9962 -0.9317 1.8249 110.4912 -20.1614 10.8396 2.7480 14.7861 7.4432 -16.6287 50.0422 -3.6363 -5.1965 18.8812 -3.8947 17.7139 -0.2419 7.0025 -0.7191 -26.1540 13.8134 12.3386 1.9890 -14.2185 -2.5450 -9.0119 -36.0793 -12.9473 0.4751 28.1642 0.7472 11.3055 0.0186 6.8538 -1.4030 -3.4981 0.8171
-4.6432 95.8207 8.0351 1.3810 10.2540 -11.8518 0.3926 -0.0288 -1.5037 -0.3829 -5.0765 -2.7068 0.5959 7.9578 -5.4408 9.3885 24.5989 -0.7790 -1.5729 -3.7889 -1.5789 -2.1225 -1.4434 -2.1464 -0.0115 -0.0551 0.0617 0.7756 -10.5110 -3.8606 -0.7760 -10.5398 3.9606 1.2370 10.9494 -9.1316 -28.1988 -23.3784 -8.7303 -0.0601 0.9994 -113.5228 38.6990 -26.7121 6.2810 -15.5081 9.5146 15.1460 -60.0307 1.6029 2.4172 -7.0658 5.3866 5.9176 34.1867 -12.0887 34.6870 -0.9061 1.7829 108.1990 -19.3180 8.3591 3.8535 14.7596 7.3870 -16.4394 49.7817 -3.5944 -5.1288 18.8911 -5.1382 17.3615 -0.2489 7.3116 -0.6921 -26.1829 10.9757 12.9597 1.9179 -11.5126 -2.4654 -8.9086 -38.0695 -13.6923 0.5391 31.3219 0.7781 10.9522 -1.5979 6.4525 -1.4219 -2.9411 0.8206
-5.2337 94.8828 7.2196 1.4556 10.4957 -10.1721 0.3047 0.6991 -1.5881 -0.4021 -4.8453 -2.6051 0.1197 8.4373 -5.5763 8.9172 21.9618 -0.4262 -1.6529 -3.9046 -1.9259 -1.3081 -3.1500 -2.5933 -0.0055 -0.0818 0.0403 0.7719 -10.4620 -3.8554 -0.7648 -10.5046 3.9136 -0.4198 11.5281 -9.6343 -30.7357 -17.3737 -15.0861 -0.3771 0.7620 -110.2978 35.7295 -27.2940 5.7501 -15.6356 9.7079 15.3868 -60.1511 1.7934 2.4648 -5.4295 6.3522 6.5808 31.4919 -10.2684 31.8611 -0.9405 1.5941 106.1330 -18.1942 6.0932 5.2896 14.4353 7.3737 -16.3541 49.4764 -3.5400 -5.1989 19.0993 -6.8322 16.7156 -0.2351 8.4868 -0.6067 -26.3805 7.2584 13.5864 1.8270 -8.7144 -2.3579 -8.3983 -39.9058 -14.7885 0.5743 34.4708 0.8413 10.2475 -3.8106 5.8938 -1.4264 -2.3084 0.8974
-5.9959 93.7547 6.2197 1.4437 10.7913 -8.7814 0.1378 1.5647 -1.6367 -0.4494 -4.6184 -2.4573 -0.2992 9.2147 -5.5476 8.1730 19.2224 -0.0709 -1.5949 -3.8015 -2.3728 -0.3866 -5.6160 -3.0634 -0.0084 -0.0646 0.0441 0.7723 -10.3784 -3.8190 -0.7755 -10.4132 3.8882 -2.3021 12.4715 -10.3083 -31.7928 -12.0446 -20.7888 0.0042 0.6843 -106.9503 30.3998 -27.7903 7.2438 -15.3231 9.9955 15.6810 -60.0566 1.8775 2.4628 -3.5887 7.1564 7.2952 28.1167 -8.8617 28.8009 -0.8593 1.1518 103.9153 -17.3721 4.4670 6.5845 14.3448 7.4566 -16.3262 49.4072 -3.4682 -5.1546 19.6431 -9.2895 16.1958 -0.2483 10.7828 -0.6177 -26.8588 3.6476 13.7864 1.7718 -6.1402 -2.2567 -7.5853 -42.4563 -16.0276 0.6075 38.4618 0.8744 9.5827 -5.8901 5.4624 -1.4368 -1.8002 0.8876
-6.7508 92.7278 5.2520 1.1880 11.2230 -7.9504 0.0285 2.4446 -1.5630 -0.5313 -4.3249 -2.4100 -0.6183 9.9585 -5.3385 7.2673 17.4024 0.3479 -1.4602 -3.9165 -2.7585 0.6256 -7.2641 -3.7836 -0.0015 -0.0833 0.0073 0.7764 -10.4100 -3.8384 -0.7675 -10.4479 3.8357 -3.8957 13.0947 -10.9926 -32.9570 -7.2908 -24.4697 0.5104 0.1618 -104.3079 25.5118 -26.2040 10.2631 -15.0807 10.6112 16.0942 -60.3333 2.1165 2.3759 -2.3662 8.0113 8.1816 25.4501 -8.9857 26.0051 -0.7935 1.0172 101.3984 -17.2719 3.6100 7.5927 14.1513 7.5797 -16.4406 49.3682 -3.4414 -5.1269 20.3740 -12.0547 15.6388 -0.2914 13.5347 -0.7289 -26.7222 0.5844 14.0959 1.7000 -4.8676 -2.2119 -6.1294 -44.6521 -17.3563 0.6153 41.6088 0.8733 8.5614 -7.7787 5.3345 -1.4227 -1.3197 0.8850
-7.4347 91.8566 4.3554 0.9470 11.6565 -7.7769 -0.0520 3.2411 -1.4983 -0.6162 -4.0335 -2.2093 -1.0537 10.7112 -5.1408 6.3847 16.3654 0.6829 -1.4505 -3.9024 -2.9984 1.4519 -8.7992 -4.3638 -0.0050 -0.0996 -0.0045 0.7596 -10.3927 -3.8248 -0.7595 -10.4253 3.8026 -5.4201 13.6595 -11.2397 -34.6229 -3.8163 -26.4066 0.7969 0.0694 -102.2288 22.4604 -23.2913 13.1275 -14.9388 10.9423 16.4620 -60.4044 2.0855 2.4890 -1.8351 8.6196 8.8977 23.9367 -10.1503 23.9292 -0.7308 0.9076 99.2266 -17.8436 3.6082 7.7104 14.2709 7.6247 -16.4954 49.7061 -3.3889 -5.1465 21.2091 -14.6342 15.0920 -0.3013 16.5195 -0.7882 -26.7721 -1.3913 14.2377 1.6876 -4.0821 -2.1867 -4.6687 -46.7924 -18.4397 0.5896 44.3353 0.8297 7.7256 -8.9512 5.4898 -1.4120 -1.1987 0.8991
-8.0075 91.1405 3.6589 0.7543 11.9995 -8.2215 -0.1316 3.9681 -1.3897 -0.6730 -3.7410 -2.0222 -1.5819 11.3822 -4.9431 5.4580 16.1308 1.0167 -1.4351 -3.9136 -3.1119 2.1072 -9.9096 -4.7906 -0.0104 -0.1076 -0.0120 0.7368 -10.4153 -3.8197 -0.7478 -10.4427 3.7836 -7.0926 14.1669 -11.2472 -37.4586 -1.8700 -26.2704 0.7095 -0.1287 -100.5843 22.3809 -20.0345 14.3650 -14.9283 11.1342 16.5945 -60.5689 1.9971 2.5045 -2.0524 8.9696 9.3841 23.8071 -11.8610 22.9005 -0.8400 0.7487 98.0042 -18.5423 3.7491 7.6045 14.3947 7.6085 -16.5246 49.9768 -3.3598 -5.1583 21.8552 -16.4412 14.5997 -0.3090 19.0279 -0.8544 -26.6856 -2.7598 14.7309 1.6745 -3.6122 -2.1418 -3.3849 -48.5593 -19.2450 0.5844 46.3956 0.7676 7.2242 -9.7241 5.9788 -1.4058 -1.0323 0.9364
-8.4429 90.5498 3.1322 0.6023 12.3178 -9.0023 -0.2021 4.5124 -1.2654 -0.6861 -3.5027 -1.8294 -2.1522 11.9717 -4.7555 4.4561 16.4401 1.2834 -1.3596 -3.9113 -3.1633 2.6510 -10.8320 -5.0659 -0.0207 -0.0992 -0.0115 0.7075 -10.4168 -3.8079 -0.7403 -10.4485 3.7767 -9.1881 14.6402 -11.2503 -40.7457 -0.8135 -24.7969 0.4974 -0.5304 -99.0641 24.1552 -16.9318 14.5663 -14.9448 11.2800 16.6503 -60.7084 1.9743 2.4537 -2.5648 9.0884 9.6205 24.2769 -13.3952 22.8782 -0.9765 0.5456 97.4840 -19.1970 4.4390 7.4046 14.4358 7.5585 -16.4847 50.0481 -3.3306 -5.1544 22.2839 -17.6862 14.1604 -0.2846 21.1083 -0.8839 -26.6012 -3.8446 15.6348 1.6633 -3.2738 -2.1017 -2.2538 -50.0443 -19.8795 0.5918 47.8860 0.7057 6.9276 -10.1454 6.7139 -1.4053 -0.9102 0.9818
-8.7298 90.0813 2.6782 0.4622 12.5815 -9.8633 -0.2582 4.9039 -1.1424 -0.6908 -3.3119 -1.6406 -2.7117 12.5047 -4.6010 3.5125 17.0403 1.4706 -1.2309 -3.8999 -3.2089 3.1348 -11.6259 -5.2583 -0.0312 -0.0718 -0.0109 0.6803 -10.3918 -3.8000 -0.7340 -10.4333 3.7717 -11.4952 15.0371 -11.2868 -43.8496 -0.3065 -22.5737 0.1580 -0.9361 -97.6193 26.6415 -14.3657 14.1308 -14.8879 11.3643 16.6673 -60.7213 2.0267 2.3575 -3.2371 9.0933 9.6829 24.9583 -14.6947 23.5613 -0.9232 0.2706 97.2451 -19.6497 5.8451 7.2287 14.4623 7.5047 -16.4113 49.9953 -3.3312 -5.1442 22.6002 -18.6249 13.7403 -0.2449 22.9592 -0.8817 -26.5449 -4.7292 16.5589 1.6554 -2.9159 -2.0943 -1.2598 -51.2475 -20.4037 0.6119 48.9445 0.6738 6.6900 -10.3000 7.4806 -1.4065 -0.8234 1.0079
-8.8694 89.7529 2.2866 0.3447 12.7136 -10.5118 -0.3277 5.1917 -1.0113 -0.6978 -3.1941 -1.5033 -3.1832 12.9963 -4.4515 2.8434 17.7424 1.5781 -1.1258 -3.8788 -3.3065 3.5865 -12.2186 -5.4701 -0.0429 -0.0484 -0.0040 0.6544 -10.3699 -3.7898 -0.7317 -10.4182 3.7785 -13.4621 15.3478 -11.3389 -46.2174 -0.0259 -20.4049 -0.1674 -1.1122 -96.5908 28.9435 -12.8486 13.2407 -14.8319 11.3562 16.6206 -60.6893 2.0748 2.2917 -3.9288 9.1002 9.6213 25.6089 -15.6493 24.6301 -0.7358 0.0860 96.8692 -19.9119 7.3656 7.0757 14.5243 7.4569 -16.3688 49.9280 -3.3576 -5.1589 22.8376 -19.3975 13.3648 -0.2052 24.5569 -0.8594 -26.4340 -5.4276 17.1419 1.6476 -2.5736 -2.1072 -0.5157 -52.0867 -20.8135 0.6293 49.6442 0.6431 6.5341 -10.3220 8.0695 -1.4050 -0.7350 1.0249
-8.8935 89.5406 1.9364 0.2240 12.6963 -10.8393 -0.3864 5.4002 -0.9387 -0.7271 -3.1157 -1.3610 -3.5099 13.3980 -4.2932 2.4987 18.4531 1.6258 -1.0362 -3.8724 -3.4307 3.9931 -12.6136 -5.6771 -0.0517 -0.0374 0.0008 0.6343 -10.3563 -3.7836 -0.7291 -10.4082 3.7841 -14.7827 15.5522 -11.3083 -47.5602 0.3035 -18.9638 -0.3816 -1.2167 -96.1634 30.4797 -12.1180 12.3105 -14.8294 11.3198 16.5687 -60.6464 2.1076 2.2717 -4.4594 9.1128 9.6057 26.0923 -16.1957 25.7592 -0.6382 0.0784 96.1421 -19.9745 8.4497 6.8875 14.5978 7.4439 -16.3573 49.9053 -3.3804 -5.1871 23.0460 -20.0804 13.0458 -0.1785 25.8815 -0.8481 -26.3748 -5.9881 17.3412 1.6409 -2.2619 -2.1200 -0.0542 -52.5591 -21.0379 0.6302 50.0505 0.6157 6.4751 -10.2732 8.3196 -1.3999 -0.6831 1.0444
-8.7920 89.4385 1.6026 0.1230 12.5806 -10.8238 -0.4405 5.5016 -0.8890 -0.7763 -3.0682 -1.2141 -3.7048 13.7295 -4.1791 2.4576 19.1004 1.6598 -0.9644 -3.8814 -3.6021 4.3838 -12.7915 -5.9316 -0.0533 -0.0399 -0.0036 0.6231 -10.3484 -3.7869 -0.7217 -10.4050 3.7812 -15.5245 15.6925 -11.2961 -47.9013 0.7326 -18.4162 -0.4356 -1.2869 -96.2130 31.1650 -11.7433 11.8590 -14.8678 11.2709 16.5436 -60.6360 2.1245 2.2661 -4.6286 9.1919 9.7065 26.2524 -16.5086 26.7808 -0.6211 0.1922 94.9697 -19.9297 9.1397 6.7031 14.6196 7.4010 -16.3420 49.8278 -3.4189 -5.2140 23.2074 -20.7844 12.8926 -0.1783 26.9058 -0.8492 -26.3295 -6.3199 17.1654 1.6371 -2.0421 -2.1171 0.1208 -52.7393 -21.1315 0.6363 50.1413 0.6158 6.4994 -10.0863 8.3379 -1.3931 -0.6504 1.0537
-8.6031 89.4183 1.2621 0.0629 12.3679 -10.5309 -0.5049 5.5548 -0.8324 -0.8173 -3.0559 -1.1215 -3.8254 13.9979 -4.0721 2.6600 19.7074 1.6609 -0.9225 -3.9018 -3.7894 4.7833 -12.8953 -6.2660 -0.0529 -0.0476 -0.0070 0.6146 -10.3481 -3.7875 -0.7125 -10.4032 3.7760 -15.7761 15.7921 -11.3545 -47.5387 1.1704 -18.6399 -0.3611 -1.3514 -96.5951 31.2049 -11.2761 11.9983 -14.9300 11.2299 16.5385 -60.6823 2.1506 2.2782 -4.5179 9.3664 9.9010 26.1610 -16.7285 27.5391 -0.6565 0.3041 93.5379 -19.8765 9.4492 6.5633 14.6476 7.3751 -16.3266 49.7883 -3.4364 -5.2311 23.2560 -21.5012 12.8791 -0.2070 27.7542 -0.8742 -26.3118 -6.5496 16.6490 1.6356 -1.9381 -2.1030 -0.0445 -52.6944 -20.9977 0.6185 50.0094 0.6087 6.5885 -9.8676 8.1491 -1.3886 -0.6463 1.0571
-8.2967 89.4422 0.9407 0.0647 12.0575 -10.0036 -0.5664 5.5570 -0.8057 -0.8614 -3.0406 -1.0238 -3.9083 14.1736 -3.9921 3.0283 20.2881 1.5886 -0.9270 -3.9152 -3.9872 5.1188 -12.9268 -6.6170 -0.0552 -0.0538 -0.0075 0.6090 -10.3429 -3.7884 -0.7115 -10.4000 3.7774 -15.7463 15.8618 -11.5099 -46.6586 1.6197 -19.4516 -0.1984 -1.3622 -97.1789 30.7703 -10.7049 12.4147 -14.9859 11.1942 16.5366 -60.7548 2.1693 2.3022 -4.2747 9.5363 10.0975 26.0743 -16.8896 28.0401 -0.6638 0.4170 91.9891 -19.6949 9.5333 6.5063 14.6633 7.3328 -16.3268 49.7547 -3.4428 -5.2749 23.1959 -22.1698 12.9925 -0.2512 28.4441 -0.8953 -26.4100 -6.7382 15.8316 1.6355 -1.8938 -2.0861 -0.5470 -52.4584 -20.6913 0.5879 49.7130 0.5989 6.7479 -9.6190 7.8171 -1.3866 -0.6434 1.0430
-7.8585 89.4716 0.6220 0.1277 11.6660 -9.3324 -0.6239 5.5007 -0.7863 -0.8761 -3.0253 -0.9784 -3.9809 14.2824 -3.9217 3.4985 20.8438 1.4640 -0.9450 -3.9235 -4.1838 5.3640 -12.9001 -6.9789 -0.0574 -0.0592 -0.0057 0.6016 -10.3345 -3.7874 -0.7076 -10.3935 3.7792 -15.6192 15.9077 -11.7766 -45.4820 2.1769 -20.7066 0.1266 -1.3426 -97.8832 30.0612 -10.0911 12.8383 -15.0203 11.1765 16.5519 -60.8053 2.1766 2.3327 -3.9796 9.7089 10.2622 25.9446 -16.9419 28.3061 -0.6228 0.5113 90.5668 -19.4332 9.6889 6.4644 14.7167 7.2918 -16.3169 49.8011 -3.4181 -5.3010 23.0120 -22.8215 13.2472 -0.3020 29.1561 -0.9182 -26.5582 -7.0109 14.7703 1.6365 -1.9161 -2.0719 -1.3502 -52.1040 -20.2169 0.5484 49.3317 0.5803 6.9163 -9.3508 7.3881 -1.3877 -0.6351 1.0166
-7.3199 89.4869 0.3375 0.2287 11.1991 -8.6494 -0.6729 5.4071 -0.7629 -0.8721 -3.0272 -0.9701 -4.0271 14.3582 -3.8529 4.0302 21.3504 1.3168 -0.9927 -3.9396 -4.3575 5.5123 -12.8256 -7.3350 -0.0575 -0.0676 -0.0017 0.6018 -10.3363 -3.7858 -0.7078 -10.3989 3.7851 -15.5019 15.9477 -12.0758 -44.2486 2.8298 -22.1480 0.4943 -1.3393 -98.6019 29.2561 -9.5287 13.1052 -15.0301 11.1997 16.5565 -60.9156 2.1706 2.3607 -3.7461 9.8436 10.3789 25.8444 -16.8580 28.3830 -0.5348 0.5387 89.4819 -19.1263 9.8266 6.5123 14.7605 7.2607 -16.3309 49.8510 -3.4107 -5.3166 22.7268 -23.4031 13.5938 -0.3533 29.9788 -0.9510 -26.7382 -7.4653 13.7083 1.6358 -1.8681 -2.0554 -2.3636 -51.7144 -19.6260 0.5141 49.0037 0.5757 7.1313 -9.0672 6.9303 -1.3902 -0.5996 0.9927
-6.6474 89.4495 0.0909 0.3703 10.6480 -8.0791 -0.7095 5.2912 -0.7425 -0.8628 -3.0506 -0.9357 -4.0498 14.4244 -3.7686 4.5583 21.7831 1.1193 -1.0366 -3.9461 -4.5359 5.5870 -12.7494 -7.6484 -0.0587 -0.0769 0.0063 0.6041 -10.3456 -3.7800 -0.7122 -10.4099 3.7945 -15.4755 15.9930 -12.3611 -43.1389 3.5804 -23.6035 0.7850 -1.3390 -99.1801 28.5024 -9.0622 13.0977 -15.0340 11.2120 16.5672 -61.0674 2.1617 2.3839 -3.6061 9.9656 10.4424 25.8866 -16.7138 28.3354 -0.3956 0.5335 88.7280 -18.7805 9.8230 6.7160 14.7701 7.2393 -16.3752 49.8761 -3.4068 -5.3345 22.3774 -23.8774 14.0258 -0.3970 31.0060 -0.9689 -26.9555 -8.0860 12.6711 1.6376 -1.7829 -2.0471 -3.5745 -51.3190 -18.8943 0.4968 48.7676 0.5844 7.3727 -8.7857 6.5351 -1.3940 -0.5306 0.9654
-5.9590 89.3682 -0.0991 0.5370 9.9921 -7.6547 -0.7400 5.1847 -0.6994 -0.8425 -3.0878 -0.9160 -4.0279 14.4884 -3.6754 5.0977 22.1666 0.8926 -1.0929 -3.9548 -4.6985 5.5836 -12.7107 -7.8891 -0.0610 -0.0839 0.0189 0.6040 -10.3679 -3.7750 -0.7165 -10.4326 3.8144 -15.5343 16.0577 -12.6080 -42.3520 4.3573 -24.9748 0.9054 -1.3005 -99.5095 27.8882 -8.7304 12.8588 -15.0021 11.1981 16.5596 -61.1520 2.1418 2.4002 -3.5020 10.0920 10.4785 26.0770 -16.5206 28.2812 -0.2439 0.5249 88.2294 -18.3694 9.7977 6.9836 14.7698 7.2382 -16.4374 49.9056 -3.3910 -5.3316 22.0074 -24.2106 14.5098 -0.4502 32.2462 -1.0039 -27.1238 -8.8699 11.7188 1.6389 -1.6559 -2.0347 -4.9437 -50.8931 -18.0261 0.5099 48.6383 0.6291 7.6735 -8.5289 6.1930 -1.3972 -0.4762 0.9484
-5.2451 89.2708 -0.2239 0.6942 9.2677 -7.3549 -0.7511 5.0746 -0.6624 -0.8214 -3.1315 -0.8747 -3.9525 14.5398 -3.5909 5.6593 22.4528 0.6468 -1.1394 -3.9607 -4.8314 5.5278 -12.7052 -8.0789 -0.0605 -0.0835 0.0246 0.6057 -10.3843 -3.7779 -0.7163 -10.4440 3.8258 -15.6788 16.1065 -12.7584 -41.9334 5.2797 -26.2632 0.8604 -1.2578 -99.5479 27.4673 -8.4265 12.4744 -14.9832 11.1932 16.5557 -61.1937 2.1177 2.3999 -3.3246 10.2077 10.4874 26.4563 -16.2328 28.3660 -0.1168 0.5849 87.8083 -17.9184 9.8290 7.1745 14.7859 7.2767 -16.4742 49.9392 -3.3596 -5.2954 21.6496 -24.3561 14.9428 -0.4910 33.5461 -1.0350 -27.2272 -9.7573 10.9611 1.6402 -1.4849 -2.0237 -6.3339 -50.3882 -17.1728 0.5190 48.5141 0.6683 8.0366 -8.3056 5.9368 -1.4007 -0.4219 0.9442
-4.5255 89.1583 -0.2735 0.8442 8.5541 -7.1905 -0.7514 4.9539 -0.6118 -0.7930 -3.1929 -0.8509 -3.8302 14.5918 -3.5034 6.2850 22.6110 0.4129 -1.1985 -3.9648 -4.9294 5.4076 -12.6909 -8.2096 -0.0563 -0.0745 0.0264 0.6134 -10.3989 -3.7835 -0.7145 -10.4479 3.8304 -15.8912 16.1456 -12.8564 -41.8117 6.3210 -27.5351 0.7112 -1.1743 -99.2141 27.1650 -8.1346 11.9752 -14.9633 11.1752 16.5383 -61.1898 2.0892 2.3771 -3.0135 10.3178 10.4647 26.9831 -15.9330 28.6311 0.0327 0.6546 87.3523 -17.3644 10.0586 7.1897 14.7498 7.3186 -16.4899 49.8956 -3.3416 -5.2287 21.2978 -24.3823 15.3136 -0.5191 34.8580 -1.0502 -27.2271 -10.6976 10.4044 1.6402 -1.3410 -2.0134 -7.6435 -49.8920 -16.3927 0.5386 48.4200 0.7133 8.4134 -8.0860 5.7848 -1.4043 -0.4138 0.9455
-3.8537 89.0548 -0.2765 0.9769 7.8872 -7.0665 -0.7575 4.8167 -0.5699 -0.7558 -3.2715 -0.8472 -3.6474 14.6573 -3.4212 6.9842 22.7038 0.1419 -1.2481 -3.9750 -4.9922 5.2456 -12.7067 -8.2532 -0.0492 -0.0647 0.0257 0.6259 -10.4106 -3.7904 -0.7118 -10.4548 3.8318 -16.1628 16.1996 -12.9263 -41.8593 7.4431 -28.8463 0.5353 -1.0840 -98.5181 26.9139 -7.7500 11.5205 -14.9914 11.1338 16.4914 -61.1818 2.0474 2.3402 -2.5324 10.4518 10.4287 27.6698 -15.6814 28.9957 0.1827 0.6693 86.7688 -16.6826 10.4606 6.9815 14.6845 7.3890 -16.5119 49.8712 -3.3221 -5.1717 20.9481 -24.3274 15.5880 -0.5283 36.0868 -1.0566 -27.1368 -11.6078 10.0247 1.6377 -1.1876 -1.9995 -8.8117 -49.3995 -15.7899 0.5573 48.2802 0.7499 8.7723 -7.8553 5.7949 -1.4083 -0.4528 0.9533
-3.1833 88.9649 -0.2363 1.1013 7.2813 -6.9619 -0.7655 4.6594 -0.5418 -0.7197 -3.3324 -0.8570 -3.4209 14.7435 -3.3896 7.7941 22.7017 -0.1309 -1.3108 -3.9997 -5.0391 5.0574 -12.6975 -8.2450 -0.0378 -0.0577 0.0159 0.6458 -10.4330 -3.8071 -0.7072 -10.4685 3.8219 -16.4342 16.2454 -12.9777 -42.0048 8.5705 -30.2226 0.3215 -0.9506 -97.5061 26.6361 -7.2364 11.0939 -14.9829 11.1246 16.4628 -61.0527 2.0159 2.3079 -1.9403 10.6206 10.3875 28.5427 -15.7060 29.3599 0.4726 0.6505 86.0243 -15.8077 11.0603 6.5277 14.6438 7.4306 -16.5092 49.7880 -3.2948 -5.1360 20.6056 -24.2541 15.7931 -0.5257 37.2372 -1.0541 -27.0192 -12.4457 9.7379 1.6351 -1.0341 -1.9784 -9.8221 -48.9602 -15.4358 0.5746 48.1493 0.7830 9.1036 -7.6332 5.9037 -1.4126 -0.4979 0.9692
-2.5643 88.8901 -0.2013 1.2144 6.7504 -6.8851 -0.7806 4.5043 -0.5104 -0.6877 -3.3934 -0.8953 -3.1656 14.8454 -3.3657 8.6552 22.7041 -0.3857 -1.3665 -4.0320 -5.0845 4.8555 -12.6967 -8.2026 -0.0245 -0.0518 0.0019 0.6680 -10.4491 -3.8257 -0.7021 -10.4780 3.8080 -16.6188 16.2894 -13.0269 -42.2375 9.6412 -31.6833 0.1857 -0.7925 -96.3878 26.4385 -6.5981 10.8069 -14.9679 11.1222 16.3930 -60.9179 2.0005 2.2601 -1.2759 10.8316 10.3644 29.5567 -15.7690 29.7301 0.7087 0.6213 85.1606 -14.8982 11.7823 5.9083 14.6425 7.4827 -16.5075 49.7395 -3.2811 -5.1071 20.2766 -24.1482 15.9223 -0.5096 38.2593 -1.0393 -26.8649 -13.2237 9.5020 1.6343 -0.8872 -1.9655 -10.6510 -48.5782 -15.3281 0.5994 48.0144 0.8141 9.4179 -7.3897 6.1174 -1.4175 -0.5412 0.9834
-2.0103 88.8274 -0.1466 1.2939 6.2741 -6.8214 -0.7882 4.3580 -0.4947 -0.6612 -3.4422 -0.9414 -2.8601 14.9545 -3.3633 9.5162 22.8124 -0.6732 -1.4264 -4.0703 -5.0940 4.6408 -12.7482 -8.1186 -0.0101 -0.0479 -0.0161 0.6901 -10.4610 -3.8462 -0.6941 -10.4834 3.7869 -16.5836 16.3203 -13.0014 -42.6294 10.5147 -33.2501 0.0750 -0.6330 -95.2551 26.3149 -5.7961 10.7781 -14.9306 11.1423 16.3435 -60.7591 1.9963 2.2227 -0.6199 11.0501 10.3701 30.6745 -15.8015 30.0584 0.8399 0.6281 84.1972 -13.9230 12.5371 5.1708 14.6291 7.5085 -16.4906 49.6463 -3.2774 -5.1168 20.0171 -24.0251 15.9527 -0.4845 39.1609 -1.0106 -26.6948 -13.9349 9.2758 1.6321 -0.7338 -1.9637 -11.2804 -48.2422 -15.4618 0.6342 47.8991 0.8636 9.7118 -7.1760 6.4029 -1.4181 -0.5755 0.9950
-1.5507 88.7712 -0.0721 1.2963 5.8788 -6.8319 -0.7822 4.2170 -0.4776 -0.6396 -3.4960 -1.0083 -2.4838 15.0732 -3.3597 10.2948 23.0826 -0.9260 -1.4693 -4.1039 -5.0523 4.4664 -12.8196 -7.9962 -0.0022 -0.0465 -0.0211 0.7024 -10.4710 -3.8510 -0.6891 -10.4863 3.7777 -16.3341 16.3604 -12.8988 -43.1317 11.1379 -34.8115 0.0371 -0.5081 -94.2564 26.2184 -5.0231 11.0470 -14.9616 11.1319 16.2794 -60.5978 1.9825 2.1753 0.0260 11.2489 10.4068 31.7332 -15.6458 30.4685 0.8962 0.6511 83.1246 -12.9518 13.3367 4.3478 14.6558 7.5260 -16.5193 49.6197 -3.2990 -5.1464 19.8797 -23.8627 15.9279 -0.4614 39.8758 -0.9726 -26.5176 -14.5891 9.1255 1.6292 -0.5936 -1.9669 -11.6495 -47.9401 -15.7556 0.6717 47.7646 0.9182 9.9473 -6.9526 6.7086 -1.4161 -0.5975 1.0008
-1.1791 88.7462 0.0093 1.2023 5.5616 -6.8897 -0.7542 4.0854 -0.4850 -0.6265 -3.5553 -1.0622 -2.0521 15.1669 -3.3257 10.9780 23.4417 -1.1735 -1.4820 -4.1287 -4.9586 4.3276 -12.8534 -7.7968 0.0046 -0.0484 -0.0265 0.7056 -10.4746 -3.8548 -0.6779 -10.4823 3.7690 -15.9031 16.4020 -12.7310 -43.6815 11.5238 -36.2159 -0.0453 -0.3598 -93.4733 26.0899 -4.3603 11.5078 -15.0206 11.1231 16.2515 -60.4821 1.9654 2.1375 0.7003 11.4750 10.4558 32.7172 -15.3411 30.9012 0.8995 0.6986 82.0659 -12.0622 14.1838 3.3892 14.7341 7.5279 -16.5623 49.6336 -3.3255 -5.1900 19.8720 -23.6422 15.7388 -0.4238 40.3827 -0.9119 -26.3349 -15.1210 9.0839 1.6282 -0.5457 -1.9751 -11.7514 -47.6086 -16.1388 0.6935 47.5475 0.9623 10.0787 -6.7333 7.0110 -1.4109 -0.6116 0.9908
-0.8759 88.7597 0.0608 1.0503 5.3402 -6.9672 -0.7190 3.9890 -0.4877 -0.6235 -3.6045 -1.1131 -1.6060 15.2197 -3.3265 11.5475 23.8218 -1.3441 -1.4511 -4.1402 -4.8004 4.2462 -12.8928 -7.5585 0.0124 -0.0531 -0.0323 0.7056 -10.4832 -3.8613 -0.6603 -10.4853 3.7608 -15.3505 16.4355 -12.5351 -44.2110 11.7983 -37.3459 -0.1148 -0.2330 -93.0806 25.8973 -3.8358 12.0910 -15.0763 11.1126 16.2375 -60.3247 1.9544 2.1060 1.3125 11.6971 10.5090 33.6207 -14.9973 31.2824 0.8470 0.7438 81.1811 -11.3845 15.1123 2.3482 14.8566 7.5520 -16.6291 49.7095 -3.3402 -5.2242 19.9447 -23.4145 15.4313 -0.4067 40.7247 -0.8795 -26.1564 -15.4802 9.1708 1.6259 -0.5621 -1.9760 -11.6831 -47.2782 -16.4639 0.7069 47.2652 0.9972 10.1313 -6.4941 7.2160 -1.4074 -0.6183 0.9832
-0.6693 88.7935 0.1127 0.8885 5.2100 -7.0955 -0.6768 3.9302 -0.5152 -0.6214 -3.6144 -1.1426 -1.1935 15.1989 -3.3234 12.0217 24.1094 -1.4859 -1.3919 -4.1335 -4.6031 4.2448 -12.9046 -7.3147 0.0212 -0.0583 -0.0406 0.7047 -10.4900 -3.8717 -0.6404 -10.4888 3.7525 -14.7265 16.4702 -12.3448 -44.6637 12.0317 -38.1632 -0.1181 -0.1413 -93.0837 25.5924 -3.3974 12.6724 -15.0872 11.1335 16.2736 -60.1641 1.9424 2.1352 1.8484 11.8326 10.5367 34.6424 -14.6709 31.5502 0.7261 0.8275 80.5329 -10.8438 16.0123 1.3823 14.9513 7.5849 -16.6737 49.7513 -3.3357 -5.2528 20.0368 -23.1971 15.0306 -0.3928 40.9405 -0.8649 -26.0490 -15.7204 9.4488 1.6234 -0.5836 -1.9707 -11.5274 -47.0088 -16.6902 0.6963 46.9841 1.0021 10.1199 -6.2662 7.3669 -1.4071 -0.5725 0.9705
-0.5331 88.8331 0.1310 0.7751 5.1707 -7.2911 -0.6367 3.9119 -0.5364 -0.6034 -3.6327 -1.1908 -0.8719 15.1598 -3.2795 12.3533 24.3521 -1.6102 -1.3498 -4.1118 -4.3601 4.3203 -12.8962 -7.0829 0.0257 -0.0629 -0.0416 0.7032 -10.5165 -3.8750 -0.6285 -10.5143 3.7529 -14.1642 16.5475 -12.1709 -44.9150 12.1497 -38.4657 -0.0968 -0.0985 -93.5368 25.2785 -3.1376 13.1622 -15.0570 11.1529 16.3042 -60.0917 1.9197 2.1816 2.2717 11.9299 10.5692 35.8044 -14.5520 31.5178 0.6881 0.7922 80.2929 -10.5593 16.8110 0.6833 15.0031 7.6349 -16.7423 49.7698 -3.3311 -5.2792 20.0611 -23.0016 14.6705 -0.3997 41.0591 -0.8728 -25.9995 -15.8226 9.8208 1.6222 -0.6023 -1.9629 -11.3641 -46.9039 -16.7453 0.7005 46.8204 1.0260 10.0541 -6.0531 7.4652 -1.4091 -0.5131 0.9490
-0.5049 88.8645 0.1492 0.7547 5.1575 -7.5862 -0.5895 3.9285 -0.5544 -0.5821 -3.6288 -1.2035 -0.6801 15.1078 -3.2073 12.5412 24.5325 -1.6852 -1.3218 -4.0905 -4.1610 4.4457 -12.8382 -6.8814 0.0308 -0.0661 -0.0459 0.7069 -10.5480 -3.8840 -0.6199 -10.5418 3.7506 -13.7383 16.5947 -12.0003 -44.9826 12.0893 -38.1168 -0.1085 -0.0641 -94.2817 25.1510 -2.9859 13.3631 -14.9907 11.1913 16.3796 -60.0821 1.9125 2.2562 2.6259 12.0372 10.5832 37.0852 -14.6569 31.2678 0.8068 0.7228 80.3723 -10.5471 17.4245 0.3150 15.0641 7.6616 -16.7920 49.7548 -3.3478 -5.3099 20.0220 -22.7376 14.4113 -0.4037 41.0555 -0.8843 -26.0335 -15.7797 10.2802 1.6230 -0.6276 -1.9678 -11.2740 -46.8884 -16.6337 0.6909 46.7477 1.0344 9.9616 -5.8730 7.5366 -1.4152 -0.4583 0.9350
-0.5295 88.8690 0.1829 0.8041 5.1840 -7.8626 -0.5235 3.9354 -0.5536 -0.5603 -3.6334 -1.1930 -0.5667 15.1057 -3.1110 12.6262 24.7110 -1.7628 -1.3181 -4.0813 -3.9661 4.5637 -12.7548 -6.6926 0.0365 -0.0673 -0.0519 0.7096 -10.5955 -3.9002 -0.6106 -10.5896 3.7531 -13.4410 16.6650 -11.8531 -44.8835 11.8196 -37.2363 -0.1201 -0.1388 -95.2728 25.4215 -2.7436 13.3520 -14.9741 11.2053 16.4349 -60.2075 1.9045 2.3345 2.9122 12.1795 10.5440 38.2905 -14.8422 30.9225 0.9991 0.6224 80.6501 -10.6477 17.9391 0.1713 15.0933 7.6875 -16.8450 49.6971 -3.3631 -5.3542 19.9536 -22.4872 14.2214 -0.4036 40.9884 -0.8944 -26.1240 -15.6751 10.7505 1.6232 -0.6366 -1.9679 -11.2324 -46.9839 -16.4757 0.6816 46.7912 1.0437 9.8684 -5.7707 7.5907 -1.4211 -0.3927 0.9252
-0.6246 88.8593 0.2132 0.9016 5.2623 -8.1416 -0.4431 3.9180 -0.5179 -0.5412 -3.6507 -1.2040 -0.5070 15.1035 -2.9783 12.6451 24.9379 -1.7975 -1.3159 -4.0801 -3.7894 4.6443 -12.6878 -6.5477 0.0467 -0.0653 -0.0651 0.7187 -10.6364 -3.9215 -0.5994 -10.6340 3.7459 -13.2719 16.6860 -11.6900 -44.7176 11.5395 -36.1638 -0.0354 -0.2888 -96.2998 26.1181 -2.3481 13.2328 -14.9555 11.1910 16.3959 -60.4079 1.9073 2.3735 3.1342 12.3284 10.5190 39.3210 -14.8979 30.6364 1.1886 0.5490 80.9051 -10.8338 18.4050 0.2507 15.0929 7.6726 -16.8465 49.6352 -3.3670 -5.3877 19.8562 -22.2582 14.1259 -0.3917 40.8548 -0.8859 -26.2583 -15.5506 11.2366 1.6236 -0.6578 -1.9649 -11.2355 -47.1437 -16.2379 0.6659 46.9329 1.0348 9.7489 -5.8111 7.5763 -1.4281 -0.3482 0.9350
-0.7641 88.8317 0.2630 1.0504 5.3739 -8.3949 -0.3699 3.8383 -0.5144 -0.5285 -3.6501 -1.2300 -0.4868 15.0729 -2.8230 12.6151 25.2545 -1.8389 -1.2816 -4.0856 -3.6799 4.6961 -12.5932 -6.4393 0.0579 -0.0625 -0.0815 0.7318 -10.6441 -3.9404 -0.5895 -10.6499 3.7282 -13.2229 16.6875 -11.5434 -44.5809 11.2383 -35.1334 0.1102 -0.4692 -97.0663 27.0161 -1.7495 13.0931 -14.9202 11.2265 16.3420 -60.5741 1.9138 2.3428 3.2815 12.4511 10.5188 40.1253 -14.6617 30.6030 1.2055 0.6180 80.9667 -11.0000 18.8306 0.5218 15.0651 7.6608 -16.8189 49.6525 -3.3068 -5.3883 19.7220 -22.0034 14.1041 -0.3685 40.6178 -0.8701 -26.4101 -15.4152 11.6845 1.6318 -0.7244 -1.9708 -11.3110 -47.3560 -15.9241 0.6365 47.1627 0.9973 9.5737 -5.9800 7.4853 -1.4368 -0.3950 0.9481
-0.9503 88.7595 0.4209 1.2180 5.4965 -8.5380 -0.3067 3.7235 -0.5241 -0.5198 -3.6519 -1.2834 -0.4806 15.0515 -2.7084 12.5022 25.5454 -1.9576 -1.3435 -4.1155 -3.5430 4.8089 -12.3356 -6.4768 0.0623 -0.0591 -0.0848 0.7401 -10.6442 -3.9387 -0.5886 -10.6527 3.7181 -13.2199 16.5940 -11.3898 -44.5768 10.9964 -34.1801 0.2534 -0.6200 -97.6503 27.5839 -1.1555 13.0448 -14.8851 11.2591 16.3151 -60.6053 1.8726 2.2834 3.3394 12.4463 10.5162 40.8153 -14.2275 30.6083 1.1849 0.6722 80.9848 -11.1048 18.9860 0.9085 15.0471 7.6858 -16.7718 49.7467 -3.1338 -5.3642 19.6459 -21.7320 14.0657 -0.3545 40.3261 -0.8621 -26.6066 -15.2952 12.0584 1.6435 -0.7115 -1.9708 -11.4209 -47.5914 -15.6271 0.6078 47.5382 0.9549 9.3349 -6.2406 7.2735 -1.4419 -0.5477 0.9577
