HIERARCHY
ROOT Hips
{
	OFFSET 0.0000 0.0000 0.0000
	CHANNELS 6 Xposition Yposition Zposition Zrotation Xrotation Yrotation
	JOINT Spine1
	{
		OFFSET -0.0137 5.0038 -0.0537
		CHANNELS 3 Zrotation Xrotation Yrotation
		JOINT Spine2
		{
			OFFSET -0.0000 7.1253 -0.0298
			CHANNELS 3 Zrotation Xrotation Yrotation
			JOINT Chest
			{
				OFFSET -0.0000 7.5501 -0.8160
				CHANNELS 3 Zrotation Xrotation Yrotation
				JOINT Neck1
				{
					OFFSET -0.1817 26.3113 -0.5533
					CHANNELS 3 Zrotation Xrotation Yrotation
					JOINT Neck2
					{
						OFFSET -0.0000 7.7094 2.3026
						CHANNELS 3 Zrotation Xrotation Yrotation
						JOINT Head
						{
							OFFSET -0.0000 6.1289 1.9537
							CHANNELS 3 Zrotation Xrotation Yrotation
							JOINT Jaw
							{
								OFFSET 0.0026 0.4756 3.0949
								CHANNELS 3 Zrotation Xrotation Yrotation
								End Site
								{
									OFFSET 0.0 1.0 0.0
								}
							}
							JOINT LeftEye
							{
								OFFSET 3.2064 5.3802 7.5869
								CHANNELS 3 Zrotation Xrotation Yrotation
								End Site
								{
									OFFSET 0.0 1.0 0.0
								}
							}
							JOINT RightEye
							{
								OFFSET -3.2224 5.3619 7.5582
								CHANNELS 3 Zrotation Xrotation Yrotation
								End Site
								{
									OFFSET 0.0 1.0 0.0
								}
							}
						}
					}
				}
				JOINT LeftShoulder
				{
					OFFSET 1.6217 23.2372 5.1134
					CHANNELS 3 Zrotation Xrotation Yrotation
					JOINT LeftArm
					{
						OFFSET 14.9198 0.0000 -5.5023
						CHANNELS 3 Zrotation Xrotation Yrotation
						JOINT LeftForeArm
						{
							OFFSET 28.7393 0.0000 -0.0026
							CHANNELS 3 Zrotation Xrotation Yrotation
							JOINT LeftHand
							{
								OFFSET 27.0940 -0.0000 0.0026
								CHANNELS 3 Zrotation Xrotation Yrotation
								JOINT LeftHandThumbEnd
								{
									OFFSET 12.2686 -3.2202 4.8331
									CHANNELS 3 Zrotation Xrotation Yrotation
									End Site
									{
										OFFSET 0.0 1.0 0.0
									}
								}
								JOINT LeftHandMiddleEnd
								{
									OFFSET 19.0120 -0.3129 -0.0340
									CHANNELS 3 Zrotation Xrotation Yrotation
									End Site
									{
										OFFSET 0.0 1.0 0.0
									}
								}
							}
						}
					}
				}
				JOINT RightShoulder
				{
					OFFSET -1.3801 23.1803 5.2142
					CHANNELS 3 Zrotation Xrotation Yrotation
					JOINT RightArm
					{
						OFFSET -15.0372 0.0000 -5.5456
						CHANNELS 3 Zrotation Xrotation Yrotation
						JOINT RightForeArm
						{
							OFFSET -28.7366 0.0000 -0.0026
							CHANNELS 3 Zrotation Xrotation Yrotation
							JOINT RightHand
							{
								OFFSET -27.1336 -0.0000 0.0026
								CHANNELS 3 Zrotation Xrotation Yrotation
								JOINT RightHandThumbEnd
								{
									OFFSET -12.2642 -3.2115 4.8040
									CHANNELS 3 Zrotation Xrotation Yrotation
									End Site
									{
										OFFSET 0.0 1.0 0.0
									}
								}
								JOINT RightHandMiddleEnd
								{
									OFFSET -19.0006 -0.3066 -0.0316
									CHANNELS 3 Zrotation Xrotation Yrotation
									End Site
									{
										OFFSET 0.0 1.0 0.0
									}
								}
							}
						}
					}
				}
			}
		}
	}
	JOINT LeftLeg
	{
		OFFSET 10.0432 -8.4345 2.5957
		CHANNELS 3 Zrotation Xrotation Yrotation
		JOINT LeftShin
		{
			OFFSET -0.0000 -43.2218 -0.8029
			CHANNELS 3 Zrotation Xrotation Yrotation
			JOINT LeftFoot
			{
				OFFSET 0.0000 -42.1551 -3.4815
				CHANNELS 3 Zrotation Xrotation Yrotation
				JOINT LeftToeBase
				{
					OFFSET 0.0000 -5.0595 13.2315
					CHANNELS 3 Zrotation Xrotation Yrotation
					End Site
					{
						OFFSET 0.0 1.0 0.0
					}
				}
			}
		}
	}
	JOINT RightLeg
	{
		OFFSET -10.0473 -8.2953 2.6203
		CHANNELS 3 Zrotation Xrotation Yrotation
		JOINT RightShin
		{
			OFFSET 0.0000 -43.3622 -0.8056
			CHANNELS 3 Zrotation Xrotation Yrotation
			JOINT RightFoot
			{
				OFFSET 0.0000 -42.1174 -3.4784
				CHANNELS 3 Zrotation Xrotation Yrotation
				JOINT RightToeBase
				{
					OFFSET -0.0000 -5.0796 13.2842
					CHANNELS 3 Zrotation Xrotation Yrotation
					End Site
					{
						OFFSET 0.0 1.0 0.0
					}
				}
			}
		}
	}
}
MOTION
Frames: 90
Frame Time: 0.033333
0.7664 97.1297 -6.1079 3.2335 -1.9701 0.5713 0.9712 1.0910 -0.5905 -0.0012 -5.0083 0.0083 0.7611 12.0961 -2.6954 -3.8644 35.1255 3.8690 -0.4082 -3.8683 -0.7858 -2.9041 -9.4548 -0.2040 -0.0321 0.0013 0.1125 0.6277 -10.3586 -3.7076 -0.6955 -10.4026 3.9599 0.0248 17.5369 6.8207 -56.5699 -4.6737 15.2476 0.1550 -0.8859 -45.0532 150.0563 -54.2005 -123.1212 -15.2862 9.7204 14.3306 -57.8340 1.2569 2.1293 -10.1258 11.5955 3.7769 36.5431 -0.8090 3.2083 -0.3178 0.6993 105.5933 -34.2749 20.6442 -25.7721 16.0368 7.7412 -16.4261 49.9918 -3.4322 -5.8025 11.9257 -6.7514 20.9475 -0.0855 7.7751 -0.4541 -16.3728 4.3959 4.2832 1.6140 1.0541 -1.9058 -15.2786 -6.0417 -12.9327 0.0622 22.0331 0.1509 18.3253 -9.9047 -18.1706 -1.4267 1.5760 1.1846
0.7844 97.0849 -6.0896 3.6202 -2.1110 1.0644 0.9808 1.1564 -0.6519 0.0549 -5.0075 -0.0804 0.7458 11.9273 -2.8386 -3.3551 34.6943 3.6075 -0.4212 -3.8857 -0.7646 -3.2791 -9.4008 -0.1816 -0.0541 -0.0318 0.1514 0.6065 -10.3465 -3.6690 -0.7184 -10.3819 4.0049 0.7157 17.4930 6.6720 -56.7665 -4.6483 14.5699 0.1525 -1.0631 -45.1794 150.1010 -54.3113 -123.1488 -15.5212 9.7340 14.4834 -57.9973 1.1870 2.2647 -10.1072 11.4991 3.7342 36.7147 -1.1997 3.0652 -0.1710 0.5765 106.2652 -34.3600 19.7470 -25.6582 15.9334 7.6625 -16.3882 50.0107 -3.4414 -5.7924 11.5303 -6.8480 20.6451 -0.1185 8.3679 -0.4853 -16.3167 4.1468 3.9320 1.6244 0.9420 -1.9274 -15.7773 -6.0897 -13.1780 0.0448 22.3764 0.1595 18.6886 -10.1810 -18.3724 -1.4310 1.6042 1.1791
0.8714 97.0005 -5.9649 3.9740 -2.2051 1.6589 0.9739 1.0753 -0.6376 0.0445 -5.0432 -0.2189 0.8593 11.8508 -2.9773 -2.5111 34.1826 3.3840 -0.4955 -3.8877 -0.8080 -3.7394 -9.2317 -0.0482 -0.0512 -0.0302 0.1466 0.6181 -10.3316 -3.6755 -0.7233 -10.3595 3.9981 1.0476 17.4920 6.1511 -56.7282 -4.4060 13.6182 0.0483 -1.2220 -44.9821 151.8218 -54.2943 -124.4475 -15.5096 9.7622 14.4757 -58.2876 1.1779 2.2740 -9.7105 11.4960 3.6724 36.3969 -1.3247 3.3960 -0.1810 0.4766 106.4912 -34.7459 19.2290 -25.9175 15.9237 7.6605 -16.3992 50.1564 -3.4046 -5.7423 11.1073 -6.9280 20.3029 -0.1331 8.8498 -0.4811 -16.1377 3.8713 3.6155 1.6305 0.8469 -1.9477 -16.2765 -6.0646 -13.5582 0.0346 22.5531 0.1640 18.9866 -10.4849 -18.6180 -1.4359 1.6389 1.1915
0.9488 96.9497 -5.7780 4.2639 -2.2168 2.1339 0.9438 0.9062 -0.6228 0.0273 -5.1129 -0.3049 1.0071 11.8078 -3.1534 -1.5983 33.6395 3.1502 -0.5897 -3.8811 -0.7823 -4.1080 -8.9826 0.1366 -0.0403 -0.0257 0.1267 0.6416 -10.3179 -3.6973 -0.7234 -10.3423 3.9730 1.1865 17.5787 5.4793 -56.7190 -3.8978 12.5389 -0.0516 -1.2978 -44.6679 154.4149 -54.4824 -126.4890 -15.4376 9.8177 14.4368 -58.5654 1.1577 2.2631 -9.1646 11.5067 3.6146 35.9503 -1.3147 4.1194 -0.3022 0.4320 106.2167 -34.9545 19.0361 -26.0703 15.8356 7.6507 -16.4456 50.1913 -3.3972 -5.7105 10.6666 -6.9585 20.0688 -0.1233 9.1474 -0.4670 -15.9371 3.6340 3.5017 1.6310 0.7493 -1.9740 -16.7432 -6.0007 -13.9099 0.0231 22.4838 0.1583 19.1813 -10.5563 -18.7590 -1.4362 1.5773 1.1751
1.1035 96.9641 -5.5479 4.5285 -2.1055 2.4710 0.8754 0.6798 -0.6367 0.0188 -5.1812 -0.3762 1.1114 11.7087 -3.3361 -0.7259 33.1632 2.9527 -0.6857 -3.8624 -0.6478 -4.3612 -8.6124 0.3444 -0.0387 -0.0297 0.1217 0.6537 -10.3021 -3.7016 -0.7309 -10.3280 3.9651 1.4096 17.7407 4.8809 -56.9460 -3.1927 11.6255 -0.2878 -1.2629 -44.3917 157.2128 -54.6007 -128.8560 -15.3976 9.8698 14.3916 -58.7751 1.1505 2.1833 -8.6977 11.3606 3.5600 35.5943 -1.0965 4.8837 -0.3657 0.4628 105.7700 -34.7337 18.6754 -25.9604 15.8075 7.6126 -16.4926 50.1551 -3.4369 -5.7072 10.1554 -6.9178 19.9915 -0.1013 9.1908 -0.4637 -15.7328 3.4871 3.4920 1.6291 0.6563 -1.9880 -17.1993 -5.9030 -14.2443 0.0160 22.0481 0.1785 19.3529 -10.3355 -18.8637 -1.4382 1.4258 1.1575
1.3583 97.0300 -5.2893 4.7543 -1.9281 2.7084 0.7822 0.4275 -0.6428 0.0177 -5.2855 -0.4874 1.1800 11.5600 -3.5211 0.0351 32.9942 2.7457 -0.7669 -3.8580 -0.3809 -4.5992 -8.0887 0.5760 -0.0450 -0.0396 0.1316 0.6532 -10.2942 -3.6910 -0.7418 -10.3255 3.9770 1.7804 17.9999 4.3840 -57.3723 -2.0802 10.7427 -0.4788 -1.1046 -44.3604 160.1871 -53.9743 -131.5247 -15.4353 9.8830 14.3073 -58.9354 1.1386 2.0837 -8.2687 11.0896 3.3760 35.1527 -0.6236 5.5425 -0.3284 0.5494 105.3607 -34.1512 17.9677 -25.6559 15.7879 7.5372 -16.5124 50.0482 -3.4693 -5.7311 9.6388 -6.8075 20.0307 -0.0890 9.0963 -0.4778 -15.5481 3.3282 3.5103 1.6252 0.6115 -1.9763 -17.6591 -5.6864 -14.5308 0.0081 21.2706 0.1925 19.5480 -9.9118 -19.0379 -1.4406 1.2667 1.1468
1.6973 97.1205 -4.9849 4.9617 -1.7782 2.9413 0.6614 0.1446 -0.6764 0.0213 -5.4017 -0.6185 1.2378 11.3607 -3.6855 0.7449 33.2499 2.5441 -0.7898 -3.8768 -0.0976 -4.9299 -7.3144 0.8949 -0.0485 -0.0477 0.1341 0.6496 -10.3027 -3.6910 -0.7436 -10.3413 3.9823 2.3524 18.2985 3.9575 -57.9765 -0.5398 9.8030 -0.6338 -0.9415 -44.5330 163.0689 -52.7835 -134.2549 -15.5505 9.8822 14.2375 -59.0944 1.1111 2.0877 -7.8514 10.7690 3.0018 34.6564 0.0886 6.0194 -0.2993 0.5864 104.9061 -33.3852 16.9455 -25.0962 15.8597 7.5071 -16.5360 50.0296 -3.5021 -5.8119 9.1306 -6.6015 20.1483 -0.0811 8.9963 -0.5038 -15.4595 3.1596 3.4156 1.6276 0.5827 -1.9376 -18.1673 -5.2746 -14.8476 -0.0102 20.2063 0.1797 19.7366 -9.3448 -19.2271 -1.4437 1.1009 1.1365
2.1924 97.2016 -4.5929 5.2350 -1.8209 3.2134 0.4805 -0.1733 -0.6935 0.0215 -5.5089 -0.7384 1.2817 11.1626 -3.8392 1.3919 34.0118 2.2498 -0.7767 -3.9133 0.1996 -5.3542 -6.2840 1.2445 -0.0499 -0.0448 0.1295 0.6469 -10.3298 -3.7048 -0.7425 -10.3712 3.9870 3.1659 18.5929 3.6653 -58.6709 1.3765 8.7018 -0.9077 -0.8786 -44.8794 165.7067 -51.3309 -136.8550 -15.7416 9.9181 14.1655 -59.3457 1.1020 2.1610 -7.4222 10.5095 2.4755 33.9284 1.0543 6.3027 -0.2878 0.5606 104.2828 -32.4964 15.4828 -24.3431 15.9989 7.4989 -16.5361 50.0436 -3.5617 -5.9449 8.6296 -6.1179 20.2659 -0.0798 8.9516 -0.5097 -15.4860 2.8681 3.2338 1.6309 0.6080 -1.9090 -18.9012 -4.5738 -15.3158 -0.0297 18.9947 0.1699 20.0369 -8.7100 -19.3949 -1.4468 0.9006 1.1371
2.7592 97.2453 -4.0401 5.6188 -2.1220 3.5486 0.2288 -0.5026 -0.6875 0.0058 -5.6141 -0.8387 1.3302 11.0063 -3.9251 1.9249 35.1854 1.9088 -0.7223 -3.9286 0.4323 -5.7628 -5.0279 1.5411 -0.0481 -0.0309 0.1157 0.6498 -10.3717 -3.7269 -0.7411 -10.4122 3.9801 4.0554 18.7916 3.5950 -59.2112 3.5106 7.4794 -1.4297 -1.0477 -45.4510 167.8066 -50.8156 -139.1287 -15.9257 9.9658 14.0762 -59.5632 1.1244 2.2123 -6.8283 10.3867 1.8781 32.7643 2.3811 6.4709 -0.4210 0.4467 103.3184 -31.3485 13.9425 -23.4402 16.1031 7.5357 -16.5222 50.0649 -3.6078 -6.0043 8.1022 -5.3153 20.2442 -0.0870 9.0580 -0.5114 -15.5645 2.3466 3.0423 1.6323 0.6659 -1.8958 -19.9164 -3.6886 -15.9812 -0.0403 17.9299 0.1657 20.4531 -8.1647 -19.4747 -1.4499 0.6665 1.1516
3.3823 97.2585 -3.3782 6.0953 -2.6649 4.0558 -0.1018 -0.8484 -0.6490 -0.0359 -5.7161 -0.9159 1.3659 10.8583 -3.9671 2.4298 36.6238 1.5587 -0.6510 -3.9126 0.6428 -6.0870 -3.4653 1.7970 -0.0458 -0.0205 0.1006 0.6513 -10.4294 -3.7487 -0.7378 -10.4639 3.9724 4.9882 18.8663 3.7506 -59.5548 6.0457 6.1056 -2.1055 -1.3902 -46.4112 169.7282 -51.4980 -141.5672 -16.1480 9.9914 13.9630 -59.6694 1.1988 2.2357 -5.9046 10.3976 1.2697 30.9227 4.3274 6.4947 -0.6924 0.3426 102.1215 -29.6458 12.5776 -22.7473 16.1529 7.5973 -16.4965 50.0776 -3.6096 -5.9830 7.5604 -4.2560 19.9973 -0.0943 9.3344 -0.5092 -15.6100 1.6600 2.8384 1.6312 0.7323 -1.8972 -21.1801 -2.5895 -16.9007 -0.0464 16.9860 0.1957 21.0352 -7.5740 -19.5674 -1.4544 0.3783 1.1798
3.9945 97.2300 -2.5579 6.5143 -3.4185 4.9608 -0.4404 -1.1596 -0.6463 -0.0892 -5.7917 -0.9149 1.4106 10.6587 -3.9132 2.9578 38.0563 1.0821 -0.5586 -3.8826 0.8625 -6.2523 -1.7089 2.0176 -0.0447 -0.0268 0.0906 0.6461 -10.4842 -3.7631 -0.7315 -10.5206 3.9691 5.9555 18.9204 4.1107 -59.7442 9.0422 4.3433 -2.6415 -1.7925 -47.7736 171.9077 -53.6385 -144.7727 -16.3247 9.9790 13.8354 -59.6686 1.2702 2.2403 -4.6857 10.4978 0.6261 28.4905 7.0477 6.0857 -1.0299 0.3794 100.8590 -27.0476 11.6185 -22.4497 16.2263 7.6863 -16.4356 50.1424 -3.5787 -5.8627 7.1542 -3.1740 19.2555 -0.0947 9.9222 -0.5019 -15.6420 0.7875 2.5441 1.6266 0.7447 -1.9151 -22.4843 -1.1855 -18.1774 -0.0632 16.0838 0.2655 21.7682 -6.8154 -19.7999 -1.4573 0.0402 1.2018
4.4924 97.1741 -1.7488 6.6051 -4.2110 6.4518 -0.6151 -1.3284 -0.7000 -0.1292 -5.8504 -0.8659 1.4797 10.4072 -3.6791 3.5574 38.9598 0.5750 -0.4346 -3.8427 1.0616 -6.1602 -0.2513 2.1794 -0.0442 -0.0453 0.0867 0.6406 -10.5123 -3.7658 -0.7257 -10.5611 3.9671 6.9753 19.1015 4.7425 -59.9890 12.2356 2.1930 -2.7585 -2.0446 -49.5537 174.7510 -56.8753 -148.8889 -16.3712 9.8701 13.6157 -59.4405 1.3067 2.2603 -3.6829 10.7165 0.1155 26.3145 10.0911 4.8155 -1.2635 0.5971 99.8916 -24.1767 11.2323 -22.7634 16.3323 7.7268 -16.3598 50.1942 -3.5742 -5.7251 7.0806 -2.6819 17.8985 -0.1056 11.2176 -0.5157 -15.7065 -0.2081 2.0655 1.6271 0.6716 -1.9262 -23.3678 0.3919 -19.5762 -0.1007 15.4565 0.3306 22.4017 -5.8644 -20.3250 -1.4586 -0.3817 1.2118
4.8794 97.0472 -1.1411 6.3627 -4.8236 8.5971 -0.5349 -1.1662 -0.7890 -0.1366 -5.7650 -0.7154 1.6203 9.9847 -3.1834 4.1467 38.6316 0.0282 -0.2487 -3.8411 1.2186 -5.7370 0.4758 2.3036 -0.0410 -0.0614 0.0856 0.6389 -10.5171 -3.7706 -0.7175 -10.5722 3.9707 8.2309 19.0770 5.6254 -60.8122 15.4940 0.1160 -2.4281 -2.3061 -51.9428 177.2237 -62.0064 -152.8573 -16.3675 9.7267 13.4628 -59.1368 1.3176 2.3499 -3.3825 11.0977 -0.1366 25.4359 12.7999 2.4878 -1.7120 0.9654 99.5206 -21.8503 11.6843 -23.7998 16.5197 7.7370 -16.3015 50.4071 -3.5753 -5.6042 7.2299 -3.3220 15.8542 -0.1382 13.6625 -0.5187 -15.7313 -1.3569 1.3467 1.6334 0.5838 -1.9211 -23.7338 1.5188 -20.8421 -0.1319 15.8660 0.4202 22.9431 -4.8704 -21.2127 -1.4649 -0.8749 1.2261
5.1357 96.7665 -1.0555 6.0617 -4.9983 11.1321 -0.2334 -0.2955 -0.7553 -0.1431 -5.4332 -0.4159 1.9284 9.4243 -2.2338 4.7659 36.2572 -0.3126 -0.0701 -3.8153 1.4549 -4.9889 -0.0342 2.3818 -0.0824 -0.0592 0.1371 0.6047 -10.5278 -3.7233 -0.7677 -10.5534 4.0430 9.7659 18.6806 6.8539 -62.8147 18.5765 -1.5783 -1.7125 -2.6388 -55.5824 179.1233 -70.5664 -156.4139 -16.4432 9.7032 13.5637 -59.3200 1.4186 2.4138 -3.3310 11.8270 0.2633 25.7840 14.1837 -1.3143 -2.5868 0.9211 100.5183 -21.3704 12.9382 -25.6214 16.7718 7.8559 -16.2801 50.6736 -3.6205 -5.4719 7.1632 -5.6079 13.1266 -0.1893 17.6911 -0.4759 -15.5391 -2.7508 0.7262 1.6407 0.5850 -1.9343 -23.8265 0.9203 -21.6780 -0.1170 18.5418 0.4869 23.6818 -4.2130 -22.1813 -1.4945 -1.1694 1.2100
5.2969 96.2658 -1.8286 6.1490 -4.3378 13.6497 0.2805 1.4739 -0.5033 -0.0394 -4.8846 0.1255 2.3744 9.1617 -0.9021 4.7338 31.0685 0.1760 0.2056 -3.8112 1.4471 -3.9959 -3.1673 2.5726 -0.0854 -0.0387 0.1778 0.6006 -10.4681 -3.6619 -0.7717 -10.4677 4.0730 10.8616 17.9012 8.8388 -66.1601 21.6640 -3.5532 -1.2080 -2.8758 -60.1412 -170.1278 -82.6757 -169.7771 -16.2802 9.7008 13.9268 -59.5701 1.4984 2.2664 -3.0854 12.5774 1.5423 27.2352 12.9277 -6.6061 -3.4643 0.6290 103.9204 -23.4279 14.9886 -27.2134 16.9866 8.0263 -16.3564 50.7873 -3.5832 -5.4475 6.2591 -9.6945 10.2175 -0.1956 22.5583 -0.3886 -14.8376 -3.9098 0.4159 1.6229 0.7929 -1.8609 -24.1054 -2.4028 -22.2518 -0.0564 23.5632 0.5512 24.6489 -4.5370 -22.4910 -1.5263 -1.1478 1.2278
5.3435 95.7803 -3.5228 6.8050 -2.6991 15.5925 1.0613 4.0284 -0.0908 0.1556 -4.1125 1.2818 2.8578 9.6054 0.7656 3.5194 23.1234 1.3349 0.5224 -3.6914 1.4525 -3.1014 -9.7965 3.3456 -0.0540 -0.0171 0.2444 0.6649 -10.4915 -3.6015 -0.7724 -10.4925 4.1543 11.6556 17.7638 12.8548 -71.3790 24.4441 -8.8054 -0.8102 -2.4043 -64.3623 -28.8368 -76.9772 44.5136 -16.0420 9.9278 14.7183 -60.2781 1.3728 2.1177 -3.2418 13.5152 4.1266 31.2147 8.1674 -13.0450 -3.6128 0.0133 109.5480 -28.8386 16.3534 -27.0713 16.8293 7.9612 -16.3701 50.2308 -3.4280 -5.3201 4.5575 -15.0507 8.4674 -0.2740 26.8827 -0.4489 -13.8276 -4.0049 0.0486 1.6145 0.8559 -1.7864 -24.7188 -8.2465 -22.8664 0.0592 29.2799 0.7156 25.3487 -5.1624 -21.6239 -1.5571 -1.4910 1.2068
5.0929 95.6141 -5.9200 7.8210 -0.3770 17.2209 1.9526 6.7695 0.5915 0.4267 -3.3492 2.7713 3.1341 10.8044 2.2278 2.0472 16.2231 2.3734 0.3853 -3.6635 1.0762 -2.6502 -15.7875 3.0935 -0.0078 -0.0409 0.2289 0.8100 -10.6346 -3.6413 -0.8224 -10.6753 4.1581 12.6581 18.8044 18.1409 -78.2578 26.5820 -17.1790 -0.7583 -1.4044 -66.0752 -25.1310 -51.8144 35.0637 -16.7704 10.3591 15.8257 -62.2184 1.2012 2.4262 -5.4902 14.0256 7.4350 38.4758 1.3673 -17.2297 -3.2825 -0.0261 114.0712 -37.1660 17.3205 -25.4295 16.0263 7.6473 -16.2634 49.4240 -3.3725 -5.0319 2.3151 -20.3332 7.9924 -0.3898 28.7963 -0.5765 -12.6428 -2.6447 -0.6161 1.6348 0.5544 -1.8471 -25.3384 -14.5924 -23.2175 0.1731 33.5045 1.0195 25.4200 -5.6404 -19.8411 -1.5505 -1.7024 1.0640
4.4525 95.5321 -8.7795 9.0346 1.8225 19.0309 2.7230 9.5621 1.2799 0.6742 -2.5673 4.0560 3.5425 12.4010 3.4267 1.3832 13.1390 2.6944 -0.2370 -3.6689 -0.0803 -2.1123 -19.1583 1.2373 0.0184 -0.0524 0.1313 0.8321 -10.6422 -3.7295 -0.7931 -10.7177 4.0447 13.7803 19.3714 22.2105 -86.2649 28.5741 -26.6724 -0.1024 0.4868 -62.5794 -27.8655 -27.6807 31.6995 -16.7412 11.2990 17.3334 -62.5993 1.3552 2.8921 -10.1273 13.8403 10.3327 45.8034 -7.2279 -18.0804 -2.3608 0.0868 114.9878 -45.2175 18.7974 -24.2454 15.2727 7.1645 -15.7632 49.1562 -3.2890 -4.7065 -0.1960 -24.6772 8.7571 -0.3937 28.3543 -0.6336 -11.7784 0.3446 -1.5419 1.7067 0.1847 -1.9460 -26.0873 -19.5759 -22.8453 0.2864 35.5391 1.1715 25.0373 -6.5014 -18.2288 -1.5598 -1.5915 0.9924
3.2488 95.3517 -11.6352 10.0496 3.8278 21.0549 3.4279 11.8899 1.9535 0.9428 -1.7486 4.4135 4.1126 14.3600 4.1775 2.0400 13.6396 2.2797 -1.0257 -3.7057 -1.2583 -0.8084 -20.4402 -1.4772 0.0267 -0.0606 0.0968 0.7994 -10.5626 -3.7258 -0.7461 -10.7145 3.9623 13.3668 19.9461 24.2085 -92.8559 30.6530 -33.1992 2.2707 3.6619 -54.0679 -28.7448 -0.9258 23.6568 -14.0647 12.3195 16.9387 -58.9260 2.0005 2.8661 -14.5791 13.4275 12.7018 48.7070 -19.1678 -16.4034 -0.6022 0.0322 111.9982 -49.5281 19.2435 -22.7028 14.8576 7.2269 -15.5670 49.6771 -3.1687 -4.5728 -2.6684 -28.4924 11.0888 -0.4542 26.9133 -0.7719 -11.5330 4.7110 -3.2547 1.7219 -0.5435 -1.9555 -26.0704 -22.4335 -21.5345 0.3724 35.6028 1.4111 25.1296 -7.4534 -18.7707 -1.5659 -1.2250 0.9064
1.6561 95.1029 -14.0985 10.6807 5.6440 23.1980 4.0861 13.3262 2.0446 1.2782 -0.8411 4.4092 4.7830 16.7065 4.6248 3.4236 16.6371 1.1028 -1.5497 -3.7254 -1.8922 1.1133 -19.4554 -4.1413 0.0354 -0.0591 0.0719 0.7719 -10.4013 -3.6742 -0.7010 -10.5631 3.8434 10.7333 21.2277 23.3980 -96.8975 32.6579 -34.6424 5.7367 6.0168 -41.6024 -31.5694 28.6756 7.1961 -12.2731 12.1618 15.6626 -53.9550 2.5468 1.9767 -17.1889 13.2667 14.4982 45.4224 -32.4877 -10.7812 0.7649 -0.2795 106.5632 -48.8149 18.5663 -20.8947 14.2604 7.6577 -15.8587 50.2274 -3.1249 -4.5850 -4.9492 -31.4768 13.9314 -0.3560 24.6981 -0.5933 -12.2240 9.0080 -5.4723 1.7472 -0.8320 -1.8960 -25.1845 -24.4667 -19.8622 0.4683 35.7357 1.4655 24.5717 -9.2723 -20.3080 -1.5768 -0.6877 1.0115
0.0997 94.7260 -16.1413 10.5865 7.4135 24.5635 4.8201 14.1708 1.9225 1.7170 0.0668 4.0764 5.6450 19.0642 5.2615 4.0735 20.8429 -0.5374 -1.5569 -3.6104 -2.0552 2.4808 -17.1107 -5.3243 0.0417 -0.0696 0.0597 0.7666 -10.1902 -3.5935 -0.6840 -10.3440 3.7150 7.2765 21.9570 20.4981 -98.6859 35.2699 -32.1144 7.1622 5.4397 -30.1888 -38.5823 49.4093 -12.8422 -12.1479 11.3292 14.6435 -53.1845 2.3598 1.7238 -18.2167 13.0202 16.4182 36.0832 -42.4497 0.8198 1.2610 -0.4638 101.9088 -44.1681 17.1954 -19.2870 14.2185 7.8636 -16.1618 50.8063 -3.0637 -4.6545 -6.0957 -33.3501 16.1401 -0.2706 21.2993 -0.3856 -13.3473 12.1941 -7.4455 1.7622 -0.6521 -1.8242 -23.5995 -27.6125 -17.8879 0.4685 38.1442 1.4435 23.3475 -10.7255 -22.6071 -1.5497 0.0796 1.0667
-1.0860 94.1972 -17.6247 10.0866 8.7925 24.4795 5.1896 14.6635 1.8873 2.0253 0.8245 3.8575 6.6406 21.2654 5.9837 4.3791 25.0414 -1.8689 -1.3680 -3.5509 -2.0660 3.0842 -13.9150 -5.4787 -0.0133 -0.0750 0.0930 0.6967 -10.0288 -3.5048 -0.7273 -10.1376 3.7013 6.0377 21.8067 17.8160 -100.3571 36.9251 -31.1260 5.4963 3.7124 -24.4053 -49.5673 60.1806 -31.3319 -12.3095 10.9463 13.8843 -54.2768 2.2950 1.6954 -18.5698 13.2120 18.4533 26.9111 -46.6216 14.0877 0.9150 -0.3023 100.6783 -39.6593 16.4641 -18.1900 14.1163 7.8111 -16.1014 51.1465 -2.9701 -4.7591 -6.2159 -34.0105 17.4476 -0.2082 17.7931 -0.2449 -13.8685 13.0768 -8.0237 1.7399 0.1079 -1.7468 -22.2658 -30.8912 -16.2369 0.5853 41.1929 1.4674 22.5704 -11.9974 -23.3471 -1.5310 0.4240 1.1061
-2.0534 93.7307 -18.5702 9.4740 9.7178 23.7185 5.1686 14.9944 1.8166 2.2008 1.4487 3.6649 7.4734 23.1294 6.6429 5.4948 28.9670 -2.6399 -1.2085 -3.6429 -2.0625 2.9892 -10.5297 -4.9913 -0.0849 -0.0808 0.0946 0.6247 -9.9726 -3.4846 -0.7998 -10.0142 3.6973 5.7633 21.5828 15.5006 -101.6909 36.9166 -32.5093 2.1304 2.0913 -22.4110 -59.6654 63.9218 -44.2768 -12.5878 10.5402 13.2229 -56.9868 2.1221 1.7954 -17.8958 13.6955 20.1793 21.3815 -45.4205 25.5815 0.8358 0.0965 102.3774 -35.2528 14.7631 -15.1621 14.1467 7.7507 -16.0169 51.0108 -2.9453 -4.8063 -5.6955 -34.4036 17.9342 -0.2017 15.4320 -0.1474 -13.8839 13.1506 -7.4370 1.6789 0.6190 -1.7046 -20.9798 -33.4455 -15.7996 0.7486 43.4529 1.5344 21.8009 -13.2227 -23.0102 -1.5106 0.8410 0.9965
-2.7338 93.7029 -18.9932 9.1895 10.0216 22.9575 4.9365 15.0337 1.5781 2.1624 1.8676 3.5903 7.9667 25.2188 6.9081 7.3978 32.1273 -2.9340 -1.2275 -3.7563 -2.3028 2.7641 -7.0947 -4.7061 -0.0967 -0.1123 0.0733 0.5852 -10.0076 -3.5337 -0.7840 -10.0187 3.6994 5.2477 21.9761 13.1336 -100.7125 34.7453 -34.3709 -1.7330 0.6727 -22.6979 -64.6697 64.5069 -48.4468 -12.7121 10.4143 13.3075 -58.1786 2.0393 1.9042 -16.4985 14.5978 20.9819 20.7743 -40.3072 32.9425 1.4243 0.4657 104.6680 -31.1706 11.3739 -11.3307 14.8553 7.4636 -15.7359 50.9199 -2.8915 -4.8430 -5.2431 -34.7859 18.2905 -0.1534 14.9551 -0.1211 -14.1977 13.4361 -7.1205 1.6423 0.4802 -1.6673 -20.1621 -34.6688 -16.1289 0.7598 44.2910 1.4931 20.8803 -13.7776 -21.9299 -1.5105 0.8492 0.9542
-2.9975 94.0574 -19.0005 9.0981 10.0056 21.7739 4.7092 14.8688 1.3565 2.0434 2.0779 3.3722 8.0362 27.3360 6.9546 9.7360 35.3310 -2.8309 -1.3513 -3.8738 -2.6294 2.2661 -3.9835 -4.5260 -0.0500 -0.1486 0.0518 0.6042 -10.0946 -3.6162 -0.7061 -10.1354 3.7190 4.0878 22.9904 11.0384 -96.9220 32.0102 -35.8416 -4.9230 -0.6449 -25.5138 -65.4477 63.1460 -46.6775 -13.2893 10.4489 13.7807 -58.2897 2.0384 1.9080 -15.4508 15.6102 21.0854 24.5237 -33.2653 35.9804 2.4166 0.6022 106.1359 -27.1328 4.9006 -7.9237 15.4363 7.0216 -15.4951 50.4040 -3.0041 -4.8035 -4.9045 -34.0607 19.0059 -0.1724 14.0253 -0.1304 -14.4375 13.9614 -6.8295 1.6340 0.1306 -1.6273 -19.7868 -34.5878 -16.2495 0.6711 43.4626 1.3394 19.8435 -13.6367 -20.6567 -1.5133 0.8077 0.9069
-2.8669 94.4560 -18.9435 9.1651 9.8890 20.0987 4.4881 14.7083 1.1733 1.9230 2.0878 3.0741 7.7146 29.0085 6.7277 11.5480 38.2471 -2.3804 -1.2726 -3.8994 -2.8849 1.5383 -1.4247 -4.6004 0.0115 -0.1736 0.0514 0.6731 -10.1479 -3.6795 -0.6480 -10.2420 3.7599 2.7667 24.2035 9.3397 -91.4374 30.2012 -36.4880 -6.4798 -2.0606 -30.5168 -62.8208 60.8014 -41.2876 -14.3536 10.4554 14.2483 -58.7065 2.0580 1.9641 -14.8519 16.4155 20.6875 29.9570 -25.9244 35.8995 3.3051 0.3408 107.1932 -22.9309 -4.8085 -6.0337 15.5104 6.4132 -15.0708 49.2864 -3.0615 -4.6755 -4.8016 -32.7950 20.0307 -0.1896 13.1360 -0.1359 -14.4804 14.0487 -6.2314 1.6362 -0.1023 -1.6305 -20.0150 -34.0857 -15.7528 0.5454 42.0469 1.1557 19.1097 -13.1179 -19.2439 -1.5104 0.7536 0.8861
-2.3818 94.7521 -18.9424 9.3257 9.6602 18.1333 4.2183 14.5906 0.9416 1.7772 1.9910 2.7642 7.1827 30.2103 6.1863 12.6446 40.5436 -1.7946 -1.0513 -3.8703 -3.0520 0.7544 0.6271 -4.8418 0.0611 -0.1900 0.0610 0.7592 -10.1509 -3.7226 -0.6304 -10.2752 3.8051 1.4846 25.3169 7.7987 -85.3188 29.5673 -35.4229 -6.3674 -3.3520 -36.2888 -60.1885 59.0945 -35.5454 -15.7927 10.3264 14.6377 -59.1677 2.0868 2.0262 -14.4274 17.0026 20.0338 35.1505 -18.5541 33.5990 3.7321 0.0247 109.2517 -18.3887 -16.1071 -6.3167 15.9977 6.0734 -14.7451 48.3226 -3.0401 -4.3653 -4.8826 -31.5949 21.1445 -0.2066 13.0344 -0.1440 -14.2667 13.5019 -5.4254 1.6415 -0.2786 -1.6635 -20.7641 -33.6203 -14.7988 0.4501 40.8028 1.0409 18.8134 -12.4483 -17.6955 -1.5014 0.6962 0.9083
-1.6492 94.8957 -18.9939 9.5197 9.2543 16.1005 3.9084 14.5475 0.6145 1.5965 1.8161 2.4277 6.4616 30.9746 5.2895 13.2594 42.3687 -1.2017 -0.8410 -3.8419 -3.2334 -0.2298 2.3652 -5.2124 0.1057 -0.2015 0.0742 0.8531 -10.1433 -3.7633 -0.6342 -10.2916 3.8590 0.5102 26.1816 6.4266 -79.1529 29.7678 -32.5927 -5.4639 -4.3895 -42.1735 -58.6517 58.5732 -30.6167 -17.3002 10.1060 14.9904 -59.4119 2.0444 2.0096 -14.2813 17.4361 19.0238 39.5234 -11.4496 29.6473 4.1719 0.0731 112.5621 -13.3598 -24.6083 -9.6942 16.6339 6.3302 -15.2481 48.2768 -3.0103 -4.2340 -5.1224 -30.6047 22.4075 -0.2356 13.8033 -0.1688 -13.8501 12.3917 -4.8030 1.6481 -0.3910 -1.7382 -21.8600 -33.1655 -13.6923 0.3894 39.8342 0.9676 18.8447 -11.9245 -16.0636 -1.4927 0.6347 0.9564
-0.7646 94.9259 -19.0834 9.6703 8.7202 14.1860 3.5744 14.5000 0.1355 1.3677 1.5680 2.1037 5.6616 31.4368 4.1473 13.5752 43.9706 -0.7911 -0.6225 -3.8145 -3.4455 -1.4897 3.9278 -5.7228 0.1489 -0.2138 0.0880 0.9456 -10.1234 -3.7894 -0.6388 -10.2869 3.9009 -0.2326 26.8391 5.1578 -73.1289 30.4948 -28.1721 -4.3973 -5.2010 -48.0671 -58.3976 58.8398 -26.7856 -18.5932 9.8276 15.3035 -59.6164 1.9181 1.9875 -14.4838 17.7274 17.5272 42.7296 -4.8320 24.7446 4.5595 0.3455 116.4269 -8.3802 -27.3805 -15.5233 16.6387 6.6735 -15.9520 48.6842 -3.0714 -4.3039 -5.3883 -29.8181 23.6317 -0.2723 15.1365 -0.2136 -13.2801 11.0442 -4.4467 1.6497 -0.4793 -1.8189 -23.0750 -32.6149 -12.6136 0.3589 38.8935 0.9535 19.0394 -11.4318 -14.5048 -1.4819 0.5457 0.9771
0.1613 94.9141 -19.1715 9.7149 8.0839 12.4769 3.2399 14.4542 -0.3428 1.1339 1.2318 1.7405 4.8308 31.5994 2.8696 13.6064 45.4984 -0.5885 -0.5146 -3.8067 -3.6605 -2.8903 5.4290 -6.2984 0.1744 -0.2238 0.0987 1.0195 -10.0236 -3.7838 -0.6634 -10.2135 3.9137 -0.6916 27.2905 4.0794 -67.5729 31.5100 -22.6082 -3.1087 -5.9679 -54.1415 -58.7861 60.0752 -23.1842 -19.6122 9.6297 15.6314 -60.0303 1.8206 1.9447 -15.1618 18.0315 15.5395 45.0055 0.9466 19.3096 4.7553 0.5503 120.4006 -4.9611 -25.4218 -21.6810 16.3233 6.9135 -16.3154 49.2646 -3.0635 -4.4107 -5.5575 -29.2270 24.7713 -0.3230 16.8159 -0.3027 -12.6504 9.5533 -4.4448 1.6445 -0.5083 -1.8963 -24.2036 -31.8948 -11.6068 0.2929 37.9746 0.8604 19.3947 -10.9993 -13.1143 -1.4662 0.3760 0.9519
1.0302 94.8867 -19.2274 9.6330 7.3382 11.0775 2.9671 14.3575 -0.7532 0.9280 0.8752 1.3837 4.0644 31.4397 1.5696 12.9210 46.8556 -0.8011 -0.5102 -3.8192 -3.7610 -4.1367 6.6899 -6.7945 0.1854 -0.2342 0.1013 1.0617 -9.9147 -3.7617 -0.6833 -10.1200 3.8958 -1.1277 27.6194 3.0688 -62.3823 32.3315 -15.6320 -1.3331 -6.6885 -60.6721 -60.3179 64.0087 -20.1970 -20.4748 9.6317 15.8063 -60.9697 1.7709 1.7625 -16.3520 18.3857 13.1610 46.9007 5.6491 14.4591 4.3408 0.5589 123.7564 -4.1884 -21.5561 -25.7325 16.1659 7.0571 -16.3196 49.8930 -3.0631 -4.5520 -5.5583 -28.6869 25.7935 -0.3917 18.5283 -0.4301 -12.1577 8.1474 -4.8032 1.6414 -0.5036 -1.9591 -25.1229 -30.8102 -10.7805 0.2471 36.8725 0.7904 19.9141 -10.7042 -12.1466 -1.4434 0.1524 0.9284
1.7759 94.9137 -19.2074 9.3378 6.5238 9.9785 2.7675 14.1849 -0.9752 0.7930 0.5298 1.0103 3.3834 30.9661 0.4284 11.5880 47.8553 -1.2899 -0.6974 -3.8403 -3.6278 -4.6989 7.6133 -6.8108 0.1903 -0.2408 0.0962 1.0782 -9.9394 -3.7541 -0.6897 -10.1327 3.8771 -1.7345 27.9590 2.3073 -57.8908 32.1728 -7.4328 1.2690 -7.3011 -67.9275 -66.2456 73.0135 -20.9425 -21.1747 10.0714 15.4421 -63.3602 1.7885 1.4255 -17.6253 18.5821 11.0565 49.0561 9.0332 11.0468 3.3999 0.3318 125.9462 -5.6578 -18.7594 -26.5969 16.4114 7.1410 -16.1954 50.6755 -3.0852 -4.6459 -5.2466 -28.0985 26.5807 -0.4672 19.8519 -0.5925 -11.8834 7.0419 -5.3746 1.6371 -0.6098 -1.9923 -25.5796 -29.3388 -10.2696 0.2122 35.5520 0.7179 20.4146 -10.4725 -11.5529 -1.4178 -0.1351 0.9673
2.3858 95.0364 -19.1569 8.8052 5.6132 9.2506 2.6297 13.9028 -1.0063 0.7214 0.2135 0.7008 2.8925 30.1679 -0.3377 10.0833 48.4646 -1.7458 -0.9224 -3.8316 -3.2333 -4.6847 7.9922 -6.2724 0.2284 -0.2482 0.0973 1.0926 -10.0959 -3.7640 -0.6249 -10.2679 3.8746 -2.3027 28.2632 2.1248 -54.9583 30.7319 0.5794 4.4887 -7.7088 -76.5625 -162.7023 82.2214 -112.4708 -21.7043 10.8341 13.3963 -68.4797 1.6236 0.7730 -18.6614 18.6655 9.6279 51.8997 11.2659 9.4063 2.2195 0.0933 126.5819 -8.1838 -17.3917 -25.5701 16.6631 7.2389 -16.1503 51.3601 -3.0748 -4.8187 -4.4793 -27.4066 26.8682 -0.5137 20.6830 -0.7427 -11.8656 6.2294 -5.9684 1.6266 -0.8803 -1.9976 -25.4966 -27.4516 -10.3467 0.2286 33.8874 0.7168 20.7189 -10.2480 -11.1189 -1.3945 -0.5039 1.0556
2.8695 95.2019 -18.9786 8.0763 4.6107 8.9055 2.4896 13.4776 -0.8365 0.7018 -0.1104 0.4436 2.5820 29.0565 -0.5724 9.2855 48.8981 -1.6887 -1.0806 -3.8015 -2.5827 -4.3582 7.6484 -5.4921 0.2755 -0.2490 0.0973 1.1200 -10.3031 -3.7918 -0.5577 -10.4670 3.8858 -2.4745 28.5570 2.8095 -54.0616 27.9292 7.4120 6.7928 -7.8170 -86.5773 157.0282 41.4620 -147.1470 -22.0182 9.9661 9.1402 -76.1417 0.9499 0.0171 -19.2278 18.7145 8.8644 55.5842 12.5674 9.0361 1.3350 0.0411 125.4527 -11.2777 -16.6342 -23.6686 16.6422 7.2847 -16.2512 51.6526 -3.1973 -5.1137 -3.3091 -26.6526 26.5960 -0.5248 21.2156 -0.8289 -12.0201 5.5472 -6.5397 1.6127 -1.2920 -2.0359 -24.9994 -25.2497 -11.0440 0.2588 31.9904 0.7222 20.7765 -10.0352 -10.4395 -1.3837 -0.9201 1.1405
3.2301 95.3019 -18.5989 7.1083 3.4823 8.9754 2.4151 12.8576 -0.5871 0.6546 -0.4690 0.3271 2.5045 27.7286 -0.2611 9.8390 49.1965 -0.9390 -1.1661 -3.7982 -1.6700 -3.9375 6.7486 -4.8213 0.2140 -0.2491 0.0813 1.0403 -10.4944 -3.8123 -0.6050 -10.6555 3.9008 -1.6986 28.6189 4.3895 -53.8751 23.3604 12.8984 6.4748 -7.3659 -96.6092 150.2416 -11.8609 -137.8691 -20.2606 8.9371 9.1683 -74.7114 0.6158 0.6272 -19.5842 18.7153 8.3640 60.5601 13.0677 9.2983 0.9755 0.1343 122.8227 -15.3362 -15.4869 -21.6571 16.5094 7.2457 -16.3485 51.4915 -3.3342 -5.3662 -1.7368 -26.0618 25.8769 -0.4956 22.0188 -0.8220 -12.2293 4.5961 -7.1390 1.6066 -1.6193 -2.1576 -24.1691 -22.7495 -12.2171 0.2615 30.1443 0.7516 20.6353 -9.9016 -9.7447 -1.3898 -1.2001 1.1285
3.4872 95.2331 -18.0269 5.9843 2.0954 9.7240 2.3386 12.2273 -0.3959 0.5816 -0.7944 0.3931 2.6658 26.1497 0.2934 11.3980 49.3039 0.0331 -1.1449 -3.7942 -0.6070 -3.5905 5.4415 -4.3131 0.0954 -0.2460 0.0813 0.8989 -10.6402 -3.7999 -0.7054 -10.8119 3.9376 -0.0085 28.2102 6.2999 -53.7668 17.8819 15.5531 5.9782 -6.3060 -106.2861 138.3313 -45.7061 -122.4607 -19.2637 9.3893 12.2065 -69.0501 0.9369 1.9272 -20.0348 18.5208 7.8330 67.4647 13.3295 9.9319 0.7806 0.0324 120.0601 -21.2047 -14.1017 -19.2345 16.5190 7.1685 -16.3587 51.1202 -3.3969 -5.4432 0.0927 -25.7002 24.9801 -0.4631 23.4785 -0.8009 -12.3999 3.2721 -7.9034 1.6137 -1.8183 -2.2564 -23.2671 -19.9189 -13.8264 0.2089 28.7109 0.6849 20.5263 -9.9552 -9.3477 -1.4059 -1.3214 1.0565
3.6094 95.0109 -17.3823 4.7786 0.5108 11.4385 2.2465 11.8490 -0.2374 0.5548 -1.0593 0.4433 2.9447 24.2068 0.6208 12.9543 49.0590 0.4520 -1.0627 -3.7499 0.5458 -3.2984 3.7805 -3.7652 0.0516 -0.2176 0.0984 0.8084 -10.6650 -3.7680 -0.7023 -10.8572 3.9563 2.1472 27.0914 7.6760 -53.8444 11.5739 15.9293 5.6735 -4.7076 -113.9841 120.9525 -63.5075 -102.2178 -18.7313 9.0172 13.9933 -64.5107 1.1297 2.3603 -20.6227 18.0991 7.3491 76.0079 13.4422 10.9986 0.5219 -0.3586 118.8082 -28.4916 -12.7563 -14.7713 16.5979 7.0796 -16.5061 50.9109 -3.4820 -5.3987 1.9959 -25.7485 23.9131 -0.4685 25.6288 -0.8189 -12.7231 1.6898 -9.3224 1.6231 -1.8210 -2.2304 -22.4655 -17.0123 -16.0840 0.1291 27.9796 0.5050 20.7207 -10.4005 -9.2881 -1.4205 -1.2775 1.0384
3.6942 94.7053 -16.8614 3.6295 -0.8825 13.8243 2.2132 11.7234 -0.1271 0.5235 -1.2266 0.4242 3.1721 22.1518 0.6434 14.0093 48.2411 0.1691 -0.9071 -3.6920 1.4464 -2.8474 2.1257 -3.1321 0.0794 -0.1786 0.0958 0.7851 -10.5623 -3.7487 -0.6204 -10.7595 3.9170 4.1950 25.2227 7.8095 -54.1586 3.8619 15.2102 4.6792 -3.3524 -117.5632 99.4832 -72.0074 -77.5877 -18.1229 8.6219 14.4739 -61.4022 1.2139 2.3250 -21.5435 17.2238 6.9665 85.0051 12.9912 12.0556 0.8246 -0.5375 118.5726 -35.3385 -10.3013 -8.9768 16.6197 7.0219 -16.7724 50.8580 -3.5653 -5.3359 3.6432 -26.1926 22.5412 -0.4946 27.8547 -0.8182 -13.2768 0.1518 -11.0725 1.6118 -1.7867 -2.1632 -21.8505 -14.6629 -18.8333 0.0806 27.8947 0.3354 21.0172 -10.9082 -9.4807 -1.4332 -1.1092 1.0525
3.8741 94.4109 -16.5928 2.7620 -1.7041 16.1958 2.2385 11.8149 -0.1459 0.4459 -1.2970 0.4796 3.1598 20.3071 0.4902 14.8098 46.6007 -0.5641 -0.6293 -3.6749 1.9458 -2.4086 0.7896 -2.5411 0.0893 -0.1668 0.0851 0.7723 -10.4465 -3.7379 -0.5872 -10.6463 3.8790 5.7006 23.0645 6.7451 -55.3850 -4.9228 13.3775 3.4163 -1.9583 -116.5702 77.4229 -74.3707 -51.4913 -17.7983 8.6321 14.4672 -60.3926 1.2255 2.2800 -22.5507 15.7822 6.9436 92.5533 12.5018 12.2761 1.5578 -0.2558 118.0558 -39.1636 -7.8426 -4.8701 16.5461 6.9960 -16.9151 50.7303 -3.5710 -5.1328 4.5187 -26.8308 21.4219 -0.5106 29.4017 -0.8216 -13.7738 -1.0434 -12.6700 1.5898 -1.7384 -2.1239 -21.4833 -13.2439 -21.1029 0.0753 28.0973 0.3098 21.2185 -11.0601 -10.1069 -1.4370 -1.0218 1.0126
4.2243 94.4204 -16.8757 2.5877 -1.1805 17.8186 1.9575 12.0827 -0.1911 0.3369 -1.2926 0.5820 2.9066 18.7212 0.3450 15.8262 43.1712 -1.3599 -0.5042 -3.7038 2.2033 -2.1926 -0.9005 -2.1184 0.0904 -0.1751 0.0791 0.7421 -10.4321 -3.7373 -0.5544 -10.6329 3.8668 6.1211 20.7967 4.7793 -56.7798 -13.2012 10.7394 2.9017 -0.5704 -113.0029 61.6918 -73.1089 -31.5990 -17.4633 9.0221 14.4530 -60.4888 1.3445 2.1413 -22.6531 14.3100 7.5342 96.4735 12.1829 10.9318 2.1964 0.3738 116.8708 -40.6502 -7.1591 -3.4347 16.5610 6.9224 -16.9361 50.7030 -3.5837 -4.8585 3.6959 -27.8804 21.4894 -0.4909 29.5471 -0.7942 -13.8312 -1.1725 -13.8150 1.5812 -1.7681 -2.0457 -21.2513 -13.7773 -21.7095 0.1301 28.4981 0.4772 20.8637 -10.4584 -11.2066 -1.4357 -1.0242 0.9845
4.7023 94.4506 -17.8412 3.0495 0.3874 18.2744 1.2630 13.0253 -0.2167 0.2522 -1.1118 0.6437 2.4758 17.3462 0.2647 16.8057 37.3422 -1.8951 -0.5084 -3.6805 2.2729 -2.5564 -3.5269 -1.5810 0.0954 -0.1460 0.0894 0.7498 -10.4604 -3.7537 -0.5533 -10.6594 3.9007 6.7269 18.4701 2.3749 -58.1543 -20.2151 9.2700 2.4306 -0.2357 -109.4798 51.1820 -70.2227 -18.1154 -17.0452 9.4193 14.5518 -60.5404 1.5198 2.0461 -22.2002 13.1900 8.4467 97.2954 11.6403 8.5789 1.7050 0.3502 116.3596 -41.5955 -6.3782 -3.4683 16.5519 6.8464 -16.8349 50.6509 -3.7123 -4.6261 1.6558 -29.6017 22.4495 -0.4975 29.3954 -0.7917 -13.4610 -0.8407 -14.3726 1.5851 -1.8728 -1.9936 -21.3946 -16.6135 -21.0898 0.2009 29.6920 0.6967 19.9630 -9.6681 -11.8890 -1.4445 -1.0034 0.9668
5.3179 94.1909 -19.3649 3.2458 2.7231 17.6817 0.4930 14.6424 -0.3588 0.1605 -0.7136 0.8447 2.4209 16.6314 0.1015 17.2380 28.5229 -1.9990 -0.5706 -3.6522 1.6572 -3.6068 -7.0673 -0.6859 0.0826 -0.1049 0.0939 0.7347 -10.5122 -3.7756 -0.5634 -10.6472 3.9256 7.6977 16.0883 -0.4055 -59.3748 -26.1665 9.6643 2.1261 -0.2419 -107.6974 48.3910 -67.8995 -13.2910 -16.6601 9.5833 14.7213 -60.3243 1.5371 2.0518 -21.1716 11.8971 9.6475 95.6489 10.5545 6.0075 -0.3216 -0.2789 117.6541 -42.3486 -4.0116 -3.4912 16.3768 6.7323 -16.4075 50.3397 -3.7914 -4.3370 -0.5250 -32.7499 23.9093 -0.4862 30.0791 -0.7875 -13.5481 -0.4982 -14.8502 1.6332 -1.9812 -2.0170 -21.1561 -21.6487 -20.5415 0.1997 31.9957 0.8586 19.0461 -8.8941 -11.0212 -1.4478 -1.0043 0.9592
5.9378 93.6500 -21.3061 2.7945 5.8434 16.2437 -0.0737 16.4055 -0.4570 0.1294 0.0569 0.6687 2.6891 16.2902 0.0342 17.5460 18.3649 -2.1796 -0.8609 -3.6193 1.2566 -4.6599 -11.6176 0.0849 0.1177 -0.0240 0.0048 0.7947 -10.6638 -3.9207 -0.5532 -10.6645 3.8719 9.0161 14.6309 -3.7546 -60.0498 -31.1345 11.6855 1.8776 -0.5251 -107.0280 46.8778 -66.1994 -10.8778 -16.5191 9.9954 14.9876 -60.6812 1.6080 2.2298 -19.4023 10.4156 11.0791 90.8434 8.1923 2.4840 -1.3235 -0.9689 120.9117 -42.7097 -1.0055 -4.5097 16.0225 6.9597 -16.6153 50.4229 -3.8811 -4.2982 -2.0792 -37.7537 25.0618 -0.5968 31.8657 -0.8297 -11.3198 0.7830 -13.0795 1.5848 -1.6725 -1.9727 -20.1730 -28.3734 -20.1741 0.4521 35.2252 1.0925 18.7968 -7.7830 -9.0320 -1.4508 -0.8978 0.8633
6.7765 93.0167 -23.2960 2.5693 9.2366 14.4890 -0.7739 17.7228 -0.6752 -0.0752 0.9275 0.5721 2.9464 17.0425 -0.1648 18.0915 7.9731 -2.0864 -1.3385 -3.6394 0.3390 -6.0724 -16.1862 0.8682 0.1031 -0.0087 -0.0673 0.7847 -10.6451 -3.9763 -0.5768 -10.5495 3.7939 10.4804 13.9524 -7.1377 -58.8701 -35.1410 12.9579 1.8002 -0.9786 -104.9990 40.6354 -64.2102 -4.7772 -16.0496 10.3919 15.3963 -60.3298 1.7495 2.2629 -16.0350 9.3531 12.9273 84.4787 4.0375 -1.6098 -1.3553 -0.8779 125.7936 -43.3129 4.0262 -6.3360 15.9549 7.0750 -16.8205 50.4795 -3.6802 -4.6197 -4.8037 -43.0894 27.0125 -0.5891 34.4004 -0.7623 -10.2096 1.0467 -11.6765 1.5782 -1.6550 -1.9631 -19.1305 -35.6004 -20.5417 0.7070 38.1257 1.3506 18.8078 -6.5148 -6.3750 -1.4416 -1.6960 0.8223
7.7549 92.0731 -25.1817 2.2826 12.4689 12.1470 -1.3414 18.8304 -0.8268 -0.3739 1.9537 0.4879 3.0309 18.5826 -0.1436 18.7760 -1.4207 -1.9689 -2.2161 -3.6193 -0.6568 -7.6843 -21.0655 1.2944 0.0655 -0.0101 -0.0942 0.7863 -10.5837 -3.9529 -0.6572 -10.4232 3.7337 12.5860 14.3195 -10.2963 -56.7033 -38.8645 14.1588 1.7877 -0.6415 -101.6011 30.0537 -60.5230 5.2072 -15.7789 10.5268 15.6333 -59.6040 1.7945 2.2338 -12.6619 9.0782 14.9134 78.0257 -1.9436 -4.9941 -0.4298 -0.5181 132.0625 -45.1354 11.0522 -7.3693 16.2476 7.0908 -16.9614 50.8175 -3.5154 -5.0341 -7.7495 -48.2681 29.5544 -0.6214 37.2308 -0.6920 -9.5819 0.7688 -9.7501 1.5660 -1.5575 -2.0230 -17.5135 -42.2009 -21.4430 0.9167 39.7864 1.5782 18.8727 -5.8736 -3.7847 -1.4548 -2.3029 0.7418
8.8116 90.8630 -26.8895 1.9235 15.0751 9.2935 -1.8557 19.9667 -1.0385 -0.8683 3.0747 0.5062 2.9357 20.0381 -0.1322 19.3756 -6.5291 -1.6739 -3.2096 -3.7386 -1.4192 -9.1977 -24.9562 1.6306 0.1007 0.0042 -0.2056 0.8521 -10.3991 -4.0102 -0.6533 -10.2202 3.5543 14.8227 14.8466 -12.5703 -55.3213 -42.1437 16.1491 1.7668 -0.3783 -97.3844 23.3908 -57.0090 10.6567 -15.7163 10.6114 15.8389 -59.1411 2.0214 2.0777 -11.5553 9.1637 16.4492 73.7475 -8.4778 -6.8909 0.7643 0.2154 137.3950 -47.1784 17.4550 -8.0859 16.5122 6.9759 -16.8147 51.2007 -3.3258 -5.3497 -10.7188 -52.7626 32.6970 -0.7133 40.3627 -0.7315 -9.5628 -0.3262 -7.6551 1.5550 -1.4112 -2.0527 -15.4424 -47.5352 -22.6962 0.9219 40.5685 1.5755 18.9020 -6.2864 -1.2998 -1.4497 -2.1779 0.7985
9.9427 89.6686 -28.3857 1.3802 17.0463 5.7153 -2.2804 20.9972 -1.0038 -1.2234 3.9991 0.3469 2.2752 22.1210 -0.1575 19.4234 -7.1369 -0.9758 -3.7918 -3.8687 -1.9856 -10.6347 -26.2431 1.4166 0.0863 0.0327 -0.1575 0.8245 -10.2118 -3.9249 -0.6561 -10.0600 3.5686 16.3704 15.4891 -14.2661 -54.7176 -45.9425 18.8167 1.5771 -0.2185 -91.7843 19.9274 -54.8140 12.8378 -15.9140 10.5068 15.7469 -59.1266 2.0211 1.6868 -12.2663 9.4629 16.7375 70.8598 -14.9097 -7.7390 1.8295 0.4567 140.0323 -48.9224 20.3469 -9.1116 16.4258 6.8418 -16.6354 51.4415 -3.3064 -5.4746 -13.3845 -56.4701 36.2499 -0.8542 43.5188 -0.7976 -9.7999 -1.7750 -4.8746 1.5540 -0.9368 -2.0417 -13.4659 -51.9801 -23.2322 0.9310 40.9807 1.5270 18.6710 -6.6239 1.1497 -1.4494 -2.1634 0.8186
11.0762 88.8163 -29.5185 0.9489 18.4072 2.1240 -2.6580 21.7367 -0.9428 -1.4377 4.7728 0.0320 1.1093 24.7786 -0.6537 18.0277 -3.4828 0.5216 -3.8049 -3.9846 -2.6846 -12.0816 -24.2692 0.0117 0.0658 0.0207 -0.1025 0.7640 -10.2494 -3.9017 -0.6366 -10.1586 3.6607 17.1289 16.3061 -15.6917 -54.9015 -50.8190 21.7968 0.8799 0.3801 -83.4824 15.8406 -52.4737 15.4741 -16.2494 10.2936 15.5561 -59.3390 2.0083 1.4111 -13.2812 9.5462 15.6691 67.6765 -20.7310 -6.7263 2.5824 0.9943 139.8254 -49.4217 18.8630 -10.9493 16.5600 6.6759 -16.5552 50.9448 -3.4084 -5.5840 -15.8607 -58.9071 39.6604 -0.9300 45.8284 -0.8595 -10.0827 -2.8595 -1.9073 1.5453 -0.2834 -1.9080 -12.0916 -55.1012 -22.9876 0.8821 40.5336 1.4419 18.4702 -6.7874 2.9526 -1.4460 -2.7825 0.8111
11.9905 88.5948 -30.1325 0.7342 19.5187 -0.7942 -2.7249 22.3352 -0.8931 -1.4051 5.3511 -0.3629 -0.2825 27.5453 -1.4762 15.3117 3.3503 2.2701 -3.6097 -4.1278 -3.4352 -12.4006 -18.2742 -3.2434 0.0532 -0.0981 -0.0560 0.7420 -10.7255 -3.8875 -0.6379 -10.7624 3.7543 17.1362 16.6546 -16.9996 -56.2094 -56.8049 24.3511 -0.3053 0.7937 -73.3936 13.2767 -49.8086 17.9939 -16.3100 10.2776 15.8096 -59.4125 1.8402 1.4559 -13.7580 9.8652 13.7833 64.5516 -25.3727 -5.2206 3.1620 1.4520 137.9206 -48.1400 14.1993 -11.2142 16.3996 6.5969 -16.6800 50.5761 -3.5058 -5.5584 -18.2576 -60.1298 42.8026 -0.8100 46.9120 -0.6838 -9.6969 -3.3203 0.6577 1.5412 0.1614 -1.7922 -11.6365 -56.9553 -21.7282 0.9008 39.1186 1.5099 18.8339 -6.9940 4.2266 -1.4192 -3.0889 0.9486
12.5946 88.7766 -30.3637 0.7698 20.5102 -2.8669 -2.4047 22.8613 -0.9235 -1.3337 5.7933 -0.5066 -1.5005 30.0414 -2.5084 11.8111 11.7158 3.7885 -3.3114 -4.1736 -4.6369 -11.3974 -9.7988 -7.0958 0.0736 -0.2269 -0.0248 0.7651 -11.0566 -3.7751 -0.6140 -11.1595 3.7112 16.9689 16.2785 -17.4403 -60.3805 -62.1548 27.3721 -0.6832 0.9999 -66.4529 14.3505 -49.4560 17.8505 -16.4693 10.5093 16.0479 -59.5901 1.7363 1.7665 -13.9212 9.9708 11.8610 62.4934 -27.9126 -3.9130 3.1952 1.6452 134.7004 -46.7522 8.8108 -9.7844 16.5793 6.6269 -16.8437 50.5646 -3.6717 -5.6047 -20.5541 -60.4453 45.5285 -0.6592 46.9070 -0.4647 -8.7907 -3.0793 2.4827 1.5523 0.3797 -1.7347 -11.9203 -57.8566 -19.9060 0.8485 37.0525 1.5405 19.6925 -5.8845 4.5007 -1.3879 -2.7976 1.0248
12.8733 89.1560 -30.3766 1.1785 21.3177 -4.1588 -1.8875 23.3885 -0.7902 -1.2708 5.9563 -0.5754 -2.3689 32.0996 -3.4091 8.3769 19.3749 4.9921 -2.5483 -4.0081 -5.2474 -9.4794 -0.2021 -9.2924 0.1165 -0.3357 0.0149 0.7945 -10.9272 -3.6146 -0.5482 -10.9809 3.6222 17.1037 15.5455 -16.6246 -67.2269 -65.3949 30.7047 -0.6350 0.8844 -65.3758 16.1899 -48.9928 17.5109 -16.7519 10.4327 15.9278 -60.0272 1.5909 2.0060 -13.4366 10.6282 10.5358 60.6474 -29.2207 -3.0459 2.3363 1.2879 129.5484 -45.2047 3.3040 -9.3992 16.4381 7.0977 -17.0607 51.2637 -3.6681 -5.4428 -22.7808 -59.8043 48.0111 -0.5630 46.1138 -0.3841 -7.8500 -2.4769 3.4195 1.5810 0.1563 -1.7339 -13.7273 -58.0866 -16.7695 0.7145 34.7575 1.2649 20.4228 -3.6688 4.4447 -1.3495 -1.9748 1.1415
12.9379 89.4841 -30.2902 1.9012 21.9072 -4.5408 -1.5058 23.6471 -0.7410 -1.1068 6.0389 -0.5906 -2.5893 33.6051 -3.8246 6.4263 24.9019 5.2431 -1.3940 -3.8898 -4.7333 -8.0529 4.9789 -9.9186 0.2235 -0.3754 0.0858 0.8725 -10.6381 -3.5429 -0.4091 -10.6533 3.6714 17.6117 15.0463 -14.6303 -73.3238 -66.7022 31.3641 -0.6547 0.7881 -67.4331 15.2941 -48.6156 19.3299 -16.7435 10.3882 15.8557 -59.9384 1.6706 2.0180 -13.1027 11.4201 9.5269 58.9435 -29.3174 -2.3531 1.3360 0.6711 122.9021 -42.9043 -0.1335 -13.1211 16.1939 7.6111 -16.9190 51.5701 -3.4759 -5.0391 -24.5048 -58.8463 49.4420 -0.4761 44.9586 -0.3091 -6.7378 -1.7702 3.8758 1.5999 0.1695 -1.6787 -15.5526 -58.1950 -14.4637 0.5385 33.2925 1.0521 20.5820 -2.3973 4.4899 -1.3443 -1.2885 1.2124
12.7156 89.8435 -30.1094 2.7543 22.1445 -4.3589 -1.0927 23.7406 -0.6096 -0.8858 5.9856 -0.5615 -2.3635 34.6193 -3.8200 5.6465 28.6225 5.2897 -0.4854 -3.9356 -3.4969 -6.5054 8.2556 -9.4846 0.2844 -0.4126 0.1734 0.9731 -10.5361 -3.5487 -0.3895 -10.5189 3.8479 18.3635 15.0202 -12.3408 -76.9337 -66.7595 29.2017 -0.9885 0.7343 -70.3072 11.6929 -48.7976 23.6188 -16.5585 10.4248 15.7867 -59.8412 1.7376 1.8978 -12.4601 12.5501 8.6912 56.7509 -28.2955 -0.9077 0.7743 0.4211 116.9230 -38.7426 0.4565 -21.7941 16.3056 7.9231 -16.5445 51.8624 -3.2266 -4.6391 -25.1791 -57.5671 49.5741 -0.3522 43.4247 -0.1676 -5.5625 -0.8580 3.7169 1.6043 0.1718 -1.6339 -17.4383 -57.9580 -12.5751 0.4804 32.3225 0.9865 20.3435 -1.3666 4.6602 -1.3464 -0.8935 1.2924
12.2855 90.3055 -29.8228 3.5393 21.9561 -3.7213 -0.6405 23.7097 -0.4983 -0.7443 5.8867 -0.4862 -1.7624 35.2061 -3.5610 5.7899 30.6213 5.3404 0.0029 -4.0610 -2.1573 -5.1806 10.1086 -8.1672 0.3191 -0.4435 0.2379 1.0702 -10.5615 -3.5972 -0.4171 -10.5362 4.0220 19.2233 15.2102 -10.3944 -78.5480 -65.8349 26.1518 -1.3510 0.5327 -72.9597 7.6232 -50.0113 28.2785 -16.4771 10.4884 15.7530 -59.9401 1.7145 1.8662 -11.9521 13.5459 7.8601 55.8799 -26.0441 1.0735 0.3510 0.8251 113.5398 -35.0832 3.9781 -30.3240 16.6114 7.7057 -16.1084 51.9702 -3.2224 -4.4716 -24.7078 -55.9693 48.5029 -0.2408 41.4276 -0.0360 -4.5920 0.1776 3.1030 1.5969 0.2455 -1.6253 -18.9589 -57.0686 -11.3149 0.4788 31.5539 0.9969 20.0736 -0.6348 4.5919 -1.3535 -0.5308 1.3243
11.7491 90.8722 -29.5103 4.2417 21.3844 -2.7814 -0.2622 23.7039 -0.4008 -0.5956 5.7474 -0.5181 -1.0541 35.4618 -3.2523 6.5471 31.5867 5.4322 0.1181 -4.1602 -0.9176 -4.1793 10.7690 -6.5360 0.3224 -0.4537 0.2517 1.0774 -10.5670 -3.6485 -0.4171 -10.5612 4.0979 19.9358 15.5916 -9.0983 -78.9670 -64.0961 23.5487 -1.4786 0.2015 -75.7225 3.9649 -51.8423 32.5288 -16.4675 10.4589 15.6894 -60.0130 1.6205 1.9221 -11.5975 14.2850 6.9722 57.2806 -23.7535 2.8653 0.0393 0.9829 112.8612 -35.2623 6.8373 -35.0642 16.6792 7.5982 -15.9372 51.9900 -3.1762 -4.5094 -23.4828 -53.9963 46.7162 -0.1779 38.9712 0.0381 -4.0027 1.3045 2.3867 1.6028 0.3946 -1.6277 -20.1432 -55.4204 -10.4920 0.4503 30.5558 0.9751 19.8634 -0.1756 4.1914 -1.3681 -0.3193 1.3147
11.0705 91.5545 -29.2003 4.7842 20.5267 -1.5547 0.0691 23.6507 -0.3469 -0.4784 5.6307 -0.6128 -0.2511 35.4949 -2.9824 7.6139 31.8986 5.5082 0.0361 -4.1827 0.0695 -3.5037 10.6016 -4.9816 0.2928 -0.4449 0.2204 1.0302 -10.5769 -3.7034 -0.4268 -10.5995 4.0925 20.1341 16.1951 -8.5153 -78.9505 -61.8599 21.8861 -1.2191 -0.2433 -78.7505 2.0111 -53.7604 35.1519 -16.4522 10.4124 15.6282 -59.9842 1.5548 2.0101 -11.1085 14.8611 6.1797 60.1723 -22.2600 4.3288 0.1138 0.6999 114.3785 -39.0208 8.3739 -37.3089 16.7205 7.6578 -15.9967 52.1581 -3.1006 -4.5734 -21.7743 -51.7905 44.4438 -0.1829 36.1250 0.0237 -3.7572 2.5894 1.5510 1.6216 0.5813 -1.6395 -20.8163 -53.1659 -10.2883 0.4244 29.3705 0.9660 19.7364 0.1060 3.4099 -1.3838 -0.2396 1.2922
10.2640 92.2462 -28.8338 5.1417 19.4249 -0.0335 0.3570 23.4946 -0.3092 -0.3832 5.5108 -0.6825 0.6337 35.4268 -2.7372 8.8579 31.9828 5.5999 -0.1362 -4.1692 0.8794 -3.1007 10.0390 -3.6583 0.2558 -0.4356 0.1827 0.9848 -10.6073 -3.7559 -0.4537 -10.6820 4.0711 19.9387 16.9035 -8.2822 -79.0145 -59.3832 20.7377 -0.7805 -0.6680 -81.7636 1.7610 -55.6043 36.0467 -16.4271 10.3804 15.6447 -59.9330 1.5267 2.1046 -10.4257 15.4151 5.7053 63.0802 -21.3244 5.8517 0.5628 0.3573 116.7133 -43.9670 9.4443 -38.2751 16.7211 7.7076 -16.1094 52.2930 -3.0668 -4.6450 -19.6982 -49.4241 41.8687 -0.2262 32.9856 -0.0380 -3.8599 4.0337 0.4115 1.6362 0.7316 -1.6601 -21.0023 -50.5784 -10.6688 0.3963 28.3138 0.9566 19.5876 0.2104 2.3647 -1.3997 -0.1670 1.2638
9.3825 92.8961 -28.4624 5.2556 18.0733 1.6481 0.5730 23.3038 -0.2555 -0.2811 5.3572 -0.7164 1.4900 35.3964 -2.4684 10.2141 32.0940 5.7678 -0.3276 -4.1420 1.4990 -2.7886 9.3771 -2.6416 0.2385 -0.4265 0.1627 0.9756 -10.6124 -3.7748 -0.4787 -10.7377 4.0454 19.5925 17.5959 -8.0028 -79.1100 -56.8125 19.5114 -0.2888 -0.9234 -84.6305 2.6618 -57.1356 35.6918 -16.4849 10.3120 15.7152 -59.9721 1.5032 2.1542 -9.6892 16.0158 5.6023 64.9968 -20.6385 7.3745 1.1853 0.2012 118.8014 -48.1194 10.5421 -39.0027 16.7751 7.7056 -16.2333 52.4032 -3.0727 -4.7182 -17.3996 -47.0951 39.2938 -0.2794 29.9891 -0.1219 -4.1795 5.5120 -1.0356 1.6420 0.8259 -1.6883 -20.8424 -47.8699 -11.3806 0.3678 27.7420 0.9541 19.4186 0.0495 1.1869 -1.4117 -0.0916 1.2336
8.3776 93.4233 -28.0462 5.1357 16.4642 3.5120 0.7125 23.0571 -0.2350 -0.2353 5.1617 -0.6527 2.2638 35.4164 -2.1914 11.5026 32.4528 5.9177 -0.5388 -4.1122 1.9691 -2.4557 8.8107 -1.8803 0.2220 -0.4189 0.1499 0.9627 -10.6166 -3.7766 -0.4974 -10.7829 4.0191 19.1179 18.2058 -7.5574 -78.9287 -54.0808 17.9053 0.1419 -1.0267 -87.1230 4.2637 -58.2594 34.4657 -16.5403 10.3137 15.8624 -60.1403 1.5511 2.1710 -9.0666 16.5202 5.8630 66.1392 -19.9517 8.4542 1.8266 0.1529 120.2206 -51.2603 11.2836 -39.7456 16.8718 7.6689 -16.3365 52.4661 -3.1381 -4.7637 -14.9343 -44.8867 36.7168 -0.3367 27.3762 -0.2281 -4.6254 6.8695 -2.6814 1.6451 0.8725 -1.7354 -20.4713 -45.0425 -12.2721 0.3267 27.7307 0.9331 19.2661 -0.4593 -0.1622 -1.4206 0.0561 1.2030
7.2968 93.8267 -27.6086 4.8088 14.6792 5.6189 0.7825 22.8037 -0.2180 -0.2064 4.9035 -0.5404 2.9214 35.4403 -1.8977 12.7294 33.2464 6.1362 -0.7919 -4.0790 2.2871 -1.9806 8.3492 -1.2553 0.2136 -0.4048 0.1468 0.9517 -10.6063 -3.7638 -0.5036 -10.8094 3.9964 18.7568 18.7499 -6.9087 -78.8359 -51.1882 16.2532 0.3853 -0.9820 -89.1011 6.5577 -59.2167 32.4899 -16.5990 10.3284 15.9588 -60.3836 1.6220 2.2454 -8.6955 16.9717 6.3051 66.7463 -19.2148 8.9693 2.2040 0.1257 120.8991 -53.6716 11.3123 -40.3401 16.9228 7.6494 -16.4079 52.4780 -3.2150 -4.7713 -12.3782 -42.9703 34.1695 -0.4168 25.3810 -0.3470 -5.2757 7.9719 -4.4830 1.6456 0.9267 -1.7759 -19.9308 -42.1852 -13.3058 0.2789 28.3467 0.8916 19.0748 -1.4196 -1.7083 -1.4283 0.2297 1.1726
6.1789 94.0638 -27.1550 4.3383 12.8307 7.9717 0.8107 22.4814 -0.1942 -0.1995 4.6215 -0.3759 3.4061 35.4121 -1.6388 13.8727 34.4662 6.4142 -1.0322 -4.0358 2.5586 -1.3959 8.0268 -0.7349 0.1952 -0.3935 0.1455 0.9342 -10.5765 -3.7449 -0.5261 -10.8183 3.9795 18.5891 19.2933 -6.1581 -78.8705 -48.1735 14.7261 0.4344 -0.8485 -90.1218 9.7563 -60.4246 29.3545 -16.4821 10.4012 16.0654 -60.4889 1.6861 2.4155 -8.6107 17.3274 6.8511 67.0674 -18.3797 8.7120 2.4467 -0.0864 120.7042 -55.8711 10.1773 -40.4515 16.8492 7.6414 -16.4456 52.2590 -3.3070 -4.7545 -9.8459 -41.3873 31.6108 -0.4909 23.9563 -0.4525 -6.1322 8.8197 -6.4323 1.6450 0.9719 -1.8347 -19.2730 -39.3618 -14.4570 0.2231 29.4306 0.8284 18.9007 -2.7233 -3.4668 -1.4367 0.4373 1.1468
5.0494 94.1798 -26.6548 3.7525 11.0887 10.4153 0.8213 22.0715 -0.1578 -0.2004 4.3235 -0.2199 3.6352 35.3049 -1.4047 14.8434 35.9141 6.7950 -1.2026 -3.9901 2.6895 -0.7216 7.9200 -0.3828 0.1811 -0.3810 0.1447 0.9329 -10.5333 -3.7308 -0.5567 -10.8053 3.9687 18.5232 19.7865 -5.4512 -79.0388 -45.2292 13.6763 0.3028 -0.6683 -89.8663 13.7194 -62.0779 25.5278 -16.2645 10.5615 16.1157 -60.5743 1.7115 2.5522 -8.8879 17.5293 7.3115 67.2560 -17.5333 8.0712 2.5673 -0.3074 119.7551 -57.7992 7.8413 -40.1165 16.6704 7.6487 -16.4739 51.9594 -3.3792 -4.7651 -7.4459 -40.1852 29.1868 -0.5319 23.0541 -0.5031 -7.1853 9.3991 -8.4648 1.6392 0.9940 -1.8925 -18.5361 -36.6969 -15.5983 0.1866 30.7139 0.7917 18.7620 -4.1187 -5.4226 -1.4428 0.6056 1.1211
3.9825 94.2160 -26.1194 3.1127 9.4860 12.8284 0.8246 21.5915 -0.1287 -0.2424 3.9705 -0.0559 3.5640 35.1162 -1.3019 15.3987 37.4547 7.1620 -1.2908 -3.9394 2.6238 -0.0614 8.0327 -0.2457 0.1784 -0.3614 0.1456 0.9562 -10.4873 -3.7278 -0.5885 -10.7797 3.9689 18.2364 20.1851 -4.9571 -78.9679 -42.4183 13.3417 0.0270 -0.4762 -88.2708 18.0691 -64.1875 21.5843 -15.9951 10.8442 16.1292 -60.6582 1.7363 2.5825 -9.5108 17.5979 7.6089 67.4503 -16.8073 7.5865 2.5046 -0.4610 118.4585 -59.0322 4.9208 -39.5283 16.5197 7.6481 -16.5317 51.7136 -3.4533 -4.7700 -5.2532 -39.2060 27.1051 -0.5714 22.4826 -0.5599 -8.3499 9.7785 -10.6480 1.6325 0.9170 -1.9326 -17.7805 -34.0699 -16.6802 0.1953 31.8215 0.7701 18.7109 -5.4270 -7.3986 -1.4436 0.6239 1.1178
2.9939 94.2455 -25.5461 2.4572 8.0127 15.0410 0.8222 21.0437 -0.0925 -0.3215 3.5736 0.0855 3.2546 34.8259 -1.3545 15.2785 39.0438 7.2930 -1.3049 -3.8746 2.3862 0.4845 8.3820 -0.3189 0.1814 -0.3367 0.1434 0.9985 -10.4570 -3.7371 -0.6263 -10.7462 3.9731 17.5286 20.4745 -4.7729 -78.4870 -39.7890 13.7096 -0.2017 -0.3146 -85.9236 23.1635 -66.4686 17.2353 -15.6349 11.1334 16.1397 -60.6555 1.7670 2.6258 -10.3280 17.5792 7.8167 67.7030 -16.3048 7.3694 2.3536 -0.5642 117.2417 -59.5342 2.0859 -38.7194 16.5009 7.6098 -16.5743 51.5003 -3.5287 -4.8002 -3.2841 -38.3218 25.3442 -0.5970 22.0944 -0.6292 -9.4333 10.0486 -12.7043 1.6277 0.7630 -1.9502 -17.0422 -31.4288 -17.6398 0.2223 32.5370 0.7412 18.7631 -6.5452 -9.2034 -1.4421 0.5468 1.1392
2.1205 94.2645 -24.9730 1.7448 6.5501 16.9206 0.8181 20.4394 -0.0205 -0.4041 3.1729 0.1853 2.7490 34.4032 -1.4598 14.4259 40.7667 7.1464 -1.3102 -3.8208 1.9914 0.9030 8.9717 -0.5455 0.1888 -0.3136 0.1343 1.0635 -10.4790 -3.7671 -0.6771 -10.7466 3.9811 16.5907 20.6646 -4.8313 -77.8966 -37.3610 14.7795 -0.2589 -0.2169 -83.7809 29.1898 -67.9540 12.1654 -15.2567 11.3673 16.1763 -60.4964 1.7757 2.7054 -11.2008 17.4668 7.9556 67.8828 -16.0159 7.6139 2.1072 -0.5015 115.9640 -59.1571 -0.4963 -37.6226 16.5141 7.5092 -16.6508 51.2821 -3.6074 -4.9098 -1.2908 -37.4729 23.6559 -0.6145 21.9694 -0.6865 -10.2998 10.1773 -14.4382 1.6288 0.5750 -1.9399 -16.2981 -28.6525 -18.4328 0.2495 32.7793 0.7236 18.8341 -7.5319 -10.8013 -1.4410 0.4056 1.1783
1.4110 94.3203 -24.3387 0.9806 5.0740 18.3505 0.8277 19.7493 0.0480 -0.4716 2.7730 0.2457 2.1005 33.8319 -1.5128 12.7095 42.6184 6.6218 -1.2279 -3.7610 1.5047 1.0084 9.7470 -0.9138 0.1942 -0.3015 0.1162 1.1322 -10.5499 -3.8117 -0.7376 -10.7881 3.9840 15.5594 20.7549 -5.0346 -77.4788 -35.0824 16.4786 -0.1306 -0.1961 -82.4724 35.2303 -67.9222 7.0604 -14.9503 11.4593 16.1837 -60.2107 1.7701 2.7213 -12.1355 17.2432 8.0905 68.1488 -15.9444 8.1082 1.9622 -0.3371 114.5018 -58.1678 -2.7615 -36.7933 16.5995 7.4389 -16.7223 51.1565 -3.6339 -5.0295 0.8143 -36.4869 21.9007 -0.6150 21.9596 -0.7348 -10.9715 10.0885 -15.6013 1.6318 0.4144 -1.9298 -15.5750 -25.6993 -18.9587 0.2459 32.4642 0.6787 18.8311 -8.2679 -12.2019 -1.4428 0.3149 1.2018
0.9012 94.4412 -23.6833 0.2540 3.4479 19.2595 0.8216 18.9794 0.1121 -0.5236 2.3412 0.3182 1.3711 33.1840 -1.5122 10.1314 44.5701 5.7574 -1.0878 -3.6964 0.8575 0.6413 10.5134 -1.4595 0.1878 -0.2919 0.0865 1.1652 -10.6164 -3.8531 -0.7841 -10.8284 3.9635 14.4374 20.7599 -5.2764 -77.2635 -32.7737 18.6381 0.0830 -0.1246 -81.9251 40.7479 -66.6030 2.6446 -14.7435 11.3731 16.1690 -59.7500 1.7654 2.7115 -13.0993 17.0191 8.2183 68.5624 -16.0832 8.9522 1.9667 -0.0488 113.0103 -57.1427 -5.0942 -35.9324 16.6932 7.4146 -16.7775 51.0724 -3.6107 -5.1643 3.0139 -35.0550 20.1250 -0.5915 21.9211 -0.7785 -11.4570 9.7849 -16.1210 1.6364 0.2356 -1.9368 -15.0113 -22.4320 -19.1213 0.2338 31.6035 0.6573 18.7943 -8.7800 -13.4588 -1.4450 0.1829 1.2081
0.6147 94.6566 -22.9531 -0.3905 1.6145 19.5052 0.7835 18.1795 0.2077 -0.5154 1.8848 0.4122 0.6408 32.5031 -1.3837 6.7183 46.4846 4.6079 -0.9277 -3.6296 0.2173 -0.0738 11.0379 -2.0164 0.1641 -0.2784 0.0517 1.1504 -10.6474 -3.8675 -0.8190 -10.8431 3.9120 13.1005 20.6895 -5.3001 -77.1143 -30.4831 20.9022 0.2795 -0.0957 -82.0379 44.7934 -63.8587 -0.1959 -14.6528 11.1792 16.1371 -59.1707 1.7423 2.7119 -13.9834 16.8741 8.4518 69.2434 -16.3297 10.2487 1.9524 0.1313 111.7785 -56.2858 -7.3289 -33.5688 16.7739 7.4400 -16.8504 51.0657 -3.5592 -5.2992 5.1758 -33.0438 18.6424 -0.5560 21.8349 -0.8031 -11.6665 9.2608 -15.9573 1.6394 0.0682 -1.9408 -14.6698 -18.8972 -19.0100 0.2270 30.2330 0.6422 18.7067 -9.0046 -14.2537 -1.4475 0.0083 1.2010
0.5151 94.8934 -22.0833 -0.8114 -0.3559 19.1364 0.7006 17.2945 0.3377 -0.4599 1.4232 0.5033 0.0165 31.7314 -1.0923 2.9226 48.0916 3.4337 -0.8492 -3.5628 -0.2722 -0.8802 11.1157 -2.4370 0.1085 -0.2575 0.0159 1.0759 -10.6824 -3.8611 -0.8598 -10.8669 3.8482 11.5207 20.5174 -4.8859 -77.1135 -28.2938 22.8080 0.4799 -0.0126 -82.6041 47.3724 -60.2488 -1.6897 -14.6828 10.9833 16.0523 -58.6024 1.6991 2.6307 -14.4957 16.9060 8.8387 69.9904 -16.5020 12.3021 1.7752 0.2478 110.8372 -55.3318 -9.0032 -29.1779 16.8405 7.4796 -17.0185 51.0916 -3.5584 -5.5108 7.0523 -30.5779 17.7628 -0.5292 21.8265 -0.8192 -11.8286 8.4617 -15.3722 1.6456 -0.1311 -1.9359 -14.6916 -15.3407 -18.8521 0.2118 28.5989 0.6092 18.7032 -9.1454 -14.4327 -1.4546 -0.1541 1.1790
0.5585 95.0458 -21.1114 -0.9468 -2.2082 18.3421 0.5880 16.2707 0.4695 -0.3864 0.9449 0.6357 -0.4289 30.7766 -0.6583 -0.5522 49.1367 2.6523 -0.8048 -3.5222 -0.6045 -1.5874 10.5602 -2.6913 0.0447 -0.2383 -0.0104 0.9704 -10.7580 -3.8502 -0.8870 -10.9348 3.8020 9.9372 20.3154 -3.9731 -77.6655 -26.4078 24.3777 0.7522 -0.0259 -83.5609 50.5456 -56.5901 -3.5769 -14.7732 10.8302 15.8946 -58.2609 1.6944 2.4727 -14.4026 17.1200 9.2778 70.4785 -16.5645 15.1609 1.4957 0.3127 109.7850 -53.9442 -10.1938 -24.3235 16.8095 7.5222 -17.2395 51.0439 -3.6553 -5.7506 8.4874 -28.1844 17.5452 -0.4989 22.1890 -0.8122 -12.1195 7.3361 -14.7393 1.6522 -0.3822 -1.9375 -15.1394 -12.2978 -18.9052 0.2011 27.1350 0.5708 18.9244 -9.3129 -13.9757 -1.4645 -0.3159 1.1539
0.7558 95.0953 -20.1108 -0.8370 -3.7810 17.2416 0.4737 15.0914 0.5826 -0.3068 0.4186 0.7736 -0.7051 29.5791 -0.1657 -3.3470 49.5364 2.4998 -0.7799 -3.5251 -0.8605 -2.0282 9.3642 -2.7809 -0.0070 -0.2202 -0.0220 0.8654 -10.8966 -3.8526 -0.8896 -11.0620 3.7973 8.4583 20.0129 -2.5552 -78.8878 -24.8715 25.8305 1.1938 -0.1545 -84.8763 56.1522 -53.3786 -7.3594 -14.9466 10.7008 15.5998 -58.2021 1.7470 2.3299 -13.8631 17.4283 9.7319 70.7818 -16.4068 18.4735 1.1956 0.2969 108.4702 -52.4380 -11.4573 -20.0469 16.6127 7.5588 -17.2986 50.9295 -3.7236 -5.8489 9.5049 -26.1383 17.8234 -0.4776 22.9866 -0.7947 -12.4783 5.9158 -14.0804 1.6600 -0.5778 -1.9510 -15.9222 -10.0101 -19.0429 0.2048 26.1254 0.5535 19.2798 -9.5518 -13.0941 -1.4736 -0.4813 1.1353
1.0587 95.0510 -19.1129 -0.5269 -4.9851 15.9444 0.3847 13.8040 0.6660 -0.2387 -0.1548 0.8865 -0.8173 28.0920 0.3142 -5.2284 49.4349 2.9852 -0.8269 -3.5645 -1.1286 -2.2307 7.5762 -2.8306 -0.0538 -0.1947 -0.0214 0.7590 -11.0239 -3.8579 -0.8850 -11.1678 3.8242 7.3400 19.6102 -0.7785 -80.4829 -23.6855 27.1093 1.7235 -0.3679 -86.4174 63.8081 -51.0209 -12.9793 -15.0472 10.5972 15.2916 -58.2478 1.8475 2.2425 -13.0515 17.7630 10.0274 70.8621 -15.7966 22.0879 0.9615 0.0876 106.9790 -50.7616 -12.9768 -16.9803 16.4031 7.5780 -17.1699 50.7857 -3.7527 -5.7680 10.1398 -24.5626 18.4604 -0.4652 24.1652 -0.7871 -12.8003 4.2792 -13.3567 1.6634 -0.6698 -1.9615 -16.9697 -8.5366 -19.0917 0.2340 25.6821 0.5477 19.7183 -9.7892 -11.8873 -1.4836 -0.5965 1.1348
1.4607 94.9510 -18.1298 -0.0718 -5.8244 14.5385 0.3286 12.4649 0.7001 -0.1949 -0.7530 1.0040 -0.7527 26.3754 0.6854 -6.4831 49.0524 3.7183 -0.9503 -3.6278 -1.3834 -2.3661 5.2612 -2.7858 -0.0988 -0.1709 -0.0091 0.6632 -11.0724 -3.8446 -0.8835 -11.1866 3.8580 6.9265 19.0665 1.1058 -81.9137 -22.6130 27.8440 2.2120 -0.4301 -87.9967 71.7922 -49.6764 -19.2425 -15.1052 10.5498 15.2372 -58.4085 1.9071 2.3159 -12.2639 18.0108 9.9719 70.8050 -14.5133 26.0784 0.7123 -0.2204 105.3472 -48.5337 -14.5932 -15.5021 16.2565 7.5790 -16.9533 50.6204 -3.7179 -5.6821 10.4574 -23.3699 19.4067 -0.4400 25.4747 -0.7578 -13.1848 2.6150 -12.7338 1.6619 -0.7220 -1.9475 -18.1317 -7.6427 -18.8274 0.2804 25.5752 0.5708 20.1510 -9.9624 -10.6629 -1.4902 -0.6860 1.1243
1.9237 94.8520 -17.1985 0.5505 -6.3967 13.1214 0.2758 11.1224 0.7162 -0.1563 -1.3693 0.9744 -0.6211 24.6072 0.8573 -7.3570 48.5657 4.4407 -1.1453 -3.6751 -1.4766 -2.5597 2.8215 -2.6082 -0.1391 -0.1504 0.0141 0.5996 -11.0536 -3.8154 -0.9081 -11.1396 3.8976 7.0930 18.4662 2.6047 -82.1831 -21.6071 27.6188 2.5625 -0.4961 -89.3154 77.3305 -49.0846 -24.0046 -15.1565 10.5267 15.3454 -58.7962 1.8682 2.4021 -11.6625 18.2065 9.6100 70.7831 -12.5799 29.9573 0.5859 -0.4778 103.8101 -45.5565 -15.5946 -15.6367 16.1824 7.5841 -16.7977 50.6029 -3.6753 -5.6353 10.4480 -22.2668 20.5616 -0.4206 26.5560 -0.7343 -13.5505 1.1404 -12.0969 1.6530 -0.7989 -1.9389 -19.3531 -7.0488 -18.1593 0.3163 25.5487 0.5952 20.5461 -10.0939 -9.5951 -1.4927 -0.6877 1.0952
2.4148 94.7758 -16.3010 1.2759 -6.8172 11.6780 0.2394 9.7700 0.6618 -0.1233 -1.9516 0.8588 -0.4807 22.8489 0.7939 -8.0062 48.0296 4.9995 -1.2807 -3.7013 -1.2846 -2.8515 0.3358 -2.1745 -0.1596 -0.1315 0.0421 0.5750 -11.0041 -3.7913 -0.9272 -11.0707 3.9415 7.5449 17.7788 3.6427 -81.3776 -20.9821 26.6713 2.4870 -0.6351 -89.9676 80.6452 -49.5530 -27.6719 -15.2985 10.4479 15.4840 -59.2313 1.8027 2.4537 -11.1987 18.3047 8.9514 70.7621 -10.0765 33.5998 0.4558 -0.6525 102.4974 -41.6539 -15.7968 -16.8199 16.0788 7.5145 -16.6733 50.5803 -3.6591 -5.5912 10.2372 -21.0469 21.8109 -0.4135 27.2267 -0.7269 -13.8051 -0.1249 -11.3711 1.6424 -0.8138 -1.9286 -20.5359 -6.4086 -17.1419 0.3443 25.2382 0.6245 20.8570 -10.1461 -8.8313 -1.4894 -0.6025 1.0834
2.9419 94.7830 -15.3882 1.9868 -7.1335 10.2360 0.2495 8.4021 0.5460 -0.0971 -2.4806 0.6613 -0.3185 21.1702 0.4817 -8.4412 47.4107 5.4008 -1.2429 -3.7064 -0.7535 -3.0831 -2.1844 -1.4402 -0.1662 -0.1076 0.0736 0.5571 -10.9019 -3.7597 -0.9219 -10.9634 3.9786 7.9234 17.1034 4.1994 -79.9023 -21.0958 25.3448 2.0017 -0.8928 -89.4847 82.5408 -51.4344 -30.9689 -15.4815 10.3336 15.6055 -59.5282 1.7255 2.4810 -10.7183 18.2636 7.9404 70.5325 -7.0133 36.9915 0.1599 -0.7135 101.5036 -37.0287 -14.9213 -18.5917 15.9908 7.4892 -16.6358 50.6150 -3.5725 -5.5899 9.9931 -19.6493 22.9996 -0.3995 27.4154 -0.7318 -13.9471 -1.1060 -10.5456 1.6365 -0.7859 -1.9218 -21.5711 -5.5238 -15.9610 0.3526 24.4396 0.6642 21.0793 -9.9893 -8.3351 -1.4825 -0.4401 1.0953
3.4093 94.9018 -14.4615 2.6145 -7.3699 8.9433 0.2825 6.9832 0.4150 -0.0744 -2.9789 0.3530 -0.1434 19.5743 -0.0877 -8.3960 46.7040 5.6613 -1.0686 -3.7130 0.1306 -3.1565 -4.5610 -0.3744 -0.1602 -0.0812 0.1067 0.5401 -10.7664 -3.7174 -0.8928 -10.8269 4.0057 8.1669 16.4858 4.2823 -78.1013 -21.9521 23.7328 1.2203 -1.2601 -87.6259 83.2388 -54.3441 -33.4271 -15.6866 10.3184 15.5891 -59.5142 1.6940 2.4510 -10.1915 18.0574 6.5521 70.2629 -3.5243 39.7523 -0.1355 -0.6853 100.8048 -32.2244 -13.1358 -20.1553 15.9492 7.5181 -16.7000 50.7064 -3.4850 -5.5878 9.7784 -18.1166 23.9773 -0.3866 27.1685 -0.7473 -13.9453 -1.8113 -9.6886 1.6349 -0.7174 -1.9146 -22.3873 -4.2579 -14.7529 0.3269 23.0464 0.6736 21.0809 -9.5771 -8.0641 -1.4764 -0.2400 1.1112
3.8191 95.0978 -13.5103 3.1658 -7.5465 7.8975 0.2571 5.6149 0.2686 -0.0572 -3.4110 -0.0199 -0.0175 18.1283 -0.8478 -7.7532 45.8209 5.7685 -0.7596 -3.7314 1.2649 -3.1140 -6.6754 0.9206 -0.1397 -0.0561 0.1293 0.5269 -10.6375 -3.6859 -0.8349 -10.6957 4.0159 8.3202 15.9370 4.0128 -76.2733 -23.3289 21.6558 0.5489 -1.5681 -84.6912 82.3707 -57.2352 -34.1561 -15.8491 10.4892 15.4644 -59.3745 1.7337 2.3928 -9.6255 17.7005 4.9027 70.1499 0.1012 41.3327 -0.2331 -0.6383 100.6820 -28.0412 -10.9691 -20.9614 15.9505 7.5611 -16.8130 50.8045 -3.4545 -5.5760 9.5716 -16.5474 24.5727 -0.3825 26.6315 -0.7529 -13.7843 -2.2336 -8.7629 1.6376 -0.6263 -1.9125 -23.0258 -2.6815 -13.5984 0.2846 21.1810 0.6355 21.0077 -8.9658 -8.0087 -1.4710 -0.0759 1.1171
4.1543 95.2653 -12.6509 3.5773 -7.7015 7.0310 0.1803 4.3647 0.1156 -0.0516 -3.7956 -0.4875 0.0839 16.8821 -1.7003 -6.5988 44.5858 5.6806 -0.3594 -3.7507 2.5618 -3.0415 -8.5651 2.2929 -0.1282 -0.0320 0.1578 0.5008 -10.5014 -3.6397 -0.7811 -10.5441 4.0249 8.2509 15.4706 3.3686 -74.6269 -25.1356 19.4070 0.0697 -1.7688 -81.3450 80.2128 -58.9512 -33.0422 -16.0552 10.7150 15.2529 -59.3852 1.7787 2.3372 -8.8494 17.2157 3.1043 69.9919 3.8320 41.5925 -0.1031 -0.6068 101.3464 -24.7203 -8.8496 -20.9372 15.9770 7.5953 -16.9368 50.9307 -3.4702 -5.5810 9.4582 -15.0652 24.7576 -0.3765 26.0048 -0.7329 -13.5823 -2.4959 -7.8155 1.6443 -0.4843 -1.9178 -23.4740 -1.0753 -12.6275 0.2318 19.2839 0.5559 21.0009 -8.3323 -7.9509 -1.4661 0.1074 1.1099
4.3954 95.3840 -11.9236 3.8444 -7.8139 6.2596 0.0460 3.3315 0.0089 -0.0640 -4.1160 -0.9756 0.1543 15.9781 -2.5582 -5.2158 43.0449 5.2669 0.0150 -3.7768 3.8587 -2.9051 -10.1644 3.6071 -0.1157 -0.0097 0.1782 0.4907 -10.4037 -3.6106 -0.7410 -10.4203 4.0330 7.8643 15.0941 2.3631 -73.4401 -27.4739 17.7191 -0.3248 -1.9294 -78.4070 78.2636 -58.9522 -31.6495 -16.2411 10.7763 15.0125 -59.5294 1.7960 2.2884 -7.6966 16.6716 1.3081 69.3753 7.4411 40.6365 0.0328 -0.5724 102.8557 -22.5514 -7.1209 -20.4793 15.9747 7.6511 -17.0361 51.0920 -3.5030 -5.5670 9.4324 -13.8907 24.7636 -0.3630 25.4914 -0.6959 -13.4105 -2.7157 -6.9466 1.6412 -0.3744 -1.9111 -23.7492 0.2103 -11.8758 0.1822 17.7311 0.4976 21.0452 -7.8230 -7.8044 -1.4618 0.2016 1.1115
4.5954 95.4706 -11.3917 3.9993 -7.7869 5.5232 -0.1302 2.5526 -0.0812 -0.0866 -4.3735 -1.4170 0.1589 15.3808 -3.3954 -3.7737 41.3448 4.7483 0.3097 -3.8082 4.9292 -2.6699 -11.5015 4.6973 -0.0951 0.0085 0.1771 0.5008 -10.3593 -3.6179 -0.7043 -10.3515 4.0286 7.2220 14.8251 1.2237 -72.6082 -30.2542 16.4790 -0.5123 -2.0046 -76.1236 76.5671 -57.7394 -30.5051 -16.4140 10.7109 14.7951 -59.7275 1.7881 2.2633 -6.3174 16.1450 -0.4027 68.2304 10.3964 38.6848 0.0855 -0.5470 104.5648 -21.5702 -5.5158 -19.8441 15.9195 7.7026 -17.0847 51.2475 -3.5276 -5.5633 9.4027 -13.1480 24.8106 -0.3449 25.1375 -0.6515 -13.2538 -2.8397 -6.2608 1.6351 -0.3047 -1.8875 -23.8554 0.9634 -11.2335 0.1475 16.6356 0.4931 21.0297 -7.4644 -7.5981 -1.4564 0.2197 1.1026
4.7337 95.5450 -11.1242 4.0693 -7.6716 4.8119 -0.3329 2.0696 -0.1617 -0.1181 -4.5415 -1.8234 0.0929 15.0075 -4.1643 -2.3660 39.7485 4.2506 0.4927 -3.8294 5.6583 -2.3656 -12.5841 5.4421 -0.0806 0.0210 0.1738 0.5134 -10.3663 -3.6376 -0.6838 -10.3425 4.0345 6.5980 14.6634 0.1053 -72.1776 -33.3140 15.6481 -0.5821 -2.0772 -74.3631 75.0451 -55.8298 -30.1489 -16.5582 10.5645 14.6596 -59.8277 1.7425 2.2639 -4.9884 15.6861 -1.9291 66.8135 12.3989 35.8295 0.1502 -0.6182 106.0271 -21.6917 -3.5693 -19.0124 15.8632 7.7422 -17.0978 51.3371 -3.5831 -5.5182 9.3778 -12.7934 25.0252 -0.3401 24.9653 -0.6337 -13.1022 -2.9025 -5.7800 1.6293 -0.2135 -1.8754 -23.8489 1.2499 -10.6141 0.1356 15.9699 0.5139 20.9851 -7.2233 -7.3014 -1.4509 0.2113 1.1026
4.8709 95.6224 -11.0751 4.0298 -7.4262 4.0931 -0.5417 1.8302 -0.2565 -0.1465 -4.6125 -2.1465 0.0216 14.7528 -4.8145 -1.1170 38.3656 3.8138 0.5976 -3.8363 6.0182 -2.0088 -13.4511 5.8278 -0.0669 0.0300 0.1603 0.5254 -10.3659 -3.6660 -0.6658 -10.3361 4.0292 6.2027 14.5485 -0.9215 -72.1329 -36.2245 15.0630 -0.5533 -2.0692 -73.0757 74.0904 -53.8434 -30.5625 -16.6769 10.4131 14.6277 -59.8765 1.6998 2.3048 -3.8649 15.3798 -3.1988 65.2709 13.5005 32.6857 0.1975 -0.6529 106.9743 -22.5705 -1.5322 -18.1487 15.7769 7.7759 -17.1161 51.2877 -3.6482 -5.4730 9.3575 -12.7993 25.3776 -0.3377 24.8639 -0.6187 -12.9430 -2.8710 -5.3772 1.6226 -0.1188 -1.8676 -23.6975 1.1287 -10.0137 0.1419 15.5592 0.5481 20.8265 -6.9629 -6.8866 -1.4469 0.1931 1.1048
5.0001 95.7136 -11.1839 3.8574 -7.0502 3.4428 -0.7173 1.7918 -0.3212 -0.1711 -4.6077 -2.4316 -0.0537 14.5856 -5.3344 -0.0826 37.2016 3.4021 0.6082 -3.8491 6.1965 -1.6629 -14.1721 5.9154 -0.0531 0.0355 0.1393 0.5377 -10.3641 -3.6972 -0.6480 -10.3350 4.0142 6.0338 14.4614 -1.8291 -72.1732 -38.6264 14.5492 -0.5190 -2.0460 -72.2558 73.6333 -52.2476 -31.2543 -16.7578 10.2581 14.5541 -59.9626 1.6733 2.3026 -3.0001 15.2278 -4.1486 63.6578 13.9837 29.8785 0.2394 -0.6769 107.4217 -23.6074 0.3516 -17.3405 15.6780 7.8148 -17.1510 51.1509 -3.6963 -5.4131 9.3647 -13.1410 25.7688 -0.3486 24.8384 -0.6170 -12.7046 -2.8307 -5.0492 1.6119 -0.0319 -1.8482 -23.3816 0.7229 -9.4407 0.1457 15.2783 0.5671 20.6146 -6.6500 -6.4360 -1.4462 0.1747 1.1203
5.1248 95.8056 -11.4541 3.6134 -6.5522 2.8733 -0.8761 1.9028 -0.4127 -0.1850 -4.5735 -2.6351 -0.1339 14.4956 -5.6822 0.7643 36.1415 3.0697 0.6112 -3.8440 6.1081 -1.3127 -14.7996 5.7743 -0.0369 0.0418 0.1072 0.5522 -10.3667 -3.7366 -0.6292 -10.3461 3.9819 5.9524 14.4339 -2.6357 -71.9947 -40.4730 13.7822 -0.4132 -1.9854 -71.7772 73.3303 -51.0954 -31.7347 -16.8662 10.1527 14.4862 -60.1924 1.6693 2.2934 -2.3568 15.2058 -4.7812 61.9891 14.1938 27.5925 0.2944 -0.6112 107.5016 -24.4713 1.9446 -16.5386 15.6137 7.8498 -17.2170 51.0117 -3.7237 -5.3833 9.3191 -13.7429 26.1015 -0.3481 24.8533 -0.6114 -12.4015 -2.7785 -4.7106 1.6027 0.0351 -1.8381 -22.9847 0.0771 -8.9832 0.1517 15.0262 0.5929 20.3859 -6.2788 -5.9602 -1.4464 0.1737 1.1229
5.2707 95.8765 -11.7964 3.3147 -5.9772 2.4086 -1.0280 2.1159 -0.4800 -0.2010 -4.5067 -2.7800 -0.2460 14.4755 -5.9264 1.4954 35.1213 2.8198 0.6125 -3.8344 5.9100 -0.9856 -15.3816 5.4811 -0.0216 0.0505 0.0738 0.5699 -10.3717 -3.7738 -0.6154 -10.3627 3.9457 5.8410 14.4509 -3.3483 -71.4210 -41.9069 12.6090 -0.2551 -1.9242 -71.4701 72.9400 -50.2880 -31.8133 -16.9750 10.0549 14.3703 -60.5000 1.6827 2.2611 -1.8001 15.2775 -5.1593 60.1405 14.3827 25.8337 0.3902 -0.5207 107.2395 -25.1890 3.4452 -15.6399 15.6284 7.8744 -17.2817 50.8576 -3.7579 -5.3686 9.2173 -14.5740 26.3595 -0.3423 25.0153 -0.6058 -12.0347 -2.7484 -4.4214 1.5950 0.0854 -1.8379 -22.5570 -0.7530 -8.6301 0.1482 14.8806 0.6067 20.1996 -5.8951 -5.4648 -1.4484 0.1749 1.1218
5.3930 95.9054 -12.2010 2.9709 -5.3659 2.0464 -1.1863 2.4203 -0.5284 -0.2259 -4.4159 -2.8891 -0.3902 14.5407 -6.0548 2.1795 34.1022 2.5947 0.6100 -3.8268 5.6615 -0.6990 -15.9507 5.0973 -0.0003 0.0605 0.0267 0.5967 -10.3921 -3.8275 -0.5985 -10.3941 3.8964 5.6393 14.5666 -4.0303 -70.3999 -43.1494 10.9912 -0.0423 -1.8337 -71.2284 72.2471 -49.7792 -31.3624 -17.1377 9.9710 14.2222 -60.9111 1.7217 2.2351 -1.2308 15.4469 -5.3697 58.0576 14.7074 24.5629 0.4872 -0.4125 106.6674 -25.8800 5.0930 -14.6253 15.7513 7.8770 -17.3503 50.7762 -3.7890 -5.3812 9.0891 -15.6481 26.4662 -0.3437 25.4806 -0.5915 -11.5892 -2.8195 -4.1145 1.5915 0.1305 -1.8445 -22.1252 -1.7545 -8.3822 0.1496 14.9189 0.6107 20.0865 -5.6156 -4.9231 -1.4504 0.1766 1.1195
5.4856 95.8601 -12.5309 2.6160 -4.7678 1.7548 -1.3510 2.7513 -0.5402 -0.2595 -4.2890 -2.9360 -0.5759 14.6881 -6.1150 2.8000 33.1363 2.4812 0.6333 -3.8187 5.3287 -0.4554 -16.5087 4.7232 0.0286 0.0684 -0.0403 0.6327 -10.4153 -3.9024 -0.5767 -10.4296 3.8268 5.2654 14.7328 -4.6939 -68.8547 -44.2482 8.9831 0.1505 -1.7213 -70.9265 71.4976 -49.6106 -30.7911 -17.3121 9.8754 14.0906 -61.2996 1.7513 2.2347 -0.6162 15.6823 -5.4291 55.7910 15.1686 23.6462 0.6471 -0.2045 105.7761 -26.5144 6.9359 -13.5736 15.9631 7.8573 -17.4016 50.7767 -3.7996 -5.3578 8.9558 -16.8813 26.4269 -0.3532 26.2493 -0.5799 -11.1316 -3.0601 -3.7511 1.5933 0.1413 -1.8619 -21.7558 -2.8686 -8.2987 0.1630 15.1344 0.6408 20.0317 -5.5139 -4.4188 -1.4514 0.1893 1.1034
5.5331 95.7476 -12.7721 2.2497 -4.2042 1.5234 -1.4813 3.0157 -0.5482 -0.2908 -4.1621 -2.9472 -0.8062 14.8906 -6.0721 3.2345 32.4076 2.4005 0.6017 -3.8012 5.0254 -0.1615 -16.9861 4.3930 0.0484 0.0691 -0.0954 0.6531 -10.4052 -3.9549 -0.5570 -10.4357 3.7621 4.7449 14.9334 -5.3645 -67.2337 -45.1527 7.1030 0.1917 -1.5278 -70.6170 71.1931 -49.7903 -30.3539 -17.4717 9.7955 14.0551 -61.5018 1.7882 2.2874 -0.0253 15.9708 -5.3794 53.7226 15.6190 23.0238 0.9121 0.1240 104.7607 -27.0243 8.5408 -12.8135 16.2440 7.8129 -17.3751 50.8699 -3.7603 -5.3186 8.8666 -18.1731 26.2484 -0.3613 27.2440 -0.5823 -10.7372 -3.4269 -3.3291 1.6005 0.1408 -1.8787 -21.4305 -4.0301 -8.4913 0.1920 15.4487 0.6889 20.0382 -5.6356 -3.9130 -1.4494 0.1841 1.1096
5.6304 95.5859 -12.9774 1.8647 -3.6970 1.3737 -1.5718 3.2156 -0.5671 -0.3043 -4.0724 -2.9592 -1.0539 15.1006 -5.9638 3.3576 32.1243 2.1912 0.4801 -3.8071 4.9653 0.2364 -17.2437 4.0479 0.0502 0.0550 -0.1165 0.6495 -10.3977 -3.9639 -0.5496 -10.4344 3.7277 4.3163 15.1048 -5.9225 -66.1686 -45.8727 5.9030 -0.0317 -1.3316 -70.4081 71.2626 -50.1224 -30.0403 -17.5957 9.7408 14.1342 -61.4665 1.8244 2.3358 0.3421 16.1967 -5.3050 52.3561 15.9483 22.5607 1.2290 0.4101 104.0362 -27.4341 9.3789 -12.5488 16.4416 7.7606 -17.3846 50.9147 -3.7195 -5.3220 8.8626 -19.4647 26.1622 -0.3712 28.3141 -0.6021 -10.4817 -3.7947 -3.0874 1.6123 0.1675 -1.8808 -21.0908 -5.2077 -9.0039 0.2340 15.9118 0.7656 19.9795 -5.9321 -3.2922 -1.4409 0.0105 1.1352
