HIERARCHY
ROOT Hips
{
	OFFSET 0.0000 0.0000 0.0000
	CHANNELS 6 Xposition Yposition Zposition Zrotation Xrotation Yrotation
	JOINT Spine1
	{
		OFFSET -0.0137 5.0038 -0.0537
		CHANNELS 3 Zrotation Xrotation Yrotation
		JOINT Spine2
		{
			OFFSET -0.0000 7.1253 -0.0298
			CHANNELS 3 Zrotation Xrotation Yrotation
			JOINT Chest
			{
				OFFSET -0.0000 7.5501 -0.8160
				CHANNELS 3 Zrotation Xrotation Yrotation
				JOINT Neck1
				{
					OFFSET -0.1817 26.3113 -0.5533
					CHANNELS 3 Zrotation Xrotation Yrotation
					JOINT Neck2
					{
						OFFSET -0.0000 7.7094 2.3026
						CHANNELS 3 Zrotation Xrotation Yrotation
						JOINT Head
						{
							OFFSET -0.0000 6.1289 1.9537
							CHANNELS 3 Zrotation Xrotation Yrotation
							JOINT Jaw
							{
								OFFSET 0.0026 0.4756 3.0949
								CHANNELS 3 Zrotation Xrotation Yrotation
								End Site
								{
									OFFSET 0.0 1.0 0.0
								}
							}
							JOINT LeftEye
							{
								OFFSET 3.2064 5.3802 7.5869
								CHANNELS 3 Zrotation Xrotation Yrotation
								End Site
								{
									OFFSET 0.0 1.0 0.0
								}
							}
							JOINT RightEye
							{
								OFFSET -3.2224 5.3619 7.5582
								CHANNELS 3 Zrotation Xrotation Yrotation
								End Site
								{
									OFFSET 0.0 1.0 0.0
								}
							}
						}
					}
				}
				JOINT LeftShoulder
				{
					OFFSET 1.6217 23.2372 5.1134
					CHANNELS 3 Zrotation Xrotation Yrotation
					JOINT LeftArm
					{
						OFFSET 14.9198 0.0000 -5.5023
						CHANNELS 3 Zrotation Xrotation Yrotation
						JOINT LeftForeArm
						{
							OFFSET 28.7393 0.0000 -0.0026
							CHANNELS 3 Zrotation Xrotation Yrotation
							JOINT LeftHand
							{
								OFFSET 27.0940 -0.0000 0.0026
								CHANNELS 3 Zrotation Xrotation Yrotation
								JOINT LeftHandThumbEnd
								{
									OFFSET 12.2686 -3.2202 4.8331
									CHANNELS 3 Zrotation Xrotation Yrotation
									End Site
									{
										OFFSET 0.0 1.0 0.0
									}
								}
								JOINT LeftHandMiddleEnd
								{
									OFFSET 19.0120 -0.3129 -0.0340
									CHANNELS 3 Zrotation Xrotation Yrotation
									End Site
									{
										OFFSET 0.0 1.0 0.0
									}
								}
							}
						}
					}
				}
				JOINT RightShoulder
				{
					OFFSET -1.3801 23.1803 5.2142
					CHANNELS 3 Zrotation Xrotation Yrotation
					JOINT RightArm
					{
						OFFSET -15.0372 0.0000 -5.5456
						CHANNELS 3 Zrotation Xrotation Yrotation
						JOINT RightForeArm
						{
							OFFSET -28.7366 0.0000 -0.0026
							CHANNELS 3 Zrotation Xrotation Yrotation
							JOINT RightHand
							{
								OFFSET -27.1336 -0.0000 0.0026
								CHANNELS 3 Zrotation Xrotation Yrotation
								JOINT RightHandThumbEnd
								{
									OFFSET -12.2642 -3.2115 4.8040
									CHANNELS 3 Zrotation Xrotation Yrotation
									End Site
									{
										OFFSET 0.0 1.0 0.0
									}
								}
								JOINT RightHandMiddleEnd
								{
									OFFSET -19.0006 -0.3066 -0.0316
									CHANNELS 3 Zrotation Xrotation Yrotation
									End Site
									{
										OFFSET 0.0 1.0 0.0
									}
								}
							}
						}
					}
				}
			}
		}
	}
	JOINT LeftLeg
	{
		OFFSET 10.0432 -8.4345 2.5957
		CHANNELS 3 Zrotation Xrotation Yrotation
		JOINT LeftShin
		{
			OFFSET -0.0000 -43.2218 -0.8029
			CHANNELS 3 Zrotation Xrotation Yrotation
			JOINT LeftFoot
			{
				OFFSET 0.0000 -42.1551 -3.4815
				CHANNELS 3 Zrotation Xrotation Yrotation
				JOINT LeftToeBase
				{
					OFFSET 0.0000 -5.0595 13.2315
					CHANNELS 3 Zrotation Xrotation Yrotation
					End Site
					{
						OFFSET 0.0 1.0 0.0
					}
				}
			}
		}
	}
	JOINT RightLeg
	{
		OFFSET -10.0473 -8.2953 2.6203
		CHANNELS 3 Zrotation Xrotation Yrotation
		JOINT RightShin
		{
			OFFSET 0.0000 -43.3622 -0.8056
			CHANNELS 3 Zrotation Xrotation Yrotation
			JOINT RightFoot
			{
				OFFSET 0.0000 -42.1174 -3.4784
				CHANNELS 3 Zrotation Xrotation Yrotation
				JOINT RightToeBase
				{
					OFFSET -0.0000 -5.0796 13.2842
					CHANNELS 3 Zrotation Xrotation Yrotation
					End Site
					{
						OFFSET 0.0 1.0 0.0
					}
				}
			}
		}
	}
}
MOTION
Frames: 90
Frame Time: 0.033333
0.0126 97.5213 -4.8833 -2.3008 -6.4406 0.9535 -0.2853 -2.7839 0.3706 -0.6491 -6.3130 1.4813 -3.9234 15.5789 -1.1323 -13.0893 27.2363 7.6602 -2.0310 -3.8868 -7.7349 -1.0479 -10.8364 -9.2056 -0.0630 -0.0268 -0.1350 0.6120 -10.6170 -3.9353 -0.7583 -10.5710 3.6786 2.7398 9.5362 -3.9955 4.8970 -21.4059 -36.4518 0.4815 -0.4642 -53.6900 -8.3255 10.7175 8.4190 -16.7391 10.7660 15.9790 -60.5373 1.8255 1.6639 -7.3773 12.2220 14.3903 21.7856 -12.7829 19.8445 0.1150 2.5594 108.6209 -7.0324 4.1486 -12.1263 15.5115 7.4725 -16.4471 51.2147 -3.4311 -5.5769 17.1451 -5.0731 16.5918 -0.1085 16.7882 -0.5088 -15.9835 -5.3604 2.2219 1.5855 0.7499 -1.8966 -12.3455 2.6571 -11.7441 0.0744 7.5335 0.2517 14.9640 -4.0684 -0.8754 -1.3652 0.1294 1.0107
0.0601 97.4951 -4.7980 -2.3582 -6.5601 0.8910 -0.1348 -2.9174 0.3396 -0.6038 -6.3148 1.5254 -3.9455 15.5296 -1.1026 -13.4552 27.9338 7.8568 -2.0289 -3.9437 -7.7387 -1.1755 -10.3526 -9.2080 -0.0712 -0.0350 -0.0931 0.5916 -10.6039 -3.8853 -0.7548 -10.5616 3.7141 2.5326 9.4558 -3.8990 5.1814 -20.8100 -36.7300 0.6731 -0.7451 -53.0689 -8.1493 10.9307 7.8511 -16.6360 10.7659 15.9303 -60.7265 1.8355 1.5227 -7.7836 12.2350 14.3943 21.2751 -12.3921 20.6967 -0.3117 2.3909 108.0835 -6.8534 3.0398 -11.6170 15.5100 7.5067 -16.4877 51.2282 -3.3452 -5.5323 17.3144 -4.8364 16.4129 -0.1391 16.8404 -0.5640 -16.0945 -5.4983 2.3527 1.5950 0.6609 -1.9223 -12.3121 2.6990 -11.7597 0.0962 7.8370 0.2799 14.9443 -4.3154 -0.8905 -1.3738 0.1555 0.9963
0.1658 97.4584 -4.5940 -2.3469 -6.7721 0.9002 -0.0016 -3.1198 0.3294 -0.5682 -6.3691 1.5276 -3.9230 15.5353 -1.0859 -13.7155 28.7672 8.0888 -2.0244 -3.9976 -7.7513 -1.3713 -9.9212 -9.0726 -0.0682 -0.0395 -0.0725 0.5845 -10.6003 -3.8554 -0.7420 -10.5611 3.7230 2.3316 9.5448 -3.9191 5.2453 -20.7115 -36.8160 0.6615 -1.0030 -52.6965 -8.1840 11.0722 7.5108 -16.5520 10.6979 15.8773 -60.7664 1.8776 1.4643 -7.9986 12.3590 14.3869 20.3135 -12.0822 21.5151 -0.5498 2.2443 107.7631 -6.8671 1.9020 -11.2810 15.4668 7.5386 -16.5005 51.2113 -3.3069 -5.5316 17.4365 -4.4883 16.2402 -0.1566 16.9521 -0.6073 -16.1523 -5.6529 2.4265 1.6064 0.5960 -1.9211 -12.4011 2.7822 -11.9025 0.1118 8.3395 0.2954 15.0119 -4.7105 -0.7612 -1.3804 0.1782 0.9840
0.1875 97.3770 -4.3200 -2.2991 -7.0932 0.9685 0.1074 -3.3601 0.3054 -0.5134 -6.4586 1.5112 -3.8712 15.5730 -1.0640 -13.8725 29.5980 8.3205 -2.0437 -4.0366 -7.6522 -1.5510 -9.5186 -8.8441 -0.0669 -0.0416 -0.0576 0.5780 -10.5991 -3.8335 -0.7328 -10.5671 3.7303 2.1956 9.6845 -3.9678 5.0605 -20.8226 -36.8148 0.5429 -1.2215 -52.4780 -8.3513 11.4137 7.2013 -16.4406 10.6671 15.8771 -60.7660 1.9252 1.4637 -8.0838 12.4461 14.3422 19.1453 -11.5801 22.3094 -0.7245 2.1470 107.6375 -6.9602 0.8303 -11.0453 15.3762 7.5868 -16.5166 51.2014 -3.2772 -5.5537 17.5565 -3.9693 16.0081 -0.1614 17.0974 -0.6204 -16.2338 -5.8536 2.5627 1.6116 0.5211 -1.9209 -12.5853 2.9934 -12.0676 0.1205 8.9262 0.3148 15.0872 -5.2436 -0.6571 -1.3825 0.1574 0.9737
0.1655 97.2693 -3.9445 -2.2393 -7.5681 1.1550 0.2257 -3.6320 0.3057 -0.4582 -6.5685 1.4469 -3.8052 15.6238 -1.0393 -13.9157 30.4286 8.5742 -2.0625 -4.0514 -7.4570 -1.6954 -9.0891 -8.5530 -0.0634 -0.0409 -0.0452 0.5760 -10.5921 -3.8152 -0.7250 -10.5706 3.7366 2.0982 9.8138 -4.0494 4.6885 -20.9373 -36.8999 0.3915 -1.2655 -52.1942 -8.5096 11.6595 6.9258 -16.2925 10.6294 15.8640 -60.6495 1.9710 1.4786 -8.0419 12.5319 14.2755 17.8331 -10.9819 23.0556 -0.8006 2.0837 107.5610 -7.1162 -0.3387 -10.8342 15.3139 7.6201 -16.5321 51.1816 -3.2731 -5.5728 17.7109 -3.2877 15.7344 -0.1634 17.3463 -0.6306 -16.3120 -6.1524 2.6759 1.6140 0.4755 -1.9307 -12.8243 3.4054 -12.2264 0.1161 9.6370 0.3193 15.1679 -5.9154 -0.6199 -1.3841 0.1400 0.9645
0.1421 97.0952 -3.4312 -2.1453 -8.2072 1.4973 0.3400 -3.9305 0.2734 -0.4000 -6.6830 1.3784 -3.7283 15.6551 -1.0337 -13.8765 31.2860 8.8327 -2.0602 -4.0485 -7.1877 -1.8289 -8.6234 -8.1719 -0.0583 -0.0366 -0.0407 0.5759 -10.5739 -3.8041 -0.7146 -10.5631 3.7331 2.0822 9.8793 -4.1796 3.9964 -20.9947 -37.0364 0.3784 -1.2078 -51.8202 -8.6627 11.7166 6.6848 -16.2104 10.6002 15.9028 -60.5421 1.9985 1.5310 -7.8981 12.6179 14.2092 16.4923 -10.2600 23.6464 -0.8825 1.9406 107.4511 -7.3251 -1.4441 -10.6818 15.2317 7.6285 -16.5204 51.0735 -3.2856 -5.5654 17.9027 -2.4415 15.4763 -0.1687 17.6769 -0.6441 -16.4160 -6.5813 2.6261 1.6158 0.4676 -1.9393 -13.1795 4.0325 -12.4427 0.1200 10.4513 0.3339 15.3035 -6.6957 -0.6603 -1.3852 0.1406 0.9545
0.1162 96.8849 -2.7945 -2.0137 -8.9940 1.9867 0.4374 -4.2669 0.1954 -0.3471 -6.7971 1.3211 -3.6269 15.6638 -1.0358 -13.7440 32.2030 9.1014 -2.0218 -4.0478 -6.8544 -1.9904 -8.1405 -7.6903 -0.0539 -0.0311 -0.0317 0.5751 -10.5512 -3.7902 -0.7045 -10.5539 3.7359 2.1002 9.8806 -4.3605 3.0028 -21.0417 -37.2124 0.3960 -1.1262 -51.4069 -8.8964 11.6642 6.5614 -16.0876 10.6177 15.9469 -60.4563 2.0376 1.5694 -7.5542 12.7353 14.1206 15.0900 -9.4979 24.0335 -0.8710 1.8637 107.1841 -7.4861 -2.4714 -10.5822 15.1283 7.6499 -16.5459 50.9202 -3.3177 -5.5794 18.1180 -1.4293 15.2171 -0.1667 18.0497 -0.6458 -16.5306 -7.1125 2.4490 1.6181 0.4510 -1.9452 -13.6379 4.8903 -12.7597 0.1189 11.3056 0.3648 15.4138 -7.6009 -0.7665 -1.3853 0.1568 0.9399
0.0959 96.6421 -2.0953 -1.8350 -9.9062 2.6257 0.5105 -4.6484 0.1331 -0.3091 -6.9433 1.2263 -3.5206 15.7136 -1.0319 -13.4875 33.1714 9.3946 -2.0000 -4.0352 -6.5101 -2.1644 -7.6648 -7.1768 -0.0508 -0.0254 -0.0168 0.5766 -10.5356 -3.7789 -0.6992 -10.5514 3.7550 2.1280 9.7813 -4.6004 1.8315 -20.9647 -37.4071 0.4249 -1.1080 -50.9560 -9.1920 11.4560 6.4836 -15.9268 10.6606 16.0132 -60.3573 2.0731 1.5970 -7.0061 12.9187 14.0081 13.5912 -8.6202 24.1998 -0.9102 1.8349 106.7286 -7.6728 -3.3289 -10.6189 15.0357 7.6881 -16.5858 50.8142 -3.3276 -5.6073 18.3267 -0.2473 14.9501 -0.1682 18.3963 -0.6476 -16.6873 -7.6766 2.1747 1.6242 0.4411 -1.9607 -14.2091 5.9965 -13.1257 0.1122 12.1036 0.3624 15.5333 -8.5325 -0.9358 -1.3871 0.1617 0.9121
0.0967 96.3940 -1.3256 -1.6565 -10.8951 3.4134 0.5611 -5.0509 0.0708 -0.2737 -7.1169 1.1280 -3.4153 15.7872 -1.0790 -13.1205 34.1167 9.6400 -1.9975 -4.0155 -6.0509 -2.3351 -7.2034 -6.6783 -0.0479 -0.0196 0.0082 0.5762 -10.5091 -3.7576 -0.6923 -10.5391 3.7848 2.1711 9.6277 -4.8333 0.5607 -20.7957 -37.6152 0.4587 -1.0682 -50.5268 -9.5702 11.0567 6.4007 -15.7791 10.7243 16.0999 -60.2693 2.0955 1.6081 -6.2528 13.1198 13.8513 12.0536 -7.6328 24.2247 -0.9758 1.8449 106.0250 -7.7732 -3.9074 -10.8934 14.9801 7.7097 -16.6012 50.7066 -3.3411 -5.6082 18.5412 1.0678 14.6114 -0.1729 18.6761 -0.6591 -16.8728 -8.3052 1.8344 1.6294 0.4371 -1.9653 -14.8259 7.3479 -13.5377 0.1032 12.7624 0.3724 15.6437 -9.4721 -1.2685 -1.3896 0.1724 0.8909
0.1186 96.1457 -0.5387 -1.4521 -11.8880 4.2883 0.5667 -5.4739 -0.0072 -0.2589 -7.2995 1.0306 -3.3289 15.8585 -1.1641 -12.6810 34.9434 9.8157 -2.0128 -4.0039 -5.5401 -2.4975 -6.7817 -6.1803 -0.0440 -0.0177 0.0316 0.5774 -10.5010 -3.7424 -0.6857 -10.5414 3.8167 2.2216 9.4721 -5.0544 -0.6896 -20.5783 -37.7302 0.4056 -1.0922 -50.1970 -10.0471 10.5421 6.3555 -15.7194 10.7623 16.1630 -60.2207 2.0978 1.6478 -5.3433 13.2599 13.6555 10.6345 -6.5984 24.0994 -1.0548 1.9191 105.1585 -7.6769 -4.2083 -11.3567 14.9411 7.7068 -16.6347 50.5981 -3.3688 -5.6144 18.6962 2.4107 14.2239 -0.1615 18.9064 -0.6636 -17.0811 -8.9418 1.4144 1.6382 0.4563 -1.9729 -15.4740 8.8325 -13.9740 0.0818 13.2612 0.3766 15.7472 -10.3602 -1.7607 -1.3923 0.2115 0.8705
0.1425 95.9011 0.2451 -1.2434 -12.8468 5.2763 0.5396 -5.9209 -0.0452 -0.2565 -7.4996 0.9275 -3.2801 15.9460 -1.3014 -12.2071 35.6367 9.9319 -2.0174 -3.9878 -5.0416 -2.6876 -6.4199 -5.7033 -0.0381 -0.0149 0.0352 0.5799 -10.4755 -3.7444 -0.6757 -10.5300 3.8253 2.3006 9.3769 -5.3048 -1.7977 -20.2956 -37.7846 0.2775 -1.1437 -49.9259 -10.7410 9.7141 6.3446 -15.6762 10.7812 16.1996 -60.1793 2.0817 1.6485 -4.2662 13.3669 13.3501 9.2378 -5.7267 23.8494 -1.0783 1.9821 104.2610 -7.4283 -4.1321 -11.9333 14.8271 7.7219 -16.6650 50.4798 -3.3964 -5.6307 18.8195 3.7085 13.8177 -0.1643 19.1228 -0.6650 -17.2457 -9.5806 0.8835 1.6420 0.4586 -1.9724 -16.1291 10.3656 -14.4973 0.0620 13.6318 0.3805 15.8054 -11.1515 -2.3357 -1.3964 0.2471 0.8612
0.1574 95.6451 0.9809 -1.0385 -13.7601 6.3054 0.4893 -6.3459 -0.0486 -0.2800 -7.6983 0.7918 -3.2216 16.0201 -1.4297 -11.7191 36.1689 10.0248 -2.0026 -3.9835 -4.6066 -2.9430 -6.1260 -5.1755 -0.0321 -0.0135 0.0380 0.5821 -10.4594 -3.7481 -0.6650 -10.5243 3.8346 2.3222 9.3007 -5.6142 -2.6870 -19.7924 -37.6491 0.0385 -1.2589 -49.7947 -11.5968 8.5454 6.3561 -15.5642 10.8164 16.2234 -60.1311 2.0759 1.6459 -3.1255 13.4682 12.9502 7.9214 -5.0315 23.5336 -1.0597 2.0533 103.4148 -7.1281 -3.6266 -12.5114 14.7016 7.7281 -16.7224 50.3494 -3.4411 -5.6591 18.9229 4.8956 13.3884 -0.1626 19.4059 -0.6527 -17.4343 -10.2256 0.3133 1.6427 0.4483 -1.9805 -16.8062 11.8653 -15.1130 0.0397 13.9385 0.3629 15.8463 -11.9281 -2.9046 -1.4018 0.2840 0.8428
0.1808 95.3890 1.7167 -0.8542 -14.6383 7.3755 0.4161 -6.7496 -0.0386 -0.2921 -7.8844 0.6715 -3.1829 16.0882 -1.5915 -11.2587 36.5816 10.0664 -1.9934 -3.9917 -4.2153 -3.2299 -5.8750 -4.6859 -0.0193 -0.0130 0.0406 0.5918 -10.4389 -3.7503 -0.6490 -10.5131 3.8398 2.2923 9.2671 -5.9460 -3.2368 -18.9539 -37.4538 -0.1906 -1.3626 -49.7456 -12.6082 7.2204 6.3255 -15.3892 10.8855 16.2619 -60.1047 2.0495 1.6308 -2.0581 13.5045 12.4871 6.7777 -4.4505 23.1606 -1.0448 2.1306 102.6270 -6.9286 -3.0255 -12.9110 14.5500 7.7288 -16.7938 50.1683 -3.5131 -5.6976 19.0319 5.9685 12.9783 -0.1635 19.7864 -0.6408 -17.5871 -10.9438 -0.3677 1.6387 0.4093 -1.9877 -17.5037 13.3163 -15.8792 0.0193 14.2022 0.3726 15.9092 -12.6884 -3.4163 -1.4043 0.3037 0.8267
0.2381 95.1217 2.4699 -0.6598 -15.4902 8.3813 0.3329 -7.1156 -0.0318 -0.3002 -8.0824 0.5559 -3.1569 16.1421 -1.7145 -10.8801 36.9153 10.0660 -2.0068 -4.0085 -3.8463 -3.5213 -5.6397 -4.2586 -0.0018 -0.0173 0.0453 0.6069 -10.4500 -3.7563 -0.6283 -10.5279 3.8513 2.1538 9.2359 -6.2757 -3.5080 -17.9558 -37.1389 -0.5587 -1.5028 -49.8507 -13.5753 5.9772 6.3215 -15.2403 10.9765 16.3008 -60.1169 2.0419 1.6367 -1.1541 13.4879 12.0123 5.8908 -3.9062 22.7554 -1.0256 2.2567 101.9404 -6.9159 -2.4676 -13.1614 14.4490 7.7510 -16.8566 50.0185 -3.5648 -5.7128 19.1297 6.9621 12.6506 -0.1596 20.2518 -0.6367 -17.7311 -11.6735 -1.0555 1.6356 0.3765 -2.0037 -18.2571 14.7108 -16.6791 -0.0037 14.4168 0.3819 16.0238 -13.3647 -3.8649 -1.4053 0.3198 0.8021
0.3308 94.8785 3.1900 -0.4377 -16.2654 9.2612 0.2534 -7.4789 -0.0200 -0.2938 -8.2745 0.4813 -3.1496 16.1422 -1.8019 -10.6368 37.1499 10.0465 -2.0211 -4.0100 -3.4726 -3.7739 -5.3567 -3.8663 0.0142 -0.0218 0.0565 0.6227 -10.4577 -3.7545 -0.6103 -10.5364 3.8678 1.9500 9.1627 -6.4944 -3.6671 -17.0728 -36.8439 -0.9850 -1.7005 -50.1039 -14.2292 5.1204 6.2392 -15.2007 11.0066 16.3044 -60.1177 2.0121 1.6663 -0.4829 13.4342 11.5656 5.3672 -3.4275 22.2959 -0.9637 2.4356 101.3218 -7.0154 -2.0070 -13.2517 14.3258 7.7443 -16.8753 49.8255 -3.6240 -5.7032 19.1985 7.8911 12.4584 -0.1637 20.7124 -0.6318 -17.8190 -12.3899 -1.7165 1.6368 0.3412 -2.0067 -19.0599 15.9756 -17.4531 -0.0205 14.5932 0.3892 16.2019 -13.9085 -4.2365 -1.4049 0.3261 0.7830
0.4907 94.6317 3.9353 -0.1587 -16.9528 9.9347 0.1778 -7.8150 0.0084 -0.2925 -8.4695 0.4236 -3.1717 16.0946 -1.8493 -10.5364 37.2640 10.0265 -2.0037 -4.0162 -3.0959 -4.0363 -5.0581 -3.4737 0.0302 -0.0294 0.0704 0.6421 -10.4698 -3.7485 -0.5972 -10.5463 3.8860 1.6450 9.0768 -6.5990 -3.6821 -16.1847 -36.5004 -1.2863 -1.8956 -50.4565 -14.5202 4.5243 6.0986 -15.2195 11.0484 16.3194 -60.1815 1.9997 1.6943 -0.0361 13.3585 11.1631 5.1512 -2.9246 21.8060 -0.9569 2.5919 100.7898 -7.2685 -1.5859 -13.1754 14.1974 7.7443 -16.9014 49.6445 -3.6725 -5.6825 19.1675 8.7789 12.3430 -0.1713 21.1724 -0.6585 -17.8449 -13.1172 -2.2396 1.6412 0.3396 -1.9962 -19.9233 17.0772 -18.1567 -0.0300 14.7655 0.3896 16.4744 -14.3694 -4.4814 -1.4054 0.3356 0.7733
0.7043 94.3867 4.6759 0.1411 -17.5519 10.4634 0.1213 -8.1637 0.0345 -0.2607 -8.6528 0.3956 -3.2004 16.0115 -1.8561 -10.5742 37.2986 10.0333 -1.9748 -4.0206 -2.7511 -4.2711 -4.7490 -3.1108 0.0439 -0.0337 0.0782 0.6598 -10.4779 -3.7468 -0.5864 -10.5479 3.8965 1.2459 8.9564 -6.6003 -3.5907 -15.4149 -36.2196 -1.5262 -1.9950 -50.8146 -14.7129 4.2134 5.9264 -15.2309 11.0276 16.2866 -60.2049 1.9851 1.6845 0.2943 13.3254 10.7524 5.0124 -2.4867 21.3052 -0.8844 2.7644 100.4047 -7.7470 -1.4074 -12.9776 14.1272 7.7499 -16.9590 49.5055 -3.7077 -5.6739 19.0610 9.6338 12.2458 -0.1696 21.6112 -0.6602 -17.8325 -13.8309 -2.6204 1.6467 0.3292 -1.9917 -20.8313 18.0401 -18.8106 -0.0391 14.8982 0.3761 16.7931 -14.7348 -4.6661 -1.4074 0.3604 0.7520
0.9845 94.1470 5.3840 0.5048 -18.0628 10.7708 0.0771 -8.5032 0.0364 -0.2178 -8.8290 0.3846 -3.2161 15.8763 -1.7925 -10.7672 37.2509 10.0652 -1.9142 -4.0419 -2.4106 -4.5090 -4.3785 -2.7332 0.0576 -0.0370 0.0765 0.6821 -10.5090 -3.7570 -0.5810 -10.5646 3.8984 0.8100 8.8556 -6.5242 -3.4507 -14.8180 -35.8150 -1.7178 -2.0705 -51.2401 -14.7514 3.9988 5.7885 -15.2462 11.0176 16.2851 -60.2093 1.9908 1.7201 0.4969 13.2822 10.3598 4.9157 -2.1085 20.7877 -0.7625 2.8291 100.1709 -8.2695 -1.5281 -12.6377 14.1042 7.7337 -16.9559 49.3912 -3.7234 -5.6361 18.7980 10.4978 12.1519 -0.1565 22.0318 -0.6476 -17.7411 -14.5423 -2.7905 1.6496 0.3249 -1.9906 -21.7730 18.8618 -19.3375 -0.0463 15.0008 0.3642 17.1167 -15.0436 -4.8355 -1.4101 0.3921 0.7336
1.3130 93.9147 6.0375 0.9641 -18.5027 10.8770 0.0429 -8.8360 0.0477 -0.1704 -9.0038 0.3785 -3.2242 15.7193 -1.6980 -11.1745 37.1741 10.1481 -1.8190 -4.0705 -2.0653 -4.7728 -3.9089 -2.3175 0.0677 -0.0429 0.0693 0.6996 -10.5407 -3.7688 -0.5781 -10.5790 3.8933 0.3521 8.7611 -6.3674 -3.3144 -14.3365 -35.2762 -1.8485 -2.1030 -51.7470 -14.6221 3.8739 5.8042 -15.2688 11.0237 16.2710 -60.2830 2.0326 1.7233 0.5911 13.2206 9.9894 4.8499 -1.6565 20.2470 -0.6656 2.9149 100.1213 -8.9213 -1.8002 -12.2244 14.0918 7.7233 -16.9638 49.2875 -3.7610 -5.6141 18.3834 11.4145 12.1186 -0.1433 22.3592 -0.6306 -17.5985 -15.2150 -2.7861 1.6545 0.2804 -1.9969 -22.7701 19.5318 -19.7002 -0.0541 15.1233 0.3366 17.4662 -15.2862 -4.9787 -1.4144 0.3867 0.7141
1.6764 93.7348 6.6622 1.5013 -18.8372 10.7569 0.0126 -9.1567 0.0550 -0.1284 -9.1847 0.3737 -3.2168 15.5338 -1.5988 -11.7476 37.0891 10.2816 -1.7334 -4.0997 -1.7286 -5.0690 -3.4188 -1.8620 0.0758 -0.0523 0.0717 0.7161 -10.5690 -3.7723 -0.5780 -10.5922 3.8993 -0.0625 8.6607 -6.1197 -3.2950 -13.8151 -34.5772 -1.8105 -2.0691 -52.2452 -14.4740 3.8655 5.9209 -15.2930 11.0520 16.2274 -60.4279 2.0660 1.6985 0.6020 13.1326 9.6160 4.8661 -1.2243 19.6964 -0.5877 2.9998 100.2981 -9.6033 -2.1022 -11.8206 13.9940 7.7100 -16.9891 49.1619 -3.8323 -5.6187 17.8179 12.3638 12.1094 -0.1323 22.5283 -0.6215 -17.3980 -15.8297 -2.5919 1.6588 0.2450 -2.0021 -23.8035 20.0181 -19.9126 -0.0613 15.2577 0.3164 17.8215 -15.4504 -5.0663 -1.4171 0.3316 0.6933
2.0861 93.5733 7.2475 2.0771 -19.0434 10.4722 0.0072 -9.4652 0.0647 -0.0741 -9.3691 0.3853 -3.1958 15.3167 -1.5060 -12.4045 37.0480 10.4755 -1.6634 -4.1227 -1.4264 -5.3846 -2.9321 -1.3846 0.0819 -0.0609 0.0906 0.7299 -10.5958 -3.7601 -0.5799 -10.6067 3.9227 -0.3873 8.5640 -5.8333 -3.3975 -13.2561 -33.7613 -1.6952 -1.9526 -52.6713 -14.4378 3.8493 6.0380 -15.2668 11.0914 16.1949 -60.5049 2.0853 1.6525 0.5072 13.0145 9.1931 5.0338 -0.8579 19.0845 -0.5848 3.0349 100.7442 -10.2384 -2.3248 -11.4335 13.8762 7.6911 -17.0180 49.0262 -3.8947 -5.6284 17.1251 13.2680 12.0727 -0.1244 22.6429 -0.6226 -17.1639 -16.3900 -2.2339 1.6651 0.2278 -2.0164 -24.8352 20.2791 -20.0136 -0.0548 15.4618 0.3023 18.1866 -15.5238 -5.0769 -1.4217 0.2105 0.6602
2.4967 93.4405 7.8289 2.6238 -19.1317 10.0603 0.0251 -9.7410 0.0481 -0.0175 -9.5444 0.3575 -3.1222 15.0655 -1.4344 -13.1265 37.0472 10.6653 -1.6116 -4.1374 -1.1262 -5.6904 -2.4723 -0.8720 0.0915 -0.0685 0.1092 0.7463 -10.6175 -3.7458 -0.5775 -10.6180 3.9416 -0.5535 8.5388 -5.5103 -3.6677 -12.6078 -32.8041 -1.4851 -1.7940 -53.0763 -14.5345 3.8402 6.0634 -15.3296 11.1215 16.1780 -60.6634 2.1075 1.5963 0.3033 12.8249 8.7361 5.4225 -0.6308 18.3955 -0.5731 2.9405 101.4965 -10.8571 -2.5399 -10.9180 13.7957 7.6227 -17.0243 48.9277 -3.9483 -5.5905 16.3773 14.0617 11.9890 -0.1143 22.7695 -0.6172 -16.9310 -16.8857 -1.7373 1.6720 0.2164 -2.0446 -25.7773 20.3363 -20.0295 -0.0427 15.7294 0.3090 18.5522 -15.5565 -5.0027 -1.4224 0.0532 0.6327
2.9441 93.3165 8.3628 3.1183 -19.0849 9.5715 0.0503 -9.9626 0.0331 0.0321 -9.6801 0.2955 -3.0053 14.7457 -1.4070 -13.8314 37.0707 10.9254 -1.5664 -4.1562 -0.8356 -5.9953 -2.1033 -0.3709 0.0994 -0.0697 0.1241 0.7569 -10.6243 -3.7344 -0.5725 -10.6226 3.9567 -0.5247 8.5302 -5.2341 -4.0549 -12.0108 -31.5993 -1.3738 -1.6209 -53.5983 -14.6081 3.7304 5.9833 -15.3985 11.0907 16.1505 -60.6598 2.1027 1.5749 0.0424 12.6101 8.1888 5.9909 -0.6220 17.6326 -0.5200 2.8000 102.6219 -11.4991 -2.9961 -10.1835 13.6947 7.5189 -16.9521 48.7708 -3.9902 -5.5077 15.6220 14.6756 11.8475 -0.1195 23.0106 -0.6146 -16.7312 -17.3719 -1.1165 1.6788 0.2038 -2.0577 -26.6412 20.1309 -19.9768 -0.0370 16.1503 0.3314 18.9595 -15.5948 -4.7910 -1.4261 -0.1400 0.6289
3.3896 93.1945 8.8645 3.5231 -18.9178 9.0891 0.0771 -10.1257 0.0263 0.0807 -9.7648 0.1753 -2.8423 14.3782 -1.4373 -14.4575 37.1663 11.3030 -1.4906 -4.1789 -0.6203 -6.2329 -1.8031 0.1322 0.0944 -0.0582 0.1188 0.7578 -10.6088 -3.7378 -0.5833 -10.6019 3.9509 -0.1366 8.5549 -5.0174 -4.7055 -11.7438 -30.0823 -1.5320 -1.5176 -54.3217 -14.6402 3.3566 5.8959 -15.4092 11.0450 16.1065 -60.6099 2.1062 1.5419 -0.3194 12.5008 7.5508 6.7315 -0.6844 16.7160 -0.5824 2.6540 104.0722 -11.9206 -3.5678 -9.2959 13.7107 7.3756 -16.8432 48.6509 -4.0245 -5.4814 14.9041 14.9984 11.6289 -0.1244 23.5070 -0.6003 -16.5552 -17.9031 -0.4836 1.6854 0.1698 -2.0599 -27.3119 19.7361 -19.7810 -0.0417 16.7944 0.3478 19.3104 -15.7265 -4.5305 -1.4335 -0.3760 0.6471
3.8013 93.0383 9.4056 3.8892 -18.6313 8.6336 0.0445 -10.2461 0.0269 0.0672 -9.8332 0.0025 -2.5555 14.0562 -1.4793 -15.0732 37.5083 11.5788 -1.4009 -4.1094 -0.2723 -6.4843 -1.8585 0.4573 0.1175 -0.0322 0.1703 0.7942 -10.5864 -3.6918 -0.5743 -10.5915 3.9990 0.4688 8.7081 -4.7093 -5.2676 -11.4909 -28.5463 -1.8450 -1.2865 -55.1574 -14.7501 2.3408 5.7518 -15.4340 10.8804 16.0167 -60.6031 2.0703 1.4684 -0.6069 12.4247 6.8086 7.3790 -0.4041 15.5536 -0.9004 2.3183 105.9032 -12.1654 -4.4554 -8.4351 13.9240 7.2428 -16.6953 48.5726 -4.0744 -5.4396 14.1829 15.0454 11.3818 -0.1380 24.1868 -0.5982 -16.3530 -18.3854 0.1637 1.6893 0.0969 -2.0756 -27.7883 19.2087 -19.5218 -0.0465 17.4451 0.2893 19.5059 -15.7403 -4.5463 -1.4557 -0.5949 0.6246
4.2399 92.9089 9.9065 4.0171 -18.2610 8.2828 0.1154 -10.3497 0.0221 0.1104 -9.8432 -0.2113 -2.2811 13.7760 -1.6401 -15.5432 37.9833 12.2067 -1.3006 -4.1708 -0.1729 -6.5556 -1.3213 0.7886 0.0911 -0.0229 0.0936 0.7730 -10.5811 -3.7619 -0.6064 -10.5594 3.9279 1.1037 9.0150 -4.3567 -5.7891 -10.9590 -26.7514 -1.7223 -1.2278 -56.1366 -15.1971 2.1588 5.5318 -15.2672 10.9881 15.9130 -60.6790 2.1777 1.4994 -0.8827 12.6753 5.9367 8.0804 -0.3038 14.3915 -1.2316 2.3217 107.7305 -11.9631 -5.4772 -7.8667 13.7903 7.2281 -16.5962 48.8278 -3.9778 -5.4414 13.7025 14.8668 11.1493 -0.1024 25.0295 -0.5387 -16.1336 -19.0101 0.5259 1.6794 0.0514 -2.0670 -27.9021 18.9185 -18.9142 -0.0866 17.8685 0.3184 19.6335 -15.9943 -4.5124 -1.4482 -0.6239 0.6829
4.7302 92.8192 10.4563 4.2062 -17.8705 7.9178 0.1721 -10.4121 -0.0307 0.1771 -9.9130 -0.3531 -1.9933 13.7036 -1.7845 -16.1755 39.1670 12.7508 -1.2584 -4.1189 0.0444 -6.5324 -0.8167 0.7603 0.0935 -0.0028 0.1485 0.7801 -10.5830 -3.7099 -0.6106 -10.5518 3.9884 1.4666 9.5470 -3.6059 -5.7707 -10.1163 -25.3412 -1.3632 -1.0106 -57.1383 -15.4270 1.4807 5.0443 -15.1344 11.0974 15.8441 -60.8665 2.2425 1.4560 -1.2514 12.8475 5.0324 9.1236 0.4244 13.0254 -1.9790 2.1916 109.7504 -11.6853 -5.9824 -7.7306 13.8283 7.2410 -16.4994 49.1082 -3.9460 -5.4472 13.2772 14.6832 11.1731 -0.0953 25.7058 -0.5233 -15.8856 -19.3939 0.7402 1.6794 -0.1535 -2.1425 -28.1061 18.5597 -18.4715 -0.0879 18.2721 0.3538 19.7443 -15.9289 -4.6705 -1.4404 -0.7613 0.6887
5.2360 92.7851 10.9511 4.4396 -17.2220 7.5797 0.2218 -10.4732 -0.0553 0.2573 -9.9898 -0.4926 -1.7279 13.6571 -1.8877 -16.7843 40.9565 13.3200 -1.2787 -4.1270 0.0324 -6.4671 0.0516 0.4956 0.0932 0.0118 0.1942 0.7775 -10.6217 -3.6727 -0.6102 -10.5795 4.0458 1.5411 10.0775 -2.6219 -5.6524 -9.0317 -23.7150 -0.7214 -0.9452 -58.6669 -15.2811 0.5544 4.2663 -15.0799 11.1742 15.7860 -60.9974 2.2818 1.4076 -1.8289 12.9947 4.1451 10.7220 1.2046 11.7075 -2.8302 1.9046 111.8977 -11.5140 -5.8882 -7.7092 13.9616 7.1812 -16.3436 49.4468 -3.9124 -5.4288 12.7872 14.2014 11.3725 -0.0914 26.2840 -0.5184 -15.5671 -19.6261 0.8123 1.6766 -0.3713 -2.1949 -28.3769 17.9901 -18.0569 -0.0402 18.3960 0.4032 19.9084 -15.6162 -4.5722 -1.4310 -0.9305 0.7078
5.7241 92.8680 11.2429 4.6629 -16.0564 7.1942 0.2895 -10.3776 -0.0291 0.3124 -9.9810 -0.5942 -1.4788 13.4701 -1.9814 -17.3070 42.5877 13.5097 -1.3672 -4.1064 -0.1888 -6.2975 0.9384 0.0699 0.0716 0.0298 0.2219 0.7426 -10.6472 -3.6409 -0.6235 -10.5952 4.0829 1.3198 10.5191 -1.4380 -5.2164 -7.8828 -21.5950 0.0367 -0.9586 -60.9261 -14.6487 -0.9482 3.0741 -15.0756 11.2662 15.7497 -61.0751 2.3264 1.4280 -2.5806 12.9871 3.2866 12.5992 1.7611 10.5416 -3.5984 1.4795 114.2554 -11.6769 -5.7694 -7.3497 14.1921 7.0755 -16.1392 49.6921 -3.9024 -5.3646 12.2295 12.9955 11.7610 -0.0757 26.9020 -0.4891 -15.2809 -19.7022 0.7573 1.6699 -0.6794 -2.2205 -28.6134 16.6134 -17.7916 0.0420 18.4918 0.4985 20.2165 -15.1564 -4.0783 -1.4219 -1.1194 0.7500
6.1573 93.0275 11.1811 4.6767 -14.0481 6.9015 0.3078 -9.9940 0.0069 0.3104 -9.8109 -0.6203 -1.2269 13.0167 -2.1554 -17.5622 43.0141 12.8515 -1.4214 -4.0465 -0.4451 -6.0807 1.3026 -0.1843 0.0240 0.0515 0.2235 0.6865 -10.6417 -3.6245 -0.6654 -10.5815 4.0872 1.2667 10.8286 -0.1076 -4.4687 -6.9044 -18.6397 0.7118 -0.8455 -63.7479 -13.1847 -2.8204 1.3650 -15.0376 11.3545 15.6770 -60.9666 2.3506 1.4688 -3.2844 12.7302 2.3461 14.1659 2.3721 9.4926 -4.4212 1.1608 116.6453 -12.1041 -5.8727 -6.4197 14.3922 6.9778 -16.0143 49.7694 -3.9592 -5.3527 11.7070 10.3475 12.2660 -0.0575 27.9910 -0.4765 -15.1259 -19.8053 0.6169 1.6559 -1.0215 -2.1837 -28.4303 13.9582 -17.6856 0.1288 18.7244 0.6371 20.5699 -14.8096 -3.3898 -1.4113 -1.2327 0.7909
6.4380 93.4176 10.5564 4.2945 -11.0714 6.7823 0.2449 -9.0870 0.0497 0.1913 -9.3261 -0.5617 -0.9288 12.2717 -2.2829 -17.1670 41.1798 11.1714 -1.3656 -3.9484 -0.6792 -5.8468 0.3752 -0.1018 -0.0195 0.0619 0.1958 0.6416 -10.5663 -3.6233 -0.7092 -10.5146 4.0491 1.5943 11.1225 1.1035 -3.1756 -5.8615 -14.5338 1.3661 -0.3684 -67.0107 -10.7419 -4.7768 -0.7294 -14.9087 11.3610 15.5241 -60.5876 2.2780 1.5056 -3.7070 12.3433 1.2039 14.6856 2.8759 7.9706 -4.9163 0.9992 119.0449 -12.8058 -6.0873 -5.4492 14.5182 6.9069 -15.9594 49.7151 -4.0468 -5.3306 11.3550 5.7962 12.8427 -0.0895 29.7189 -0.4938 -15.0337 -19.5332 0.3442 1.6395 -1.5161 -2.0863 -27.4400 9.8489 -17.7290 0.1907 19.0854 0.7213 20.6867 -14.3957 -2.5564 -1.4108 -1.3968 0.8356
6.5116 94.0660 9.2952 3.5989 -7.4288 6.7024 0.0510 -7.4752 0.0347 0.0070 -8.4843 -0.2999 -0.7495 11.3921 -2.2217 -15.8576 37.3496 9.1178 -1.1872 -3.8809 -0.9614 -5.4175 -2.1682 0.1086 -0.0322 0.0560 0.1464 0.6381 -10.4713 -3.6430 -0.7294 -10.4211 3.9728 2.3624 11.6675 2.2649 -0.9632 -4.9814 -9.3336 1.6903 0.3616 -71.3111 -7.5688 -7.4098 -2.4691 -14.6768 11.2812 15.4143 -60.1165 2.0766 1.7022 -4.4596 12.0537 0.1146 14.6644 3.1812 5.1952 -5.0683 0.7604 121.5338 -13.7977 -6.1667 -4.3775 14.3475 6.9754 -16.0190 49.4772 -4.0300 -5.3286 11.0638 -0.1178 13.3586 -0.1683 31.5659 -0.5407 -15.0643 -18.2928 0.0014 1.6231 -2.2045 -1.9708 -25.7005 4.5770 -18.0778 0.2182 19.4886 0.7121 20.5151 -13.5019 -1.5197 -1.4188 -1.6657 0.8531
6.4031 94.9980 7.4054 2.7737 -3.5767 6.3672 -0.3134 -4.9920 0.0180 -0.2120 -7.3508 0.1762 -0.9245 10.6652 -1.9220 -13.9985 32.6900 7.5242 -0.9571 -3.8261 -1.2094 -4.7053 -5.9411 0.3307 -0.0272 0.0483 0.0879 0.6694 -10.3973 -3.6799 -0.7478 -10.3406 3.8879 3.6655 12.6249 3.4384 1.5477 -4.8618 -2.5873 1.9533 1.0692 -77.9887 -4.0594 -11.1047 -3.5064 -14.2357 11.2532 15.4778 -59.6927 1.8809 1.9210 -6.6818 12.0240 -0.4044 15.8602 3.5988 0.5719 -4.9462 0.4280 124.1478 -15.2167 -6.1943 -2.6379 13.8711 7.2138 -16.1379 49.1654 -3.8991 -5.2781 10.6782 -6.5587 13.7664 -0.2788 33.0420 -0.6679 -14.9544 -15.8020 -0.2297 1.6073 -3.1982 -1.8785 -23.3869 -1.3347 -18.5255 0.2138 19.9056 0.6326 20.0668 -11.8813 -0.3838 -1.4315 -2.0050 0.8455
6.0875 96.1764 5.0550 2.0465 -0.1673 5.5509 -0.9428 -1.7984 0.0108 -0.5198 -6.0339 0.8054 -1.6265 10.4745 -1.4907 -12.6783 28.5538 6.6973 -0.5724 -3.7622 -1.1405 -3.8329 -9.6951 0.6047 -0.0276 0.0554 0.0539 0.6919 -10.3853 -3.7143 -0.7700 -10.3218 3.8517 5.1972 13.8593 4.6388 3.2570 -6.5283 5.3159 2.1391 1.9120 -87.0579 -1.1806 -14.9676 -3.9619 -13.7691 11.2696 15.5889 -59.4753 1.8151 1.8454 -10.8340 12.4748 -0.2991 19.6801 4.3970 -4.7461 -4.2436 0.4506 125.7964 -16.7816 -6.0215 0.0465 13.4228 7.5495 -16.2906 49.0687 -3.7788 -5.1804 10.1702 -12.3553 14.2836 -0.3980 33.6596 -0.8629 -14.4418 -12.0515 -0.3018 1.6028 -4.3878 -1.8895 -20.8264 -6.8575 -18.5168 0.1668 20.1173 0.5406 19.1184 -9.3935 0.3321 -1.4325 -2.3810 0.8120
5.5666 97.4242 2.4368 1.4472 2.4779 4.2870 -1.8606 1.6099 -0.0355 -0.9441 -4.7175 1.3041 -2.9260 11.1386 -1.0751 -12.6392 25.7019 6.6454 -0.1066 -3.7181 -0.5228 -2.9687 -12.3116 1.0496 -0.0310 0.0774 0.0318 0.6800 -10.4360 -3.7606 -0.7643 -10.3709 3.8488 6.0860 14.8610 5.8076 3.8348 -10.4386 13.0343 2.1414 2.6457 -97.2387 -0.1705 -18.6507 -3.7645 -13.3805 11.3194 15.6817 -59.3831 1.9101 1.5593 -15.1210 13.4929 -0.1328 24.4050 4.8465 -8.1723 -3.3154 0.5159 125.3810 -17.9533 -4.6185 2.9389 13.3313 7.8286 -16.4288 49.3425 -3.7036 -5.2242 9.6796 -16.7254 15.2750 -0.5007 32.8796 -1.0628 -13.8056 -7.8242 -0.3760 1.6139 -5.0576 -1.9805 -18.3995 -11.5199 -17.9056 0.1552 20.0806 0.5053 18.0192 -6.1485 0.6594 -1.4224 -2.6076 0.7871
4.9806 98.5836 -0.3108 0.5002 4.7295 2.6830 -2.7543 4.7942 -0.0467 -1.3542 -3.7228 1.4646 -4.4811 12.7666 -0.8057 -13.8845 23.6706 7.1151 0.2126 -3.6413 0.5505 -2.2787 -13.8861 1.7177 -0.0587 0.0998 0.0520 0.6442 -10.5387 -3.7657 -0.7831 -10.4897 3.8971 5.3543 15.4932 6.4998 3.5478 -15.4481 19.2043 2.4782 2.9848 -107.0985 -0.6242 -22.7003 -3.2493 -13.1393 11.3195 15.9140 -59.2856 1.8890 1.3936 -17.1101 14.4665 0.1714 26.6485 3.7312 -9.7033 -3.0692 0.1884 124.1997 -18.3926 -2.3286 5.0531 13.5459 7.9323 -16.5741 49.5357 -3.7515 -5.3822 9.5986 -20.2768 16.6368 -0.5275 31.2193 -1.0982 -13.3540 -4.2910 -0.4231 1.6175 -4.9452 -2.0508 -15.8786 -16.0217 -16.9893 0.2256 20.5490 0.5716 17.7166 -2.4806 1.1872 -1.4238 -2.8032 0.8018
4.5508 99.4166 -3.1755 -1.1610 6.9438 1.1068 -3.3337 7.4353 0.0827 -1.6317 -2.7663 1.5100 -5.9886 15.1866 -1.0649 -16.1974 21.6677 8.1408 0.3809 -3.5867 1.6492 -1.7412 -14.6720 2.3998 -0.1229 0.1214 0.0401 0.5862 -10.5540 -3.7745 -0.8554 -10.5384 3.9022 3.0233 15.6292 5.8769 3.0915 -20.2497 22.8426 2.4150 3.0663 -114.9871 -1.6588 -26.2244 -2.3840 -12.9995 11.2311 16.0640 -58.9695 1.9797 1.2653 -16.3100 15.6450 1.3359 25.6896 -0.6738 -11.7008 -2.7509 -0.2967 123.7916 -18.7551 -0.2436 6.3036 13.8739 7.9016 -16.6889 49.7251 -3.6477 -5.6715 10.1877 -23.8874 17.7108 -0.5066 29.4219 -1.0261 -12.6069 -1.8513 -0.5139 1.5921 -4.4717 -2.0022 -12.8428 -21.0601 -16.4670 0.2627 22.3365 0.8244 18.5359 1.4110 2.8360 -1.4004 -3.1140 0.8773
4.2149 99.8492 -5.7535 -2.8971 9.1075 0.5964 -3.6852 9.5436 0.2554 -1.7739 -1.8728 1.4010 -7.3598 18.0396 -1.5395 -18.7407 20.0597 8.5466 0.5806 -3.5206 2.4463 -1.2779 -15.3913 3.0587 -0.2305 0.1332 0.0704 0.4901 -10.4507 -3.7036 -0.9784 -10.4515 3.9316 0.6754 15.5127 3.3786 3.1403 -23.3939 22.6194 1.5923 2.9595 -118.6301 -2.3564 -26.9770 -0.1900 -12.9643 11.2175 16.2856 -58.6247 2.0598 1.2685 -13.9627 16.4913 3.3849 23.4234 -6.4178 -14.3624 -2.8409 -0.8490 124.1224 -19.4402 2.3280 6.3141 13.9210 7.7397 -16.6067 49.6382 -3.5801 -5.9101 10.9027 -27.4997 17.7403 -0.4212 27.7287 -0.8794 -11.8280 -0.6818 -0.8362 1.6267 -3.2127 -1.9780 -9.7318 -26.0836 -16.6268 0.2469 24.7844 0.8925 19.8506 3.5269 3.7492 -1.4040 -2.8749 1.0120
3.8407 99.9276 -7.9172 -4.2269 11.4192 1.5732 -3.8440 11.1455 0.3275 -1.8965 -0.9217 1.4154 -8.4394 20.9980 -2.2918 -20.2248 19.4063 7.9784 0.6519 -3.5668 3.2714 -0.8413 -15.5115 3.5130 -0.3267 0.1262 0.1243 0.3798 -10.4144 -3.6189 -1.0595 -10.3843 3.9873 -0.1616 15.1725 0.2500 4.3728 -24.5908 17.5631 0.2760 3.3420 -117.0620 -1.9973 -24.5936 2.3650 -13.4942 11.3050 16.3425 -58.7066 2.0389 1.1803 -11.3931 16.7100 5.9317 21.6478 -13.3360 -17.8716 -2.5348 -0.7653 124.1505 -20.4246 3.1234 5.5162 14.0948 7.7835 -16.7093 49.6108 -3.5955 -6.1947 11.3289 -30.9847 16.6542 -0.4848 25.8440 -0.8543 -10.9303 0.1922 -1.2051 1.5961 -2.2661 -2.0384 -6.7902 -30.3756 -17.8888 0.2926 26.0610 1.0332 19.5942 4.4146 3.1940 -1.3902 -2.2219 0.9339
3.4506 99.9205 -9.6068 -4.3957 13.3492 4.1195 -3.9881 12.5923 0.3835 -1.9531 0.1297 1.3951 -9.2795 23.9882 -3.2270 -20.7982 20.5226 6.5973 0.5666 -3.5027 4.1352 -0.0054 -15.4452 3.5972 -0.4039 0.1257 0.1265 0.2441 -10.2527 -3.5768 -1.0744 -10.1794 3.9722 0.5196 14.8069 -2.6143 7.3946 -23.8177 7.6434 -0.7081 3.8355 -110.6560 -0.7361 -18.8049 4.5710 -14.1953 11.3384 16.3247 -59.0388 1.9167 1.1357 -9.6811 16.7214 8.6415 20.8928 -19.2267 -21.3518 -2.3292 -1.0037 122.5721 -21.2598 4.1422 3.9082 14.2268 7.7369 -16.5107 49.7382 -3.4447 -6.1878 10.9208 -33.6150 14.7255 -0.4277 23.8890 -0.7035 -10.0999 1.0693 -2.0535 1.6130 -0.7201 -1.9814 -5.1247 -32.8854 -19.3668 0.2430 24.8506 1.0354 18.7532 5.0489 2.0006 -1.4146 -1.7587 1.0260
2.8821 99.6131 -10.8991 -3.6396 14.8257 7.3896 -4.1364 13.7562 0.3061 -2.0878 1.1689 1.4094 -9.7855 26.9107 -3.7107 -19.6748 24.1546 4.7721 0.0200 -3.5488 5.0709 1.7313 -14.4285 3.7318 -0.4757 0.0881 0.1355 0.0917 -10.2494 -3.4996 -1.0604 -10.1174 3.9391 2.5496 14.3248 -4.2092 11.1027 -21.0611 -5.7444 -0.8079 4.0159 -100.8616 1.5516 -11.9012 6.8099 -15.1283 11.1991 15.9877 -59.4791 1.9001 1.0976 -8.9501 16.6454 11.2057 20.6439 -24.2119 -24.2290 -1.3759 -0.5223 118.3898 -22.3640 3.9462 1.7303 14.4799 7.7813 -16.3326 49.8522 -3.3432 -6.1940 9.8556 -35.0426 12.7246 -0.4368 21.4247 -0.5948 -9.3114 2.2313 -2.6961 1.5716 -0.1079 -2.0505 -5.0154 -33.4829 -19.7885 0.2222 21.3328 1.0688 17.2196 6.1902 0.6036 -1.3967 -1.8103 0.9269
2.2390 99.1856 -11.9058 -2.2897 15.5465 11.1042 -4.0795 14.9708 0.2476 -2.1401 2.0342 1.5943 -10.0392 29.6608 -4.0445 -16.9764 30.2988 3.0244 -0.9401 -3.6464 5.8246 3.9523 -13.4390 4.4060 -0.4806 0.0230 0.1127 -0.0169 -10.2154 -3.4271 -0.9504 -10.0727 3.8243 5.4620 13.9309 -4.4048 13.9858 -17.4788 -20.4893 0.4594 3.4632 -89.6991 4.8663 -4.3521 9.2938 -15.8442 11.1608 15.9013 -60.1519 1.7935 1.0136 -9.0642 16.8597 14.0107 20.4928 -27.5077 -26.4045 -0.3216 -0.4243 112.2145 -23.9169 3.9117 -1.0655 14.6898 7.8455 -16.1004 49.9437 -3.2746 -5.9919 8.6121 -35.8007 10.5194 -0.3601 19.6013 -0.4451 -8.7518 3.3856 -3.3637 1.5590 0.4458 -2.1385 -6.1103 -33.0730 -19.0927 0.1408 18.7195 0.9031 15.2144 6.4058 -2.0402 -1.3967 -1.9807 0.9140
1.5118 98.7776 -12.7767 -0.9719 16.1061 14.2523 -3.8466 16.0997 0.2470 -2.0567 2.7331 1.7209 -10.1587 31.8828 -4.1134 -13.5184 36.5713 2.0060 -2.1632 -3.6835 6.0602 5.2397 -13.1574 5.1890 -0.4199 -0.0358 0.0871 -0.0592 -10.3243 -3.4600 -0.7827 -10.2322 3.7908 8.1738 13.2040 -3.3220 15.1738 -16.0912 -34.0791 1.4915 2.4248 -80.6267 9.4807 0.9736 11.2524 -16.2751 11.1814 15.8945 -60.7401 1.7865 1.0521 -9.8550 16.8282 16.5172 19.2157 -29.1475 -26.6223 0.3976 0.1316 105.2377 -24.4536 2.0977 -2.0894 14.7779 7.7436 -15.9274 49.7468 -3.3148 -5.6804 7.6812 -36.5283 8.4153 -0.3306 18.2418 -0.4168 -8.6922 4.3349 -4.0606 1.5550 0.6438 -2.1555 -6.8794 -33.3151 -19.0939 0.0574 18.4136 0.8459 13.7290 4.5262 -5.0038 -1.4131 -1.3032 0.9922
0.8177 98.4945 -13.4927 0.1141 16.7692 16.6214 -3.4682 16.9983 0.2764 -1.9187 3.3049 1.9018 -10.0383 33.7735 -3.9651 -9.9943 42.2079 1.5933 -3.1360 -3.7474 5.6809 6.0040 -13.0741 5.8908 -0.3344 -0.0983 0.0647 -0.0350 -10.4583 -3.5139 -0.6286 -10.4196 3.7684 10.2594 12.2880 -1.6135 14.2516 -18.1037 -45.2168 1.9568 1.2737 -75.8617 15.8139 3.3427 11.9496 -16.2016 11.3919 16.1341 -60.9875 1.7975 1.1945 -10.9260 16.7840 18.6250 16.8167 -30.2698 -24.9774 0.7069 0.6064 98.5760 -24.3615 -0.6809 -1.0648 14.9220 7.6944 -15.8554 49.5182 -3.4028 -5.3561 6.9266 -37.3633 6.9946 -0.3240 16.9354 -0.4252 -9.0447 5.2971 -4.7398 1.5477 0.6115 -2.1136 -7.2461 -34.5260 -19.5092 0.0533 19.3746 0.8200 12.8695 2.9871 -7.1325 -1.4131 -0.7922 1.1007
0.1063 98.2705 -14.0597 1.2218 17.4195 18.3817 -3.1430 17.7006 0.3144 -1.7239 3.6989 2.0239 -9.6788 35.1376 -3.6051 -6.4089 46.8395 1.8208 -3.6900 -3.8200 4.9983 6.3694 -13.1196 6.2387 -0.2343 -0.1310 0.0611 0.0297 -10.4620 -3.5312 -0.4882 -10.4742 3.7408 11.4183 11.6577 0.1282 12.4365 -20.5011 -52.7902 1.8952 0.3424 -74.5891 20.9916 4.4365 11.0676 -15.7921 11.5270 16.3364 -60.8384 1.8574 1.2276 -11.9108 16.7036 20.3397 13.9203 -30.8632 -22.5419 0.7900 0.9504 93.2912 -24.2635 -2.3472 0.2262 14.9750 7.7843 -15.9185 49.4420 -3.5395 -5.2413 5.9802 -37.9728 6.3504 -0.3379 15.4389 -0.4745 -9.6898 6.2341 -5.3346 1.5412 0.5401 -2.0574 -7.4838 -36.1819 -20.2188 0.0728 20.7283 0.7916 12.3070 1.6828 -8.4550 -1.4144 -0.3713 1.1709
-0.6374 98.0288 -14.5191 2.3062 17.9776 19.9816 -2.7003 18.1597 0.2805 -1.5016 4.0275 2.0941 -8.9503 36.0141 -3.1063 -2.5451 50.2053 2.7697 -3.7382 -3.9077 4.1882 6.6526 -13.0804 6.0752 -0.1596 -0.1681 0.0686 0.0823 -10.4984 -3.5472 -0.3889 -10.5351 3.7441 11.4608 11.5214 1.4989 10.5830 -20.8354 -56.8510 1.6771 0.0492 -74.6970 23.2366 5.8604 10.0629 -15.5446 11.5415 16.5039 -60.8297 1.9165 1.1894 -12.5984 16.5826 21.6824 11.1452 -31.2651 -19.9113 0.7279 1.1251 89.6491 -24.2665 -2.8380 1.1474 15.0526 7.9726 -16.1344 49.6443 -3.5116 -5.2766 5.0658 -38.3925 5.8698 -0.2908 13.9025 -0.4641 -10.3313 7.1825 -5.8310 1.5423 0.4150 -2.0213 -7.6139 -37.9151 -21.0726 0.0664 22.3170 0.7805 11.8362 0.3832 -9.4019 -1.4074 0.0165 1.2361
-1.4442 97.8656 -14.9357 3.1959 18.3344 20.9515 -2.1640 18.5275 0.3476 -1.2430 4.1866 2.1729 -7.7693 36.4392 -2.2752 1.3283 52.1787 3.8529 -3.4673 -3.9929 3.4795 6.7662 -13.0193 5.4645 -0.1283 -0.1980 0.0671 0.1266 -10.5083 -3.5782 -0.3669 -10.5702 3.7597 10.7492 11.8053 2.3935 8.4898 -18.9831 -58.3555 1.8127 0.0621 -74.6648 23.7846 7.1310 9.3381 -15.4261 11.5052 16.5873 -60.9052 1.9015 1.1604 -12.9124 16.5806 22.6025 8.8216 -31.9316 -17.4557 0.6465 1.0626 87.6901 -23.8065 -2.6647 2.0983 15.1179 8.0610 -16.3119 49.6853 -3.5775 -5.3793 4.5050 -38.5343 5.5434 -0.2731 12.4581 -0.4771 -11.1308 8.0700 -6.0917 1.5456 0.1937 -1.9963 -7.6691 -39.8453 -21.6940 0.1108 24.4898 0.7708 11.3472 -0.6005 -9.8231 -1.4140 0.0996 1.2215
-2.2353 97.7123 -15.2301 3.9007 18.3502 21.4575 -1.5655 18.8130 0.4490 -1.0043 4.2092 2.1979 -6.2039 36.5580 -1.2582 5.1404 52.6541 5.1160 -2.9882 -4.1023 2.6640 6.8398 -12.8683 4.3921 -0.1060 -0.2178 0.0680 0.1849 -10.5363 -3.6184 -0.3798 -10.6288 3.7923 9.5903 12.3723 2.8012 6.3332 -16.8335 -58.4563 1.8916 0.2032 -73.7321 23.4553 8.4190 9.1191 -15.4052 11.4415 16.4799 -61.1305 1.9565 1.0226 -12.9139 16.5981 23.2150 7.0610 -32.5501 -15.1305 0.4871 1.0502 87.3077 -22.7606 -1.9069 2.9898 15.2704 7.9702 -16.3981 49.6342 -3.6500 -5.5255 4.0838 -38.4759 5.5227 -0.2572 11.6200 -0.4780 -11.8666 8.6138 -6.2736 1.5402 -0.0159 -1.9361 -7.9162 -41.3131 -21.8448 0.1879 26.5020 0.7637 11.1069 -1.4081 -9.9265 -1.4217 0.0579 1.2061
-2.9301 97.5003 -15.4300 4.4503 18.0315 21.4380 -0.9879 18.9163 0.5272 -0.7642 4.1874 2.2234 -4.5973 36.4242 -0.2735 8.2853 51.9073 6.1407 -2.4833 -4.1988 1.9176 6.7534 -12.6292 3.0534 -0.1066 -0.2262 0.0617 0.2197 -10.5479 -3.6604 -0.4182 -10.6843 3.8226 8.2986 13.1217 2.6538 4.3067 -15.6303 -57.8706 1.9641 0.2842 -72.3748 23.0491 9.4049 8.9512 -15.3696 11.4643 16.3708 -61.3101 2.0953 0.8790 -12.6125 16.5034 23.6881 5.5529 -32.6840 -12.8090 0.2196 1.0229 87.7355 -21.2674 -0.2142 3.4711 15.4186 7.7735 -16.3238 49.4863 -3.7098 -5.6377 3.8010 -38.4105 5.8324 -0.2684 11.8437 -0.4895 -12.4404 8.6221 -6.2858 1.5348 -0.1283 -1.9186 -8.4159 -42.3554 -21.5048 0.2875 28.3760 0.7951 11.0619 -2.1855 -9.7009 -1.4262 0.0237 1.1951
-3.5604 97.1319 -15.5392 4.9439 17.3742 20.8871 -0.4765 18.8545 0.5460 -0.4700 4.1143 2.2260 -3.1940 36.0883 0.5502 10.0904 50.7297 6.3363 -2.0177 -4.2364 1.3862 6.5134 -12.4778 1.7720 -0.0796 -0.2273 0.0696 0.2711 -10.5534 -3.6922 -0.4147 -10.7245 3.8587 6.9808 13.8826 2.1222 2.4962 -15.5889 -56.8392 1.7287 0.1998 -71.5872 22.8546 9.5445 8.0876 -15.3017 11.4639 16.3691 -61.2101 2.1789 0.8954 -12.1092 16.3433 24.1616 4.2035 -32.7563 -10.5867 0.0526 0.8903 88.4720 -19.5765 1.9101 3.8608 15.4918 7.5901 -16.2895 49.4118 -3.7288 -5.6610 3.5001 -38.5597 6.5151 -0.3103 13.5268 -0.5093 -12.8423 7.9824 -6.2132 1.5352 -0.1416 -1.9084 -9.2958 -43.1973 -20.5493 0.3701 30.4220 0.8017 11.1667 -3.1306 -9.1862 -1.4288 0.0757 1.1907
-4.0828 96.6124 -15.5813 5.4157 16.3511 19.8527 0.0327 18.7205 0.5751 -0.1549 3.9600 2.1802 -1.9552 35.6715 1.2065 10.7880 49.6248 5.8608 -1.6291 -4.2283 0.9440 6.2708 -12.3398 0.6783 -0.0420 -0.2196 0.0797 0.3122 -10.5242 -3.7096 -0.3814 -10.6961 3.8811 5.6585 14.6071 1.3973 1.0162 -15.4944 -55.3872 1.5784 0.2020 -71.3172 22.4164 8.8492 6.9940 -15.2432 11.4483 16.3841 -61.0616 2.1682 0.9753 -11.6233 16.2297 24.4794 3.0065 -33.0936 -8.3841 0.0105 0.6972 89.5342 -17.8831 4.0753 4.1678 15.5826 7.5143 -16.3634 49.5265 -3.7033 -5.7162 3.1553 -38.8749 7.6194 -0.3795 16.5983 -0.5260 -13.0849 6.7430 -6.1108 1.5401 -0.1667 -1.9046 -10.6028 -43.8271 -18.9237 0.4298 32.8033 0.7830 11.3159 -4.3066 -8.5253 -1.4295 0.1564 1.1985
-4.4873 96.0497 -15.5000 5.8008 15.0162 18.3982 0.6252 18.5290 0.5671 0.0728 3.7736 2.1508 -0.7344 35.3320 1.7375 10.7202 48.6866 4.8944 -1.3469 -4.2054 0.5529 5.9588 -12.0330 -0.1985 -0.0324 -0.2118 0.0822 0.3218 -10.4734 -3.7181 -0.3747 -10.6279 3.8897 4.1918 15.3155 0.5958 0.0602 -14.8703 -53.7133 1.7627 0.3953 -70.9413 21.6399 7.7353 6.2438 -15.1997 11.4892 16.3424 -60.9358 2.0695 1.0004 -11.2670 16.1644 24.4933 1.7999 -33.6517 -5.9516 -0.0374 0.7335 90.7087 -16.2492 5.6509 4.4573 15.7584 7.5059 -16.5006 49.7769 -3.6911 -5.8610 2.9471 -38.8976 8.9487 -0.4305 20.0902 -0.5367 -13.1967 5.2762 -5.9650 1.5477 -0.2576 -1.9182 -12.1080 -44.0297 -16.8155 0.4680 35.2230 0.7444 11.3160 -5.4804 -7.9495 -1.4262 0.2423 1.1916
-4.7145 95.7141 -15.2089 6.1554 13.5621 16.5960 1.2470 18.2483 0.5215 0.2463 3.5381 2.0575 0.4734 35.1008 2.1198 10.2249 47.9536 3.7822 -1.1240 -4.1505 0.1227 5.5758 -11.4811 -0.8838 -0.0657 -0.2019 0.0744 0.2933 -10.4173 -3.7228 -0.4168 -10.5613 3.8902 2.5947 16.1196 -0.2347 -0.5352 -14.1911 -51.9848 2.1466 0.6080 -69.9907 20.6742 6.4448 5.8856 -15.2823 11.5270 16.2220 -60.9068 1.9885 0.9893 -11.1279 16.1636 24.2045 0.4781 -33.9571 -3.0839 -0.2700 0.8236 91.6712 -14.4708 6.6674 4.8233 15.8925 7.5289 -16.6098 50.0533 -3.6728 -5.9791 2.8948 -38.0995 10.2395 -0.4659 22.7341 -0.5638 -13.1027 4.0375 -5.4390 1.5527 -0.3879 -1.9435 -13.6157 -43.5703 -14.4711 0.5096 36.9430 0.7247 11.2688 -6.3833 -7.4007 -1.4166 0.3085 1.1650
-4.8953 95.6510 -14.7001 6.5288 12.1956 14.6666 1.8346 17.8813 0.4426 0.4258 3.2771 1.8486 1.6176 34.7831 2.3639 10.1336 47.3979 2.9745 -0.9995 -4.0741 -0.2714 5.0379 -10.8474 -1.5350 -0.1184 -0.1887 0.0666 0.2447 -10.3375 -3.7130 -0.4774 -10.4834 3.8862 1.2695 16.9692 -0.9394 -1.1346 -13.5587 -50.3975 2.4890 0.7712 -68.6505 19.5354 4.7709 5.5435 -15.3653 11.4473 16.0935 -60.6600 1.8831 1.0783 -11.0378 16.1514 23.8481 -0.8340 -33.8756 0.0203 -0.3459 0.8698 92.3254 -12.5544 7.2609 5.2507 15.9069 7.5801 -16.6506 50.2054 -3.6111 -5.9971 2.9704 -36.4390 11.1927 -0.4585 23.9939 -0.5655 -12.8134 3.2667 -4.4100 1.5573 -0.5080 -1.9591 -14.9240 -42.5195 -12.2320 0.5451 37.7268 0.7317 11.2433 -6.9271 -6.9286 -1.4104 0.3742 1.1443
-5.0595 95.8089 -13.9945 6.8965 10.9423 12.8805 2.3793 17.4890 0.2741 0.5894 3.0036 1.6274 2.7594 34.2921 2.4952 10.8640 46.8848 2.5814 -0.8965 -4.0169 -0.5674 4.3135 -10.4224 -2.2628 -0.1481 -0.1781 0.0718 0.2096 -10.2447 -3.6846 -0.5013 -10.3948 3.8808 0.4349 17.8152 -1.3655 -1.4119 -12.5272 -48.9324 2.6526 1.0164 -67.5681 17.6277 3.0559 5.2041 -15.4584 11.2850 15.9510 -60.4178 1.7344 1.1885 -10.9120 16.0344 23.3376 -1.9918 -33.5202 3.2248 -0.1784 0.8417 92.7480 -10.4931 7.6275 5.7030 15.8783 7.6161 -16.6262 50.1926 -3.5575 -5.9781 3.1081 -34.2076 11.8738 -0.4406 24.1667 -0.5596 -12.3820 2.8706 -3.1369 1.5687 -0.6576 -1.9546 -15.8922 -41.0354 -10.5252 0.5532 37.7430 0.7348 11.2490 -7.2254 -6.5074 -1.4072 0.3891 1.1067
-5.2134 96.0791 -13.1103 7.2432 9.7631 11.4275 2.8684 17.0262 -0.0180 0.6824 2.7540 1.5189 4.1057 33.6504 2.5206 12.1967 46.1576 2.3217 -0.9573 -3.9704 -0.8874 3.4955 -10.2685 -3.0842 -0.1056 -0.1634 0.0958 0.2249 -10.1565 -3.6474 -0.4274 -10.3082 3.8781 0.0585 18.6171 -1.5319 -1.1112 -11.2410 -47.3979 2.6227 1.2682 -67.1698 14.6753 2.1032 4.9591 -15.4940 11.2879 15.9272 -60.3858 1.7172 1.2561 -10.9447 15.6990 22.5240 -2.7876 -32.7621 6.2734 -0.0408 0.5814 93.0979 -8.2100 8.0338 6.2079 15.8105 7.5944 -16.4654 50.1489 -3.5443 -5.9034 3.3306 -31.6921 12.2127 -0.3748 23.6494 -0.5210 -11.9996 2.9028 -1.7280 1.6086 -0.7996 -1.9336 -16.5393 -39.2684 -9.4549 0.5052 37.3319 0.6718 11.2975 -7.5305 -6.0923 -1.4087 0.3533 1.1076
-5.4085 96.3912 -12.1485 7.5453 8.6676 10.2693 3.3798 16.4905 -0.1928 0.8166 2.4633 1.2051 5.2715 32.8535 2.5487 13.7829 45.4219 2.0092 -0.9923 -3.9404 -1.1400 2.8171 -10.4154 -3.8422 -0.0732 -0.1409 0.1149 0.2438 -10.0763 -3.6140 -0.3798 -10.2043 3.8738 0.0866 19.3308 -1.5421 -0.4525 -10.3482 -45.6825 2.6679 1.5162 -67.5450 11.5399 2.1401 5.0688 -15.5944 11.3068 15.8457 -60.4175 1.6971 1.3034 -10.8234 15.4995 21.6857 -3.4009 -31.9823 8.8483 0.1083 0.6295 93.1401 -6.5616 8.4227 6.6330 15.8212 7.6260 -16.4418 50.2453 -3.4528 -5.8689 3.5520 -29.3327 12.6260 -0.3709 23.0886 -0.5184 -11.7329 3.1883 -0.8707 1.6222 -1.1300 -1.9336 -16.9552 -37.3450 -8.7007 0.4397 36.7424 0.5970 11.3667 -7.8077 -5.8905 -1.4091 0.3564 1.0715
-5.6413 96.7164 -11.1172 7.7709 7.5260 9.3368 3.8349 15.9184 -0.3434 0.9511 2.1566 0.8983 6.2725 31.9841 2.4947 15.0982 44.5864 1.4177 -1.1028 -3.9143 -1.4293 2.2528 -10.7901 -4.4875 -0.0440 -0.1197 0.1253 0.2723 -10.0128 -3.5845 -0.3487 -10.1211 3.8555 0.4325 19.8676 -1.3600 0.5069 -10.6077 -43.9454 2.6848 1.6796 -68.1618 8.8328 2.5653 5.3760 -15.7198 11.3424 15.7725 -60.4870 1.6873 1.3941 -10.7205 15.2710 20.9102 -3.5650 -31.2691 10.8738 0.2173 0.7942 92.8907 -5.4820 8.8113 7.0761 15.8652 7.6533 -16.3666 50.3966 -3.3540 -5.7696 3.8687 -27.1376 13.1607 -0.3885 22.7604 -0.5352 -11.6729 3.6500 -0.2951 1.6371 -1.4928 -1.9497 -17.1902 -35.1863 -8.1469 0.3740 36.0577 0.4924 11.4147 -8.1244 -5.7446 -1.4045 0.2785 1.0398
-5.9657 97.0176 -10.0278 7.8087 6.3127 8.5329 4.2569 15.3531 -0.4378 1.0625 1.8454 0.5654 7.0773 30.9898 2.4193 15.7971 43.6062 0.5012 -1.2356 -3.8676 -1.6878 1.9660 -11.3929 -5.0647 -0.0479 -0.1004 0.1317 0.2899 -10.0098 -3.5602 -0.3740 -10.0951 3.8463 1.1412 20.1354 -1.0060 1.5575 -12.6694 -42.4262 2.5494 1.6247 -68.5588 6.8893 3.2225 5.8924 -15.8971 11.3684 15.7144 -60.5876 1.7052 1.5371 -10.6980 14.9917 20.1748 -2.9695 -30.6563 12.4073 0.1375 1.1029 92.2854 -4.9236 9.0170 7.4762 15.9629 7.6523 -16.3108 50.5376 -3.2507 -5.6689 4.4487 -25.3385 13.9357 -0.3995 23.0068 -0.5649 -11.9414 4.3495 -0.1701 1.6588 -1.9910 -2.0008 -17.1482 -32.7761 -7.7130 0.3086 35.3383 0.3985 11.3718 -8.4987 -5.6998 -1.3996 0.1541 1.0275
-6.4279 97.2940 -8.8959 7.6365 5.0130 7.8313 4.5953 14.8513 -0.5169 1.1200 1.5366 0.2992 7.6723 29.8631 2.2746 15.7869 42.4387 -0.6301 -1.3175 -3.8040 -1.9320 1.7769 -12.3391 -5.5369 -0.0532 -0.0911 0.1386 0.3001 -10.0292 -3.5393 -0.3931 -10.1067 3.8374 2.2745 20.0187 -0.4794 2.5459 -17.0518 -41.5285 2.0150 1.4218 -68.3580 6.0772 3.8213 6.7124 -16.1917 11.2184 15.5874 -60.5472 1.6651 1.6832 -10.6602 14.6742 19.5269 -1.6554 -30.0751 13.4137 -0.2497 1.3877 91.2916 -4.7982 9.2550 7.9556 15.9551 7.6231 -16.2448 50.6088 -3.2003 -5.5044 5.4281 -24.2622 14.8997 -0.4447 24.3692 -0.6660 -12.3934 5.4707 -0.4881 1.6880 -2.7729 -2.0628 -16.7629 -30.0476 -7.4584 0.2603 34.4260 0.3201 11.2353 -8.9070 -5.6843 -1.3929 0.0618 1.0431
-6.9699 97.6295 -7.6747 7.2569 3.5753 7.2326 4.7417 14.6077 -0.4803 1.0988 1.2016 0.0430 8.0183 28.5848 2.0721 15.1678 41.1246 -1.6150 -1.1684 -3.8072 -2.2594 1.6349 -13.7726 -5.9097 -0.0151 -0.1007 0.1338 0.3783 -10.0877 -3.5538 -0.3932 -10.1673 3.8285 3.8916 19.4462 0.1684 3.6256 -23.1185 -41.5734 1.2712 1.1085 -67.4929 6.2331 4.3911 7.5732 -16.4868 10.9665 15.4087 -60.5019 1.6477 1.8162 -10.4231 14.3622 18.8784 0.0673 -29.9624 13.9247 -0.1121 1.3922 90.1805 -5.4113 9.8911 8.1687 15.8398 7.5964 -16.1281 50.4972 -3.1785 -5.3893 6.8958 -24.2962 15.6930 -0.5144 27.5691 -0.8014 -12.7313 7.1834 -1.1625 1.7465 -4.0148 -2.1383 -16.0175 -27.0593 -7.4083 0.2035 33.4862 0.2804 11.1199 -9.3333 -5.6857 -1.3907 0.0225 1.0668
-7.6309 97.9125 -6.5183 6.6606 2.0702 6.6051 4.6550 14.5453 -0.4455 1.0318 0.9455 -0.1553 8.0373 27.2902 1.8608 13.7775 39.8429 -2.4430 -1.1667 -3.7540 -2.4979 2.0336 -15.2904 -6.2289 0.0048 -0.0874 0.1194 0.4313 -10.1435 -3.5839 -0.4066 -10.1964 3.8144 5.6230 18.4830 0.7347 5.5728 -29.2353 -42.6873 0.7295 0.6130 -66.0170 6.5812 4.5820 7.9814 -16.6987 10.8675 15.4063 -60.6376 1.5746 1.9502 -10.0995 14.2732 18.2257 1.5994 -28.9760 13.9874 -0.5409 1.5478 88.9468 -6.3164 10.5217 8.4508 15.6061 7.5959 -16.0907 50.2937 -3.1736 -5.2781 8.9921 -25.4475 15.4755 -0.6514 32.6078 -0.9102 -12.4701 8.9179 -1.6316 1.7646 -4.5560 -2.1431 -14.9372 -23.8472 -7.6183 0.1856 32.1419 0.2337 10.7286 -9.7027 -5.5192 -1.3956 0.1439 1.0701
-8.2993 98.1456 -5.3591 5.8856 0.5307 5.9103 4.4039 14.7145 -0.3511 0.8948 0.7349 -0.2805 7.8008 26.1508 1.7106 11.9329 38.7465 -2.8899 -1.0740 -3.7402 -2.7403 2.4557 -16.7422 -6.4744 0.0240 -0.0673 0.0928 0.4815 -10.1970 -3.6312 -0.4183 -10.2200 3.7953 7.4455 17.3796 1.1009 8.8254 -34.2729 -44.9161 0.4336 -0.1073 -64.2607 6.4545 5.0949 8.0029 -16.6088 10.9100 15.5574 -60.8949 1.4446 2.0633 -9.6670 14.4173 17.5328 2.3906 -27.8702 13.7560 -0.7417 1.8047 87.8512 -7.5100 10.8171 8.7068 15.3740 7.5822 -16.0523 50.0929 -3.2195 -5.1816 11.5510 -27.2588 14.1719 -0.7525 38.7328 -0.9914 -11.5309 9.7257 -1.8154 1.7446 -3.9558 -2.0812 -13.6370 -20.6564 -8.0043 0.1606 30.7417 0.2222 10.1085 -10.0040 -5.2049 -1.3989 0.2211 1.0717
-8.9039 98.4016 -4.3278 5.1669 -0.8267 5.0809 3.9930 14.9670 -0.2530 0.7305 0.5944 -0.2948 7.2950 25.3252 1.5902 9.7265 37.9121 -2.8932 -0.9234 -3.7501 -2.9627 2.9252 -17.9268 -6.7098 0.0068 -0.0550 0.0795 0.4875 -10.2373 -3.6646 -0.4627 -10.2313 3.8053 9.0541 16.3755 1.1675 13.3784 -37.8204 -48.0934 0.3153 -0.9070 -62.4611 5.7524 6.0688 7.8424 -16.4326 10.9909 15.7324 -61.1888 1.3381 2.0760 -9.2683 14.7118 16.8879 2.2953 -26.8680 13.3224 -0.7065 2.1231 87.0223 -8.8927 10.6394 9.0645 15.2138 7.5686 -16.0402 49.9630 -3.2817 -5.1470 13.9028 -28.9662 12.4278 -0.7801 44.2153 -1.0522 -10.7470 9.0790 -1.9619 1.7153 -2.9873 -2.0175 -12.4809 -17.8199 -8.3465 0.1316 29.3528 0.2313 9.4071 -10.1063 -4.6599 -1.3944 0.1499 1.0452
-9.4241 98.6845 -3.4038 4.7372 -1.7373 3.9114 3.3959 15.2020 -0.1746 0.5440 0.4891 -0.1939 6.4255 24.7981 1.4355 7.2165 37.3084 -2.4213 -0.8058 -3.7551 -3.0997 3.4310 -18.8756 -6.9020 -0.0562 -0.0470 0.1030 0.4370 -10.2572 -3.6526 -0.5429 -10.2267 3.8635 10.2598 15.4645 1.0309 18.6706 -40.3704 -51.8960 0.0331 -1.6526 -60.8190 4.8110 7.5054 7.5020 -16.2168 11.0013 15.9180 -61.3379 1.2396 2.0711 -9.2221 15.0398 16.3500 1.8095 -26.0966 12.7136 -0.5657 2.3382 86.4684 -10.2862 10.2977 9.5246 15.0832 7.5636 -16.0652 49.9384 -3.3474 -5.1634 15.3054 -30.3065 11.2886 -0.7774 47.6617 -1.1111 -11.2282 7.6812 -3.0101 1.7124 -2.5866 -1.9987 -11.7057 -15.7086 -8.4461 0.1149 27.9843 0.2488 8.6991 -9.9225 -3.8320 -1.3914 -0.0121 1.0026
-9.8049 98.9727 -2.6304 4.6319 -2.0952 2.3121 2.6724 15.4139 -0.1480 0.3170 0.4107 0.0301 5.1393 24.4471 1.1904 4.3530 36.9811 -1.5932 -0.7701 -3.7442 -3.0280 3.8453 -19.6870 -6.8817 -0.1404 -0.0381 0.1569 0.3571 -10.2334 -3.5942 -0.6370 -10.1922 3.9447 10.9659 14.6379 0.7602 23.9756 -42.2526 -55.8872 -0.2280 -2.1734 -59.6465 4.1332 9.4920 7.2082 -16.1265 10.9563 16.0670 -61.4526 1.1995 2.1025 -9.7708 15.3612 15.9378 1.4881 -25.5798 12.0236 -0.4512 2.5290 86.1035 -11.5479 9.8289 9.9986 14.9874 7.5640 -16.0996 49.9650 -3.4175 -5.1729 15.5189 -31.1664 11.2882 -0.7657 48.1411 -1.1263 -12.8656 6.8202 -4.8934 1.7200 -2.5675 -1.9982 -11.2910 -14.4808 -8.1853 0.1306 26.7259 0.2835 8.0093 -9.5261 -2.8187 -1.3922 -0.1617 0.9576
-10.0598 99.2218 -2.0171 4.6815 -1.9833 0.2919 1.9377 15.6259 -0.1254 0.0597 0.3623 0.3023 3.5079 24.2448 0.8325 0.9918 36.8679 -0.4945 -0.7212 -3.7176 -2.7312 4.1000 -20.4250 -6.5057 -0.2167 -0.0226 0.2158 0.2774 -10.1695 -3.5207 -0.7151 -10.1270 4.0167 11.0513 14.0061 0.4373 29.0020 -43.8709 -59.9079 -0.3915 -2.2350 -59.2063 4.0809 11.8959 7.1502 -16.1344 10.8975 16.1445 -61.5891 1.2040 2.0843 -11.0457 15.7115 15.5728 1.6289 -25.5486 11.4110 -0.3312 2.5464 85.9204 -12.7193 9.4659 10.3091 14.9484 7.5711 -16.1432 50.0370 -3.5001 -5.2185 14.7990 -31.4236 12.2898 -0.7148 45.4664 -1.0756 -15.3550 6.8934 -7.1701 1.7189 -2.5858 -1.9930 -11.0644 -14.0762 -7.6265 0.1648 25.7622 0.3129 7.3456 -9.0792 -1.5998 -1.3921 -0.2998 0.9224
-10.2098 99.3762 -1.5149 4.7219 -1.6094 -1.9448 1.2302 15.7910 -0.1087 -0.2053 0.3567 0.5590 1.6748 24.1792 0.3820 -2.7570 36.9392 0.6908 -0.5924 -3.6853 -2.2249 4.2292 -20.9630 -5.7798 -0.2611 -0.0037 0.2513 0.2224 -10.0838 -3.4714 -0.7533 -10.0495 4.0543 10.5349 13.6546 0.0401 33.2383 -44.9346 -63.3937 -0.1850 -1.8764 -59.4805 4.6935 14.8299 7.4791 -16.2223 10.8523 16.1214 -61.7593 1.2170 1.9604 -12.9281 16.1037 15.1097 2.3811 -25.9805 11.0217 -0.1918 2.5206 85.9506 -13.9772 9.3964 10.2582 14.9403 7.6046 -16.2226 50.1029 -3.6165 -5.3083 13.6798 -30.9375 13.6401 -0.6358 40.1522 -0.9795 -18.2373 7.8835 -9.2608 1.7204 -2.5767 -1.9845 -10.8824 -14.1558 -6.9259 0.2207 25.0922 0.3675 6.7733 -8.7752 -0.2510 -1.3943 -0.4198 0.9143
-10.3024 99.3032 -1.0302 4.5415 -1.1617 -4.2152 0.6520 15.8706 -0.1073 -0.4875 0.4066 0.8002 -0.1921 24.2147 -0.0581 -6.5723 37.2168 1.7456 -0.3858 -3.6614 -1.5213 4.2192 -21.1863 -4.7660 -0.2778 0.0166 0.2570 0.1968 -9.9954 -3.4479 -0.7640 -9.9682 4.0464 9.6579 13.5042 -0.3708 36.2036 -45.7421 -65.9670 0.1764 -1.2755 -60.4956 5.7205 18.0297 8.1901 -16.2818 10.7924 15.9656 -61.9465 1.1980 1.8070 -15.1962 16.4863 14.3398 3.6934 -26.8214 10.8395 -0.0085 2.3389 86.4095 -15.2404 9.4545 9.8528 14.9345 7.6363 -16.3270 50.1190 -3.7378 -5.4347 12.8922 -29.7953 14.4846 -0.5505 33.2054 -0.9324 -21.5140 9.5527 -11.3564 1.7172 -2.5627 -1.9726 -10.5253 -14.5593 -6.2639 0.2761 24.9669 0.4525 6.2944 -8.8813 1.2029 -1.3966 -0.4775 0.9127
-10.2949 98.9010 -0.4826 3.9985 -0.7825 -6.3923 0.2576 15.9393 -0.0948 -0.7250 0.4394 0.9750 -2.0264 24.3812 -0.4586 -10.2769 37.6771 2.5520 -0.2205 -3.6510 -0.6156 4.1277 -21.1988 -3.6555 -0.2879 0.0368 0.2482 0.1841 -9.9059 -3.4359 -0.7744 -9.8891 4.0196 8.7038 13.4450 -0.7374 37.8068 -46.7192 -67.3367 0.5595 -0.7018 -62.4040 7.0695 21.1481 9.4377 -16.3555 10.7764 15.8653 -62.1414 1.1822 1.6703 -17.7377 16.8762 13.2361 5.4524 -28.0634 10.4443 0.2947 1.9586 87.5966 -16.5415 9.6253 9.0897 14.9594 7.6001 -16.3699 50.0454 -3.8442 -5.4863 12.8839 -28.2452 14.2898 -0.4757 25.9586 -0.9747 -25.2267 11.1553 -13.6143 1.6989 -2.5014 -1.9623 -9.9028 -15.2907 -5.6290 0.3180 25.8504 0.5294 5.9557 -9.6866 2.6446 -1.4012 -0.4104 0.9395
-10.1927 98.1945 0.1287 3.1593 -0.4931 -8.4796 -0.0342 16.0107 -0.0756 -0.9361 0.4630 1.1531 -3.8134 24.6407 -0.9153 -13.7725 38.1178 3.3310 -0.0977 -3.6402 0.2386 3.9314 -21.0139 -2.5239 -0.3047 0.0510 0.2367 0.1667 -9.8319 -3.4277 -0.7941 -9.8309 3.9944 7.6422 13.3817 -0.8706 38.3027 -48.0582 -67.6807 0.8613 -0.1926 -65.3241 8.8408 24.1758 11.3711 -16.4169 10.8629 15.7774 -62.4666 1.2279 1.5066 -20.3689 17.2667 12.0101 7.5447 -29.2651 9.4796 0.6119 1.2951 89.5778 -17.8175 9.7808 8.2319 15.0710 7.5055 -16.3526 49.9526 -3.9104 -5.5197 13.6431 -26.4345 12.9467 -0.3791 19.6168 -1.0449 -28.1695 12.4667 -15.0952 1.6581 -2.4356 -1.9652 -9.1067 -16.3961 -4.9946 0.3460 27.8001 0.5838 5.7169 -11.1406 4.0955 -1.4044 -0.1946 0.9736
-9.8871 97.3053 0.7446 2.2413 -0.2423 -10.5027 -0.3540 16.0732 -0.0903 -1.1625 0.4818 1.4011 -5.5256 24.9091 -1.4326 -16.9332 38.2051 4.1253 -0.0087 -3.6332 0.9304 3.6167 -20.5856 -1.4049 -0.3051 0.0618 0.2092 0.1754 -9.7885 -3.4455 -0.8066 -9.8031 3.9565 6.5001 13.2726 -0.8052 37.7406 -49.6692 -66.9675 0.9690 0.0944 -69.1083 10.6986 26.4977 13.7307 -16.4383 10.9684 15.7063 -62.7748 1.3028 1.3180 -22.6335 17.6596 10.8137 9.5544 -29.8985 7.9578 0.8844 0.4965 92.0710 -18.9512 10.2208 7.3899 15.1524 7.3773 -16.2729 49.7566 -3.9628 -5.5352 14.7739 -24.5853 10.8447 -0.2426 15.3230 -1.0225 -28.8508 13.2450 -15.2136 1.6263 -2.4446 -1.9781 -8.3925 -17.8207 -4.3488 0.3732 30.4243 0.6132 5.5798 -12.9219 5.4888 -1.4087 0.0032 1.0102
-9.3603 96.3368 1.3819 1.4434 0.0749 -12.4692 -0.8650 16.1449 -0.1237 -1.4075 0.4685 1.6222 -7.1585 25.1120 -1.9080 -19.7747 37.6145 5.0414 0.2580 -3.6361 1.3110 3.2692 -19.9699 -0.3443 -0.2758 0.0619 0.1632 0.2307 -9.8064 -3.5007 -0.8053 -9.8312 3.9105 5.2917 12.9948 -0.7634 35.7419 -51.1386 -64.6052 1.0763 0.1181 -73.5027 12.0519 27.9418 16.2419 -16.5111 11.0665 15.7139 -63.0345 1.3605 1.1607 -24.2571 18.0979 9.7935 11.2082 -29.5533 5.8379 0.9722 -0.5120 94.9517 -19.9832 11.3163 6.4513 15.1448 7.2270 -16.1779 49.5225 -4.0014 -5.5829 15.8324 -22.9203 8.2995 -0.0837 13.6327 -0.8159 -25.5556 12.8378 -12.5366 1.6560 -2.4273 -2.0076 -8.0036 -19.4648 -3.6589 0.4234 33.1915 0.7275 5.7021 -14.8043 6.7940 -1.4099 0.1021 1.0488
-8.6055 95.3367 1.9524 0.8368 0.5575 -14.1151 -1.5614 16.1363 -0.0472 -1.5893 0.5775 1.6524 -8.7656 25.1716 -2.4169 -21.8621 36.0945 6.1105 0.4559 -3.6006 1.6239 2.9909 -19.0187 0.4273 -0.2409 0.0623 0.1330 0.3074 -9.9362 -3.5838 -0.8144 -9.9551 3.9212 4.0616 12.6308 -1.0419 33.0721 -51.9697 -61.5377 1.2002 0.2436 -77.3561 12.7505 28.5451 18.6804 -16.7225 10.9726 15.7125 -62.7450 1.2757 1.3649 -24.7694 18.6732 8.8603 12.1857 -28.2534 3.4986 0.4871 -1.3967 97.9728 -21.1163 12.2791 5.2746 15.0431 7.1912 -16.1661 49.3715 -3.9497 -5.5235 16.6216 -22.6071 5.7997 -0.0818 15.1595 -0.7169 -21.2405 9.7387 -7.2967 1.6149 -1.1426 -2.0882 -8.0685 -21.2129 -2.8893 0.5128 35.6934 0.8300 6.1242 -16.4817 7.9566 -1.4170 0.2435 0.9738
-7.7395 94.7738 2.4226 0.7123 1.0842 -15.0792 -2.4158 16.2950 -0.0690 -1.8711 0.7099 1.7319 -10.5285 25.5133 -3.1487 -22.8621 33.7193 7.2461 0.3137 -3.5457 1.5368 2.4525 -18.2508 0.8562 -0.2193 0.0464 0.1090 0.3748 -10.0045 -3.6409 -0.8407 -10.0211 3.9250 3.2786 12.2422 -2.0405 29.9437 -52.6997 -57.9420 1.5831 0.3862 -80.7125 13.5646 29.3770 21.1487 -16.6848 11.1246 15.8652 -62.7930 1.3787 1.5333 -24.5926 19.1065 8.0465 13.5365 -26.4542 -0.0651 0.0540 -2.6906 101.0880 -22.6890 13.1209 3.8302 14.9405 7.2271 -16.1480 49.1530 -3.8599 -5.5026 16.6521 -24.6637 4.7611 -0.0701 19.6613 -0.6772 -19.1096 6.7622 -5.4630 1.5936 -0.1241 -2.1117 -8.6963 -22.6927 -2.3982 0.5174 37.4210 0.9340 6.8320 -17.4551 8.6744 -1.4056 0.2369 0.9659
-6.9081 94.4756 2.8731 0.5747 1.6302 -15.6160 -3.0427 16.3320 -0.1536 -2.1339 0.8051 1.8232 -12.1900 25.7711 -3.8841 -23.7988 31.4774 8.1216 0.1773 -3.4872 1.1679 1.7897 -17.2374 0.9491 -0.2189 0.0315 0.0993 0.4111 -10.0880 -3.6779 -0.8778 -10.0912 3.9422 2.5582 11.8841 -3.0456 25.6336 -53.7384 -54.5286 1.7018 0.7085 -82.9680 15.3994 30.8510 23.3487 -16.5450 11.2893 15.8666 -62.6007 1.4198 1.6186 -24.7226 19.5394 7.2396 15.8722 -22.2821 -3.2626 -1.4221 -3.7795 104.2261 -24.0508 14.3986 2.2623 14.9585 7.3052 -16.0587 48.9789 -3.7724 -5.4779 16.3739 -26.6544 4.8721 -0.1344 23.1595 -0.6936 -18.1158 4.7908 -5.3138 1.5912 0.3724 -2.1357 -9.2564 -23.4676 -2.3461 0.5119 37.8749 1.0099 7.6464 -17.8185 9.1660 -1.3952 0.2675 0.9602
-6.1801 94.4753 3.3968 0.3227 2.2678 -15.7891 -3.4980 16.2255 -0.2243 -2.3246 0.8141 1.9018 -13.5788 25.8177 -4.4786 -24.7410 29.7249 8.6414 0.0377 -3.4250 0.6069 1.1584 -16.2245 0.7107 -0.2147 0.0174 0.0856 0.4367 -10.1288 -3.6977 -0.8958 -10.1340 3.9313 1.5699 11.4820 -4.0749 20.0559 -54.7061 -50.6997 1.3724 0.9947 -84.3856 17.9562 32.3989 24.9496 -16.4389 11.4260 15.8561 -62.1597 1.4215 1.7437 -24.7580 19.8265 6.6197 18.6007 -16.1701 -5.4069 -3.2093 -3.9765 107.4915 -24.6609 16.1126 0.6856 15.0968 7.3641 -15.9667 48.9479 -3.6776 -5.4452 16.0276 -27.9986 5.3296 -0.1796 24.9473 -0.6953 -17.5876 3.5591 -5.6628 1.5904 0.6744 -2.1274 -9.5870 -23.6090 -2.6300 0.4724 37.1546 1.0195 8.5021 -17.7105 9.3800 -1.3890 0.2672 0.9587
-5.6112 94.7504 3.9494 -0.0175 3.0337 -15.5275 -3.8098 15.9397 -0.2435 -2.4475 0.7465 1.9665 -14.6250 25.6771 -4.8992 -25.2595 28.2883 9.0267 -0.1325 -3.3699 -0.0202 0.5935 -15.2864 0.2298 -0.2005 0.0054 0.0704 0.4599 -10.1541 -3.7111 -0.8929 -10.1722 3.9093 0.4937 11.0765 -5.0809 13.2240 -54.9598 -45.8588 0.8695 0.9851 -85.0263 20.4036 33.3566 25.4946 -16.2675 11.5799 15.9249 -61.6820 1.4559 1.8598 -24.2762 20.0900 6.2756 21.5190 -9.3207 -6.6098 -4.5251 -3.5360 110.7347 -24.4519 18.5269 -0.9988 15.3791 7.4079 -15.8890 49.0816 -3.6147 -5.4258 15.7029 -28.8113 5.7085 -0.1939 25.2802 -0.6731 -17.2420 3.0350 -6.2167 1.5894 0.8273 -2.1194 -9.6369 -23.2614 -3.3210 0.4097 35.4619 1.0051 9.3237 -17.1789 9.3326 -1.3907 0.2450 0.9620
-5.2269 95.2492 4.5754 -0.4008 3.8350 -14.7671 -4.0043 15.5162 -0.2262 -2.5358 0.6559 2.0461 -15.2674 25.3637 -5.1297 -25.2173 27.0944 9.3625 -0.2886 -3.3378 -0.6484 0.1406 -14.3805 -0.3188 -0.1999 -0.0099 0.0577 0.4711 -10.1913 -3.7174 -0.9002 -10.2218 3.8878 -0.4928 10.7815 -5.9033 5.6245 -54.0339 -40.3221 0.4348 0.8256 -84.6983 22.2045 33.9418 25.2612 -16.1564 11.7088 16.0270 -61.4359 1.4976 1.9253 -23.1871 20.4461 6.1554 24.6950 -2.3959 -7.0736 -5.2356 -2.6919 113.6369 -23.5091 21.3581 -2.7425 15.6899 7.4285 -15.7926 49.2432 -3.6069 -5.3944 15.4159 -29.1322 5.8505 -0.2027 24.4823 -0.6416 -17.0187 3.0638 -6.9836 1.5876 0.8389 -2.0963 -9.4459 -22.3735 -4.4723 0.3448 32.9146 0.9685 10.1465 -16.2975 9.0764 -1.3930 0.1631 0.9635
-5.0156 95.8795 5.2438 -0.7959 4.5673 -13.5684 -4.0733 14.9824 -0.1354 -2.5657 0.4962 2.0833 -15.4598 24.9530 -5.1256 -24.4778 26.1085 9.7170 -0.4589 -3.3268 -1.0857 -0.1397 -13.4716 -0.7607 -0.2264 -0.0232 0.0562 0.4624 -10.2721 -3.7230 -0.9453 -10.3114 3.8997 -1.2435 10.6663 -6.3804 -1.6793 -51.9083 -35.1428 0.3552 0.7183 -83.3239 23.2450 34.7122 24.9242 -16.0695 11.8149 16.0753 -61.4214 1.6099 1.8472 -21.5744 20.9568 6.2106 27.9869 3.7108 -7.0468 -5.3566 -1.8900 115.8504 -22.3579 24.0989 -4.1880 15.9422 7.3944 -15.7530 49.2715 -3.6923 -5.4416 15.2017 -29.0197 5.6987 -0.2119 22.9234 -0.6216 -16.9251 3.4106 -7.8447 1.5871 0.7270 -2.0870 -9.0924 -20.9819 -5.9275 0.2705 29.8457 0.8659 10.9485 -15.2678 8.7184 -1.3957 0.0024 0.9585
-4.8998 96.4535 5.8994 -1.2052 5.1485 -12.0915 -4.0304 14.3053 0.0077 -2.5490 0.2840 2.1021 -15.2154 24.4250 -4.9100 -23.0522 25.2618 10.0600 -0.6637 -3.3398 -1.2128 -0.2404 -12.5424 -0.9516 -0.2596 -0.0286 0.0591 0.4522 -10.3798 -3.7341 -1.0030 -10.4264 3.9308 -1.7341 10.6752 -6.5416 -8.2509 -49.1913 -30.8880 0.4385 0.7223 -81.2167 23.7861 36.0235 24.9050 -16.0612 11.8892 16.0777 -61.5930 1.7436 1.6927 -19.6699 21.4598 6.3695 31.0877 8.6582 -6.7464 -5.0747 -1.2291 117.3198 -21.2630 26.2940 -5.3465 16.1132 7.3470 -15.6952 49.2629 -3.8175 -5.4503 15.1338 -28.5894 5.2671 -0.2296 21.0690 -0.6167 -16.9006 3.7876 -8.7182 1.5850 0.5480 -2.0652 -8.6676 -19.1783 -7.5603 0.2147 26.5256 0.7634 11.8137 -14.2100 8.3085 -1.3980 -0.2016 0.9651
-4.8870 96.9032 6.5199 -1.4849 5.4001 -10.5699 -3.9746 13.5294 0.1366 -2.5104 0.0042 2.1399 -14.6523 23.8237 -4.5741 -21.0792 24.5607 10.3077 -0.8729 -3.3807 -0.9404 -0.1392 -11.6520 -0.8258 -0.2706 -0.0206 0.0656 0.4662 -10.5010 -3.7531 -1.0366 -10.5462 3.9677 -2.0381 10.7847 -6.4393 -13.5812 -46.4251 -27.9573 0.6546 0.6673 -79.2040 24.2457 37.5160 25.0340 -16.0656 11.9230 16.0168 -61.7153 1.8326 1.4946 -17.7928 21.8864 6.5809 33.4046 12.0967 -6.4473 -4.6563 -0.9595 118.1685 -20.6512 28.0180 -6.3824 16.2325 7.2829 -15.6264 49.2436 -3.9590 -5.4629 15.0355 -27.8259 4.7636 -0.2392 19.3418 -0.6268 -16.8721 4.0050 -9.4805 1.5808 0.3733 -2.0303 -8.4062 -17.2016 -9.0758 0.1973 23.5815 0.7205 12.5355 -13.3473 7.9417 -1.3998 -0.3166 0.9911
-4.9436 97.2454 7.0588 -1.5433 5.2609 -9.1737 -3.9394 12.7089 0.2582 -2.4254 -0.3186 2.1443 -13.9179 23.1268 -4.1524 -18.6887 23.9079 10.4032 -1.0759 -3.4189 -0.2496 0.0993 -10.8547 -0.4578 -0.2482 -0.0010 0.0706 0.5073 -10.6036 -3.7800 -1.0340 -10.6453 4.0017 -2.0922 10.8914 -6.1029 -17.9591 -44.0345 -26.1086 0.7937 0.5797 -78.0757 24.8807 38.7202 24.9963 -16.0821 11.8937 15.9913 -61.5675 1.8824 1.3907 -16.0328 22.1777 6.9442 34.4953 14.0097 -6.6087 -4.1371 -1.0431 118.7445 -20.6128 29.2524 -7.3502 16.3119 7.2357 -15.5862 49.2940 -4.0186 -5.4494 14.8007 -26.7732 4.3454 -0.2539 17.9520 -0.6567 -16.7783 4.1270 -10.1003 1.5808 0.2371 -1.9896 -8.4705 -15.2628 -10.2302 0.2013 21.4064 0.7172 12.9618 -12.7961 7.6603 -1.4062 -0.3412 1.0552
-5.0228 97.4790 7.5277 -1.3604 4.8214 -7.9348 -3.8841 11.8417 0.3230 -2.3169 -0.6739 2.1659 -13.0225 22.3491 -3.6241 -16.0310 23.3878 10.2721 -1.1873 -3.4361 0.5951 0.4206 -10.1913 0.1130 -0.2126 0.0216 0.0695 0.5517 -10.6659 -3.8051 -1.0039 -10.7041 4.0150 -1.8034 11.0182 -5.5609 -21.6560 -42.1675 -25.2255 0.7751 0.4915 -77.8455 25.6577 39.8859 24.9697 -16.0511 11.8719 16.0238 -61.3194 1.8751 1.3990 -14.3629 22.3925 7.4004 34.2633 14.6856 -7.2924 -3.7573 -1.3471 119.1884 -20.8990 30.2756 -8.3377 16.3361 7.2322 -15.5717 49.3658 -4.0129 -5.4204 14.3611 -25.5166 4.0430 -0.2543 16.8586 -0.6875 -16.6361 4.1448 -10.5779 1.5806 0.1330 -1.9438 -8.8574 -13.4871 -11.0949 0.2051 19.9824 0.7061 13.0890 -12.4871 7.4752 -1.4146 -0.3166 1.1079
-5.1183 97.6417 7.9908 -0.9553 4.1627 -6.8758 -3.7743 10.8698 0.3753 -2.1830 -1.0768 2.1768 -11.9705 21.4632 -3.0042 -13.2399 23.0263 9.8093 -1.1775 -3.4558 1.5376 0.8359 -9.6144 0.7793 -0.1757 0.0393 0.0712 0.5795 -10.6548 -3.8091 -0.9579 -10.6922 4.0153 -1.2154 11.1607 -4.8228 -24.8132 -40.5912 -25.1836 0.7379 0.5196 -78.0587 26.5758 41.0913 25.2468 -16.0417 11.8272 16.0416 -61.1406 1.8189 1.4736 -12.7078 22.4659 8.0007 32.8523 14.1767 -8.4337 -3.3297 -1.7067 119.4790 -21.4454 31.3456 -9.8273 16.2070 7.2077 -15.5114 49.3792 -3.9442 -5.3996 13.7523 -24.0602 3.7797 -0.2381 15.9838 -0.7006 -16.4475 4.1167 -10.8446 1.5879 0.0083 -1.9214 -9.5554 -11.8303 -11.8279 0.2131 19.0373 0.7215 13.0691 -12.3318 7.3569 -1.4276 -0.3138 1.1566
-5.1947 97.7614 8.4933 -0.3690 3.3729 -6.0935 -3.6020 9.8267 0.4075 -2.0428 -1.5557 2.1526 -10.7648 20.4356 -2.3656 -10.4420 22.7792 9.0648 -1.0240 -3.4762 2.3691 1.2202 -9.0652 1.4861 -0.1407 0.0486 0.0763 0.5924 -10.5880 -3.7920 -0.8999 -10.6125 4.0014 -0.3952 11.1517 -3.9739 -27.5508 -38.9696 -25.5616 0.9821 0.5048 -78.4208 27.6181 42.1925 25.6958 -15.9816 11.8100 15.9965 -61.1339 1.7452 1.5461 -11.1272 22.4058 8.8154 30.6810 12.5273 -9.7151 -2.8587 -1.8394 119.4767 -22.0250 32.1649 -11.6115 15.9199 7.2247 -15.4580 49.2939 -3.8356 -5.4093 12.9976 -22.5203 3.5157 -0.2141 15.3981 -0.7205 -16.1769 4.0002 -10.7293 1.6005 -0.0757 -1.9108 -10.5094 -10.3716 -12.4176 0.2159 18.5458 0.7337 13.0025 -12.3010 7.3885 -1.4416 -0.3030 1.1683
-5.2659 97.8023 8.9893 0.3423 2.5619 -5.5648 -3.4016 8.7258 0.4040 -1.9048 -2.0610 2.0807 -9.4852 19.2368 -1.8023 -7.6539 22.3156 8.0203 -0.7302 -3.4980 3.0324 1.4809 -8.5792 2.2552 -0.1027 0.0484 0.0725 0.6017 -10.4885 -3.7843 -0.8311 -10.4972 3.9774 0.5087 10.9119 -3.2893 -29.8587 -37.3074 -25.7984 1.3966 0.5016 -78.4874 28.1887 42.5628 25.7438 -15.8222 11.8128 15.9238 -61.0443 1.6491 1.6908 -9.4953 22.0346 9.8042 28.0728 10.1132 -10.6149 -2.2913 -1.6787 119.1061 -22.0177 32.5515 -13.2946 15.4658 7.2699 -15.3559 49.0380 -3.7401 -5.3604 12.1675 -20.9967 3.1892 -0.1762 15.0427 -0.7292 -15.7995 3.8327 -10.2558 1.6144 -0.1020 -1.9034 -11.6385 -9.1188 -12.9077 0.2164 18.3326 0.7596 13.0100 -12.3967 7.4944 -1.4561 -0.2960 1.1678
-5.3648 97.7863 9.4993 1.0539 1.8158 -5.2648 -3.1671 7.6837 0.4104 -1.7580 -2.5445 1.9161 -8.2472 17.9939 -1.4227 -4.9210 21.3133 6.7373 -0.3409 -3.5061 3.4399 1.7124 -8.1709 2.8861 -0.0593 0.0406 0.0529 0.6247 -10.3999 -3.7971 -0.7647 -10.3753 3.9401 1.2730 10.4437 -2.9820 -31.7252 -35.7533 -25.4906 1.8495 0.4681 -78.0824 28.2854 42.3111 25.3704 -15.6290 11.9044 15.8992 -60.8197 1.5855 1.8451 -7.7798 21.2646 10.8368 25.3819 7.4627 -10.7238 -1.8458 -1.2877 118.5006 -21.4904 32.6085 -14.6533 14.9962 7.3393 -15.2780 48.6734 -3.6833 -5.3413 11.3997 -19.6936 2.8183 -0.1594 15.0338 -0.7438 -15.3403 3.5673 -9.5554 1.6253 -0.1047 -1.9181 -12.7165 -8.0744 -13.1691 0.2071 18.3591 0.7906 13.0723 -12.6933 7.5421 -1.4683 -0.1877 1.1788
-5.5749 97.7181 10.0099 1.7279 1.1441 -5.1334 -2.9208 6.6966 0.3375 -1.6156 -2.9622 1.7715 -7.1720 16.8564 -1.2774 -2.3500 19.7592 5.3574 -0.0445 -3.4847 3.4076 2.0108 -7.8203 3.2320 -0.0090 0.0172 0.0063 0.6650 -10.3173 -3.8451 -0.6984 -10.2647 3.8754 1.6744 9.9820 -3.0988 -33.2020 -34.3656 -24.5814 2.2460 0.4993 -77.2573 27.9546 41.8473 24.7612 -15.5429 11.9699 15.8579 -60.4622 1.4782 1.9907 -5.9825 20.1279 11.7296 22.8893 5.1884 -9.9260 -1.6204 -0.8759 117.8509 -20.4221 32.5451 -15.4717 14.7084 7.4350 -15.1874 48.3983 -3.6328 -5.3682 10.6877 -18.4967 2.5234 -0.1472 15.0438 -0.7629 -14.8917 3.2876 -8.9385 1.6342 -0.1966 -1.9466 -13.6603 -7.1200 -13.1963 0.2071 18.4405 0.8521 13.0392 -13.0701 7.3188 -1.4732 -0.0845 1.1939
-5.8022 97.7296 10.4467 2.3979 0.4234 -5.2589 -2.6340 5.6698 0.2504 -1.4263 -3.3277 1.5581 -6.1892 15.9157 -1.3062 -0.4586 18.0121 3.9944 -0.0325 -3.4705 3.1199 2.4494 -7.2728 3.1189 0.0592 -0.0396 -0.1076 0.7454 -10.2435 -3.9609 -0.6362 -10.1671 3.7352 1.5799 9.5868 -3.5122 -34.7317 -33.2359 -22.7270 2.3627 0.5569 -76.0190 27.4171 41.7465 24.0016 -15.9057 11.8404 15.7804 -60.0706 1.2746 2.2169 -4.5205 18.7403 12.3912 21.0121 3.9173 -8.3444 -1.7399 -0.5384 117.3414 -18.8318 32.2810 -15.8991 14.6771 7.5659 -15.0092 48.1505 -3.5736 -5.3883 10.0072 -17.0321 2.7744 -0.1265 14.6811 -0.7584 -14.7385 3.0519 -8.7321 1.6436 -0.3207 -1.9569 -14.4644 -5.9251 -12.9443 0.1892 18.3175 0.8898 12.8171 -13.4056 6.9035 -1.4667 -0.2654 1.1669
