HIERARCHY
ROOT Hips
{
	OFFSET 0.0000 0.0000 0.0000
	CHANNELS 6 Xposition Yposition Zposition Zrotation Xrotation Yrotation
	JOINT Spine1
	{
		OFFSET -0.0137 5.0038 -0.0537
		CHANNELS 3 Zrotation Xrotation Yrotation
		JOINT Spine2
		{
			OFFSET -0.0000 7.1253 -0.0298
			CHANNELS 3 Zrotation Xrotation Yrotation
			JOINT Chest
			{
				OFFSET -0.0000 7.5501 -0.8160
				CHANNELS 3 Zrotation Xrotation Yrotation
				JOINT Neck1
				{
					OFFSET -0.1817 26.3113 -0.5533
					CHANNELS 3 Zrotation Xrotation Yrotation
					JOINT Neck2
					{
						OFFSET -0.0000 7.7094 2.3026
						CHANNELS 3 Zrotation Xrotation Yrotation
						JOINT Head
						{
							OFFSET -0.0000 6.1289 1.9537
							CHANNELS 3 Zrotation Xrotation Yrotation
							JOINT Jaw
							{
								OFFSET 0.0026 0.4756 3.0949
								CHANNELS 3 Zrotation Xrotation Yrotation
								End Site
								{
									OFFSET 0.0 1.0 0.0
								}
							}
							JOINT LeftEye
							{
								OFFSET 3.2064 5.3802 7.5869
								CHANNELS 3 Zrotation Xrotation Yrotation
								End Site
								{
									OFFSET 0.0 1.0 0.0
								}
							}
							JOINT RightEye
							{
								OFFSET -3.2224 5.3619 7.5582
								CHANNELS 3 Zrotation Xrotation Yrotation
								End Site
								{
									OFFSET 0.0 1.0 0.0
								}
							}
						}
					}
				}
				JOINT LeftShoulder
				{
					OFFSET 1.6217 23.2372 5.1134
					CHANNELS 3 Zrotation Xrotation Yrotation
					JOINT LeftArm
					{
						OFFSET 14.9198 0.0000 -5.5023
						CHANNELS 3 Zrotation Xrotation Yrotation
						JOINT LeftForeArm
						{
							OFFSET 28.7393 0.0000 -0.0026
							CHANNELS 3 Zrotation Xrotation Yrotation
							JOINT LeftHand
							{
								OFFSET 27.0940 -0.0000 0.0026
								CHANNELS 3 Zrotation Xrotation Yrotation
								JOINT LeftHandThumbEnd
								{
									OFFSET 12.2686 -3.2202 4.8331
									CHANNELS 3 Zrotation Xrotation Yrotation
									End Site
									{
										OFFSET 0.0 1.0 0.0
									}
								}
								JOINT LeftHandMiddleEnd
								{
									OFFSET 19.0120 -0.3129 -0.0340
									CHANNELS 3 Zrotation Xrotation Yrotation
									End Site
									{
										OFFSET 0.0 1.0 0.0
									}
								}
							}
						}
					}
				}
				JOINT RightShoulder
				{
					OFFSET -1.3801 23.1803 5.2142
					CHANNELS 3 Zrotation Xrotation Yrotation
					JOINT RightArm
					{
						OFFSET -15.0372 0.0000 -5.5456
						CHANNELS 3 Zrotation Xrotation Yrotation
						JOINT RightForeArm
						{
							OFFSET -28.7366 0.0000 -0.0026
							CHANNELS 3 Zrotation Xrotation Yrotation
							JOINT RightHand
							{
								OFFSET -27.1336 -0.0000 0.0026
								CHANNELS 3 Zrotation Xrotation Yrotation
								JOINT RightHandThumbEnd
								{
									OFFSET -12.2642 -3.2115 4.8040
									CHANNELS 3 Zrotation Xrotation Yrotation
									End Site
									{
										OFFSET 0.0 1.0 0.0
									}
								}
								JOINT RightHandMiddleEnd
								{
									OFFSET -19.0006 -0.3066 -0.0316
									CHANNELS 3 Zrotation Xrotation Yrotation
									End Site
									{
										OFFSET 0.0 1.0 0.0
									}
								}
							}
						}
					}
				}
			}
		}
	}
	JOINT LeftLeg
	{
		OFFSET 10.0432 -8.4345 2.5957
		CHANNELS 3 Zrotation Xrotation Yrotation
		JOINT LeftShin
		{
			OFFSET -0.0000 -43.2218 -0.8029
			CHANNELS 3 Zrotation Xrotation Yrotation
			JOINT LeftFoot
			{
				OFFSET 0.0000 -42.1551 -3.4815
				CHANNELS 3 Zrotation Xrotation Yrotation
				JOINT LeftToeBase
				{
					OFFSET 0.0000 -5.0595 13.2315
					CHANNELS 3 Zrotation Xrotation Yrotation
					End Site
					{
						OFFSET 0.0 1.0 0.0
					}
				}
			}
		}
	}
	JOINT RightLeg
	{
		OFFSET -10.0473 -8.2953 2.6203
		CHANNELS 3 Zrotation Xrotation Yrotation
		JOINT RightShin
		{
			OFFSET 0.0000 -43.3622 -0.8056
			CHANNELS 3 Zrotation Xrotation Yrotation
			JOINT RightFoot
			{
				OFFSET 0.0000 -42.1174 -3.4784
				CHANNELS 3 Zrotation Xrotation Yrotation
				JOINT RightToeBase
				{
					OFFSET -0.0000 -5.0796 13.2842
					CHANNELS 3 Zrotation Xrotation Yrotation
					End Site
					{
						OFFSET 0.0 1.0 0.0
					}
				}
			}
		}
	}
}
MOTION
Frames: 75
Frame Time: 0.033333
-1.9265 95.3793 -5.8359 -1.5754 -5.6581 -0.4887 -2.3573 2.4286 -0.4906 -1.0868 -4.7222 -2.5952 -4.2411 10.6929 -6.7193 -3.3740 41.7117 5.1799 -2.8584 -3.4353 -4.9232 -5.0850 2.5203 -5.0800 -0.0769 -0.0144 0.1098 0.7275 -10.4218 -3.7071 -0.8938 -10.4343 3.9558 21.3849 10.1519 -7.8372 -72.1632 -19.3909 12.8561 -0.1388 -0.7351 -116.1632 18.5287 33.9430 -12.6682 -15.4497 10.9856 15.6556 -60.8824 1.8031 1.9781 -13.0209 19.1028 -3.6105 78.9451 4.7372 17.9190 0.4623 0.6356 81.5295 15.3040 64.8289 -24.5740 15.6321 7.8843 -15.1975 51.2786 -3.5270 -5.0145 14.9719 -5.6876 8.7412 -0.0901 29.7157 -0.5555 -17.0861 -15.2011 0.9457 1.6461 0.3421 -2.0634 -14.6352 -5.1544 -18.8334 0.3036 23.4490 0.6292 13.1500 -12.8463 2.9311 -1.4876 0.3366 0.9719
-2.1630 94.9862 -5.5400 -2.1388 -6.7079 -0.6154 -2.1011 2.0483 -0.5161 -1.0672 -4.8088 -2.5544 -4.0726 10.5329 -6.6666 -3.2455 42.8540 5.6165 -2.6090 -3.4762 -4.4949 -5.0297 3.0011 -4.7372 -0.0879 -0.0187 0.1406 0.6981 -10.5040 -3.6761 -0.8859 -10.5016 3.9894 20.5547 10.0294 -7.6787 -70.9615 -19.6883 12.9178 -0.1460 -0.9628 -114.0806 18.7432 34.1667 -12.7798 -15.4128 11.0444 15.5186 -60.9926 1.6426 1.8324 -11.8859 19.2694 -3.2755 77.8675 5.5695 16.1273 0.5926 0.4916 81.6261 16.2936 62.9712 -22.8729 15.6238 7.6514 -14.9850 50.8773 -3.6579 -4.9413 15.9964 -5.0428 8.4861 -0.1347 31.1836 -0.6004 -17.2800 -16.3117 1.3226 1.6614 0.5807 -2.0446 -14.3096 -4.2215 -18.3611 0.2880 24.9752 0.6723 12.9127 -13.9162 2.8068 -1.5035 0.4354 0.9805
-2.2763 94.4599 -4.9647 -2.6276 -7.8185 -0.4116 -1.9228 1.3949 -0.4346 -1.0707 -4.9563 -2.5159 -3.6882 10.2897 -6.6191 -2.6607 44.2424 5.9580 -2.5177 -3.5582 -3.8817 -5.1798 3.5698 -3.8840 -0.0805 -0.0192 0.1565 0.7028 -10.6051 -3.6707 -0.8755 -10.6094 4.0131 20.3427 9.4766 -7.8220 -70.5724 -19.4622 12.6665 -0.2476 -1.1079 -109.9324 18.1929 35.4417 -12.9787 -15.5638 11.1472 15.5889 -61.1720 1.6416 1.6744 -10.2289 18.9914 -2.6599 76.5443 7.3231 13.0031 0.6030 0.1169 81.1708 14.2836 59.2606 -21.8944 15.6988 7.3125 -14.8761 50.1475 -3.8153 -5.0823 16.9590 -4.2981 8.3838 -0.1657 32.5798 -0.6497 -17.3902 -17.5276 1.4058 1.6613 0.8371 -2.0216 -14.1921 -3.0461 -17.9577 0.3165 26.3736 0.7048 13.0300 -15.3264 2.5298 -1.5051 0.6761 0.9773
-2.1766 94.0715 -4.1575 -2.7657 -8.5548 0.1183 -1.9090 0.2914 -0.3720 -1.1060 -5.3187 -2.5286 -3.3887 9.7565 -6.5099 -1.4498 44.7769 5.9500 -2.5769 -3.6338 -2.9073 -5.2338 3.9953 -2.6509 -0.0594 -0.0227 0.1220 0.6813 -10.6357 -3.7168 -0.8128 -10.6930 3.9872 20.5281 8.6466 -8.0321 -71.3656 -19.0184 11.7426 -0.4056 -0.9072 -103.6733 17.3361 37.5637 -12.8895 -15.8532 11.3292 15.7776 -61.4479 1.7844 1.6882 -7.8430 18.2539 -2.0136 74.1934 9.4854 8.8137 0.4812 -0.1798 79.6607 9.8750 52.2570 -21.1642 15.6383 7.0430 -15.0027 49.4166 -4.0024 -5.2465 17.3885 -3.4193 8.4248 -0.1632 33.1386 -0.6655 -17.2659 -18.5992 1.1032 1.6401 0.8130 -1.9945 -14.5697 -1.7781 -18.3195 0.3423 26.6728 0.7315 13.3881 -16.5070 2.5857 -1.4970 0.8099 0.9751
-2.0530 94.1128 -3.0553 -2.7234 -8.6465 1.0838 -2.0370 -1.2909 -0.3412 -1.1994 -5.7754 -2.4518 -3.1810 8.5784 -6.7185 0.4159 42.7913 5.6839 -2.3196 -3.7059 -1.7784 -4.7466 3.1887 -1.0160 -0.0316 -0.0051 0.0610 0.6008 -10.5244 -3.7648 -0.6759 -10.6342 3.9094 19.4614 7.3873 -8.3988 -71.4845 -18.6516 10.3034 -1.0186 -0.2098 -96.3666 16.0310 38.6911 -14.4062 -15.8768 11.2933 15.9737 -60.8388 1.8033 2.0470 -4.1678 17.2346 -1.8170 69.7356 11.0408 2.9405 0.3113 -0.2070 77.9714 5.3506 41.5605 -20.0377 15.6065 7.0000 -15.4515 49.1647 -4.0769 -5.2099 17.3674 -2.3793 8.3071 -0.1201 32.1497 -0.5945 -17.0622 -18.9252 0.5666 1.6319 0.5237 -1.8989 -15.0129 -0.0908 -19.2239 0.3244 24.9988 0.6868 13.7469 -16.6278 2.5158 -1.4921 0.7753 0.9735
-1.9029 94.5407 -1.8624 -2.3874 -8.0516 2.2770 -2.3273 -2.9973 -0.4627 -1.3328 -6.3598 -2.5236 -3.1596 6.5951 -6.7656 2.5188 37.3606 5.1697 -1.9004 -3.8140 -1.1040 -3.7304 -0.0079 0.5377 0.0052 0.0006 -0.0196 0.5717 -10.2797 -3.8027 -0.5684 -10.3952 3.7745 18.2488 6.1459 -9.2696 -70.8596 -17.4403 9.6533 -1.7714 0.5412 -89.8835 14.2596 38.6734 -16.2666 -15.8818 11.1570 16.1523 -60.2421 1.7609 2.4864 -0.5381 16.1813 -2.1933 64.6130 11.5274 -4.2637 -0.0269 0.0652 77.9933 1.7778 29.7966 -19.2672 15.3674 7.2694 -15.7986 49.1000 -3.9237 -5.1334 16.7853 -1.1531 7.9298 -0.0585 29.6296 -0.4444 -16.8557 -18.6233 -0.0740 1.6325 0.3837 -1.7732 -15.2559 1.9642 -19.4031 0.2313 21.7873 0.4957 14.1922 -15.7221 1.3343 -1.4901 0.3809 0.9202
-1.7494 94.7624 -0.7517 -1.8155 -7.6463 3.1227 -2.5783 -4.4474 -0.6546 -1.4116 -6.8953 -2.6057 -3.4163 4.9098 -6.7830 3.4060 30.1057 4.2612 -1.5963 -4.0234 -0.3234 -2.6705 -4.7052 1.6017 0.0136 -0.0296 -0.0858 0.6432 -10.2837 -3.8658 -0.6176 -10.3653 3.6952 18.2364 6.1658 -10.0864 -70.4386 -16.6291 11.0143 -1.9908 0.6949 -85.8995 13.4647 37.4467 -17.5580 -15.9538 11.2816 16.2117 -60.7891 1.8330 2.5932 1.5550 15.4366 -2.6798 60.3991 11.1632 -11.1455 -0.3496 0.0526 81.6534 -0.5578 13.8906 -16.6961 14.8005 7.8001 -15.9424 49.2423 -3.7260 -5.2314 15.9783 0.3359 7.3877 -0.0173 27.3940 -0.3068 -16.5720 -18.4648 -0.1043 1.6484 0.3279 -1.7372 -15.4466 3.7351 -18.4038 0.0988 19.6932 0.4138 14.4635 -15.2081 -0.5128 -1.4784 -0.0655 0.9007
-1.5993 94.6736 0.2691 -0.9745 -7.9439 3.1850 -2.9867 -5.6409 -0.7713 -1.4557 -7.4111 -2.6662 -3.6918 3.8076 -6.7518 3.2349 24.1580 3.7416 -1.2576 -4.2154 0.5442 -1.5958 -8.1480 2.3053 0.0072 -0.0486 -0.0512 0.6840 -10.4141 -3.8627 -0.6689 -10.4671 3.7567 19.3505 6.4779 -11.2338 -71.1854 -16.2378 14.9313 -2.4270 0.5844 -83.0319 13.3546 36.4257 -18.1829 -15.9319 11.2459 16.2352 -61.0368 2.0728 2.5072 2.3964 14.9038 -2.7471 57.0411 9.9865 -16.3016 0.0174 -0.0741 85.7265 -2.9366 -4.3492 -11.2624 14.4141 7.9697 -16.2406 49.4836 -3.6554 -5.5916 15.2762 2.1852 7.8624 -0.0039 25.9079 -0.2167 -16.3835 -18.6694 -0.0835 1.6600 0.2028 -1.7767 -16.1949 4.9215 -17.1632 -0.0064 19.5311 0.3660 14.2950 -15.7713 -1.7321 -1.4697 -0.4477 0.9526
-1.4563 94.2854 1.2887 0.1001 -9.1547 2.0188 -3.4386 -6.5484 -0.7135 -1.5154 -7.8459 -2.5668 -3.9335 3.0509 -6.4432 2.7012 20.6780 3.5794 -1.0262 -4.3146 1.1826 -0.4522 -9.3928 2.6873 0.0124 -0.0461 -0.0091 0.6721 -10.4135 -3.8173 -0.6466 -10.4331 3.7915 19.9582 6.6109 -12.4381 -71.4299 -16.3730 19.3802 -2.7151 0.4153 -81.8979 12.4201 35.8461 -18.3054 -16.0497 11.0694 16.1180 -60.9918 2.2175 2.2697 2.0218 14.1557 -2.2916 54.9812 7.9961 -19.3473 0.3813 -0.0665 87.6048 -4.5644 -13.3539 -9.1587 14.4118 7.7852 -16.4038 49.4366 -3.6403 -5.6952 14.9919 4.6501 9.8711 -0.0225 25.1604 -0.1993 -16.8722 -19.4053 -0.5735 1.6596 0.1030 -1.8265 -17.7674 5.4850 -16.3916 -0.0509 21.4441 0.3367 13.7688 -17.4895 -1.3750 -1.4697 -0.7380 1.0075
-1.2899 93.5736 2.2384 1.4010 -10.7546 -0.1868 -3.7167 -7.2583 -0.5019 -1.4848 -8.1577 -2.2937 -4.1896 2.5371 -5.8362 1.9390 18.7403 3.8553 -0.7967 -4.2828 1.4911 0.5446 -9.4447 2.7190 0.0433 -0.0364 0.0731 0.6854 -10.4082 -3.7328 -0.5993 -10.4170 3.8604 19.5097 6.8514 -12.9367 -71.0332 -17.7162 23.0954 -2.7356 0.0813 -82.7790 10.0300 35.7034 -18.8559 -16.1654 11.0662 16.1643 -61.0326 2.2320 2.0524 0.8171 13.2952 -1.3437 53.8015 5.5197 -21.0284 0.6587 0.3647 87.8583 -5.4999 -16.5255 -9.7366 14.4852 7.7314 -16.5601 49.5287 -3.7196 -5.6374 14.9244 7.0114 12.6061 -0.0973 25.6446 -0.2488 -17.4640 -20.6892 -1.2502 1.6658 0.0355 -1.8839 -19.9683 4.8028 -15.8648 0.0429 25.5586 0.3792 13.4079 -19.6644 -0.0898 -1.4869 -1.1898 0.9744
-1.1490 92.5657 3.0271 2.7526 -12.3031 -2.9194 -3.6521 -7.7040 -0.2340 -1.4202 -8.3397 -2.0229 -4.3606 2.1736 -5.3155 0.8879 17.2696 4.2782 -0.6714 -4.2453 1.8219 1.2758 -8.7387 2.6861 0.0424 -0.0285 0.0604 0.6778 -10.3550 -3.7195 -0.5964 -10.3598 3.8222 18.1974 6.9227 -12.8387 -70.3572 -19.4276 26.4620 -2.6815 -0.0159 -85.4852 6.7421 35.2905 -19.7230 -16.3015 11.1906 16.1777 -60.9661 2.1275 1.8395 -0.4631 12.6305 -0.0300 53.2699 2.2160 -22.2566 0.7491 0.6904 88.0212 -6.4531 -16.1475 -10.7658 14.5843 7.6884 -16.7546 49.7358 -3.6771 -5.6385 14.8941 8.7853 15.1548 -0.1008 27.5321 -0.2089 -17.9002 -22.4991 -1.8424 1.6689 0.1190 -1.9333 -22.2360 3.2015 -15.0792 0.1580 30.8179 0.5357 13.2031 -22.1502 1.3239 -1.4920 -0.9299 0.9324
-1.0400 91.3986 3.6891 4.0276 -13.5916 -5.6543 -3.3283 -7.9126 -0.0227 -1.3246 -8.4334 -1.8029 -4.4310 1.9923 -5.0200 -0.4003 16.0350 4.6086 -0.5266 -4.2377 2.3064 1.7626 -8.1038 2.9480 0.0124 -0.0314 -0.0030 0.6602 -10.3043 -3.7504 -0.6408 -10.2776 3.7358 16.6266 6.9409 -12.2562 -70.1341 -20.8529 29.4241 -2.8152 -0.0251 -88.8904 3.8460 34.5197 -20.6253 -16.4617 11.3644 16.0811 -60.8545 1.9705 1.6574 -1.2903 12.1627 1.2114 53.3597 -1.4576 -23.4442 0.4823 0.6760 88.8624 -7.9211 -14.1456 -10.8850 14.6334 7.5807 -16.8490 50.0434 -3.5819 -5.6758 14.9238 9.8341 17.2647 -0.0660 30.3963 -0.1722 -18.1551 -24.7361 -2.3454 1.6772 0.1566 -1.9691 -24.1300 1.5709 -13.6678 0.2451 35.9015 0.8046 13.0443 -24.8340 2.3250 -1.4739 -0.2041 0.9406
-1.0290 90.3237 4.1620 4.8647 -14.3270 -7.6463 -2.9510 -8.1176 0.0366 -1.1863 -8.4913 -1.6768 -4.3274 1.9470 -4.8972 -1.5554 15.1062 5.0113 -0.3933 -4.1931 2.4837 1.9762 -7.6968 3.2951 0.0265 -0.0433 0.0123 0.6997 -10.3506 -3.7490 -0.6527 -10.3151 3.7584 14.4207 7.3634 -11.3926 -70.2576 -22.1430 30.9231 -3.0535 -0.0064 -92.0832 1.2502 33.4776 -21.4125 -16.5260 11.6204 16.0801 -60.9819 1.8091 1.5660 -1.0337 11.9376 1.9695 53.4315 -4.7164 -24.5800 0.0788 0.5564 89.7799 -10.5544 -11.0871 -10.1332 14.4671 7.4827 -16.9647 50.2715 -3.6865 -5.6737 15.0312 9.9442 18.4867 -0.0891 33.4336 -0.2227 -17.9724 -26.4765 -2.6572 1.6916 -0.3541 -2.0142 -25.1566 0.4667 -11.9924 0.3582 39.7647 0.9980 13.2112 -27.0217 2.6650 -1.4646 0.0221 0.9537
-1.2005 89.5517 4.3875 5.0637 -14.5051 -8.7166 -2.5728 -8.2903 -0.0046 -1.1205 -8.4973 -1.8026 -3.9557 1.9951 -4.8828 -2.5034 14.3323 5.3034 -0.3608 -4.2644 2.5100 1.9406 -7.4350 3.5744 0.0284 -0.0665 -0.0087 0.7166 -10.4394 -3.7834 -0.6667 -10.4116 3.7501 12.2255 7.7384 -10.6193 -70.7755 -22.1110 30.7967 -3.2970 0.0131 -95.1094 -2.1765 31.9680 -21.6887 -16.4775 11.7658 16.0313 -61.2510 1.6723 1.5710 -0.2073 11.9071 2.2809 53.9895 -6.3615 -26.2240 -0.3382 0.3800 90.6741 -13.5589 -6.8985 -10.1158 14.3281 7.4256 -16.9210 50.4656 -3.7510 -5.6602 15.2236 9.3264 18.7576 -0.0980 36.0486 -0.2954 -17.5378 -27.6390 -2.7958 1.6989 -0.9420 -2.0549 -25.2007 -0.2608 -10.6217 0.4235 42.3024 1.1006 13.2698 -28.6036 2.7938 -1.4587 0.0725 0.9742
-1.4864 89.0588 4.2799 4.8743 -14.2251 -9.1131 -2.3020 -8.2769 -0.0962 -1.1168 -8.4373 -2.0891 -3.4940 2.1906 -4.9164 -3.2534 13.7369 5.4607 -0.4193 -4.3043 2.4994 1.7381 -7.5009 3.7508 0.0344 -0.0786 -0.0208 0.7287 -10.5130 -3.8097 -0.6667 -10.4966 3.7512 10.1288 8.2437 -9.7884 -71.6766 -21.4607 29.3754 -3.6030 0.1440 -98.2607 -6.7534 29.2521 -21.3132 -16.4141 11.7706 15.9094 -61.7540 1.5758 1.6463 0.8624 12.1358 2.1685 55.1225 -6.3682 -28.4217 -0.6227 0.2120 92.0432 -16.6846 -2.2277 -10.9999 14.3801 7.4288 -16.8067 50.7061 -3.7934 -5.7275 15.4118 8.1081 18.4096 -0.1079 38.2277 -0.3742 -16.9554 -28.3670 -2.9388 1.7010 -1.4269 -2.1150 -24.6444 -1.1561 -9.6698 0.4658 44.1671 1.2072 13.1848 -29.6001 2.7524 -1.4572 0.0736 0.9937
-1.8478 88.7563 3.9344 4.5147 -13.5194 -9.0636 -2.1711 -8.0358 -0.2075 -1.1015 -8.3074 -2.3481 -3.1427 2.5410 -5.0792 -3.8850 13.6169 5.5678 -0.4782 -4.3029 2.4424 1.3253 -7.7832 3.8722 0.0428 -0.0811 -0.0254 0.7263 -10.5816 -3.8293 -0.6471 -10.5711 3.7582 8.0622 9.0709 -8.8156 -72.4756 -20.9633 26.6786 -3.8187 0.3828 -101.5685 -11.6100 25.7764 -20.2639 -16.5629 11.6212 15.7589 -62.4685 1.5612 1.6983 2.1265 12.8137 1.7199 56.7415 -5.2114 -30.8285 -0.6549 0.0750 94.1705 -19.7418 2.4440 -12.0465 14.5932 7.4222 -16.6451 50.7650 -3.9078 -5.8508 15.4669 6.3011 17.6020 -0.0995 40.1471 -0.3859 -16.3422 -28.8476 -3.0621 1.7027 -1.7399 -2.1553 -23.7861 -2.4738 -9.0072 0.5175 45.7082 1.3349 13.1393 -30.1312 2.4241 -1.4522 0.1647 1.0062
-2.2667 88.5648 3.3179 4.0357 -12.4098 -8.6217 -2.1304 -7.5596 -0.3079 -1.0938 -8.1105 -2.5914 -2.9266 3.1113 -5.2753 -4.4007 14.1350 5.6553 -0.5239 -4.2412 2.3298 0.6940 -7.9535 3.8550 0.0601 -0.0604 -0.0094 0.7098 -10.6228 -3.8299 -0.5942 -10.6138 3.7863 6.1189 10.1712 -7.8638 -72.6576 -20.9959 22.8199 -3.9305 0.6145 -104.8705 -15.5721 22.8048 -18.7440 -16.6419 11.2982 15.6023 -62.6656 1.5867 1.6456 3.4467 13.9799 1.0556 58.9821 -3.0541 -33.0985 -0.5490 -0.1067 96.5898 -22.7115 7.3496 -13.1773 14.8178 7.4333 -16.5175 50.6885 -4.0035 -5.9700 15.4788 3.7762 16.5605 -0.0852 42.0126 -0.3751 -15.7367 -29.2594 -3.2777 1.6963 -1.8931 -2.1513 -22.6641 -4.3586 -8.6297 0.5496 47.1383 1.4042 13.0845 -30.3778 1.7049 -1.4492 0.2545 1.0339
-2.6944 88.4754 2.3782 3.5324 -10.9899 -7.7612 -2.1745 -6.7920 -0.4474 -1.0916 -7.7459 -2.6911 -2.8642 3.8758 -5.5926 -4.8643 15.2661 5.8364 -0.5887 -4.1847 2.0854 0.0564 -7.7611 3.6491 0.0737 -0.0266 0.0217 0.6820 -10.6370 -3.8099 -0.5378 -10.6215 3.8256 4.3894 11.4647 -7.2072 -71.7565 -21.7296 18.4694 -3.8149 0.3130 -107.9806 -16.8128 21.1189 -17.0321 -16.3254 11.0626 15.4745 -62.1207 1.6065 1.6519 4.4515 15.4277 0.3264 62.1411 0.1093 -34.9902 -0.4974 -0.3186 98.5411 -26.1249 11.1093 -13.8738 14.9833 7.4443 -16.2790 50.5401 -4.0251 -5.8739 15.4861 0.6342 15.4164 -0.0788 43.7504 -0.3712 -15.1535 -29.5516 -3.7776 1.6848 -1.8681 -2.1163 -21.4754 -6.7856 -8.6274 0.6141 48.5205 1.4719 13.1009 -30.2938 0.6306 -1.4455 0.3532 1.0507
-3.0829 88.5578 1.0092 2.9907 -9.2446 -6.3994 -2.2352 -5.5962 -0.6832 -1.1256 -7.2020 -2.7384 -2.8311 4.7895 -5.9949 -5.1618 16.4539 5.9918 -0.7479 -4.1158 1.7715 -0.5151 -7.4425 3.2204 0.0762 0.0056 0.0756 0.6444 -10.6540 -3.7639 -0.4947 -10.6321 3.8891 2.7653 12.8895 -6.9935 -69.5340 -22.8758 14.1600 -3.3286 -0.3670 -111.0516 -16.0027 20.1341 -15.4680 -15.8862 11.0146 15.3824 -61.5787 1.6016 1.6988 5.1062 16.9614 -0.2031 66.1833 4.0169 -36.2735 -0.4489 -0.4323 99.3309 -29.8301 12.9608 -13.6925 15.0885 7.3996 -16.0670 50.3399 -3.9584 -5.7067 15.5207 -3.2745 14.2017 -0.0946 45.3532 -0.3792 -14.4663 -29.4716 -4.6670 1.6743 -1.7506 -2.0754 -20.1659 -9.7390 -9.0687 0.6847 49.7404 1.4768 13.2623 -29.8003 -0.7209 -1.4440 0.4430 1.0403
-3.4115 88.8672 -0.8287 2.3941 -7.0650 -4.4042 -2.2680 -3.9265 -1.0234 -1.1784 -6.5411 -2.8799 -2.7314 5.7705 -6.5513 -5.0191 17.0442 6.0002 -1.0703 -4.0440 1.2786 -0.9203 -7.6472 2.4495 0.0607 0.0262 0.1284 0.6126 -10.6797 -3.7170 -0.4941 -10.6552 3.9570 1.3820 14.2817 -7.3680 -66.1139 -23.8331 10.4210 -2.4156 -0.9353 -114.1572 -13.9831 19.0287 -14.5119 -15.6488 11.1066 15.2863 -61.3943 1.5255 1.8575 5.3014 18.5220 -0.5454 70.9197 8.2565 -36.0714 -0.4407 -0.5483 98.8392 -33.4334 13.0972 -12.4819 15.0379 7.2950 -15.8679 50.0498 -3.8430 -5.5123 15.5635 -8.0291 12.9174 -0.1517 46.5688 -0.4207 -13.7052 -28.7573 -6.0578 1.6578 -1.6318 -2.0194 -18.6853 -13.1065 -10.1219 0.7239 50.4107 1.3962 13.5783 -28.8228 -2.3365 -1.4436 0.5216 1.0110
-3.6732 89.5402 -3.2031 1.7663 -4.2947 -1.6334 -2.2049 -1.6711 -1.4626 -1.1695 -5.7867 -3.2549 -2.5496 6.7497 -7.3126 -4.2272 16.2642 5.8189 -1.4441 -4.0278 0.4838 -1.1885 -8.7467 1.5359 0.0370 0.0202 0.1418 0.5943 -10.6948 -3.7061 -0.5247 -10.6831 3.9864 0.6385 15.3526 -8.3023 -62.0451 -23.9495 7.9703 -1.3434 -1.0824 -117.2202 -11.0788 17.6733 -14.7001 -15.5138 11.1739 15.2967 -61.2049 1.4839 2.0632 4.7129 19.7631 -0.8619 76.3348 12.6075 -32.8805 -0.6468 -0.6476 96.8503 -36.7359 12.3753 -10.0910 14.8252 7.1248 -15.7261 49.6969 -3.7625 -5.3564 15.4517 -13.7407 11.4533 -0.2738 47.1236 -0.5442 -13.0935 -26.9674 -7.7434 1.6333 -1.7346 -1.9383 -16.8686 -16.8167 -11.8109 0.6160 50.1347 1.1093 14.1169 -27.1385 -4.3269 -1.4468 0.4097 0.9877
-3.8083 90.7230 -5.9783 1.3083 -0.9994 1.3823 -1.9842 1.2838 -2.0373 -1.0274 -4.8571 -3.7061 -2.2073 7.6553 -8.1293 -2.7152 12.9960 5.3010 -1.6524 -4.0280 -0.4942 -1.3739 -11.1926 0.7620 0.0241 -0.0019 0.1334 0.5981 -10.7015 -3.7242 -0.5545 -10.7059 3.9943 1.4566 16.1199 -9.7375 -59.8269 -22.8745 8.9133 -0.3058 -0.6668 -120.0864 -6.9402 16.1179 -16.0889 -15.3046 11.1237 15.4489 -60.6487 1.5343 2.3328 2.9008 20.4954 -1.1498 82.4178 15.9714 -26.1882 -1.1242 -0.7361 93.7439 -39.5043 11.2721 -6.4216 14.4381 6.9300 -15.6472 49.3417 -3.6445 -5.1361 14.7908 -19.8821 10.1417 -0.4058 46.6166 -0.6619 -12.7463 -23.5466 -9.2937 1.6109 -2.4126 -1.8181 -14.8605 -20.8851 -13.5371 0.4746 48.8740 0.7662 14.8002 -24.1653 -6.6467 -1.4709 -0.2899 0.9143
-3.8138 92.3299 -8.9074 1.1385 2.7327 3.5565 -1.5941 4.9090 -2.4450 -0.5974 -3.6634 -4.0533 -1.6720 8.6443 -8.6080 -0.8271 6.6141 4.2311 -1.6572 -4.0774 -1.3641 -1.3043 -15.0454 -0.3233 0.0226 -0.0651 -0.0031 0.6385 -10.7227 -3.8563 -0.5976 -10.7319 3.8539 4.3978 16.3594 -11.2785 -62.6320 -21.1504 16.4676 -0.0823 0.1177 -123.1181 -0.2437 14.7559 -17.5290 -15.1191 10.9705 15.4795 -60.1988 1.5165 2.2559 -0.2059 20.7534 -1.2249 88.2120 16.8765 -17.4702 -1.6306 -1.0870 90.5850 -42.2298 10.7450 -1.6914 14.0695 6.8579 -15.7750 49.0960 -3.7068 -5.2547 13.3470 -26.1214 9.3953 -0.4397 45.3041 -0.7057 -12.6688 -18.6047 -9.7865 1.6398 -3.3636 -1.7424 -13.0688 -25.8784 -14.3910 0.2889 47.4834 0.4413 15.4202 -19.1870 -8.0689 -1.4767 -1.4036 0.9024
-3.7028 94.0908 -11.8131 1.1644 6.8693 4.1655 -1.0223 8.6005 -2.4644 -0.1715 -2.3490 -3.9635 -0.8556 9.8569 -8.4135 0.8266 -1.2740 3.1465 -1.4074 -4.1066 -2.1804 -0.7426 -19.3291 -1.8725 0.0153 -0.0993 -0.0850 0.6804 -10.8427 -3.9569 -0.6529 -10.8490 3.7894 8.1237 16.4905 -11.7815 -68.9392 -19.5748 28.3006 -0.2203 0.5785 -126.3951 9.3805 11.9935 -17.2477 -15.3740 10.6163 15.3731 -60.9171 1.4050 2.0813 -3.8426 20.6742 -0.9225 91.9070 15.2622 -9.7849 -1.6465 -0.5485 87.8548 -45.0553 9.9180 2.4748 14.1015 7.0790 -16.0427 49.5090 -3.7694 -5.2240 11.2344 -32.0074 9.7747 -0.4434 43.0509 -0.7181 -12.4259 -12.5331 -9.6022 1.6541 -4.5146 -1.8092 -11.6915 -32.1077 -14.4257 0.1390 46.4387 0.2348 15.6233 -12.1225 -7.4534 -1.4545 -3.5374 0.8357
-3.6404 95.7714 -14.6499 1.4070 11.5963 3.8700 -0.4391 11.7581 -2.0473 0.0798 -1.0121 -3.4411 0.0235 11.1607 -7.7512 1.5948 -8.6934 2.3739 -0.8432 -4.1881 -2.6664 0.0715 -22.9171 -3.4289 0.0110 -0.0967 -0.0811 0.7074 -11.0377 -3.9878 -0.6870 -11.0500 3.8301 11.1542 15.7772 -11.1278 -74.2231 -18.4175 40.3089 0.0129 0.6065 -129.6217 19.7721 6.2178 -16.0321 -15.4426 10.4318 15.1765 -61.7035 1.3359 1.7928 -6.7597 20.4974 -0.2548 93.2115 12.8613 -4.6720 -1.6817 0.6801 85.5883 -47.8523 6.6830 6.2672 14.1334 7.3766 -16.2794 49.9614 -3.9255 -4.8793 8.7059 -37.8373 10.6446 -0.4627 40.2154 -0.7152 -11.8307 -5.9236 -9.0512 1.6472 -5.3342 -1.9840 -10.2976 -38.9351 -14.8408 0.1363 44.7028 0.2450 15.0887 -4.5492 -5.3078 -1.4225 -5.5374 0.7495
-3.7609 97.0773 -17.0107 2.0687 16.7632 3.7364 -0.0359 13.8546 -1.5125 0.1375 0.1742 -2.7719 0.7622 12.7009 -6.9548 1.8821 -14.2885 1.8771 -0.7080 -4.2158 -2.7534 1.0467 -25.1481 -4.7943 0.0133 -0.0650 -0.0498 0.6948 -11.0860 -3.9599 -0.6694 -11.1133 3.8682 12.3632 14.6020 -9.9687 -76.0281 -19.2719 50.2095 0.5336 0.3906 -132.0372 27.9435 0.3543 -15.3909 -15.1786 10.4486 15.0692 -61.9596 1.3908 1.5779 -7.8399 20.4810 0.7604 93.0321 10.6521 -2.2021 -2.0265 2.2681 82.7518 -48.8222 0.0506 8.0429 14.1633 7.6787 -16.5713 50.4875 -3.9120 -4.5575 6.1425 -42.9989 11.0803 -0.4237 36.1060 -0.6069 -11.8632 -0.0613 -8.4689 1.6781 -5.1028 -2.0709 -8.1890 -44.8828 -16.8363 0.1384 41.1628 0.2488 14.0165 0.7684 -3.6530 -1.4168 -6.1560 0.7065
-4.1055 97.6786 -18.7162 3.2741 21.7631 4.4305 0.1307 14.9811 -1.1671 0.0803 1.1238 -2.3234 1.2664 14.5852 -6.1502 2.1935 -18.0242 1.9468 -1.2129 -4.2092 -2.9021 1.8453 -26.2677 -6.1436 0.0104 -0.0317 -0.0051 0.6840 -11.0161 -3.8867 -0.6647 -11.0729 3.8886 12.0900 14.1517 -8.7938 -75.2234 -22.5717 58.3745 1.1977 -0.0870 -133.2298 34.2555 -4.8607 -14.9922 -14.6139 10.4740 15.0647 -61.8153 1.4657 1.4735 -7.4590 20.6172 1.6635 92.0973 9.0486 -0.9600 -1.6923 3.4256 78.5996 -44.4549 -7.8070 5.4272 14.4840 7.8896 -16.7482 50.6902 -3.8240 -4.4749 3.7911 -47.5205 11.0143 -0.3448 31.9785 -0.4551 -12.8539 4.5864 -8.3707 1.6997 -4.9288 -2.1019 -5.5011 -49.3505 -19.9710 0.1669 36.8783 0.3085 12.2796 2.2433 -3.3238 -1.4461 -5.7678 0.6863
-4.6180 97.5523 -19.8933 4.8227 25.8001 5.6607 0.2515 15.8636 -1.0251 0.0100 1.7738 -2.0289 1.5723 16.5057 -5.4290 1.7678 -19.7982 3.0249 -2.1030 -4.1263 -3.4906 2.0937 -26.9825 -7.3150 0.0127 -0.0394 -0.0165 0.7204 -10.8667 -3.8495 -0.6978 -10.9630 3.8285 11.2977 14.6002 -7.6539 -73.1552 -26.3108 65.3208 2.3044 -1.1948 -132.7787 39.4753 -9.4930 -15.0866 -14.2299 10.4848 15.0100 -61.3930 1.5411 1.6104 -6.7399 20.9558 1.8127 90.9215 8.2021 1.3302 -1.2966 3.6691 73.9441 -33.7126 -12.5893 -2.3438 15.2696 7.5491 -15.7207 50.6339 -3.8187 -4.4878 1.7656 -51.5708 10.9459 -0.3157 29.5857 -0.3856 -14.3601 6.8935 -9.0747 1.7392 -4.6068 -2.0859 -3.5562 -52.8504 -22.4249 0.1457 33.9640 0.3079 11.3392 0.8315 -3.1222 -1.4882 -4.7706 0.8448
-5.1677 96.7779 -20.8330 6.0736 28.8328 6.5328 0.5069 16.7260 -0.9724 -0.0234 2.2346 -1.7769 1.8055 18.4826 -4.6292 -0.3197 -19.6332 4.8424 -2.4526 -4.1337 -4.4117 1.8337 -27.3680 -8.0937 0.0140 -0.0622 0.0137 0.7433 -10.7502 -3.7794 -0.7185 -10.8652 3.8166 9.8800 15.4412 -6.7585 -70.6763 -29.8943 71.1165 3.5731 -2.2145 -130.8021 43.9250 -13.8592 -15.6444 -14.0996 10.4912 14.8769 -60.8773 1.4405 1.7560 -5.6294 21.3771 1.7739 89.2230 7.7449 4.1180 -0.9355 2.4710 69.1767 -20.1432 -10.1865 -9.6688 15.2068 7.0162 -14.3838 51.2285 -3.6023 -4.2526 0.1943 -54.9862 11.2722 -0.3371 28.6110 -0.3905 -15.3073 7.0916 -9.5380 1.7358 -4.1047 -2.0635 -1.9452 -56.2634 -24.1812 0.1679 33.2198 0.3410 10.6693 -1.5078 -2.9265 -1.5001 -3.3636 0.9785
-5.5565 95.7548 -21.6759 6.7839 31.2315 6.8434 0.7835 17.5900 -0.8613 0.0977 2.6899 -1.6434 2.0339 20.5830 -3.8537 -3.5453 -17.5794 6.5679 -2.2328 -4.2385 -5.0935 1.6188 -27.4474 -8.6063 -0.0082 -0.0996 0.0796 0.7060 -10.6906 -3.6885 -0.7239 -10.7919 3.8614 8.3973 16.0624 -6.0782 -69.1554 -33.1298 75.8073 4.5799 -3.1840 -128.2191 47.6673 -17.2380 -16.5082 -14.0798 10.4766 14.8322 -60.1247 1.4509 1.7750 -4.6273 21.4824 2.1453 87.6505 7.5448 6.9853 -0.2309 0.3530 64.5680 -10.7965 -4.5130 -11.8526 14.9825 7.2832 -14.7977 51.8659 -3.4422 -4.4623 -0.8512 -57.8780 11.6965 -0.3684 28.3299 -0.4517 -15.5859 6.1857 -9.1621 1.7134 -3.3297 -2.0986 -0.0847 -59.9112 -25.7428 0.2195 34.2891 0.4248 9.8501 -3.1651 -2.4572 -1.4839 -2.3502 1.0187
-5.8472 95.0460 -22.5422 7.4020 33.0565 7.0276 1.0301 18.4157 -0.8415 0.2445 3.2210 -1.4962 2.2058 22.9697 -3.2896 -7.2477 -13.9369 7.6673 -1.6709 -4.1582 -5.6448 1.4274 -26.9286 -8.9207 -0.0385 -0.1287 0.1248 0.6423 -10.6891 -3.6494 -0.7195 -10.7433 3.9188 7.0035 16.3844 -5.7174 -69.6828 -36.8545 80.3097 4.7385 -3.7633 -125.1236 51.6576 -19.9001 -17.3314 -14.5727 10.3256 14.6877 -59.8262 1.4768 1.8991 -3.6943 21.5620 2.5301 86.2799 7.0144 9.1181 0.9698 -0.7811 60.2950 -7.1570 -1.6404 -11.1655 14.9092 7.6106 -15.5810 51.7236 -3.2912 -4.8468 -2.4971 -60.2765 13.1554 -0.3587 28.3641 -0.5156 -15.9399 5.4830 -9.3180 1.7233 -2.5101 -2.0721 1.6778 -63.5922 -27.3549 0.2593 36.3524 0.4929 9.3560 -3.7224 -1.5936 -1.4763 -1.8885 1.0929
-6.0690 94.5475 -23.3907 7.9748 34.5158 7.0992 1.2019 19.1354 -0.8612 0.4188 3.6958 -1.4532 2.1581 25.4513 -2.9329 -10.4497 -8.7065 7.4779 -0.9852 -3.9934 -5.8802 1.1608 -24.9703 -8.9629 -0.0995 -0.1332 0.1656 0.5566 -10.7688 -3.6265 -0.7551 -10.7811 3.9964 5.8922 16.5985 -5.5564 -72.0777 -40.8977 84.1796 4.7424 -3.9530 -122.1442 55.6509 -21.1198 -18.0977 -14.7705 10.2312 14.5182 -59.8921 1.6065 1.9000 -2.7538 21.6095 2.6619 85.2317 6.3751 10.8514 1.4300 -1.1114 57.6566 -7.5182 -1.9910 -9.6521 14.8517 7.5925 -15.7007 51.2825 -3.2903 -5.0816 -5.3511 -61.9602 16.2374 -0.3927 28.1880 -0.5842 -16.0618 5.2145 -10.0483 1.7232 -2.1354 -2.0069 3.4811 -66.5936 -29.1569 0.3210 38.0188 0.4581 8.9861 -3.8557 -0.3695 -1.4889 -1.7586 1.0701
-6.2148 94.1041 -24.1011 8.3829 35.5440 7.2611 1.3947 19.8279 -0.8408 0.5367 4.2019 -1.5671 2.1733 27.7305 -2.8491 -12.8974 -2.3312 6.2527 -0.1899 -4.0150 -5.8511 0.5781 -21.6582 -8.7082 -0.0929 -0.1752 0.1037 0.5592 -10.8518 -3.6864 -0.7393 -10.9072 3.9303 5.1454 16.3772 -5.5341 -74.3187 -44.5283 86.8081 4.8412 -4.1615 -119.7143 58.7916 -20.4508 -18.5877 -14.5568 10.3455 14.6175 -60.0230 1.9567 1.8332 -2.2330 21.1700 2.4693 84.8861 6.2774 13.5006 0.6964 -1.3702 57.0989 -9.0932 -3.7343 -8.4919 14.6252 7.3637 -15.4879 50.0819 -3.4392 -5.0774 -8.2187 -62.8957 19.4069 -0.3768 27.8690 -0.6204 -16.1472 4.5556 -10.6355 1.7060 -1.4996 -1.9562 5.9173 -68.4723 -31.7474 0.3288 38.9291 0.4952 8.5179 -3.9158 0.8411 -1.4743 -1.6308 1.0243
-6.3038 93.6925 -24.7579 8.5740 36.3354 7.2620 1.5397 20.3664 -0.7516 0.5698 4.6407 -1.6397 2.1761 29.9332 -2.9470 -14.5615 3.6395 4.6181 0.6090 -3.9363 -5.6531 0.2899 -18.6084 -8.6915 -0.0518 -0.2019 0.0587 0.5702 -10.8484 -3.7021 -0.6617 -10.9276 3.8450 4.7987 16.1510 -5.4597 -76.1239 -47.8339 88.9084 5.0291 -4.4764 -118.1264 61.8801 -19.7981 -19.2989 -14.5815 10.5274 14.7042 -60.5055 2.1546 1.8270 -1.6739 20.6648 1.9958 84.5358 6.2152 16.5550 0.0990 -1.6248 57.2163 -10.6641 -5.6006 -7.2192 14.5735 6.9954 -15.2085 49.3424 -3.3875 -5.0719 -11.1581 -63.7300 22.9723 -0.4036 28.0625 -0.6538 -16.1500 3.7856 -11.5959 1.6944 -1.0817 -1.9390 9.3859 -69.9673 -35.4435 0.3496 39.9813 0.5204 8.1645 -4.0655 2.0667 -1.4688 -1.4191 0.9858
-6.3823 93.2100 -25.3174 8.5609 36.7800 7.2020 1.6150 20.8394 -0.6787 0.5832 5.0389 -1.6907 2.1704 32.0223 -3.1327 -15.2660 8.3046 3.1534 1.2994 -3.8390 -5.2060 0.4027 -16.3647 -8.7978 0.0470 -0.2206 0.0339 0.6239 -10.8179 -3.6997 -0.5095 -10.8775 3.7628 5.0207 15.8878 -5.1323 -77.0609 -50.5751 90.1429 5.2605 -4.8372 -117.5444 64.4623 -18.9255 -20.1548 -14.7029 10.6154 14.7304 -60.9651 2.1678 1.7285 -1.3927 20.1680 1.5230 84.4717 6.2805 20.1763 -0.2431 -1.9247 57.8136 -12.3830 -7.1458 -6.5993 14.5807 6.6452 -15.0127 48.9424 -3.2952 -5.0157 -13.9487 -64.4906 26.5127 -0.4311 28.8551 -0.7317 -15.9883 2.7892 -12.5867 1.6770 -0.5857 -1.9080 13.1092 -70.9695 -39.4550 0.3735 41.1333 0.5273 7.9496 -4.4420 3.3401 -1.4617 -1.0758 0.9979
-6.4278 92.6846 -25.8120 8.4242 36.8869 7.1044 1.6354 21.2225 -0.6390 0.6207 5.3981 -1.7243 2.1176 33.8557 -3.3666 -15.1373 11.5909 2.1799 1.7296 -3.7739 -4.6061 0.7036 -14.5606 -8.8361 0.1504 -0.2335 0.0442 0.6986 -10.8419 -3.6933 -0.3711 -10.8624 3.7477 5.6126 15.7397 -4.6476 -76.7171 -52.9334 90.1348 5.5117 -5.0313 -117.9846 66.6410 -17.5572 -20.9136 -15.0483 10.6681 14.8123 -61.5161 2.0436 1.6463 -1.4082 19.8782 1.1168 84.4340 6.2890 23.8509 0.0655 -2.3285 58.4774 -14.1069 -8.5075 -6.7415 14.7922 6.3775 -14.9880 49.2540 -3.2091 -5.0301 -16.4821 -65.2065 29.8454 -0.4737 30.1684 -0.8247 -15.8083 1.8536 -13.4702 1.6631 -0.2035 -1.8944 16.7836 -71.6115 -43.5255 0.4087 42.4729 0.5216 7.8273 -4.9019 4.6589 -1.4558 -0.7333 1.0403
-6.4317 92.1654 -26.2800 8.1152 36.5504 6.9326 1.6641 21.5411 -0.6117 0.6448 5.7089 -1.7785 2.1163 35.3240 -3.5516 -14.3163 14.2113 1.7546 1.9268 -3.7731 -3.9974 1.0716 -12.7785 -8.7738 0.2353 -0.2487 0.0778 0.7827 -10.9065 -3.6874 -0.2822 -10.8857 3.7886 6.5284 15.7142 -4.0498 -74.8664 -54.9598 88.5705 5.4983 -5.1729 -119.2942 67.8871 -15.4994 -21.2847 -15.5943 10.5841 14.9793 -62.1784 1.7985 1.6707 -1.6905 19.8434 0.7280 84.1308 6.3282 27.4653 0.7367 -2.9304 59.1513 -15.8650 -10.2267 -7.6749 15.1020 6.2589 -14.9965 50.3958 -3.0669 -5.0886 -18.4440 -65.7524 32.6966 -0.5222 31.8843 -0.9039 -15.7173 0.9308 -14.4034 1.6506 0.0061 -1.9088 19.5406 -71.8107 -46.7154 0.4525 43.8910 0.4994 7.7609 -5.4047 5.8777 -1.4501 -0.4720 1.1056
-6.3464 91.6900 -26.7097 7.5915 35.7442 6.4600 1.7020 21.7729 -0.5861 0.6215 5.8887 -1.8564 1.9898 36.3803 -3.7750 -13.1800 16.5770 1.6675 1.9647 -3.8238 -3.4675 1.4086 -10.8416 -8.5541 0.2640 -0.2722 0.1108 0.8307 -10.9600 -3.6798 -0.2738 -10.9142 3.8456 7.6031 15.6745 -3.4561 -72.0160 -56.6559 85.9314 4.9917 -5.4113 -121.0334 68.1942 -12.9028 -21.5816 -15.9541 10.4134 15.2574 -62.5495 1.5585 1.8237 -2.2447 20.0007 0.1990 83.4384 6.4855 30.5534 1.3987 -3.5078 59.9985 -17.5664 -11.8530 -9.3123 15.3225 6.3075 -14.9790 51.6492 -2.9913 -5.1989 -19.4731 -65.9415 34.8044 -0.5841 33.7402 -0.9718 -15.7798 0.0711 -15.2961 1.6361 0.0425 -1.9568 20.6331 -71.6058 -48.0878 0.4660 45.1558 0.4574 7.7688 -5.8303 6.8967 -1.4350 -0.2478 1.1329
-6.1627 91.2989 -27.0923 6.8933 34.5665 5.5586 1.6954 21.7505 -0.5760 0.5129 5.9215 -1.9617 1.5426 37.0829 -4.2201 -12.1101 18.9124 1.7400 1.9438 -3.8652 -3.1152 1.5297 -8.6272 -8.2129 0.2639 -0.2996 0.1367 0.8650 -10.9876 -3.6791 -0.3108 -10.9426 3.9017 8.6387 15.6590 -3.0001 -68.5721 -57.7459 82.4041 4.2768 -5.4580 -122.2593 68.0522 -10.2792 -21.5625 -16.1183 10.2061 15.4298 -62.5289 1.4016 2.0064 -2.9600 20.2143 -0.5224 82.4234 6.7862 33.2414 1.7414 -4.1260 61.4132 -18.8621 -12.1216 -11.1433 15.1752 6.5544 -15.1741 52.0816 -3.0238 -5.3447 -19.4472 -65.6724 36.0410 -0.6701 35.4197 -1.0583 -15.8683 -0.7040 -16.0197 1.6181 0.0688 -1.9821 19.9571 -70.9904 -47.4133 0.4138 45.9097 0.3505 7.9803 -6.0473 7.7872 -1.4179 -0.0766 1.1280
-5.9543 91.0641 -27.4040 5.9730 33.0781 4.2644 1.6129 21.5019 -0.5644 0.3263 5.8499 -2.1235 0.8302 37.4235 -4.8861 -11.2494 21.2649 1.8757 1.7625 -3.8626 -3.0665 1.5192 -6.2715 -7.8694 0.2552 -0.3140 0.1555 0.9014 -10.9675 -3.6758 -0.3665 -10.9337 3.9399 9.6099 15.6764 -2.6919 -64.4248 -57.9626 77.8139 3.4069 -4.9897 -122.6309 67.6377 -7.6838 -20.8627 -16.3015 10.0717 15.4679 -62.5568 1.2658 2.1426 -3.8189 20.4602 -1.4378 81.4289 6.9299 35.5132 1.6559 -4.6186 63.9314 -19.7651 -10.4230 -12.8852 14.7764 6.6869 -15.4300 51.6927 -3.1772 -5.3582 -18.0952 -65.0563 36.0826 -0.7632 36.8119 -1.1654 -15.8965 -1.4222 -16.4467 1.6025 0.1183 -2.0201 18.3750 -69.8398 -45.5871 0.3630 46.1109 0.2712 8.3150 -6.0735 8.5843 -1.4070 0.1084 1.1289
-5.6575 90.9366 -27.6462 4.7976 31.2550 2.4718 1.4171 21.1576 -0.5682 0.0522 5.6808 -2.3046 -0.1330 37.3823 -5.6563 -10.7945 23.6296 1.9773 1.5683 -3.8293 -3.2611 1.5144 -4.0323 -7.4983 0.2434 -0.3222 0.1635 0.9296 -10.9604 -3.6732 -0.4190 -10.9178 3.9544 10.4659 15.6336 -2.4628 -59.7464 -57.6673 72.4271 2.2172 -4.2315 -122.3308 66.7741 -4.6302 -19.1359 -16.6149 9.9852 15.4557 -62.9242 1.1310 2.1827 -4.7188 20.8725 -2.4332 80.8666 6.5835 37.0731 0.9409 -4.5712 68.0124 -20.8068 -6.7939 -14.6222 14.5855 6.6003 -15.6187 51.4566 -3.2859 -5.2459 -15.3911 -64.1178 34.9667 -0.8436 38.0741 -1.2378 -15.7311 -2.2001 -16.4819 1.5911 0.2524 -2.0686 16.5905 -68.0665 -43.3674 0.3179 45.8049 0.2175 8.6288 -5.8828 9.6171 -1.3973 0.2612 1.1481
-5.2641 90.8880 -27.8334 3.3567 28.9408 0.1534 1.1161 20.8146 -0.5890 -0.3182 5.4235 -2.5147 -1.3085 37.0107 -6.3700 -10.7136 25.9466 1.9822 1.2929 -3.7828 -3.5212 1.3870 -2.1013 -7.1140 0.1990 -0.3251 0.1460 0.9151 -10.9729 -3.6855 -0.4973 -10.9210 3.9443 11.4465 15.4782 -2.3163 -55.0144 -56.7582 66.9132 0.7046 -3.4723 -121.6678 65.5518 -0.6903 -16.1032 -16.9328 9.8935 15.4169 -63.6656 1.0482 2.1149 -5.7405 21.3701 -3.6156 81.4888 5.6481 37.9423 -0.7106 -3.2791 73.6659 -22.9513 -1.8830 -14.8118 14.7746 6.2593 -15.4429 51.3547 -3.3462 -4.8169 -11.3353 -62.7513 32.7827 -0.8578 39.4079 -1.2319 -15.2931 -3.1835 -16.0819 1.5886 0.3998 -2.1296 14.6904 -65.5403 -40.8716 0.2954 45.0933 0.1934 8.8697 -5.6496 10.9752 -1.3919 0.3154 1.1642
-4.7567 90.8122 -27.9514 1.6957 26.0775 -2.7256 0.7448 20.5347 -0.6886 -0.7580 5.0670 -2.7208 -2.7027 36.2454 -6.9498 -11.1534 28.0305 1.8335 0.9200 -3.6990 -3.8540 1.0559 -0.6089 -6.7354 0.1124 -0.3205 0.1004 0.8660 -10.9936 -3.7229 -0.6297 -10.9283 3.9164 12.5981 15.2537 -2.3501 -50.9607 -55.3870 62.4937 -0.6710 -2.7839 -121.2119 64.0191 3.7309 -12.2967 -17.2273 9.9613 15.5176 -64.5332 1.0144 1.9106 -7.1420 21.6607 -5.1156 83.9722 4.3574 37.7995 -3.0256 -0.8995 80.3115 -26.3096 4.2895 -12.9052 15.1776 6.0838 -15.1069 51.1952 -3.4490 -4.3001 -6.3174 -60.9463 30.0724 -0.8477 41.1282 -1.2082 -14.7326 -4.5797 -15.4401 1.5995 0.5030 -2.2001 12.7118 -62.3848 -38.0794 0.3045 44.2137 0.2010 8.9428 -5.4985 12.4338 -1.3960 0.2760 1.1543
-4.1398 90.6297 -27.9219 -0.0214 22.6897 -5.8448 0.3250 20.2829 -0.8699 -1.1803 4.6460 -2.8304 -4.1244 35.0968 -7.4903 -12.4646 29.7372 1.5310 0.5031 -3.5434 -4.1706 0.5080 0.3346 -6.4857 0.0298 -0.3096 0.0499 0.8094 -11.0297 -3.7852 -0.7442 -10.9743 3.9016 13.6187 14.8548 -2.5616 -47.2596 -54.0536 59.0154 -1.2861 -1.8889 -121.4538 61.6140 7.5818 -8.9381 -17.3411 9.9808 15.6132 -64.4736 0.9097 1.7737 -9.2878 21.4495 -6.6198 88.1329 3.6890 36.4936 -4.7969 0.8827 87.2011 -29.2714 12.1141 -13.6477 15.7851 6.3363 -14.9035 50.9906 -3.5310 -4.0181 -1.0929 -58.6385 27.6756 -0.9135 43.1383 -1.3003 -14.3180 -6.3005 -14.7392 1.6117 0.6124 -2.1994 10.9687 -58.7570 -35.5375 0.3142 43.4224 0.1976 8.8773 -5.4690 14.0133 -1.4019 0.3017 1.1394
-3.4649 90.3834 -27.7692 -1.6343 18.8996 -8.9987 -0.1154 20.1535 -1.0829 -1.5060 4.1635 -2.8532 -5.4346 33.7312 -7.8402 -14.3445 31.0700 1.3019 0.1374 -3.4415 -4.2818 -0.1020 0.7021 -6.2747 -0.0329 -0.3008 0.0081 0.7642 -11.0596 -3.8549 -0.8297 -11.0371 3.9026 14.6322 14.2724 -2.9176 -43.3887 -52.7911 55.5513 -1.4415 -0.9572 -121.9287 58.2258 11.3951 -6.5268 -17.2857 9.9365 15.6656 -63.8930 0.7918 1.7347 -11.8554 21.2213 -7.7571 91.9333 3.8744 34.6684 -5.2485 1.5166 93.3184 -31.8446 20.6481 -18.2273 16.2871 6.6478 -14.9986 50.6412 -3.7346 -3.9736 4.1509 -55.8300 25.4949 -0.9802 45.2746 -1.3705 -14.0761 -8.2525 -13.9391 1.6184 0.7240 -2.1721 9.3124 -54.8715 -33.1201 0.2907 42.9438 0.1394 8.7816 -5.6171 15.6273 -1.4130 0.3854 1.0874
-2.7985 90.1228 -27.4067 -2.9445 14.8504 -11.8867 -0.5356 20.0695 -1.2238 -1.7434 3.6928 -2.8076 -6.5209 32.4465 -7.9607 -16.1877 32.0224 1.4049 -0.1260 -3.4366 -4.1378 -0.6113 0.7924 -6.0192 -0.1087 -0.2985 -0.0300 0.7222 -11.0930 -3.9213 -0.9458 -11.1207 3.9147 15.6979 13.6959 -3.4753 -38.8731 -51.5480 51.1502 -1.3554 -0.1716 -121.8261 54.5583 15.2794 -5.4498 -17.2111 9.9393 15.6349 -63.5333 0.7932 1.8637 -14.0387 21.4441 -8.3364 93.5506 4.5128 32.7263 -4.3267 1.4200 97.8262 -33.8219 28.3251 -24.1458 16.6537 6.7256 -15.0677 50.4224 -3.9223 -3.9907 9.0119 -52.4247 23.4969 -0.9882 47.2230 -1.3293 -13.9452 -10.2147 -12.9346 1.6253 0.8322 -2.1479 7.4641 -50.8380 -30.5954 0.2591 42.6814 0.0796 8.6467 -5.9017 16.9243 -1.4312 0.4945 1.0142
-2.0748 89.9304 -26.8375 -3.9075 10.6309 -14.4121 -0.9264 19.9419 -1.2955 -1.9061 3.2529 -2.7046 -7.3260 31.4373 -7.9549 -17.9046 32.7471 1.8828 -0.2403 -3.4735 -3.8790 -0.8739 0.7420 -5.5914 -0.1977 -0.2956 -0.0496 0.6515 -11.1154 -3.9559 -1.0586 -11.1759 3.9402 16.8291 13.2643 -4.2419 -34.4005 -50.2115 46.0591 -1.1658 0.6096 -120.8284 51.3506 18.7761 -5.5881 -17.2190 10.0537 15.5725 -63.6518 0.9155 2.0096 -15.7074 21.9188 -8.5781 92.9900 4.9278 31.0287 -2.7087 1.1624 100.9069 -34.7527 34.5107 -29.9974 16.9772 6.6857 -15.1701 50.5214 -4.0554 -4.1158 13.2287 -48.3313 21.7327 -0.9379 48.8337 -1.2070 -13.8476 -12.2392 -11.6368 1.6247 0.9862 -2.1101 5.3054 -46.6594 -27.8904 0.2600 42.4498 0.0776 8.6079 -6.2033 17.9036 -1.4456 0.6258 0.9351
-1.3329 89.8113 -26.0782 -4.4806 6.3337 -16.7045 -1.3418 19.7356 -1.2782 -2.0190 2.8623 -2.6355 -8.0008 30.7206 -7.9606 -19.3916 33.4171 2.7152 -0.3590 -3.4856 -3.5953 -0.9743 0.6175 -4.9201 -0.2866 -0.2872 -0.0520 0.5631 -11.0714 -3.9436 -1.1535 -11.1498 3.9533 18.0843 12.9758 -5.3236 -30.7599 -48.5885 41.1928 -0.6123 1.3685 -119.0323 48.7755 21.7901 -6.3952 -17.2066 10.2180 15.4223 -63.9382 1.0871 2.1224 -17.1333 22.2808 -8.7389 91.0309 4.7986 29.7514 -1.0209 0.9289 103.1172 -34.4142 39.5874 -35.0446 17.2630 6.6301 -15.3370 50.8009 -4.1796 -4.2956 16.4865 -43.6021 20.5172 -0.8683 50.0753 -1.0636 -13.8415 -14.2456 -9.9112 1.6240 1.1623 -2.0730 2.8448 -42.4340 -25.0113 0.2891 42.1857 0.1160 8.8543 -6.4785 18.6580 -1.4575 0.7883 0.8956
-0.5383 89.7948 -25.1718 -4.7557 2.1809 -18.9341 -1.7151 19.3499 -1.1900 -2.1179 2.4699 -2.6093 -8.6703 30.2998 -8.1227 -20.6395 34.1943 3.8158 -0.5497 -3.4504 -3.2896 -1.0448 0.5755 -4.0420 -0.3486 -0.2805 -0.0394 0.4797 -10.9578 -3.8891 -1.1983 -11.0355 3.9419 19.2837 12.8957 -6.8160 -28.1921 -46.6050 36.9949 0.3097 2.0259 -116.6845 46.4589 24.6601 -7.8040 -17.1693 10.3221 15.2566 -64.0560 1.2487 2.1779 -18.5692 22.3858 -8.9501 88.4530 3.8488 29.0691 0.1345 0.7604 104.4711 -33.1272 43.7582 -39.0942 17.6084 6.6671 -15.4954 51.1947 -4.2273 -4.5296 18.8099 -38.4978 19.9565 -0.7662 50.8208 -0.9007 -13.9601 -16.0808 -7.8663 1.6264 1.3436 -2.0261 0.3870 -38.2361 -22.0557 0.3330 41.7113 0.1945 9.3192 -6.6051 19.1725 -1.4664 0.9557 0.8902
0.2861 89.9489 -24.2177 -4.8878 -1.2721 -21.0434 -1.9470 18.6903 -1.0905 -2.2186 2.0398 -2.5697 -9.3083 29.9866 -8.4299 -21.5395 34.9350 4.8427 -0.7557 -3.3952 -2.8892 -1.1767 0.6848 -3.0205 -0.3653 -0.2778 -0.0122 0.4497 -10.8032 -3.8167 -1.2015 -10.8756 3.9240 20.1303 13.0251 -8.6322 -26.1521 -44.4444 33.2254 1.2897 2.3312 -114.2904 43.8335 27.5783 -10.3340 -17.0950 10.3240 15.1927 -63.9316 1.3466 2.2033 -19.9030 22.3305 -9.0950 85.9163 2.3053 28.7236 0.4022 0.5128 104.7897 -32.8664 47.2182 -43.6118 17.8992 6.7951 -15.5834 51.5749 -4.1380 -4.7539 20.2460 -33.7596 19.9597 -0.6540 50.9954 -0.7387 -14.0589 -17.5087 -5.7065 1.6311 1.5297 -1.9945 -1.5806 -34.4262 -19.3289 0.3716 40.7048 0.2908 9.9024 -6.4001 19.4329 -1.4723 0.9862 0.8674
1.1315 90.2966 -23.2915 -4.9561 -3.8190 -22.8675 -2.0411 17.8065 -1.0376 -2.2838 1.5619 -2.5435 -9.8851 29.5974 -8.8040 -22.0428 35.5551 5.6693 -0.9061 -3.3515 -2.4131 -1.3780 0.8614 -2.0817 -0.3677 -0.2752 0.0171 0.4529 -10.6980 -3.7631 -1.2097 -10.7710 3.9259 20.4949 13.3513 -10.6682 -24.2207 -42.3936 29.7546 1.8030 2.3935 -112.0244 40.9183 30.7273 -14.1952 -17.0367 10.2810 15.2222 -63.7074 1.3949 2.2716 -20.8991 22.3501 -9.1491 83.6637 0.3501 28.3740 0.1225 0.1559 103.9729 -34.6957 50.3905 -49.9801 18.1167 6.8673 -15.5940 51.6765 -4.0110 -4.9046 20.9470 -29.7488 20.3925 -0.5346 50.4910 -0.5920 -14.0306 -18.3514 -3.7626 1.6399 1.6598 -1.9596 -2.9973 -31.0956 -16.9493 0.3920 39.0003 0.3824 10.6338 -5.8340 19.4043 -1.4758 0.8569 0.8443
1.9192 90.8032 -22.4430 -4.9444 -5.5195 -24.2852 -2.0881 16.8200 -0.9941 -2.3037 1.1022 -2.5997 -10.3420 29.0280 -9.1774 -22.1490 36.0058 6.3545 -1.0275 -3.3633 -1.9136 -1.5462 0.9445 -1.3866 -0.3452 -0.2706 0.0354 0.4898 -10.6550 -3.7459 -1.2027 -10.7203 3.9367 20.5013 13.7299 -12.6342 -22.0770 -40.5598 26.2788 1.9349 2.3662 -109.8142 38.6611 34.1103 -18.3226 -16.9329 10.3263 15.3230 -63.5480 1.3876 2.3752 -21.3803 22.5869 -9.0811 81.7471 -1.6433 27.8561 -0.2144 -0.1291 102.6240 -38.2391 53.1859 -57.8770 18.2544 6.8851 -15.6384 51.5685 -3.8698 -5.0099 21.0577 -26.5465 20.9875 -0.4399 49.4705 -0.4926 -13.9393 -18.7287 -2.1463 1.6438 1.7009 -1.9242 -4.0473 -28.3309 -14.9521 0.3661 36.8327 0.3938 11.4430 -5.1063 19.0878 -1.4765 0.6159 0.8288
2.6638 91.3326 -21.6606 -4.9062 -6.5799 -25.1425 -2.0935 15.8341 -0.9463 -2.3024 0.7413 -2.6947 -10.6090 28.3810 -9.4872 -21.9798 36.3265 6.9790 -1.0436 -3.3993 -1.5558 -1.7930 0.8921 -0.9295 -0.2997 -0.2612 0.0430 0.5410 -10.6424 -3.7466 -1.1605 -10.6949 3.9368 20.4168 14.1092 -14.2701 -19.6687 -38.9917 22.4255 1.9288 2.2842 -107.0875 37.1017 37.1697 -22.0313 -16.7393 10.4586 15.4860 -63.3381 1.3526 2.4973 -21.3010 23.0223 -8.9275 80.1692 -3.2865 27.2620 -0.2723 -0.1879 101.1736 -40.4985 55.2455 -63.7405 18.3800 6.9014 -15.7102 51.4189 -3.7718 -5.0835 20.8296 -24.0639 21.3980 -0.3931 48.1799 -0.4653 -13.7935 -18.7610 -0.8906 1.6444 1.6242 -1.8678 -4.8627 -26.0516 -13.3741 0.3700 34.5277 0.4310 12.2708 -4.3227 18.3961 -1.4716 0.3185 0.8189
3.3040 91.7667 -21.0265 -4.8732 -7.2746 -25.3699 -2.1080 14.9532 -0.8882 -2.2770 0.4195 -2.8496 -10.7130 27.8625 -9.6686 -21.5932 36.5814 7.5069 -1.0983 -3.4099 -1.3465 -2.0976 0.8772 -0.6465 -0.2556 -0.2479 0.0487 0.5887 -10.6213 -3.7353 -1.1190 -10.6554 3.9207 20.7278 14.3944 -15.5256 -17.5081 -37.6217 18.2120 1.8280 2.1038 -103.5662 35.2279 38.9184 -23.8761 -16.6566 10.3955 15.5318 -63.0376 1.3342 2.4138 -20.7420 23.6183 -8.7759 78.7119 -4.5480 27.0188 -0.0362 0.0768 99.7345 -39.8667 56.8655 -65.8314 18.3800 6.8900 -15.7333 51.2195 -3.7422 -5.1442 20.4905 -22.2468 21.5731 -0.3709 47.0558 -0.4470 -13.5484 -18.6753 -0.2085 1.6441 1.4611 -1.8230 -5.5635 -24.1972 -12.2524 0.3624 32.5116 0.4614 13.0318 -3.7244 17.4856 -1.4733 0.0581 0.8067
3.8607 92.0354 -20.4645 -4.8582 -7.8003 -24.9951 -2.1414 14.1552 -0.8585 -2.2146 0.1477 -2.9855 -10.6954 27.4854 -9.7728 -21.0973 36.9049 7.9491 -1.2052 -3.3878 -1.2344 -2.5388 1.1209 -0.5111 -0.2422 -0.2475 0.0649 0.6152 -10.6362 -3.7145 -1.1189 -10.6727 3.9270 21.6811 14.6340 -16.4490 -16.2905 -36.4973 13.9149 1.5859 1.9284 -99.5205 32.9016 39.2538 -22.8812 -16.8787 10.0105 15.4164 -63.0152 1.3565 2.0888 -20.0324 24.2483 -8.5937 77.5992 -5.5876 27.1761 0.2186 0.5170 98.3497 -37.3447 58.7262 -65.3559 18.0722 6.8290 -15.6296 50.9959 -3.7591 -5.1609 20.1949 -21.0029 21.6728 -0.3598 46.2805 -0.4462 -13.1810 -18.7129 -0.1648 1.6405 1.2820 -1.8191 -6.2872 -22.6517 -11.5017 0.3377 31.0126 0.4531 13.7502 -3.4837 16.5815 -1.4766 -0.0348 0.8062
4.3362 92.1811 -19.9657 -4.8362 -8.3120 -24.3554 -2.1514 13.4902 -0.8233 -2.1163 -0.0861 -3.0835 -10.6325 27.2558 -9.7760 -20.6659 37.2060 8.3231 -1.3947 -3.3665 -1.1487 -2.9734 1.4635 -0.4826 -0.2285 -0.2429 0.0827 0.6243 -10.6068 -3.6851 -1.1012 -10.6510 3.9260 22.5732 14.8241 -17.0519 -15.8310 -35.8832 10.0813 1.2100 1.7293 -96.5850 30.8966 39.6991 -21.1833 -16.8835 9.6872 15.3096 -62.8980 1.3777 1.8503 -19.3364 24.8220 -8.4170 76.6583 -6.5176 27.2873 0.3656 0.7607 97.4439 -35.1309 60.7311 -64.7538 17.7512 6.8579 -15.4978 50.9598 -3.7574 -5.1517 19.9670 -20.0736 21.6786 -0.3408 45.9133 -0.4486 -12.8085 -18.9508 -0.3600 1.6337 1.1219 -1.8345 -6.9972 -21.3951 -10.9071 0.3157 30.1968 0.4505 14.2032 -3.5160 15.6098 -1.4766 -0.0431 0.8145
4.7556 92.1974 -19.4982 -4.8006 -8.8193 -23.7443 -2.1135 12.9436 -0.7819 -2.0339 -0.2904 -3.0850 -10.5581 27.1089 -9.6818 -20.2789 37.4737 8.6801 -1.6199 -3.3522 -1.1271 -3.2347 1.8038 -0.4798 -0.2048 -0.2294 0.0755 0.6393 -10.5506 -3.6845 -1.0672 -10.5963 3.8982 23.0958 14.8301 -17.2740 -16.0622 -35.4232 7.3020 0.6938 1.5476 -96.1047 29.5156 40.7377 -20.2166 -16.8451 9.6458 15.3305 -62.6938 1.3612 1.8821 -18.9202 25.2669 -8.2821 75.9543 -7.5667 27.0321 0.4544 0.8238 97.2329 -34.2396 62.6790 -65.6894 17.5649 6.9675 -15.4395 51.1036 -3.7120 -5.1033 19.7938 -19.2639 21.5929 -0.3205 45.7967 -0.4486 -12.6877 -19.3629 -0.4028 1.6314 1.0251 -1.8328 -7.7041 -20.4574 -10.3606 0.3353 29.9831 0.4950 14.5341 -3.6812 14.7489 -1.4755 -0.0345 0.8425
5.1424 92.1445 -19.0587 -4.7122 -9.2946 -23.2126 -2.0659 12.4727 -0.7052 -1.9624 -0.4983 -3.0246 -10.4894 27.0362 -9.4606 -19.9924 37.7682 8.9234 -1.7496 -3.3440 -1.1001 -3.3627 2.2291 -0.3788 -0.1814 -0.2139 0.0597 0.6611 -10.5180 -3.7035 -1.0404 -10.5597 3.8731 23.4543 14.6521 -17.1324 -16.7508 -34.6181 5.2207 0.2106 1.3268 -97.6305 27.9993 42.2319 -19.6379 -16.8220 9.7669 15.3745 -62.5165 1.3340 2.0152 -18.6994 25.6274 -8.1418 75.3735 -8.7081 26.3897 0.5641 0.7786 97.4455 -34.9967 64.9088 -68.4924 17.4630 7.1321 -15.4212 51.2845 -3.5755 -5.0639 19.6027 -18.6054 21.5097 -0.3204 45.9533 -0.4655 -12.7200 -19.9145 -0.3376 1.6348 0.9926 -1.8298 -8.4072 -19.8382 -9.8152 0.3650 30.2671 0.5341 14.8231 -4.0353 14.1039 -1.4781 -0.0020 0.8658
5.4365 92.0354 -18.7118 -4.6076 -9.7319 -22.7717 -1.9997 12.0448 -0.6000 -1.9166 -0.6666 -2.8958 -10.4116 26.9622 -9.1590 -19.8682 37.9805 9.0065 -1.7369 -3.3185 -0.9904 -3.4258 2.7876 -0.0935 -0.1711 -0.2004 0.0452 0.6807 -10.5043 -3.7262 -1.0388 -10.5534 3.8621 23.6697 14.3595 -16.7375 -17.5692 -33.0734 3.5772 -0.0848 1.3088 -100.2596 26.1297 43.4822 -19.2605 -16.7244 9.9920 15.4018 -62.3314 1.3549 2.1223 -18.6729 25.9405 -7.9835 74.9706 -9.8984 25.4979 0.7458 0.7335 97.7532 -36.8357 67.1416 -72.4659 17.3290 7.2725 -15.3910 51.2974 -3.4503 -5.0302 19.4675 -18.0341 21.4681 -0.3062 46.1730 -0.4395 -12.8394 -20.4338 -0.2891 1.6400 0.9795 -1.8259 -9.0526 -19.3704 -9.3204 0.3882 30.7150 0.5849 15.1032 -4.4312 13.6344 -1.4818 0.0283 0.8632
5.6432 91.9065 -18.4147 -4.5437 -10.1318 -22.4094 -1.9072 11.7021 -0.4653 -1.8805 -0.7849 -2.7281 -10.3067 26.9179 -8.8150 -19.8019 38.1409 9.0047 -1.6414 -3.2838 -0.7725 -3.4090 3.4156 0.3443 -0.1774 -0.1890 0.0373 0.6953 -10.5183 -3.7464 -1.0662 -10.5721 3.8689 23.7405 13.9654 -16.1711 -18.3827 -31.1686 2.2980 -0.1588 1.2483 -102.8861 24.1608 44.0770 -19.0940 -16.6060 10.1414 15.3918 -62.0237 1.3943 2.1791 -18.8764 26.1825 -7.8515 74.7615 -11.0431 24.5042 1.0136 0.6846 97.9665 -38.4634 68.8084 -75.9064 17.2506 7.3533 -15.3464 51.2638 -3.3721 -5.0147 19.4437 -17.5830 21.4813 -0.2884 46.4116 -0.3997 -12.9349 -20.8760 -0.3903 1.6402 0.9469 -1.8225 -9.5546 -18.9575 -8.8833 0.4054 31.1535 0.6372 15.3039 -4.7782 13.2725 -1.4820 -0.0076 0.8597
5.7470 91.8122 -18.2241 -4.5387 -10.4818 -21.9695 -1.8171 11.4307 -0.3516 -1.8447 -0.8652 -2.5710 -10.2263 26.9329 -8.4878 -19.6957 38.2888 9.0202 -1.4742 -3.2541 -0.4557 -3.3142 4.0398 0.8630 -0.1818 -0.1841 0.0347 0.7077 -10.5266 -3.7592 -1.0883 -10.5853 3.8787 23.7078 13.5318 -15.5720 -19.2899 -29.5070 1.5274 -0.1122 1.1481 -104.8810 22.6855 44.0378 -18.6410 -16.6111 10.1637 15.2906 -61.8670 1.4448 2.1527 -19.1356 26.3541 -7.7645 74.8348 -11.9531 23.7367 1.1466 0.8160 98.0994 -39.0933 69.8463 -77.9825 17.2103 7.3903 -15.2809 51.2388 -3.3032 -4.9763 19.5207 -17.2447 21.4989 -0.2820 46.5453 -0.3706 -12.9716 -21.2063 -0.7287 1.6371 0.8904 -1.8137 -9.9092 -18.4882 -8.5404 0.4172 31.4087 0.6706 15.5052 -5.0591 12.8836 -1.4805 -0.0681 0.8758
5.7540 91.7602 -18.1090 -4.5988 -10.7395 -21.4209 -1.7222 11.2003 -0.2551 -1.8148 -0.9069 -2.4277 -10.1585 27.0136 -8.1559 -19.4997 38.4041 9.0267 -1.3093 -3.2204 -0.0303 -3.0955 4.6620 1.4334 -0.1860 -0.1758 0.0343 0.7211 -10.5318 -3.7694 -1.1108 -10.5890 3.8886 23.5810 13.0946 -14.9840 -20.2549 -28.2432 1.1471 0.0214 1.0312 -106.3520 21.6852 43.6181 -17.6400 -16.6837 10.1464 15.1776 -61.8082 1.5217 2.0934 -19.2267 26.4292 -7.6634 75.0090 -12.6274 23.2086 1.1301 0.9950 98.1956 -39.0688 70.4296 -79.1093 17.2171 7.4285 -15.2097 51.2784 -3.2362 -4.9586 19.6722 -17.0699 21.4828 -0.2852 46.5671 -0.3702 -12.9584 -21.3475 -1.1864 1.6364 0.8174 -1.8152 -10.1179 -17.9908 -8.2931 0.4254 31.4654 0.6961 15.7057 -5.2499 12.4618 -1.4766 -0.0973 0.9048
5.6714 91.7518 -18.0545 -4.6947 -10.9117 -20.7631 -1.6453 10.9785 -0.1767 -1.7908 -0.9286 -2.2725 -10.0845 27.1525 -7.8451 -19.2314 38.5230 8.9851 -1.1564 -3.1928 0.4713 -2.7669 5.2940 2.0620 -0.1733 -0.1688 0.0302 0.7447 -10.5163 -3.7753 -1.1074 -10.5728 3.8811 23.3491 12.7321 -14.3905 -21.0981 -27.3535 0.9443 0.2082 0.8737 -107.4928 21.1479 43.1828 -16.2544 -16.8042 10.1302 15.0973 -61.8643 1.5761 2.0488 -19.1197 26.4871 -7.5552 75.2946 -13.1608 22.7872 1.0503 1.1321 98.2984 -39.5014 70.9300 -80.6952 17.1930 7.4798 -15.1400 51.4258 -3.1898 -4.9110 19.8263 -16.9710 21.4239 -0.2805 46.4220 -0.3709 -12.9147 -21.3977 -1.7079 1.6347 0.7522 -1.8083 -10.2276 -17.4393 -8.0503 0.4388 31.3109 0.7236 15.9217 -5.3889 11.8894 -1.4713 -0.1294 0.9400
5.5417 91.7863 -18.0357 -4.7848 -11.0309 -20.0317 -1.5816 10.7993 -0.1092 -1.7702 -0.9674 -2.1556 -10.0077 27.3428 -7.5387 -18.9312 38.6708 8.8888 -0.9825 -3.1890 0.9711 -2.3638 5.8996 2.6329 -0.1539 -0.1549 0.0183 0.7759 -10.5226 -3.7940 -1.0989 -10.5702 3.8685 23.0236 12.4244 -13.8287 -21.5953 -26.5493 0.6712 0.5139 0.7263 -108.4591 20.7948 42.7514 -14.9575 -16.8501 10.1678 15.0969 -61.9082 1.5874 2.0441 -18.8323 26.5728 -7.4104 75.5890 -13.5741 22.3557 1.0182 1.1924 98.4090 -40.2127 71.3057 -82.3867 17.2519 7.5156 -15.1049 51.6504 -3.1483 -4.8980 19.9636 -16.8906 21.3086 -0.2806 46.1700 -0.3743 -12.8012 -21.3732 -2.2240 1.6342 0.6836 -1.8117 -10.2925 -16.8611 -7.8159 0.4291 31.0574 0.7159 16.1550 -5.5161 11.2554 -1.4663 -0.1618 0.9723
5.3667 91.8368 -18.0390 -4.8758 -11.0713 -19.2998 -1.5276 10.6269 -0.0660 -1.7670 -0.9841 -2.0206 -9.8947 27.4802 -7.2585 -18.6362 38.7982 8.7722 -0.7901 -3.2007 1.3663 -1.9621 6.4304 3.1198 -0.1567 -0.1454 0.0135 0.7779 -10.5459 -3.8023 -1.1065 -10.5855 3.8678 22.6805 12.1910 -13.3433 -21.7444 -25.6789 0.2570 0.8563 0.6636 -109.2230 20.3904 42.5078 -14.0253 -16.9025 10.1721 15.0431 -61.9991 1.5426 2.1040 -18.4839 26.7011 -7.2852 75.8663 -13.9117 22.0913 0.9698 1.3113 98.3556 -40.1222 71.4851 -83.0716 17.2332 7.5383 -15.1324 51.8142 -3.1455 -4.8864 20.0738 -16.8560 21.1427 -0.2716 45.8382 -0.3678 -12.7097 -21.2936 -2.7173 1.6363 0.6089 -1.8099 -10.3017 -16.3270 -7.6152 0.4341 30.7518 0.7161 16.3174 -5.6080 10.5964 -1.4643 -0.1938 1.0028
5.2070 91.9027 -18.0380 -4.9406 -11.0642 -18.6361 -1.4837 10.4820 -0.0014 -1.7657 -1.0354 -1.9290 -9.7721 27.6226 -7.0157 -18.3747 38.9184 8.6905 -0.6086 -3.2092 1.6182 -1.5604 6.8435 3.4198 -0.1730 -0.1350 0.0136 0.7688 -10.5773 -3.7998 -1.1307 -10.6014 3.8720 22.3442 12.0098 -12.9225 -21.4905 -24.8270 -0.3422 1.1656 0.6369 -109.8845 19.9468 42.2197 -13.5075 -16.8862 10.2101 15.0332 -62.0762 1.5074 2.1702 -18.1065 26.8787 -7.1629 75.9334 -14.1045 22.0091 0.8608 1.3874 98.2518 -38.8424 71.3699 -82.3633 17.2714 7.5326 -15.1469 51.9625 -3.1655 -4.8902 20.1415 -16.8588 20.9376 -0.2581 45.5471 -0.3446 -12.6713 -21.1753 -3.1108 1.6354 0.5305 -1.8130 -10.2856 -15.9103 -7.3935 0.4319 30.5081 0.7163 16.4144 -5.6705 9.9861 -1.4629 -0.2073 1.0139
5.0475 91.9661 -18.0306 -4.9465 -11.0333 -18.0550 -1.4711 10.3489 0.0352 -1.7711 -1.0925 -1.8412 -9.6610 27.6978 -6.8405 -18.1577 38.9779 8.6456 -0.4436 -3.2188 1.7551 -1.1942 7.1199 3.5918 -0.1836 -0.1270 0.0129 0.7597 -10.6079 -3.8010 -1.1442 -10.6247 3.8761 22.0411 11.8447 -12.5942 -21.0834 -24.0666 -1.0499 1.3066 0.6471 -110.4337 19.5110 42.1026 -13.2003 -16.8884 10.2263 15.0438 -62.1232 1.4622 2.2187 -17.7715 27.0394 -7.0160 76.0265 -14.1575 21.9227 0.8128 1.4338 98.1697 -37.5441 71.1702 -81.5949 17.2668 7.5161 -15.1541 52.0415 -3.1934 -4.9015 20.1503 -16.8367 20.7904 -0.2410 45.2192 -0.3167 -12.6904 -21.0307 -3.3845 1.6336 0.4795 -1.8199 -10.3010 -15.5861 -7.1370 0.4224 30.3557 0.7091 16.4679 -5.7507 9.4385 -1.4621 -0.1738 1.0264
4.8891 92.0090 -18.0049 -4.8952 -11.0184 -17.5725 -1.4856 10.2316 0.0390 -1.7867 -1.1300 -1.7669 -9.5927 27.7301 -6.7485 -17.9591 38.9712 8.6280 -0.3205 -3.2215 1.7786 -0.8696 7.2636 3.6659 -0.1890 -0.1251 0.0104 0.7583 -10.6311 -3.8065 -1.1518 -10.6374 3.8782 21.8349 11.7605 -12.3276 -20.6151 -23.6001 -1.7840 1.3217 0.6900 -110.8639 19.3804 42.2493 -12.7921 -16.8927 10.2455 15.0473 -62.1672 1.4398 2.2711 -17.5251 27.1529 -6.8925 76.1224 -14.1021 21.8916 0.6964 1.4961 98.1650 -36.7856 71.1714 -81.3347 17.2371 7.5071 -15.1519 52.0554 -3.2489 -4.8805 20.1182 -16.7972 20.6909 -0.2421 44.9286 -0.3159 -12.7141 -20.9039 -3.5993 1.6314 0.4420 -1.8202 -10.3659 -15.3360 -6.8407 0.4204 30.3289 0.7194 16.4558 -5.8652 8.9307 -1.4611 -0.0977 1.0284
4.7093 92.0610 -17.9569 -4.7912 -11.0183 -17.1287 -1.5223 10.1085 0.0186 -1.7983 -1.1865 -1.7466 -9.5617 27.7249 -6.7058 -17.7797 38.8798 8.6499 -0.2076 -3.2295 1.7709 -0.5726 7.3708 3.6440 -0.1911 -0.1247 0.0041 0.7618 -10.6650 -3.8209 -1.1595 -10.6664 3.8813 21.6505 11.6337 -12.1751 -20.1458 -23.2937 -2.5548 1.1490 0.7035 -111.0895 19.4525 42.5710 -12.3921 -16.8667 10.2796 15.0597 -62.2654 1.4284 2.3346 -17.2802 27.2570 -6.7837 76.2265 -14.0059 21.7413 0.6014 1.5042 98.2562 -36.5674 71.2445 -81.5505 17.1755 7.5128 -15.1460 52.0833 -3.2716 -4.8776 20.0414 -16.6900 20.6382 -0.2616 44.6253 -0.3358 -12.7657 -20.7606 -3.7709 1.6263 0.4190 -1.8144 -10.4763 -15.1256 -6.5858 0.4112 30.3764 0.7215 16.4358 -6.0123 8.5255 -1.4621 -0.0380 1.0210
4.5187 92.1088 -17.9289 -4.6360 -11.0490 -16.7711 -1.5769 9.9796 -0.0011 -1.8045 -1.2372 -1.7632 -9.5616 27.6731 -6.7013 -17.6389 38.7312 8.6707 -0.1232 -3.2457 1.7440 -0.2616 7.4408 3.5410 -0.1961 -0.1247 0.0003 0.7640 -10.6870 -3.8283 -1.1716 -10.6879 3.8826 21.5141 11.5533 -12.1119 -19.7036 -23.2232 -3.3910 0.9382 0.6824 -111.0056 19.6499 43.0883 -12.0751 -16.8640 10.3087 15.0633 -62.3012 1.4307 2.3688 -17.0807 27.3165 -6.7085 76.4004 -13.8706 21.4518 0.5024 1.5109 98.4865 -37.3395 71.5983 -82.6826 17.1514 7.4903 -15.0831 52.0538 -3.2910 -4.8438 19.9379 -16.4925 20.6026 -0.2831 44.2905 -0.3606 -12.8420 -20.5673 -3.8805 1.6266 0.3571 -1.8118 -10.6109 -14.9288 -6.3002 0.4117 30.4868 0.7455 16.3645 -6.1568 8.1453 -1.4646 -0.0386 1.0162
4.2980 92.1612 -17.8803 -4.4469 -11.1207 -16.4602 -1.6440 9.8317 -0.0131 -1.8135 -1.2925 -1.8062 -9.5973 27.6023 -6.7353 -17.4543 38.5136 8.7628 -0.0998 -3.2543 1.6918 0.1107 7.4733 3.3537 -0.1939 -0.1225 -0.0071 0.7732 -10.6909 -3.8362 -1.1772 -10.6917 3.8756 21.3991 11.4691 -12.1355 -19.3270 -23.4114 -4.3007 0.7922 0.5918 -110.5509 20.0469 43.6520 -11.7007 -16.8632 10.3401 15.0333 -62.3604 1.4425 2.3611 -16.8527 27.3719 -6.6459 76.6665 -13.7575 20.8942 0.4281 1.4893 98.9621 -39.9009 72.3557 -85.7064 17.1726 7.4975 -14.9739 52.0570 -3.2744 -4.7866 19.8440 -16.1854 20.5552 -0.3036 43.9182 -0.3847 -12.9510 -20.3548 -3.9381 1.6288 0.2613 -1.8169 -10.7680 -14.7215 -6.0068 0.4207 30.6462 0.7733 16.2796 -6.3785 7.7900 -1.4663 -0.0500 1.0122
4.0690 92.1817 -17.8166 -4.2249 -11.1928 -16.2003 -1.7164 9.6495 -0.0445 -1.8170 -1.3328 -1.8444 -9.6441 27.4788 -6.8114 -17.2288 38.2089 8.8532 -0.1377 -3.2618 1.6180 0.4191 7.4125 3.1077 -0.1767 -0.1205 -0.0207 0.7962 -10.7020 -3.8534 -1.1647 -10.7100 3.8609 21.2576 11.3528 -12.2486 -19.0820 -23.7854 -5.3475 0.8025 0.4305 -109.6561 20.7758 44.3018 -11.1555 -16.8955 10.3802 14.9682 -62.3797 1.4814 2.3513 -16.6363 27.3681 -6.5647 77.0872 -13.6553 20.0662 0.2868 1.4423 99.6848 -45.0300 73.4844 -91.2403 17.1630 7.5735 -14.8412 52.0934 -3.1991 -4.7511 19.7127 -15.8131 20.4306 -0.3264 43.4963 -0.4184 -13.0996 -20.1119 -3.9205 1.6351 0.1417 -1.8211 -10.9411 -14.5630 -5.7443 0.4429 30.8849 0.8040 16.1557 -6.6558 7.4486 -1.4651 -0.0880 1.0077
3.7963 92.1824 -17.7657 -3.9936 -11.2733 -15.9401 -1.7832 9.4670 -0.0695 -1.8020 -1.3869 -1.9057 -9.6932 27.3386 -6.9374 -16.9776 37.8383 8.8866 -0.2311 -3.2773 1.5492 0.6728 7.2822 2.8356 -0.1617 -0.1210 -0.0301 0.8156 -10.7335 -3.8713 -1.1553 -10.7491 3.8584 21.1594 11.1207 -12.4755 -19.0943 -24.3861 -6.4136 0.7621 0.0990 -108.3752 21.7310 44.9322 -10.4796 -16.8835 10.3902 14.8639 -62.2885 1.5554 2.2888 -16.4165 27.2562 -6.5125 77.6762 -13.5431 18.9172 0.2507 1.3434 100.5648 -54.0301 74.7861 -100.6606 17.1363 7.7078 -14.7158 52.1073 -3.0853 -4.7221 19.5809 -15.4211 20.1821 -0.3427 43.1292 -0.4503 -13.2918 -19.8927 -3.8414 1.6398 0.0035 -1.8280 -11.1175 -14.4543 -5.5945 0.4632 31.2210 0.8374 16.0553 -7.0195 7.1835 -1.4638 -0.1033 1.0066
3.5342 92.1960 -17.6910 -3.7444 -11.3695 -15.7386 -1.8309 9.3054 -0.0701 -1.7740 -1.4497 -1.9807 -9.7206 27.1779 -7.0599 -16.7450 37.5390 8.8624 -0.3036 -3.3263 1.4620 0.8231 7.2790 2.6004 -0.1345 -0.1315 -0.0335 0.8521 -10.8112 -3.8963 -1.1386 -10.8386 3.8718 21.1155 10.8962 -12.8231 -19.3831 -24.9282 -7.3536 0.7444 -0.1893 -107.0075 22.5434 45.4039 -9.9375 -16.7957 10.3848 14.7453 -62.0441 1.6547 2.1628 -16.2324 27.0071 -6.4381 78.2839 -13.3702 17.6753 0.2951 1.3204 101.3115 -65.4503 75.7941 -112.4517 17.1262 7.8333 -14.5955 52.1661 -2.8939 -4.7504 19.4119 -15.0036 19.9277 -0.3338 42.8002 -0.4562 -13.5420 -19.6897 -3.6827 1.6459 -0.1373 -1.8368 -11.2929 -14.3610 -5.5476 0.4644 31.5713 0.8254 15.8970 -7.3955 6.9831 -1.4613 -0.1883 0.9971
3.2033 92.2274 -17.6386 -3.4733 -11.4531 -15.5878 -1.8965 9.1623 -0.0733 -1.7378 -1.4895 -2.0926 -9.6887 26.9469 -7.0845 -16.4595 37.3613 8.7880 -0.3827 -3.4129 1.4400 0.9254 7.3073 2.3685 -0.0986 -0.1517 -0.0243 0.8937 -10.9170 -3.9147 -1.1093 -10.9476 3.9006 21.1591 10.7371 -13.2429 -19.9950 -25.4815 -7.9428 0.5824 -0.3865 -105.7933 23.0598 45.7152 -9.6100 -16.8179 10.3691 14.6786 -61.8546 1.7242 2.1013 -16.1264 26.6867 -6.3611 78.7228 -13.1125 16.4285 0.3657 1.3834 101.7723 -74.0308 76.1915 -121.1954 17.1555 7.9391 -14.5646 52.2060 -2.6933 -4.8117 19.2073 -14.5607 19.6936 -0.3318 42.4416 -0.4606 -13.8307 -19.4538 -3.5469 1.6568 -0.2318 -1.8657 -11.5023 -14.2572 -5.6509 0.4390 31.8336 0.7431 15.7651 -7.7164 6.9120 -1.4587 -0.3630 0.9841
