HIERARCHY
ROOT Hips
{
	OFFSET 0.0000 0.0000 0.0000
	CHANNELS 6 Xposition Yposition Zposition Zrotation Xrotation Yrotation
	JOINT Spine1
	{
		OFFSET -0.0137 5.0038 -0.0537
		CHANNELS 3 Zrotation Xrotation Yrotation
		JOINT Spine2
		{
			OFFSET -0.0000 7.1253 -0.0298
			CHANNELS 3 Zrotation Xrotation Yrotation
			JOINT Chest
			{
				OFFSET -0.0000 7.5501 -0.8160
				CHANNELS 3 Zrotation Xrotation Yrotation
				JOINT Neck1
				{
					OFFSET -0.1817 26.3113 -0.5533
					CHANNELS 3 Zrotation Xrotation Yrotation
					JOINT Neck2
					{
						OFFSET -0.0000 7.7094 2.3026
						CHANNELS 3 Zrotation Xrotation Yrotation
						JOINT Head
						{
							OFFSET -0.0000 6.1289 1.9537
							CHANNELS 3 Zrotation Xrotation Yrotation
							JOINT Jaw
							{
								OFFSET 0.0026 0.4756 3.0949
								CHANNELS 3 Zrotation Xrotation Yrotation
								End Site
								{
									OFFSET 0.0 1.0 0.0
								}
							}
							JOINT LeftEye
							{
								OFFSET 3.2064 5.3802 7.5869
								CHANNELS 3 Zrotation Xrotation Yrotation
								End Site
								{
									OFFSET 0.0 1.0 0.0
								}
							}
							JOINT RightEye
							{
								OFFSET -3.2224 5.3619 7.5582
								CHANNELS 3 Zrotation Xrotation Yrotation
								End Site
								{
									OFFSET 0.0 1.0 0.0
								}
							}
						}
					}
				}
				JOINT LeftShoulder
				{
					OFFSET 1.6217 23.2372 5.1134
					CHANNELS 3 Zrotation Xrotation Yrotation
					JOINT LeftArm
					{
						OFFSET 14.9198 0.0000 -5.5023
						CHANNELS 3 Zrotation Xrotation Yrotation
						JOINT LeftForeArm
						{
							OFFSET 28.7393 0.0000 -0.0026
							CHANNELS 3 Zrotation Xrotation Yrotation
							JOINT LeftHand
							{
								OFFSET 27.0940 -0.0000 0.0026
								CHANNELS 3 Zrotation Xrotation Yrotation
								JOINT LeftHandThumbEnd
								{
									OFFSET 12.2686 -3.2202 4.8331
									CHANNELS 3 Zrotation Xrotation Yrotation
									End Site
									{
										OFFSET 0.0 1.0 0.0
									}
								}
								JOINT LeftHandMiddleEnd
								{
									OFFSET 19.0120 -0.3129 -0.0340
									CHANNELS 3 Zrotation Xrotation Yrotation
									End Site
									{
										OFFSET 0.0 1.0 0.0
									}
								}
							}
						}
					}
				}
				JOINT RightShoulder
				{
					OFFSET -1.3801 23.1803 5.2142
					CHANNELS 3 Zrotation Xrotation Yrotation
					JOINT RightArm
					{
						OFFSET -15.0372 0.0000 -5.5456
						CHANNELS 3 Zrotation Xrotation Yrotation
						JOINT RightForeArm
						{
							OFFSET -28.7366 0.0000 -0.0026
							CHANNELS 3 Zrotation Xrotation Yrotation
							JOINT RightHand
							{
								OFFSET -27.1336 -0.0000 0.0026
								CHANNELS 3 Zrotation Xrotation Yrotation
								JOINT RightHandThumbEnd
								{
									OFFSET -12.2642 -3.2115 4.8040
									CHANNELS 3 Zrotation Xrotation Yrotation
									End Site
									{
										OFFSET 0.0 1.0 0.0
									}
								}
								JOINT RightHandMiddleEnd
								{
									OFFSET -19.0006 -0.3066 -0.0316
									CHANNELS 3 Zrotation Xrotation Yrotation
									End Site
									{
										OFFSET 0.0 1.0 0.0
									}
								}
							}
						}
					}
				}
			}
		}
	}
	JOINT LeftLeg
	{
		OFFSET 10.0432 -8.4345 2.5957
		CHANNELS 3 Zrotation Xrotation Yrotation
		JOINT LeftShin
		{
			OFFSET -0.0000 -43.2218 -0.8029
			CHANNELS 3 Zrotation Xrotation Yrotation
			JOINT LeftFoot
			{
				OFFSET 0.0000 -42.1551 -3.4815
				CHANNELS 3 Zrotation Xrotation Yrotation
				JOINT LeftToeBase
				{
					OFFSET 0.0000 -5.0595 13.2315
					CHANNELS 3 Zrotation Xrotation Yrotation
					End Site
					{
						OFFSET 0.0 1.0 0.0
					}
				}
			}
		}
	}
	JOINT RightLeg
	{
		OFFSET -10.0473 -8.2953 2.6203
		CHANNELS 3 Zrotation Xrotation Yrotation
		JOINT RightShin
		{
			OFFSET 0.0000 -43.3622 -0.8056
			CHANNELS 3 Zrotation Xrotation Yrotation
			JOINT RightFoot
			{
				OFFSET 0.0000 -42.1174 -3.4784
				CHANNELS 3 Zrotation Xrotation Yrotation
				JOINT RightToeBase
				{
					OFFSET -0.0000 -5.0796 13.2842
					CHANNELS 3 Zrotation Xrotation Yrotation
					End Site
					{
						OFFSET 0.0 1.0 0.0
					}
				}
			}
		}
	}
}
MOTION
Frames: 75
Frame Time: 0.033333
1.3875 100.2375 -0.1321 0.8736 -0.2971 -0.4297 -1.0794 1.4587 -0.3776 -0.7776 -4.5276 -0.1313 0.1150 11.4670 -2.2742 0.3076 4.4076 2.8952 -0.4143 -3.4318 0.9309 -1.9140 -6.0234 2.0804 0.0296 0.0123 -0.1828 0.7910 -10.5376 -4.0704 -0.7326 -10.5415 3.7041 -8.8999 12.5640 -11.7977 -62.0202 6.4749 -22.2756 0.3437 0.3141 -43.1977 -2.3197 1.1514 0.3158 -15.4870 11.2473 16.0281 -60.8358 2.0013 2.0768 13.1417 11.8504 18.3622 63.9606 -5.2869 12.9849 -0.5591 0.1679 37.3084 -0.7054 4.2957 3.8418 15.3825 7.4634 -16.5478 49.8270 -3.8099 -5.4376 0.6000 -2.6112 12.1362 0.0200 7.6818 0.1168 0.0113 -3.5504 -0.1169 1.6289 0.1451 -1.9842 -3.6641 -5.5375 -20.6058 0.0238 9.4656 -0.1193 4.9552 -5.1122 -1.5104 -1.4040 -0.2007 0.9831
1.3354 100.1150 -0.6563 0.9662 -0.5625 -0.2198 -1.1187 1.8171 -0.4026 -0.7661 -4.3687 -0.0645 -0.0452 11.3671 -2.3075 0.1030 3.8175 2.9094 -0.2103 -3.4102 1.4177 -1.9997 -6.4605 2.6340 0.0262 0.0084 -0.1537 0.7796 -10.4808 -4.0394 -0.7280 -10.4859 3.7317 -8.8374 12.6694 -11.9213 -62.0711 6.4226 -21.6040 0.1872 0.2539 -43.6459 -2.1590 1.7143 -0.0847 -15.3467 11.2118 15.9907 -60.5800 2.0123 2.0555 12.9392 12.0797 18.5240 63.7603 -4.7761 12.8828 -0.3933 0.0500 37.7110 -0.7544 4.3480 4.3167 15.3621 7.3853 -16.5343 49.7687 -3.8718 -5.4587 0.4835 -3.9501 11.6563 -0.0004 10.1327 0.0538 0.1082 -4.2022 0.1110 1.6321 0.0399 -1.9971 -3.7143 -6.7056 -20.4234 0.0398 11.7379 -0.0956 4.7913 -5.7410 -1.9413 -1.4146 -0.2632 0.9697
1.2924 99.7905 -1.4113 1.2379 -1.0649 0.2106 -1.2403 2.2887 -0.4046 -0.7637 -4.1663 -0.0060 -0.2417 11.3004 -2.1947 -0.1689 2.9730 2.9760 0.0347 -3.4177 2.0463 -2.1136 -6.9160 3.4237 0.0266 0.0146 -0.1454 0.7640 -10.4328 -4.0337 -0.7119 -10.4403 3.7429 -8.7008 12.9544 -12.0600 -61.9503 6.6489 -20.6889 0.1419 0.2236 -44.7729 -2.1861 2.8385 -0.5561 -15.1919 11.1916 16.0449 -60.3262 1.9786 2.1290 12.4483 12.3721 18.6357 63.6246 -3.5648 12.6473 -0.3148 -0.0721 38.7152 -0.8955 4.4082 4.9316 15.3186 7.3166 -16.5554 49.6703 -3.9537 -5.5002 0.1865 -5.6201 10.8759 -0.0041 13.6816 0.0496 0.4117 -5.2763 0.2611 1.6482 -0.0507 -2.0062 -4.0357 -8.3002 -20.1919 0.0495 15.1548 -0.0820 4.5063 -7.0169 -2.5631 -1.4282 -0.3068 0.9769
1.2507 99.2375 -2.0980 1.6430 -1.8535 0.6438 -1.3974 2.8681 -0.3423 -0.7557 -3.9461 0.0381 -0.5048 11.3398 -1.9648 -0.5861 1.7712 3.1903 0.3120 -3.4416 2.9214 -2.2065 -7.5666 4.4350 0.0293 0.0148 -0.1457 0.7499 -10.4010 -4.0367 -0.6929 -10.4174 3.7471 -8.4123 13.3678 -12.0165 -61.5562 7.1746 -19.4358 0.0617 0.2224 -46.5687 -2.4602 4.8242 -1.4339 -15.0023 11.1283 16.0904 -59.9798 1.9042 2.1930 11.6316 12.8048 18.7283 63.4293 -1.6366 12.3841 -0.2448 -0.1911 40.3735 -0.9647 4.6478 5.8240 15.2731 7.2677 -16.5933 49.5623 -3.9856 -5.5221 -0.2268 -7.4529 10.1470 0.0004 18.1507 0.0614 0.8879 -6.8086 0.3702 1.6696 -0.2063 -2.0170 -4.6263 -10.1834 -19.6793 0.0416 19.6110 -0.1151 4.2119 -8.7763 -3.3203 -1.4421 -0.4121 0.9945
1.1817 98.2886 -2.7917 2.0861 -3.1153 1.2151 -1.5404 3.6461 -0.2424 -0.7303 -3.6482 0.1324 -0.8437 11.5011 -1.6801 -1.3727 -0.0824 3.6252 0.7076 -3.5154 4.1421 -2.2001 -8.7128 6.1210 0.0272 0.0271 -0.1565 0.7373 -10.3343 -4.0443 -0.6855 -10.3750 3.7359 -7.7037 13.8503 -11.7719 -60.4375 8.4446 -17.8562 -0.1906 0.3355 -49.4767 -3.7734 8.1667 -3.3761 -14.7334 10.9976 16.1472 -59.4909 1.7772 2.2245 10.4246 13.4744 18.6963 62.8803 1.2493 12.2051 -0.2874 -0.1909 42.8104 -0.2310 4.5860 7.6610 15.2427 7.1994 -16.7005 49.3475 -4.0379 -5.5405 -0.6423 -9.6009 9.4876 0.0003 24.0772 0.0552 1.5617 -8.8710 0.3606 1.7011 -0.2878 -1.9913 -5.4145 -12.3742 -18.7375 0.0087 25.6125 -0.2061 4.0361 -10.8820 -4.4589 -1.4600 -0.4619 1.0145
1.0270 96.8255 -3.5827 2.4404 -5.0155 2.0088 -1.6277 4.6651 -0.0734 -0.7151 -3.2676 0.2210 -1.2394 11.9299 -1.3094 -2.6689 -2.8713 4.1048 1.2369 -3.5194 6.6554 -1.9723 -11.3541 8.8000 0.0251 0.0342 -0.1625 0.7337 -10.2140 -4.0350 -0.6862 -10.3196 3.7247 -6.7594 14.1428 -11.6620 -57.0936 11.0127 -15.3892 -0.7856 0.8021 -53.6330 -7.3261 12.8787 -7.1006 -14.5296 10.9182 16.2032 -59.2919 1.7470 2.3456 8.8048 14.2799 18.5017 61.4462 5.0517 12.1174 -0.6428 0.0888 45.5313 1.7166 2.8718 11.1240 15.3009 7.2007 -17.0470 49.2539 -4.0212 -5.7736 -0.7992 -11.8459 8.8183 -0.0424 31.1765 0.0004 2.0771 -11.4527 0.0706 1.7342 -0.2078 -1.8932 -6.4129 -14.8383 -17.4864 -0.0543 33.3609 -0.5258 4.5460 -12.9205 -6.0323 -1.4869 -0.3825 1.0992
0.6732 94.9411 -4.5452 2.4156 -7.6161 3.5462 -1.5053 5.6261 0.0694 -0.7626 -2.8609 0.1361 -1.5283 13.0336 -0.9333 -4.7062 -6.7778 4.7852 2.1412 -3.6128 10.0563 -1.4787 -15.0771 13.2073 -0.0173 0.0288 -0.2932 0.7030 -10.2094 -4.1404 -0.7370 -10.3480 3.5967 -6.4607 14.3110 -11.8233 -49.3230 14.2186 -11.5751 -1.1336 1.0909 -58.2886 -11.4143 17.2373 -11.3745 -14.5435 11.0209 16.1685 -59.2260 1.6003 2.2912 6.5891 14.9103 18.3348 58.4188 8.4737 11.3497 -1.1394 0.4080 46.3694 2.5131 0.3316 14.3460 15.3575 7.3160 -17.2637 49.6666 -3.9281 -5.6858 -0.5119 -13.8429 7.7947 -0.0338 38.7913 -0.0352 2.4481 -13.7999 -1.3578 1.7021 0.2484 -1.7814 -7.3893 -17.3572 -16.8489 -0.2041 42.5706 -0.7328 5.6277 -13.8079 -7.2967 -1.4933 -0.6804 1.2059
0.3161 93.6093 -5.4217 3.1896 -11.1451 5.3486 -1.8690 6.4168 0.0851 -0.8641 -2.6087 0.4201 -2.4286 14.5428 -0.4686 -6.4996 -11.1097 5.4873 2.7080 -3.4944 13.8898 -0.1443 -19.2852 16.9911 -0.1528 0.0540 -0.4875 0.5540 -10.3040 -4.2794 -0.8555 -10.4293 3.4084 -5.3600 13.9761 -11.9166 -38.3511 16.0337 -4.7133 -0.8006 0.8592 -63.7566 -15.5440 22.1680 -15.9346 -14.8177 10.8296 15.7433 -59.4425 1.2888 2.0335 3.2499 15.3678 18.5855 54.9106 10.1168 8.6142 -1.4331 0.5372 43.5983 1.1195 -0.5911 15.2422 15.5996 7.7504 -17.2721 50.8783 -3.6873 -5.4487 -1.2339 -12.8327 6.0578 -0.0082 42.8176 0.0025 3.6113 -14.7945 -2.7952 1.6942 1.1298 -1.7855 -9.7914 -18.4819 -16.4186 -0.3630 50.4941 -0.8278 6.7816 -12.5422 -7.4224 -1.4875 -3.0265 1.3618
-0.0169 92.9806 -6.2148 3.1036 -13.9450 7.3768 -1.7225 6.6705 0.1935 -0.8651 -2.4194 0.9943 -2.7973 14.7213 0.2290 -8.7092 -14.4547 6.5371 3.2257 -3.1962 16.1877 1.4464 -22.4650 18.5471 -0.2531 0.0838 -0.5438 0.3893 -10.3137 -4.2879 -0.8941 -10.4376 3.3390 -3.6063 13.3691 -12.1962 -27.3540 12.8685 4.4154 0.3699 -0.0008 -71.0970 -17.9730 21.3200 -19.9240 -15.6090 10.6324 15.6291 -60.1265 1.1404 1.8202 -1.3374 15.9013 19.5725 52.1117 12.1758 5.0081 -1.5541 0.6286 41.6942 -1.0546 -1.2351 14.0434 15.5142 8.1166 -16.9807 50.9838 -3.5820 -5.2692 -1.5329 -10.9003 3.3701 -0.0531 43.2126 -0.0858 4.1154 -15.3745 -2.7578 1.6708 1.3957 -1.8982 -10.6414 -16.6336 -16.1356 -0.3256 52.2002 -0.8317 7.6960 -12.4032 -9.3141 -1.4853 -3.2829 1.3420
-0.3405 93.5010 -7.3030 2.5900 -15.4995 9.5665 -1.3761 6.4178 0.4181 -0.7343 -2.4573 1.5138 -2.9260 13.8298 0.8121 -11.6816 -16.8703 8.3955 3.8020 -3.0295 17.2015 3.2926 -24.3256 18.0358 -0.3142 0.1330 -0.5321 0.2761 -10.1649 -4.2375 -0.9030 -10.2863 3.3378 -2.4975 12.2700 -12.6804 -17.7923 4.9741 11.8832 1.1805 -0.2304 -77.4091 -15.6820 15.8131 -21.0632 -16.7097 10.4703 15.4461 -60.8292 1.2090 1.8213 -5.3033 16.4420 20.6854 49.0430 13.5515 -0.1585 -1.3870 0.7861 42.3019 -2.7723 -3.8432 12.8460 15.3256 8.2112 -16.8091 50.4023 -3.4827 -5.1640 -1.6602 -8.7643 0.4133 0.0507 40.2759 -0.0087 4.1011 -14.2486 -2.7216 1.6807 1.2765 -1.9708 -10.0898 -13.0244 -15.7498 -0.2671 48.3570 -0.7403 8.1719 -12.4780 -12.1081 -1.4807 -2.2788 1.3675
-0.6567 95.0919 -8.7200 1.9939 -15.8207 12.1406 -0.9741 5.6827 0.4548 -0.6068 -2.6124 1.8158 -2.9966 12.4250 1.1490 -14.9169 -18.2540 10.4977 4.2070 -3.0593 16.7217 4.7966 -24.8213 16.6924 -0.3602 0.1531 -0.5398 0.2387 -10.0836 -4.2215 -0.9635 -10.2148 3.3246 -1.9075 11.6060 -12.9545 -11.0046 -3.7481 14.9889 1.8975 0.6798 -81.1480 -9.6621 6.4434 -20.0098 -17.4493 10.3656 15.2299 -61.1105 1.2965 1.9014 -9.0790 16.6864 21.1245 46.5315 12.6744 -7.5263 -1.3179 1.0840 45.3454 -4.5700 -8.9668 11.6198 15.2387 8.1206 -16.7083 49.9244 -3.3798 -5.0318 -1.7863 -6.2258 -2.8501 0.0939 33.3938 0.0815 3.3716 -10.4929 -3.4181 1.6825 0.5282 -2.0721 -9.1225 -8.7123 -15.4683 -0.1168 40.8455 -0.4058 7.9545 -10.7163 -14.4460 -1.4372 -1.4901 1.2585
-0.9695 97.0925 -10.4382 1.8458 -14.9093 14.8093 -0.7150 4.8290 0.3047 -0.4523 -2.9020 2.1088 -3.0987 10.7244 1.4834 -18.1330 -17.8521 12.3548 4.1579 -3.0903 15.4234 5.3721 -24.2490 14.6054 -0.3383 0.1982 -0.5175 0.2812 -10.0090 -4.2186 -0.9644 -10.1994 3.3681 -0.5097 10.4587 -12.7276 -8.3792 -10.1640 16.2993 1.9721 1.7501 -84.4414 -4.9176 -3.3605 -18.9221 -17.4025 10.6588 15.5510 -60.9367 1.4929 2.3521 -12.9884 17.0233 21.1971 45.5171 10.6324 -16.8048 -1.4365 1.4431 50.3411 -7.0747 -13.6860 10.9345 15.0083 7.9044 -16.5071 49.8043 -3.3292 -4.8152 -2.2780 -4.1457 -6.1409 0.2198 24.1238 0.3477 1.7218 -4.6016 -4.1897 1.7117 -0.3326 -2.0401 -8.7586 -5.4201 -15.4336 0.0008 35.4579 -0.2084 8.1017 -9.7117 -15.3044 -1.4325 -1.3836 1.2825
-1.4075 98.8005 -12.6781 1.8393 -13.1924 17.6490 -0.2537 4.2070 0.2200 -0.2831 -3.2459 2.3525 -3.2149 9.1504 1.5774 -20.5388 -15.9240 13.7550 3.7053 -3.1005 13.5608 5.2878 -22.6032 11.9292 -0.2414 0.2095 -0.3789 0.3590 -10.0506 -4.0902 -0.8487 -10.2745 3.4805 1.0889 9.5835 -11.5604 -9.5122 -15.7080 18.5394 1.3523 2.5075 -89.2099 -2.9893 -10.8200 -17.6186 -16.9931 11.0045 15.7709 -60.4380 1.5887 2.2330 -15.7657 17.1507 20.9373 43.8767 8.1453 -25.9920 -1.3344 1.9733 53.8723 -9.4300 -16.0847 10.7621 15.0059 7.4869 -16.0823 49.9015 -3.3607 -4.7138 -2.6610 -3.8416 -9.0223 0.2013 15.5888 0.2929 -0.6157 3.1545 -5.6454 1.7341 -1.5808 -2.0435 -8.2122 -3.8618 -15.7901 0.0501 35.7414 -0.0094 8.1016 -9.3492 -15.3634 -1.5054 -2.2354 1.3174
-1.8884 100.1278 -15.4818 1.9365 -10.9621 20.0856 0.5761 3.7727 0.3135 -0.0744 -3.5764 2.5437 -3.4870 8.1254 1.6873 -22.2233 -13.2589 14.2946 2.9265 -3.1891 11.4049 4.8885 -20.5369 9.0912 -0.1678 0.1983 -0.2698 0.3897 -10.1315 -3.9852 -0.7318 -10.3788 3.5717 1.5988 8.9177 -9.5414 -11.8422 -19.7379 23.0648 0.5715 3.2003 -95.1438 -2.5470 -15.8360 -15.9616 -16.4821 11.1799 15.8065 -60.3045 1.7309 1.9728 -17.7847 17.1937 20.9078 41.5376 6.2258 -33.9250 -0.6728 1.9364 54.1093 -10.4840 -14.8936 9.4259 15.5043 7.3652 -15.9526 50.7910 -3.2294 -4.6573 -2.6346 -5.3238 -10.7713 0.1096 8.8218 0.3154 -4.8407 10.3775 -8.1346 1.7192 -2.7999 -2.0745 -6.9206 -2.8211 -14.7465 -0.0144 36.4332 -0.0385 7.5907 -8.6269 -15.6705 -1.5803 -3.0721 1.3385
-2.4694 100.5313 -18.7414 2.0207 -8.4844 21.7113 1.5660 3.5944 0.5878 0.0853 -3.7208 2.8863 -3.7533 7.3373 1.8176 -23.2362 -10.7136 13.9654 2.1445 -3.3508 8.9142 4.6309 -17.8995 6.2363 -0.1231 0.1747 -0.1820 0.4420 -10.2696 -3.9057 -0.6990 -10.5123 3.6541 1.0387 8.5094 -7.0195 -13.7261 -22.7292 30.0520 -0.5262 2.9300 -101.5643 -2.9112 -19.5742 -13.7452 -16.1446 11.2303 15.7584 -60.4803 1.7932 1.8386 -19.8064 17.1272 20.5544 39.0117 5.0991 -39.6648 -0.1621 1.7220 51.1992 -9.9027 -12.1528 6.0413 16.1506 7.4534 -15.9407 51.6770 -3.0400 -4.7613 -2.0528 -8.0986 -11.1261 0.0547 4.2607 0.2873 -11.9986 13.3357 -11.4408 1.6327 -2.9317 -2.0537 -4.6515 -1.6212 -11.9304 -0.1369 33.1502 -0.1231 5.2151 -8.6169 -17.1741 -1.5971 -4.9507 1.3995
-3.2687 99.9712 -22.1887 2.6767 -6.1469 22.4459 2.1067 3.7045 0.8521 0.0533 -3.5332 3.4070 -4.2229 6.7661 1.8924 -23.1974 -8.4492 12.8425 1.5093 -3.5847 6.3895 4.0530 -14.9766 3.6807 -0.0385 0.1267 -0.1424 0.5627 -10.5336 -3.9205 -0.6543 -10.7656 3.7138 -0.7356 8.4459 -4.2946 -13.5528 -25.4809 37.6078 -1.4991 1.1713 -106.7468 -3.3067 -22.4712 -11.8307 -15.9818 11.2559 15.7667 -60.7337 1.6938 1.9819 -21.9795 16.9645 19.7688 36.6498 4.9505 -43.4565 0.4890 0.7060 47.1669 -8.7146 -9.2879 2.3440 16.4619 7.4370 -15.8130 51.5936 -3.0422 -4.7752 -1.6631 -12.1992 -10.3782 0.0661 4.7806 0.1289 -15.6032 10.4980 -11.1421 1.5404 -2.3678 -2.0488 -3.0179 -1.6045 -7.7982 -0.1514 26.2472 -0.2014 2.7844 -11.9528 -21.6401 -1.5492 -4.1593 1.4438
-4.2770 98.5843 -25.9318 3.1082 -4.8044 23.2831 2.6292 4.6028 1.0795 0.0031 -3.1177 3.6783 -4.6945 6.7581 1.6543 -22.2297 -6.2088 11.4314 0.7076 -3.7057 4.1779 3.0769 -12.6768 1.3525 0.0119 0.1162 -0.0884 0.6542 -10.7343 -3.9101 -0.6480 -10.9088 3.7827 -3.0611 8.0995 -1.5905 -12.6015 -27.2595 43.7027 -1.7106 -1.8062 -109.4266 -5.4452 -22.7472 -10.4165 -15.5493 11.1442 15.6875 -60.4736 1.6641 1.8198 -23.8614 16.8325 17.6082 35.1222 4.7799 -45.6320 1.4313 -0.2667 43.1399 -7.4298 -7.6916 0.2722 16.3121 7.2257 -16.0868 51.0825 -3.1360 -5.0005 -1.0856 -17.2653 -9.4870 0.0115 13.5863 -0.1162 -14.8258 3.9704 -6.6053 1.5277 -1.9047 -2.1120 -2.6459 -4.8164 -6.3987 -0.1659 25.3681 -0.0456 1.8642 -16.1148 -25.4584 -1.4828 -0.3753 1.3302
-5.3387 97.3551 -29.5820 1.8890 -4.7158 24.2664 3.4799 6.1110 1.4409 0.2043 -2.5722 3.4666 -4.0707 7.0637 1.0919 -20.7936 -3.3404 10.1596 -0.2021 -3.6840 2.2204 2.0714 -12.0818 -0.8007 0.0602 0.0782 0.0054 0.8072 -10.9301 -3.8846 -0.7034 -11.0453 3.9162 -3.7742 8.3793 0.6508 -15.5275 -24.7062 49.1811 -0.8825 -3.9452 -110.5061 -9.6772 -22.2279 -9.2659 -14.8025 11.0953 15.7809 -60.0394 1.7459 1.3645 -25.6462 16.6509 14.7688 35.5729 4.8504 -46.5764 2.3422 -0.8819 38.8132 -5.8632 -9.9270 -0.6433 15.7268 7.0296 -16.4297 49.8709 -3.4412 -5.3071 0.7459 -21.9824 -7.5403 -0.1520 30.1829 -0.4440 -9.7283 -3.2287 -1.9234 1.6582 -1.7220 -2.1668 -1.4773 -10.0869 -7.9249 -0.2025 30.9205 -0.0244 1.6686 -17.4206 -26.2980 -1.4588 0.7890 1.1997
-6.2140 97.0930 -32.6072 1.7074 -5.1192 25.2856 2.7824 6.9123 1.4554 0.1907 -2.3961 3.0773 -3.8379 7.7667 0.7081 -18.0778 0.5611 8.7965 -0.8454 -3.7428 0.5760 1.4822 -10.5643 -2.5031 0.0789 0.0170 -0.0050 0.8225 -10.8378 -3.8935 -0.6777 -10.9019 3.8863 -3.2862 9.4534 1.6015 -20.4780 -19.2836 53.8803 0.1400 -4.0862 -111.0213 -12.3713 -22.9652 -8.5875 -14.5062 10.8673 15.6815 -59.4533 1.9533 1.3203 -23.4284 16.1484 12.7261 36.3337 3.3263 -48.4473 1.6517 -0.7979 34.5610 -7.8962 -16.5171 -0.2669 14.7636 7.1884 -16.5867 48.8126 -3.6812 -5.2429 1.2598 -22.8593 -4.2225 -0.1248 44.2605 -0.3773 -2.1884 -6.4344 3.5892 1.8010 -1.9344 -2.2104 -1.9070 -13.0383 -11.1746 -0.0787 33.1892 -0.0308 0.6131 -16.3010 -24.1670 -1.4612 0.9589 1.0862
-7.0598 97.1642 -34.9109 0.8989 -5.5781 26.9759 2.1970 7.0919 1.3060 0.0702 -2.4439 2.2503 -3.5830 7.9679 0.2565 -14.7871 5.0442 7.5067 -1.3539 -3.7267 -0.5882 1.5261 -8.7941 -3.6747 0.0875 0.0060 0.0527 0.8148 -10.6696 -3.8139 -0.6493 -10.7091 3.9162 -1.5077 10.4425 1.8052 -25.9393 -12.2526 55.9263 -0.3157 -3.1077 -109.0972 -13.8519 -21.5268 -7.7616 -14.3772 10.7087 15.5759 -59.2414 2.0515 1.4945 -19.9554 15.5420 10.6097 37.9902 1.3087 -51.2439 0.2469 -0.3998 31.9706 -12.3804 -27.4169 2.8769 13.5894 7.4901 -16.2437 48.1283 -3.7745 -5.1010 3.2245 -19.9828 -0.7282 -0.2669 53.7097 -0.5330 2.9217 -9.4024 9.2342 1.8603 -2.3174 -2.2264 -1.6025 -13.6023 -14.9945 -0.0158 32.3403 -0.1065 -0.3470 -14.8524 -21.6982 -1.4640 0.8223 0.9963
-7.7463 97.5590 -36.8199 -0.0146 -5.6026 29.4405 1.7263 6.6430 1.0807 -0.0913 -2.6995 1.2978 -3.4512 7.9048 -0.7027 -11.7122 8.8396 6.5219 -1.6525 -3.6927 -1.4742 1.9137 -7.3167 -4.5085 0.0709 -0.0016 0.1148 0.7829 -10.6210 -3.7574 -0.6479 -10.6412 3.9898 -0.4882 11.0869 1.1106 -30.3867 -6.7250 55.0133 -1.2762 -1.8261 -104.2186 -14.4250 -17.4864 -7.2608 -14.4728 10.6525 15.5657 -59.5067 2.0788 1.7326 -15.8556 15.0978 8.1333 40.0449 -0.0243 -54.0642 -0.8118 -0.0841 31.3897 -16.6674 -38.6773 8.8626 13.3238 7.6359 -16.0458 48.3780 -3.6992 -5.1020 6.0071 -14.9158 2.9344 -0.4890 56.7982 -0.9950 6.2252 -11.4243 14.6806 1.9112 -2.6649 -2.2545 -1.1310 -13.2108 -18.8283 0.0111 29.7415 -0.1377 -0.6207 -13.1145 -19.9814 -1.4682 0.3627 0.9311
-8.2667 98.0555 -38.5467 -0.5845 -5.1849 32.7988 1.1129 5.7920 0.7581 -0.2885 -3.0659 0.2858 -3.5743 7.7426 -2.1438 -8.8744 11.6189 5.6038 -1.7737 -3.7252 -2.2368 2.5614 -6.1788 -5.1610 0.0506 -0.0115 0.1477 0.7543 -10.6392 -3.7396 -0.6565 -10.6454 4.0429 0.0323 11.6758 -0.4713 -34.3514 -3.6036 51.8774 -1.9129 -0.5198 -97.4203 -13.4943 -12.4395 -6.6642 -14.7801 10.7421 15.7031 -60.0342 2.0972 1.9202 -11.6338 15.1993 5.5366 42.2921 0.6944 -55.9075 -0.8903 -0.0594 31.7287 -16.9791 -46.9645 13.0709 13.7029 7.7066 -16.3123 48.9070 -3.5737 -5.2551 8.7962 -8.9084 6.7593 -0.4461 52.9487 -1.3658 7.3730 -10.7329 16.8083 1.9310 -3.5143 -2.2740 -0.9877 -12.8129 -22.7929 0.0486 26.5479 -0.1188 -0.4133 -11.1044 -19.3086 -1.4755 -0.3849 0.9122
-8.6570 98.3178 -40.4298 -0.5208 -4.6180 37.1084 0.2074 4.8545 0.3083 -0.5263 -3.5051 -0.6805 -4.0280 7.6658 -3.8150 -6.2832 13.4489 4.7107 -1.8656 -3.7446 -2.9633 3.3399 -5.2677 -6.0535 0.0321 -0.0066 0.1450 0.7387 -10.6275 -3.7506 -0.6747 -10.6161 4.0574 0.4536 12.3270 -2.9512 -37.3159 -3.0290 46.9070 -1.9635 0.3843 -90.5018 -10.0011 -8.2909 -5.9272 -15.1982 10.8757 15.9260 -60.3376 2.0778 2.0638 -8.1351 15.9466 2.9490 45.0779 3.9597 -56.2601 -0.0195 -0.3357 31.4735 -11.3969 -51.9607 12.0024 13.9778 7.8100 -16.5509 49.3575 -3.3398 -5.3599 10.9726 -2.6222 10.0738 -0.2266 42.4955 -1.6300 3.8097 -6.5237 12.9402 1.8584 -6.3797 -2.2769 -1.6099 -13.1821 -27.0639 0.0540 24.3166 -0.1746 0.2612 -9.6829 -19.2875 -1.4796 -1.1157 0.8778
-8.9638 98.0735 -42.7278 -0.2870 -4.2492 41.8881 -0.5109 4.0594 -0.3987 -0.6904 -3.9343 -1.4976 -4.5847 7.7405 -4.9866 -4.3512 14.7152 3.9755 -2.0547 -3.7033 -3.8902 3.9832 -4.6568 -7.1837 0.0218 -0.0186 0.1459 0.7576 -10.6459 -3.7516 -0.7119 -10.6052 4.0625 1.0563 12.7650 -6.0465 -38.2422 -4.1602 40.4851 -1.7426 0.5728 -85.6391 -4.4569 -7.5586 -5.0633 -15.2900 11.0880 16.0847 -60.3628 2.0094 2.1690 -6.2211 16.5081 0.5925 48.3756 9.2133 -55.7719 1.2478 -0.6305 30.3419 -1.9995 -53.4688 6.6614 14.2299 7.9279 -16.4377 49.7017 -3.0995 -5.4472 12.7968 3.8568 12.3920 0.0185 27.5118 -1.5550 -8.2611 -5.3647 5.0635 1.9476 -11.7815 -2.3881 -2.6589 -14.7725 -31.5234 0.0138 24.5058 -0.2161 1.5873 -9.5394 -18.9130 -1.4789 -1.5108 0.8208
-9.2369 97.4740 -44.9973 0.0999 -4.9044 46.3713 -1.1239 3.8436 -0.5951 -0.7789 -4.0242 -2.1520 -5.1159 8.1009 -6.0992 -3.1171 16.0203 3.5313 -2.2309 -3.7644 -5.1586 4.0485 -4.7803 -8.0529 0.0429 -0.0474 0.0739 0.8110 -10.6693 -3.8275 -0.7249 -10.6235 3.9831 1.3830 12.5639 -9.1202 -36.5220 -6.2415 32.5579 -1.4234 0.4318 -82.5685 0.8679 -8.9164 -4.4705 -15.3006 11.2904 16.1255 -60.6647 1.8167 2.1422 -4.6677 16.6155 -0.9632 51.6797 14.0108 -55.8344 2.3890 -0.8792 29.0504 6.7035 -52.6039 1.1712 14.3998 8.2013 -16.2751 50.3726 -3.0819 -5.0911 13.5375 9.3392 14.3157 0.0655 14.6655 -1.0883 -14.5781 -9.1700 1.3047 1.8339 -6.5684 -2.2058 -4.4889 -16.4761 -34.9255 -0.0064 26.3297 -0.0576 3.2057 -10.4098 -18.9552 -1.4705 -2.0165 0.8819
-9.3651 97.2309 -47.1185 1.1406 -6.4282 50.5343 -2.2632 4.0304 -0.7343 -0.9440 -4.0047 -2.4713 -5.9485 8.9009 -6.9244 -1.7759 17.4802 3.2733 -2.6096 -3.8138 -6.1803 4.0721 -4.7538 -9.0482 0.0606 -0.0859 -0.0461 0.8229 -10.7359 -3.9471 -0.7002 -10.6909 3.8559 1.9247 12.5655 -11.8501 -33.6480 -9.0384 23.4303 -0.8139 0.4413 -80.4446 5.4934 -10.1551 -3.8582 -15.5554 11.4214 16.2737 -60.8145 1.8984 2.1998 -1.9667 17.3821 -1.7638 55.9412 17.1508 -54.0994 3.0317 -0.8932 27.6368 12.2442 -49.0009 -1.7361 14.3323 8.4424 -16.5829 50.7189 -3.1367 -5.1571 12.2452 13.2672 13.9150 0.0261 7.1687 -0.7737 -14.7943 -9.5102 -0.5959 1.7728 -3.1241 -2.0570 -7.4502 -17.3514 -37.8060 0.0168 26.8534 0.0852 3.8053 -10.4189 -18.7120 -1.4457 -2.3916 1.0273
-9.4339 97.0433 -48.9572 1.4914 -8.0239 53.1605 -2.9259 4.1781 -0.8412 -1.1153 -3.9684 -2.7033 -6.3357 9.4003 -6.9839 -1.0385 19.1228 3.1499 -2.9216 -3.8322 -6.6487 3.9335 -4.3298 -9.5164 0.0649 -0.0780 -0.1037 0.7946 -10.7846 -4.0117 -0.6624 -10.7406 3.8024 3.7595 12.4556 -13.3027 -32.1505 -11.0909 14.7399 0.1420 0.5703 -80.0626 8.3823 -11.0035 -2.8421 -15.5064 11.5700 16.4062 -60.6997 2.0375 2.3143 -0.7768 18.1012 -1.6961 61.2868 20.3870 -48.4466 3.5039 -0.7207 26.1987 16.0879 -39.8643 -2.2785 14.4851 8.4832 -16.9640 50.7200 -3.4376 -5.3908 11.2270 15.8934 13.1104 -0.0082 3.3435 -0.7178 -13.5783 -9.7170 -1.3505 1.7386 -1.9285 -1.9440 -9.6332 -16.9893 -39.5100 0.0320 25.9956 0.0852 3.9466 -10.1935 -18.0637 -1.4306 -3.1374 1.0685
-9.4285 97.0751 -50.3643 1.4365 -9.4628 54.0300 -3.3384 4.2186 -0.8332 -1.3302 -3.9929 -2.8099 -6.5183 9.6227 -6.5719 -0.5946 20.3126 3.3162 -3.1879 -3.8471 -6.6508 3.8006 -3.5846 -9.7790 0.0525 -0.0498 -0.0651 0.7342 -10.7877 -3.9718 -0.6273 -10.7399 3.8419 5.4241 11.9200 -14.0875 -30.7117 -12.6662 7.7148 1.1716 0.2052 -81.3585 10.1743 -11.7063 -1.9329 -15.5092 11.6968 16.4923 -60.6947 2.1011 2.4769 -0.1883 18.3947 -0.8722 66.4489 22.1459 -41.5669 3.2242 -0.4936 26.0922 17.6781 -26.9107 -0.2769 15.0460 7.8803 -17.1363 49.8945 -3.8377 -5.6621 10.8042 17.4623 12.8253 -0.0348 2.1628 -0.6939 -12.7547 -9.6680 -1.7247 1.7265 -1.7075 -1.8476 -10.8410 -15.7879 -40.4850 -0.0600 24.0693 0.0211 4.0649 -10.1187 -17.1561 -1.4227 -3.7371 1.0758
-9.4859 97.1557 -51.6583 1.1108 -10.3782 53.5164 -3.5471 4.0427 -0.7043 -1.4409 -4.0289 -2.7023 -6.5207 9.5005 -6.2070 -0.7088 20.5940 3.4951 -3.2164 -3.8919 -6.4479 3.8834 -2.9171 -9.6114 0.0452 -0.0212 -0.0556 0.7210 -10.7964 -3.9648 -0.6292 -10.7465 3.8558 5.8726 11.0514 -14.4911 -28.7371 -13.9449 2.6040 1.6118 -0.3116 -83.6716 11.0806 -12.8452 -1.3816 -15.2879 11.7020 16.5551 -60.5788 2.0970 2.5208 0.0622 18.4443 0.3882 70.4647 22.4557 -36.1898 2.1040 -0.1595 27.8968 16.5588 -21.2364 2.1245 15.7334 7.4752 -17.0981 49.9226 -3.9005 -5.7063 10.8204 18.3052 13.4138 -0.0229 1.8206 -0.6152 -12.2452 -9.5998 -1.5913 1.7154 -1.6999 -1.8546 -11.0217 -14.6128 -40.7587 -0.1300 22.2253 -0.1054 4.0928 -10.4726 -16.0506 -1.4252 -4.1255 1.0760
-9.5911 97.2480 -52.7783 0.8315 -10.9855 52.2157 -3.6672 3.8559 -0.6238 -1.4470 -4.0071 -2.5844 -6.5507 9.2284 -5.9140 -0.9575 19.9793 3.7760 -3.1241 -3.8856 -6.1456 3.9959 -2.7306 -9.3605 0.0569 -0.0006 -0.0988 0.7391 -10.8202 -4.0198 -0.6240 -10.7617 3.8192 5.5218 10.3966 -14.6324 -27.1807 -14.5722 -0.8403 2.1016 -0.3249 -85.9029 11.3417 -14.0675 -1.0677 -15.1155 11.5926 16.5457 -60.3159 2.0317 2.4801 0.1690 18.1596 1.8011 72.7319 21.5820 -33.7722 0.8152 0.0927 30.8335 13.2529 -19.4555 4.0526 16.1867 7.4530 -17.0307 50.4394 -3.7633 -5.4388 10.8015 18.7487 14.2842 -0.0160 1.8543 -0.5160 -11.6040 -9.4485 -0.9891 1.7013 -1.6859 -1.8826 -10.6960 -13.8416 -41.1635 -0.1630 20.7680 -0.2301 3.9574 -10.8723 -14.9665 -1.4435 -4.3987 1.0546
-9.7336 97.3940 -53.8423 0.6558 -11.2809 50.4732 -3.7338 3.6604 -0.5847 -1.4372 -3.9635 -2.4308 -6.5152 8.9764 -5.8038 -1.3025 18.8278 4.0173 -2.9200 -3.9423 -5.9308 4.1505 -2.9926 -8.9047 0.0541 0.0191 -0.0949 0.7239 -10.7892 -4.0092 -0.6141 -10.7300 3.8158 5.0329 9.8198 -14.6185 -26.7580 -14.5274 -2.6434 2.3408 -0.3305 -87.6121 11.3322 -14.3154 -1.0659 -15.0614 11.5944 16.5731 -60.2338 2.0570 2.3894 0.1196 17.7078 3.1848 73.7555 20.1885 -32.5997 0.1089 0.2684 34.4202 9.6588 -18.2109 5.4252 16.1708 7.3618 -16.8055 50.3308 -3.7618 -5.2628 10.7356 18.6713 15.5338 -0.0021 2.2516 -0.5177 -10.8863 -9.3854 -0.4131 1.6958 -1.5862 -1.8581 -9.9998 -13.6663 -41.4682 -0.1974 20.0931 -0.3131 4.2357 -11.1345 -14.1032 -1.4508 -4.4525 1.0652
-9.9387 97.5016 -54.8228 0.6965 -11.4766 48.5191 -3.7727 3.6502 -0.5505 -1.4401 -3.9208 -2.3925 -6.4726 8.7739 -5.6084 -1.4743 17.3284 3.9316 -2.7885 -3.8929 -5.4894 4.2075 -3.6402 -8.5315 0.0607 0.0299 -0.1014 0.7278 -10.7539 -4.0130 -0.6050 -10.7030 3.8032 4.6602 9.6360 -14.4272 -27.2949 -13.8964 -3.8716 2.7949 -0.3475 -88.6044 11.0621 -13.4764 -1.0766 -15.0689 11.4924 16.4797 -60.2025 2.0235 2.4704 -0.1324 17.2864 4.4736 74.1042 19.1464 -30.6153 -0.1094 0.2208 38.4831 6.9680 -15.9321 6.3713 16.0309 7.2848 -16.5158 50.2792 -3.6147 -5.1022 10.3989 18.4920 16.6188 0.0171 2.6995 -0.4432 -10.1527 -9.4132 0.2940 1.6714 -1.4109 -1.8935 -9.4427 -13.9806 -41.8320 -0.1380 19.8227 -0.3503 4.1975 -11.5413 -13.6905 -1.4824 -4.5232 1.0826
-10.1846 97.4846 -55.7940 0.9199 -11.5652 46.5933 -3.8656 3.7493 -0.5689 -1.4262 -3.8381 -2.2590 -6.3463 8.6906 -5.5040 -1.4803 15.7284 3.7871 -2.6390 -3.8996 -5.3115 4.2889 -4.5805 -8.3361 0.0571 0.0469 -0.1297 0.7181 -10.6984 -4.0356 -0.6020 -10.6476 3.7696 4.3067 9.5998 -14.3152 -28.4057 -12.7971 -4.5213 2.9805 -0.5965 -88.8953 10.5417 -12.1514 -1.2161 -15.0085 11.4471 16.4296 -60.1768 2.0073 2.4585 -0.4796 16.9332 5.5471 73.8886 18.4576 -27.7824 -0.2814 0.2491 43.0195 5.1313 -12.8117 6.6566 15.6884 7.1919 -16.2760 49.9907 -3.5874 -4.9554 9.9077 18.1572 17.6697 0.0255 3.3275 -0.4014 -9.5667 -9.6347 0.8864 1.6650 -1.1950 -1.8775 -9.0567 -14.8366 -42.2474 -0.1286 20.7276 -0.3557 4.6782 -11.8941 -13.5048 -1.4844 -4.3684 1.0866
-10.4583 97.4798 -56.6990 1.1993 -11.5683 44.6588 -3.8880 3.9861 -0.5778 -1.3737 -3.7755 -2.1077 -6.1588 8.6676 -5.4892 -1.3395 14.1419 3.5391 -2.5662 -3.8784 -5.1251 4.3647 -5.7017 -8.2647 0.0482 0.0521 -0.1504 0.7053 -10.6729 -4.0518 -0.6068 -10.6223 3.7482 3.9458 9.7921 -14.1618 -29.9426 -11.3522 -5.0449 2.8291 -0.7582 -88.2021 9.6003 -10.7110 -1.3843 -15.0015 11.3800 16.3979 -60.1140 1.9842 2.4371 -0.9113 16.6358 6.4859 72.9065 17.8554 -25.0521 -0.2403 0.2850 47.8954 3.6358 -9.4966 6.6984 15.4098 7.1908 -16.2421 49.8257 -3.6103 -4.9260 9.3830 17.7286 18.6942 0.0381 3.9561 -0.3644 -9.0148 -9.8974 1.3323 1.6696 -1.0423 -1.8711 -8.8563 -15.9523 -42.5589 -0.1271 22.5285 -0.3368 5.3469 -12.0344 -13.6266 -1.4828 -4.1340 1.0740
-10.7484 97.5496 -57.4838 1.3478 -11.3598 42.8989 -3.7838 4.1674 -0.6206 -1.2733 -3.7529 -2.0156 -5.8797 8.6589 -5.5783 -1.0709 12.7768 3.3002 -2.4897 -3.8458 -4.9719 4.3410 -6.8004 -8.2578 0.0386 0.0545 -0.1593 0.6868 -10.6554 -4.0592 -0.6072 -10.6087 3.7421 3.6636 10.0142 -14.0241 -32.0812 -9.1479 -5.8312 2.5752 -0.6623 -86.1498 8.2536 -9.4026 -1.5466 -15.0326 11.3385 16.3801 -60.0638 1.9668 2.3994 -1.2859 16.3737 7.3106 71.2026 17.0869 -23.0689 -0.1945 0.3360 52.6026 2.4328 -6.6035 6.5160 15.2252 7.2731 -16.3663 49.8423 -3.6619 -4.9719 8.9607 17.1878 19.5850 0.0416 4.2626 -0.3367 -8.5298 -9.8775 1.7784 1.6801 -0.9917 -1.8948 -8.7627 -17.0046 -42.6071 -0.1386 25.0792 -0.3296 5.9784 -11.9913 -13.9762 -1.4807 -3.8343 1.0484
-11.0469 97.6644 -58.1313 1.2759 -10.9665 41.2146 -3.5484 4.2462 -0.6441 -1.1449 -3.7732 -2.0160 -5.4287 8.6429 -5.7085 -0.6786 11.7476 3.0671 -2.3880 -3.8372 -4.8572 4.1723 -7.6771 -8.2054 0.0291 0.0573 -0.1780 0.6715 -10.6619 -4.0790 -0.6108 -10.6201 3.7280 3.5497 10.2603 -13.9417 -34.9204 -6.3543 -6.9508 2.2221 -0.5939 -82.7308 6.4957 -8.3019 -1.6385 -15.0580 11.2983 16.2758 -60.1122 1.9487 2.3062 -1.5376 16.0807 7.9734 69.1278 16.1339 -21.7215 -0.2555 0.3005 56.9391 1.5900 -3.9638 6.0546 15.1464 7.4093 -16.5244 50.0147 -3.7027 -4.9879 8.8174 16.5775 20.4483 0.0266 4.2486 -0.3157 -8.2188 -9.6831 2.2794 1.6886 -1.0026 -1.9408 -8.7054 -17.6759 -42.3543 -0.1422 28.1347 -0.3136 6.4643 -11.6152 -14.1116 -1.4828 -3.5020 0.9956
-11.3825 97.7664 -58.5165 1.0749 -10.4651 39.5543 -3.2707 4.2026 -0.6936 -1.0376 -3.8094 -2.0959 -4.8434 8.6325 -5.8340 -0.1579 11.0099 2.8622 -2.3076 -3.8423 -4.7408 3.8399 -8.2540 -8.1251 0.0191 0.0714 -0.2017 0.6622 -10.6504 -4.1018 -0.6216 -10.6155 3.7085 3.3806 10.5802 -13.9058 -38.0476 -3.5559 -8.3580 1.6254 -0.5060 -78.2415 4.7592 -7.5857 -1.6811 -15.0230 11.3087 16.2329 -60.1792 1.9460 2.2110 -1.5017 15.6539 8.3776 67.1084 14.8861 -20.8650 -0.4053 0.2937 60.8077 1.1922 -2.0420 5.4267 15.0851 7.5557 -16.6799 50.0792 -3.7300 -5.0335 8.9141 15.9404 21.3069 0.0127 4.0885 -0.2928 -8.1398 -9.4721 2.7294 1.6969 -1.0014 -1.9659 -8.7852 -17.7214 -41.6302 -0.1321 31.3903 -0.2875 6.8043 -11.1905 -13.9728 -1.4887 -3.2241 0.9583
-11.7377 97.8968 -58.6550 0.8608 -9.8525 37.8603 -2.9940 4.0143 -0.7801 -0.9504 -3.8745 -2.2417 -4.2148 8.6494 -5.9635 0.3910 10.5330 2.6938 -2.2351 -3.8517 -4.6096 3.3834 -8.5491 -7.9530 0.0115 0.0855 -0.2156 0.6587 -10.6604 -4.1207 -0.6334 -10.6387 3.7017 2.9682 10.9767 -13.9434 -41.1235 -0.8025 -10.1425 1.0287 -0.4469 -72.9395 3.2988 -7.5106 -1.8486 -14.9919 11.3194 16.2179 -60.2606 1.9301 2.1446 -1.0180 15.1340 8.5780 65.3249 13.3147 -20.3261 -0.5475 0.3104 64.5796 1.1909 -0.9393 4.7023 15.0454 7.6737 -16.7785 50.0625 -3.6836 -5.0530 9.0964 15.3034 22.1779 -0.0095 3.7888 -0.2493 -8.2288 -9.1850 3.1300 1.7036 -1.0293 -1.9423 -9.0266 -17.0874 -40.3332 -0.1126 34.3315 -0.2455 7.0350 -10.6892 -13.5637 -1.4901 -3.0914 0.9331
-12.1686 97.9960 -58.5666 0.7338 -9.1080 36.0690 -2.7534 3.7129 -0.8643 -0.8842 -3.9481 -2.4461 -3.6298 8.6404 -6.1281 0.8754 10.1833 2.6024 -2.1643 -3.8579 -4.3954 2.8222 -8.6525 -7.6621 0.0088 0.0835 -0.1982 0.6605 -10.6661 -4.1079 -0.6410 -10.6593 3.7252 2.4378 11.3853 -14.0400 -44.1727 1.7881 -12.2514 0.4712 -0.2482 -67.0809 1.8758 -7.9495 -2.1038 -15.0698 11.2990 16.2044 -60.4085 1.9485 2.0554 -0.1597 14.5365 8.6560 64.0021 11.5663 -19.9597 -0.4546 0.3988 68.2789 1.3868 -0.5156 3.9520 15.0052 7.7306 -16.8100 49.9802 -3.6360 -5.0587 9.2348 14.5926 23.0976 -0.0278 3.4936 -0.2016 -8.4638 -8.8527 3.5349 1.7128 -1.1094 -1.8991 -9.3409 -15.7566 -38.4576 -0.0992 36.1282 -0.1976 7.2615 -9.8933 -12.9036 -1.4851 -3.0877 0.9295
-12.6916 98.0653 -58.3245 0.7664 -8.1057 34.0422 -2.5329 3.3250 -0.9253 -0.8313 -4.0192 -2.6217 -3.1732 8.5167 -6.3836 1.2035 9.7945 2.6927 -2.0682 -3.8330 -4.1380 2.2299 -8.6986 -7.1434 0.0084 0.0666 -0.1758 0.6669 -10.6662 -4.0874 -0.6494 -10.6687 3.7484 1.9246 11.6122 -14.0618 -47.2497 4.2749 -14.5435 0.0607 -0.0819 -61.2502 0.3615 -8.4520 -2.2974 -15.1393 11.2984 16.2111 -60.6318 2.0843 1.9217 0.9573 14.0291 8.7774 63.4026 9.7188 -19.4448 -0.1903 0.4106 71.5801 1.5940 -0.7531 3.2375 14.9170 7.7337 -16.7796 49.8314 -3.6115 -5.0953 9.1887 13.7216 24.0999 -0.0518 3.2055 -0.1798 -8.7569 -8.4520 4.2017 1.7112 -1.1697 -1.8524 -9.4672 -13.8836 -36.1480 -0.0991 36.0582 -0.1409 7.6677 -8.5359 -12.0564 -1.4778 -3.4094 0.9523
-13.3409 98.1107 -58.0487 0.9660 -6.9175 31.7581 -2.4036 3.0034 -0.9956 -0.8277 -4.0633 -2.7118 -2.7243 8.2961 -6.4906 1.2927 9.1635 2.7113 -1.9836 -3.7635 -3.8986 1.5700 -8.6909 -6.4504 0.0164 0.0564 -0.1464 0.6827 -10.6827 -4.0619 -0.6496 -10.6782 3.7770 1.5510 11.8478 -14.0384 -50.1778 6.4396 -16.5151 0.0005 -0.0133 -56.7673 -1.3940 -8.7950 -1.9946 -15.1192 11.3954 16.3263 -60.7958 2.2914 1.8036 1.9709 13.7014 8.9558 63.7270 8.2074 -18.4488 0.0325 0.2472 73.9948 1.7896 -0.8452 2.5455 14.7282 7.8023 -16.7736 49.6922 -3.6393 -5.1562 9.0058 12.6612 25.2437 -0.0771 3.0923 -0.1084 -9.2137 -8.1243 5.1372 1.6807 -0.9992 -1.8242 -9.2924 -11.4689 -34.0370 0.0103 32.7820 -0.1308 9.0068 -7.9882 -10.6734 -1.4677 -4.3475 1.0336
-14.1042 98.0300 -57.6664 1.3592 -5.6544 29.1967 -2.2326 2.8371 -1.0865 -0.8509 -4.1049 -2.6299 -2.5274 8.1288 -6.2930 1.2115 8.0105 2.6626 -1.9388 -3.7186 -3.3527 1.0528 -8.8206 -5.9780 0.0188 0.0475 -0.1004 0.6992 -10.6765 -4.0181 -0.6618 -10.6653 3.8257 1.2269 12.3563 -13.9014 -52.4491 7.6582 -17.4456 -0.1973 -0.0407 -54.1433 -2.3765 -8.4725 -1.9047 -15.1465 11.3372 16.2502 -60.8606 2.3230 1.8411 2.8077 13.3597 9.1688 64.7604 7.3113 -16.5071 -0.3632 0.4203 75.0758 2.2159 -0.4422 1.6642 14.5567 7.8628 -16.7423 49.6108 -3.5593 -5.1194 8.6597 11.2609 26.4785 -0.0812 3.8168 -0.1382 -9.7661 -8.1724 6.2426 1.6731 -1.1518 -1.8761 -8.1878 -9.6925 -33.0165 0.0671 27.7032 -0.1798 8.5805 -10.6848 -9.6114 -1.4628 -2.2458 0.9836
-14.8646 98.0884 -57.4335 1.3410 -4.5233 26.4641 -1.6158 2.9430 -1.0048 -0.8221 -4.1215 -2.5048 -2.3083 8.1510 -6.1000 0.6621 6.6535 2.8747 -1.8526 -3.7588 -3.0199 0.7796 -9.2967 -5.3538 0.0118 0.0286 -0.0778 0.7139 -10.6663 -3.9870 -0.6903 -10.6472 3.8447 0.8951 12.5885 -13.5933 -54.4148 8.5992 -17.2878 -0.4741 -0.1005 -53.0954 -2.8071 -7.7966 -2.0768 -15.0388 11.3243 16.2612 -60.6816 2.2975 1.8182 3.3372 13.1053 9.7929 66.1009 6.3156 -14.5544 -0.7260 0.3782 74.9311 2.6485 0.7114 0.8576 14.5554 7.8513 -16.6567 49.5316 -3.5395 -5.0986 8.6297 9.0025 27.6724 -0.0548 6.1669 -0.1681 -10.1105 -8.4942 7.4963 1.6833 -1.5318 -1.8501 -6.5098 -8.5306 -31.3857 -0.0015 23.7947 -0.1900 7.1979 -11.9260 -8.6865 -1.4291 -1.1979 0.9902
-15.5768 98.3638 -57.2638 1.0122 -3.6972 23.7343 -0.9054 3.2744 -0.9206 -0.7342 -4.0360 -2.2656 -1.8794 8.3255 -5.9805 -0.1906 5.4658 3.2126 -1.7723 -3.7306 -2.7880 0.5491 -10.2092 -4.5808 0.0170 0.0030 -0.0790 0.7523 -10.6549 -3.9929 -0.7190 -10.6403 3.8460 0.8338 12.6508 -13.4149 -56.6604 9.5110 -16.4181 -0.8346 -0.0003 -53.1309 -3.1910 -6.1543 -1.8550 -15.0554 11.1564 16.1685 -60.5797 2.1209 1.8138 3.1339 12.7791 10.5962 68.0149 4.9595 -12.9548 -0.4925 0.3810 73.5825 2.6306 1.0583 0.0036 14.5643 7.8025 -16.5898 49.5125 -3.4834 -5.1976 8.9470 6.1048 28.8077 -0.0334 9.9523 -0.1814 -9.9179 -8.2822 8.7350 1.7334 -2.1437 -1.8714 -4.8285 -8.2205 -29.4952 -0.0614 21.9733 -0.2020 6.1995 -11.5661 -7.9568 -1.4013 -1.0977 1.0262
-16.1942 98.7344 -57.0060 0.9974 -3.2839 21.4876 -0.5073 3.6587 -0.8836 -0.7089 -3.9596 -2.1976 -1.6615 8.5738 -5.8290 -0.6969 4.9596 3.3894 -1.6787 -3.7159 -2.5323 0.1646 -10.9442 -3.9871 0.0199 0.0024 -0.0489 0.7528 -10.6354 -3.9584 -0.7134 -10.6229 3.8702 1.2209 12.9420 -13.4998 -59.0321 10.7088 -15.9150 -0.9025 0.0333 -53.5866 -3.8133 -4.3779 -1.3075 -15.0015 11.0732 16.1429 -60.5000 2.1181 1.8024 2.6418 12.8442 11.2851 70.1564 3.3295 -11.0784 -0.2905 0.3460 71.3004 2.3728 0.7390 -0.6474 14.6287 7.7640 -16.4117 49.4072 -3.4641 -5.1263 9.0408 3.5289 29.4357 -0.0309 14.1867 -0.2720 -8.3910 -7.3779 9.7334 1.7626 -3.3087 -1.9323 -3.9082 -7.6971 -28.0126 -0.0103 20.1677 -0.2113 5.4516 -10.8841 -7.2454 -1.3999 -0.9900 1.0002
-16.6755 99.1053 -56.6729 1.1324 -3.1273 19.8201 -0.3057 4.0130 -0.8747 -0.7629 -3.8530 -2.0877 -1.5194 8.7779 -5.7668 -0.7216 4.8014 3.3809 -1.6543 -3.6544 -2.4041 -0.3613 -11.2848 -3.6110 0.0195 -0.0003 -0.0389 0.7372 -10.6429 -3.9453 -0.6962 -10.6334 3.8746 1.4107 13.2209 -13.5238 -60.8982 12.0629 -15.8417 -0.7851 -0.0251 -54.3643 -4.7260 -2.7188 -0.6290 -14.9793 11.0511 16.1016 -60.4702 2.1483 1.8003 2.9037 12.9061 11.6230 71.0970 2.1556 -8.6411 -0.3964 0.4826 69.2493 2.1491 0.0111 -0.9931 14.6875 7.8579 -16.3194 49.4408 -3.3995 -5.0268 8.8928 1.3993 29.4518 -0.0730 18.1199 -0.3248 -5.2141 -6.6509 10.9600 1.7958 -3.9808 -2.0233 -3.4457 -6.7954 -26.7668 0.0525 18.1470 -0.2523 4.7278 -10.0906 -6.7637 -1.4061 -1.0221 0.9775
-16.9686 99.4258 -56.2856 1.3078 -3.1382 18.5990 -0.1766 4.3120 -0.8232 -0.7573 -3.7489 -1.9874 -1.4334 9.0358 -5.6776 -0.5957 4.7152 3.2459 -1.6533 -3.6583 -2.4987 -0.8403 -11.5335 -3.4705 0.0190 0.0063 -0.0434 0.7222 -10.6098 -3.9434 -0.6826 -10.6041 3.8628 1.0583 13.4187 -13.4372 -62.0212 13.1496 -15.6280 -0.7952 -0.0652 -55.1239 -5.2038 -1.2546 -0.1172 -14.9907 11.0321 16.1099 -60.4703 2.0833 1.8468 3.6190 12.8518 11.7143 71.1149 1.5056 -5.9703 -0.7310 0.6393 67.5634 2.2016 -0.7177 -0.9583 14.7901 7.8998 -16.3086 49.6080 -3.3947 -5.0328 8.4071 -0.1326 28.5692 -0.0920 20.4830 -0.2429 -1.9847 -7.2240 11.4288 1.7919 -3.7743 -2.0124 -3.2407 -5.6842 -25.6229 0.0482 16.0131 -0.2786 4.1524 -9.1278 -6.5176 -1.4129 -0.9425 0.9630
-17.0975 99.7160 -55.9296 1.4356 -3.2072 17.6057 -0.0296 4.5457 -0.7564 -0.7283 -3.6804 -1.9243 -1.3315 9.2992 -5.4673 -0.3689 4.6459 3.1346 -1.7071 -3.6554 -2.7309 -1.2189 -11.8306 -3.4848 0.0154 0.0146 -0.0500 0.7112 -10.5940 -3.9432 -0.6798 -10.5874 3.8499 0.5274 13.7042 -13.2142 -62.8807 13.6586 -15.3462 -0.8301 -0.1829 -55.4482 -5.2542 -0.6903 0.1990 -15.0330 11.0408 16.1107 -60.4693 2.0445 1.8307 4.2614 12.8383 11.7166 70.8952 0.9468 -3.7282 -0.8039 0.6839 66.0227 2.1912 -0.9188 -0.9410 14.8964 7.9100 -16.3106 49.7319 -3.3898 -5.0476 7.7172 -1.1227 26.7477 -0.0942 20.6758 -0.1755 -1.9900 -7.9226 9.5314 1.8008 -3.5889 -2.0366 -3.1382 -4.5311 -24.5199 0.0198 13.9612 -0.2866 3.5597 -8.0532 -6.4421 -1.4149 -0.8314 0.9589
-17.0632 99.8903 -55.6273 1.3750 -3.3021 16.6754 0.2036 4.7289 -0.7065 -0.6891 -3.6291 -1.8522 -1.1803 9.5371 -5.2521 -0.1081 4.6123 3.0464 -1.7877 -3.6282 -2.9606 -1.4630 -12.0361 -3.6027 0.0146 0.0260 -0.0465 0.7139 -10.5866 -3.9388 -0.6849 -10.5794 3.8521 0.0091 13.9300 -12.9293 -63.8219 13.8784 -15.1719 -0.7790 -0.2163 -55.3466 -5.1782 -0.5562 0.4842 -15.0981 11.0536 16.0716 -60.5182 2.0330 1.8070 4.7619 12.8790 11.8130 70.6523 0.2943 -1.9644 -0.6719 0.6933 64.5192 2.0315 -1.0301 -1.0115 14.9969 7.9037 -16.2797 49.8284 -3.3801 -5.0248 7.1007 -1.7862 24.1347 -0.0903 19.1208 -0.1986 -3.5904 -7.7886 6.1444 1.8059 -3.3889 -2.1020 -2.9888 -3.4043 -23.4937 0.0020 12.1730 -0.2835 2.9927 -7.1039 -6.3423 -1.4176 -0.6959 0.9630
-16.9435 99.9565 -55.4152 1.1068 -3.3965 15.6305 0.5006 4.8691 -0.6877 -0.6410 -3.5839 -1.7301 -0.9387 9.7707 -5.0164 0.1084 4.6001 2.9881 -1.8296 -3.5992 -3.1979 -1.6233 -12.1301 -3.7378 0.0154 0.0363 -0.0512 0.7145 -10.5822 -3.9435 -0.6845 -10.5758 3.8458 -0.5852 14.1057 -12.5642 -64.6907 13.8287 -15.1762 -0.7601 -0.2359 -54.7957 -5.0274 -0.3609 0.7653 -15.1634 11.0411 16.0133 -60.5693 2.0472 1.8122 5.1909 12.9311 12.0574 70.3257 -0.4415 -0.4553 -0.5012 0.6627 63.0020 1.6993 -1.0525 -1.0581 15.0664 7.8734 -16.2602 49.8718 -3.4091 -5.0374 6.7149 -2.3836 21.0184 -0.0864 16.8061 -0.2409 -4.9553 -7.2470 2.6908 1.8021 -3.2126 -2.1697 -2.7202 -2.3751 -22.4972 -0.0157 10.7074 -0.2764 2.4975 -6.3312 -6.0769 -1.4209 -0.5452 0.9625
-16.7028 99.9724 -55.2736 0.7110 -3.5055 14.4748 0.7999 4.9755 -0.6750 -0.5890 -3.5528 -1.5801 -0.6400 10.0169 -4.7496 0.2787 4.5890 2.9197 -1.8344 -3.5751 -3.4193 -1.7141 -12.0897 -3.8923 0.0173 0.0460 -0.0591 0.7145 -10.5808 -3.9541 -0.6810 -10.5808 3.8392 -1.1868 14.2704 -12.2003 -65.4593 13.4908 -15.4242 -0.7949 -0.2498 -53.7812 -4.7685 0.1823 1.0408 -15.2236 11.0477 15.9921 -60.6002 2.1089 1.8325 5.5876 12.9470 12.4081 69.8889 -1.1951 0.9701 -0.3299 0.5848 61.4576 1.2478 -0.7898 -1.0425 15.0690 7.8139 -16.2475 49.8330 -3.4831 -5.0490 6.6447 -2.9474 17.8456 -0.0808 14.5503 -0.2836 -5.9404 -6.4600 -0.6712 1.7860 -3.0047 -2.2171 -2.4205 -1.4479 -21.5819 -0.0264 9.5124 -0.2622 2.1032 -5.7461 -5.5124 -1.4247 -0.4080 0.9649
-16.3923 99.9606 -55.1731 0.2321 -3.6275 13.1460 1.0539 5.0175 -0.6444 -0.5451 -3.5312 -1.4080 -0.2769 10.3124 -4.4543 0.4327 4.5472 2.7996 -1.8137 -3.5666 -3.5626 -1.7697 -11.9248 -4.0359 0.0201 0.0559 -0.0836 0.7175 -10.5757 -3.9803 -0.6785 -10.5807 3.8145 -1.7869 14.3920 -11.9053 -66.1530 13.0048 -15.9666 -0.8020 -0.2515 -52.4376 -4.4347 0.8807 1.3144 -15.3548 11.1048 15.9885 -60.7018 2.1724 1.8317 6.0106 12.9461 12.8238 69.2031 -1.8890 2.6431 -0.2456 0.5090 59.9576 0.8091 -0.0512 -1.1160 15.0588 7.7437 -16.2202 49.8179 -3.5298 -5.0444 6.8370 -3.3690 15.0773 -0.0874 12.6617 -0.3202 -6.7348 -5.2701 -3.8048 1.7578 -2.6268 -2.2213 -2.1264 -0.6239 -20.6905 -0.0234 8.5285 -0.2552 1.8593 -5.3147 -4.6741 -1.4250 -0.2615 0.9863
-16.0108 99.8968 -55.0161 -0.2290 -3.8254 11.7223 1.1653 5.0018 -0.5585 -0.4939 -3.5002 -1.3129 0.1530 10.6642 -4.1184 0.4963 4.5131 2.7893 -1.7346 -3.5773 -3.4849 -1.7007 -11.4924 -4.3486 0.0224 0.0862 -0.0547 0.7260 -10.5511 -3.9456 -0.6841 -10.5527 3.8380 -2.5111 14.4932 -11.7176 -66.5754 12.6437 -16.9640 -0.7650 -0.2909 -51.1000 -3.8580 1.3567 1.5954 -15.5198 11.1830 16.0145 -60.7546 2.1570 1.7873 6.5940 13.0751 13.3427 68.0510 -2.5330 4.7008 -0.3802 0.4614 58.4090 0.7510 1.3359 -1.1312 15.0970 7.6173 -16.1432 49.8028 -3.5931 -5.0614 7.1733 -3.6804 13.4557 -0.1555 12.2224 -0.3239 -6.4987 -3.6123 -5.1384 1.7154 -1.8525 -2.1921 -1.9858 0.0460 -19.8055 0.0012 7.8620 -0.2728 1.9410 -5.0564 -3.6169 -1.4292 -0.0379 0.9455
-15.4701 99.8190 -54.7862 -0.5663 -3.9540 10.4807 1.1115 4.9130 -0.5292 -0.4749 -3.5335 -1.1404 0.5235 10.8770 -3.9687 0.7268 4.6134 2.6655 -1.7242 -3.5441 -3.5360 -1.6432 -11.3488 -4.2035 0.0224 0.0854 -0.0826 0.7325 -10.5356 -3.9716 -0.6904 -10.5358 3.8090 -2.9863 14.5460 -11.3937 -67.0517 12.4279 -18.4460 -0.6403 -0.1575 -49.7699 -3.5342 1.2944 1.4555 -15.5655 11.1173 15.9874 -60.8135 2.0409 1.8737 7.3591 13.1341 13.7122 66.7792 -2.7482 6.7001 -0.6065 0.4537 57.0053 0.6051 2.6185 -0.8633 15.1227 7.6023 -16.2114 49.8323 -3.5610 -5.1263 7.3789 -3.3235 13.7185 -0.1337 12.3826 -0.2845 -5.9225 -4.1627 -5.0171 1.6894 -1.3553 -2.1567 -1.9683 0.2001 -19.2170 -0.0280 7.9526 -0.2828 2.0717 -5.0607 -2.6041 -1.4212 0.0365 0.9600
-14.8423 99.8212 -54.5319 -0.5899 -3.8999 9.3496 0.9104 4.6857 -0.5003 -0.4790 -3.6185 -1.0143 0.6404 11.0134 -3.8570 0.9398 4.6805 2.5889 -1.7262 -3.5381 -3.5049 -1.5274 -11.0421 -4.1650 0.0230 0.0729 -0.0810 0.7339 -10.5331 -3.9662 -0.6904 -10.5286 3.8071 -3.4501 14.6386 -11.1945 -67.3545 12.0508 -20.0065 -0.5526 -0.0362 -47.9912 -3.1851 1.1063 1.1651 -15.4955 11.1117 15.9652 -60.8190 2.0079 1.8843 8.0500 13.1516 13.9706 65.9938 -3.0764 8.0879 -0.6340 0.3644 55.2865 0.1481 3.9607 -0.5671 15.1350 7.5776 -16.2437 49.8165 -3.5532 -5.1137 7.1530 -2.5627 14.3313 -0.1311 11.6092 -0.2751 -5.3633 -4.4395 -4.6743 1.6753 -0.9713 -2.1160 -2.2439 -0.0456 -18.7202 -0.0358 8.1917 -0.2581 2.2945 -5.0725 -1.7708 -1.4148 0.0641 0.9655
-14.1391 99.8988 -54.3140 -0.3951 -3.6727 8.3301 0.6454 4.3852 -0.4907 -0.4691 -3.7163 -0.9373 0.5518 11.0086 -3.7824 1.1362 4.6598 2.5598 -1.7708 -3.5430 -3.4485 -1.3849 -10.6537 -4.1660 0.0243 0.0569 -0.0682 0.7286 -10.5170 -3.9468 -0.6820 -10.5106 3.8124 -4.0051 14.6009 -11.0628 -67.4746 11.5929 -21.4302 -0.5433 0.0817 -45.8284 -2.7973 0.9249 0.9743 -15.4442 11.0659 15.8954 -60.6768 1.9868 1.9089 8.5225 13.1391 14.1441 65.8286 -3.5643 8.8059 -0.5730 0.3314 53.4138 -0.4802 5.1637 -0.4093 15.1546 7.5380 -16.2491 49.8165 -3.5530 -5.1183 6.5307 -1.5530 14.7529 -0.1172 10.0180 -0.2555 -4.8593 -4.2670 -4.0305 1.6687 -0.7269 -2.0609 -2.7381 -0.4606 -18.2324 -0.0346 8.2451 -0.2248 2.6531 -4.9249 -1.2328 -1.4119 0.0026 0.9452
-13.4027 100.0069 -54.1121 -0.1213 -3.3976 7.5206 0.3663 4.0769 -0.4899 -0.4522 -3.7983 -0.9167 0.3760 10.9773 -3.8059 1.2643 4.5414 2.5621 -1.8089 -3.5362 -3.4003 -1.2614 -10.3979 -4.1952 0.0264 0.0509 -0.0553 0.7273 -10.5041 -3.9301 -0.6759 -10.4993 3.8183 -4.5849 14.5148 -10.9425 -67.4564 10.9939 -22.3479 -0.5127 0.1205 -43.9588 -2.4246 0.5396 0.9748 -15.4118 11.0017 15.8435 -60.5425 2.0154 2.0241 8.7677 13.1232 14.3223 66.1509 -4.1738 8.8386 -0.4039 0.3080 51.7207 -1.0163 5.7991 -0.2930 15.2073 7.5035 -16.2336 49.7807 -3.6157 -5.1385 5.7632 -0.5463 14.8386 -0.1062 8.2939 -0.2199 -4.4113 -3.8481 -3.2988 1.6710 -0.5543 -2.0253 -3.3449 -0.9061 -17.8459 -0.0234 8.2418 -0.2116 3.0863 -4.7488 -0.7542 -1.4145 -0.1471 0.8998
-12.7041 100.0569 -53.9986 0.0478 -3.2650 6.9498 0.1153 3.8433 -0.4817 -0.4564 -3.8572 -0.9581 0.2784 11.0184 -3.7631 1.4162 4.3305 2.5477 -1.8272 -3.5298 -3.3982 -1.1698 -10.2367 -4.2601 0.0283 0.0552 -0.0553 0.7330 -10.5048 -3.9308 -0.6776 -10.4998 3.8166 -5.0657 14.4061 -10.9169 -67.2895 10.3469 -22.4381 -0.5858 0.0777 -43.1211 -1.9362 -0.8020 0.9507 -15.4613 10.9582 15.8333 -60.5378 2.0253 2.1390 9.0351 13.0687 14.4454 66.4568 -4.4808 8.8814 -0.4148 0.3728 50.2941 -1.0584 5.8940 -0.1805 15.2786 7.5500 -16.2721 49.8260 -3.6501 -5.1710 5.1851 0.2688 14.9303 -0.0956 7.1054 -0.1874 -4.0928 -3.6989 -2.8705 1.6745 -0.4274 -2.0146 -3.9023 -1.1546 -17.6086 -0.0128 8.2697 -0.2154 3.5142 -4.6902 -0.2999 -1.4219 -0.3156 0.8644
-12.0907 100.0452 -53.8847 0.0869 -3.3046 6.5947 -0.0978 3.7087 -0.4611 -0.4824 -3.8862 -0.9837 0.2873 11.0979 -3.6703 1.5664 4.0728 2.4913 -1.7881 -3.5289 -3.4459 -1.1143 -10.1286 -4.3292 0.0271 0.0668 -0.0666 0.7420 -10.5094 -3.9460 -0.6893 -10.5047 3.8082 -5.5480 14.2929 -10.9703 -66.8419 9.8389 -22.2929 -0.6407 0.0313 -43.1194 -1.4068 -2.6547 0.7448 -15.4797 10.9464 15.8264 -60.5059 2.0137 2.1705 9.6263 12.9941 14.4755 66.3691 -4.3853 9.1076 -0.5788 0.4718 49.0838 -0.9100 5.7395 -0.0444 15.2659 7.5726 -16.2874 49.7728 -3.6598 -5.1878 4.8567 0.8816 15.1365 -0.0773 6.5208 -0.1534 -3.8495 -3.8920 -2.7819 1.6693 -0.2502 -2.0085 -4.3337 -1.2030 -17.3979 -0.0198 8.4138 -0.2257 3.8509 -4.8025 -0.0572 -1.4291 -0.3922 0.8591
-11.5991 100.0006 -53.8128 0.0745 -3.4328 6.4386 -0.3182 3.6397 -0.4503 -0.5210 -3.9057 -1.0057 0.3594 11.2066 -3.5591 1.7144 3.7991 2.3954 -1.7072 -3.5341 -3.5180 -1.0574 -10.1284 -4.3420 0.0234 0.0714 -0.0777 0.7480 -10.5199 -3.9579 -0.7032 -10.5160 3.7994 -5.8181 14.1983 -11.0499 -66.3096 9.2966 -22.3491 -0.6138 -0.0063 -43.4354 -0.9467 -4.4709 0.5713 -15.4675 10.9823 15.8173 -60.5113 2.0335 2.1379 10.2991 12.9805 14.4060 66.2878 -4.2559 9.1580 -0.7184 0.5357 47.8557 -0.9645 5.4801 0.1706 15.2300 7.5775 -16.2838 49.7149 -3.6208 -5.1906 4.6248 1.2714 15.2669 -0.0571 6.4475 -0.1401 -3.5676 -4.2423 -2.8336 1.6622 -0.0664 -2.0200 -4.6925 -1.2634 -17.2951 -0.0364 8.8215 -0.2121 4.0580 -4.9897 0.0904 -1.4312 -0.3282 0.8597
-11.1926 99.9743 -53.7600 0.1011 -3.5094 6.4940 -0.5690 3.5849 -0.4568 -0.5556 -3.9256 -1.0219 0.4065 11.2863 -3.4977 1.8961 3.5153 2.2919 -1.6619 -3.5265 -3.5144 -0.9626 -10.2552 -4.3210 0.0196 0.0662 -0.0828 0.7507 -10.5314 -3.9634 -0.7138 -10.5276 3.7964 -5.7449 14.1117 -11.0978 -65.9097 8.6187 -22.5460 -0.5348 -0.0047 -43.8210 -0.5969 -6.0670 0.5991 -15.4572 11.0016 15.8127 -60.5271 2.0584 2.1066 10.8767 13.0264 14.3128 66.5103 -4.2899 8.6888 -0.7331 0.5526 46.5268 -1.4016 5.1607 0.4203 15.1936 7.5565 -16.2566 49.6836 -3.6019 -5.1490 4.3472 1.4715 15.2094 -0.0481 6.5424 -0.1416 -3.2656 -4.5260 -2.8977 1.6574 0.0626 -2.0348 -5.0526 -1.4501 -17.4175 -0.0372 9.3413 -0.1734 4.2430 -5.1477 0.2731 -1.4293 -0.2610 0.8665
-10.8181 99.9559 -53.6932 0.1850 -3.4863 6.6605 -0.8276 3.5169 -0.4590 -0.5972 -3.9518 -1.0207 0.4282 11.3254 -3.4534 2.0724 3.2907 2.1958 -1.6358 -3.5264 -3.4375 -0.8754 -10.4756 -4.2898 0.0175 0.0564 -0.0836 0.7491 -10.5333 -3.9629 -0.7164 -10.5311 3.7952 -5.4699 14.0008 -11.1415 -65.6378 7.8899 -22.6162 -0.4769 -0.0024 -44.4510 -0.3166 -7.4650 0.7263 -15.4061 10.9883 15.8225 -60.4479 2.0629 2.1286 11.3395 13.1215 14.2616 67.0015 -4.4476 7.7242 -0.6820 0.5392 45.1852 -2.1057 4.7476 0.6203 15.1595 7.5194 -16.1965 49.6384 -3.6064 -5.0867 4.0164 1.5847 15.0857 -0.0511 6.5528 -0.1631 -3.0035 -4.6618 -2.9476 1.6547 0.1352 -2.0347 -5.4140 -1.7101 -17.6203 -0.0236 9.7510 -0.1375 4.4178 -5.2776 0.4519 -1.4253 -0.2382 0.8802
-10.5483 99.9422 -53.6016 0.3006 -3.4194 6.8306 -1.0664 3.4564 -0.4588 -0.6384 -3.9904 -0.9972 0.4338 11.3589 -3.3800 2.2041 3.1133 2.1051 -1.6324 -3.5291 -3.3395 -0.7920 -10.6911 -4.2551 0.0156 0.0471 -0.0809 0.7441 -10.5377 -3.9615 -0.7152 -10.5370 3.8003 -5.2096 13.8707 -11.2040 -65.3941 7.2670 -22.5067 -0.4390 0.0268 -45.5144 -0.0425 -8.8025 0.8437 -15.3491 10.9439 15.8278 -60.4010 2.0408 2.1919 11.7719 13.2029 14.2646 67.5548 -4.5900 6.4424 -0.6053 0.5020 43.9539 -2.8265 4.1918 0.7965 15.1330 7.4962 -16.1471 49.6375 -3.6160 -5.0647 3.7044 1.7146 14.9920 -0.0576 6.3978 -0.1789 -2.8451 -4.7006 -2.9973 1.6539 0.1845 -2.0233 -5.7420 -1.9435 -17.7965 -0.0090 10.0152 -0.1208 4.5774 -5.3969 0.6167 -1.4210 -0.2470 0.8921
-10.3225 99.9469 -53.4934 0.4062 -3.3115 6.9925 -1.2594 3.3819 -0.4639 -0.6696 -4.0232 -0.9469 0.4263 11.3866 -3.2932 2.2712 2.9491 2.0600 -1.6189 -3.5360 -3.2755 -0.6985 -10.8329 -4.2512 0.0150 0.0416 -0.0717 0.7388 -10.5372 -3.9534 -0.7113 -10.5393 3.8118 -5.0901 13.7171 -11.2520 -65.0676 6.8746 -22.4157 -0.4128 0.0523 -46.8355 0.1926 -10.0809 0.8678 -15.2818 10.8984 15.8193 -60.3443 2.0040 2.2312 12.2406 13.2525 14.3409 67.9507 -4.6705 5.1658 -0.5202 0.4707 42.7961 -3.4078 3.5811 0.9748 15.1309 7.4809 -16.1087 49.6385 -3.6290 -5.0512 3.4564 1.8707 14.9826 -0.0612 6.0432 -0.1869 -2.7765 -4.6078 -3.0972 1.6550 0.1845 -2.0050 -5.9838 -2.0979 -17.9421 -0.0069 10.0854 -0.1093 4.7077 -5.4592 0.7259 -1.4172 -0.2816 0.9037
-10.1652 99.9674 -53.3520 0.4943 -3.1712 7.1430 -1.4031 3.2944 -0.4519 -0.6979 -4.0645 -0.9002 0.3983 11.4128 -3.2116 2.2969 2.8074 2.0703 -1.6041 -3.5356 -3.2338 -0.6075 -10.9344 -4.2562 0.0142 0.0424 -0.0655 0.7316 -10.5359 -3.9481 -0.7058 -10.5393 3.8200 -5.0783 13.5639 -11.2718 -64.6900 6.6640 -22.4715 -0.3842 0.0874 -48.1356 0.3476 -11.2807 0.8456 -15.2379 10.8743 15.8101 -60.3296 1.9865 2.2309 12.6750 13.2743 14.4812 68.1465 -4.6506 4.1791 -0.4346 0.4451 41.6672 -3.7736 3.0610 1.1026 15.1445 7.4820 -16.1135 49.6130 -3.6495 -5.0527 3.2717 2.0270 15.0183 -0.0611 5.5826 -0.1819 -2.7964 -4.4272 -3.2543 1.6560 0.1809 -1.9909 -6.1420 -2.1819 -18.0864 -0.0130 9.9907 -0.1128 4.7923 -5.4867 0.8391 -1.4154 -0.3147 0.9047
-10.1017 100.0059 -53.1757 0.5559 -3.0049 7.2700 -1.4942 3.1917 -0.4448 -0.7287 -4.0985 -0.8467 0.3569 11.4210 -3.1570 2.2813 2.6936 2.1088 -1.5846 -3.5451 -3.2063 -0.5189 -11.0201 -4.2439 0.0136 0.0467 -0.0675 0.7232 -10.5246 -3.9496 -0.6987 -10.5314 3.8180 -5.1552 13.4141 -11.2756 -64.3190 6.5671 -22.6970 -0.3126 0.1322 -49.1058 0.3784 -12.2411 0.8495 -15.2335 10.8703 15.7806 -60.3168 1.9925 2.2021 13.0261 13.2663 14.6415 68.1390 -4.5097 3.7049 -0.3797 0.4358 40.6126 -3.8873 2.7484 1.1319 15.1686 7.4832 -16.1254 49.5990 -3.6362 -5.0704 3.1625 2.1907 15.0900 -0.0605 4.9956 -0.1726 -2.8953 -4.1632 -3.4360 1.6553 0.1604 -1.9770 -6.2121 -2.1857 -18.2030 -0.0105 9.7193 -0.1145 4.8415 -5.4379 0.9197 -1.4154 -0.3416 0.9080
-10.1005 100.0557 -53.0283 0.5904 -2.8256 7.3541 -1.5384 3.0719 -0.4374 -0.7527 -4.1285 -0.7870 0.2968 11.4132 -3.1223 2.2147 2.6244 2.1605 -1.5562 -3.5517 -3.1681 -0.4210 -11.0598 -4.2421 0.0118 0.0516 -0.0809 0.7168 -10.5258 -3.9616 -0.6961 -10.5308 3.8034 -5.3291 13.2759 -11.2740 -63.9720 6.5152 -23.0359 -0.2029 0.1583 -49.5908 0.3155 -12.7395 0.9248 -15.2597 10.9007 15.7677 -60.3509 2.0279 2.1793 13.2780 13.2102 14.8085 67.9609 -4.2146 3.7806 -0.3777 0.4210 39.7813 -3.7303 2.6669 1.0514 15.2008 7.4704 -16.1586 49.5907 -3.6487 -5.0918 3.1200 2.3388 15.1794 -0.0578 4.3725 -0.1629 -3.0576 -3.8582 -3.5952 1.6529 0.1206 -1.9633 -6.1950 -2.1286 -18.2837 -0.0073 9.3341 -0.1191 4.8686 -5.3463 0.9973 -1.4150 -0.3419 0.8993
-10.1725 100.0911 -52.9383 0.5977 -2.6648 7.3934 -1.5420 2.9545 -0.4218 -0.7734 -4.1500 -0.7132 0.2337 11.4089 -3.1096 2.0956 2.5423 2.2328 -1.5423 -3.5526 -3.1536 -0.2940 -11.0606 -4.2680 0.0096 0.0550 -0.0921 0.7091 -10.5279 -3.9706 -0.6930 -10.5291 3.7907 -5.5836 13.1372 -11.2813 -63.6746 6.4782 -23.3801 -0.0705 0.1692 -49.6084 0.2183 -12.8485 1.0555 -15.2716 10.9520 15.7552 -60.3723 2.0647 2.1731 13.4406 13.1081 14.9646 67.6819 -3.8330 4.2187 -0.4124 0.4157 39.2240 -3.3866 2.7217 0.9762 15.2251 7.4503 -16.1591 49.5957 -3.6565 -5.1052 3.1538 2.4757 15.3230 -0.0560 3.7810 -0.1590 -3.2394 -3.5609 -3.7143 1.6496 0.0784 -1.9535 -6.1154 -2.0041 -18.3742 -0.0013 8.8780 -0.1139 4.8791 -5.2425 1.0744 -1.4142 -0.3158 0.8973
-10.3238 100.1202 -52.8809 0.5935 -2.5319 7.3776 -1.5179 2.8591 -0.3816 -0.7847 -4.1776 -0.6715 0.1470 11.4143 -3.0922 1.9484 2.4761 2.3007 -1.5242 -3.5432 -3.1303 -0.1907 -11.0827 -4.3074 0.0074 0.0549 -0.0986 0.7034 -10.5380 -3.9752 -0.6916 -10.5374 3.7824 -5.8790 13.0135 -11.2866 -63.4469 6.4140 -23.5720 0.0277 0.1637 -49.3298 0.1267 -12.8393 1.1857 -15.2663 10.9899 15.7447 -60.3839 2.0994 2.1728 13.5401 12.9548 15.0860 67.3464 -3.3742 4.8538 -0.4276 0.4042 39.0564 -3.0079 2.6525 0.9985 15.2585 7.4355 -16.1713 49.6111 -3.6682 -5.1434 3.2396 2.5890 15.4660 -0.0579 3.2859 -0.1637 -3.4213 -3.3260 -3.7563 1.6474 0.0526 -1.9557 -5.9932 -1.8276 -18.4285 0.0028 8.4084 -0.1068 4.8867 -5.1540 1.1171 -1.4121 -0.2759 0.8979
-10.5169 100.1381 -52.8524 0.5648 -2.4125 7.3273 -1.4707 2.7766 -0.3496 -0.7895 -4.1921 -0.6531 0.0587 11.3906 -3.0502 1.7838 2.4344 2.3678 -1.5062 -3.5364 -3.1151 -0.1101 -11.1078 -4.3321 0.0053 0.0533 -0.1034 0.6959 -10.5390 -3.9761 -0.6883 -10.5361 3.7745 -6.2052 12.9053 -11.2860 -63.2998 6.3659 -23.5794 0.0908 0.1578 -48.8927 0.0175 -12.8550 1.3126 -15.2792 11.0006 15.7297 -60.3740 2.1111 2.1891 13.5908 12.7857 15.1888 67.0402 -2.9302 5.5363 -0.4518 0.4094 39.2633 -2.5954 2.4704 1.0759 15.2734 7.4199 -16.1661 49.6051 -3.6814 -5.1667 3.3934 2.6663 15.6225 -0.0630 2.8765 -0.1656 -3.6255 -3.1355 -3.7527 1.6496 0.0284 -1.9603 -5.8089 -1.6151 -18.4426 0.0051 7.9226 -0.0979 4.8520 -5.0555 1.1515 -1.4110 -0.2211 0.9053
-10.7432 100.1503 -52.8227 0.4910 -2.2938 7.2314 -1.3900 2.6875 -0.3439 -0.7902 -4.1966 -0.6216 -0.0098 11.3390 -2.9942 1.6207 2.4101 2.4516 -1.4966 -3.5385 -3.1258 -0.0662 -11.1058 -4.3387 0.0034 0.0542 -0.1148 0.6904 -10.5340 -3.9859 -0.6867 -10.5293 3.7619 -6.5315 12.8141 -11.2760 -63.2094 6.3873 -23.4634 0.1195 0.1391 -48.4244 -0.1083 -12.9296 1.4481 -15.2758 11.0067 15.7380 -60.3556 2.1043 2.2194 13.6089 12.6288 15.2294 66.7772 -2.5614 6.1158 -0.4775 0.4226 39.8454 -2.1856 2.2099 1.1522 15.2747 7.4160 -16.1889 49.6057 -3.6958 -5.2118 3.6327 2.6919 15.8147 -0.0641 2.5559 -0.1569 -3.8378 -2.9928 -3.7691 1.6532 0.0026 -1.9708 -5.5442 -1.3569 -18.4171 0.0024 7.4034 -0.0838 4.7862 -4.9547 1.1279 -1.4104 -0.1595 0.9145
-10.9749 100.1541 -52.7918 0.3884 -2.1814 7.0997 -1.2875 2.6078 -0.3469 -0.7803 -4.2047 -0.5967 -0.0576 11.2720 -2.9436 1.4756 2.4077 2.5184 -1.4878 -3.5416 -3.1495 -0.0581 -11.0997 -4.3038 0.0018 0.0572 -0.1265 0.6868 -10.5218 -3.9937 -0.6865 -10.5167 3.7459 -6.8102 12.7643 -11.2586 -63.1830 6.4712 -23.2847 0.0884 0.1297 -47.9432 -0.2530 -12.9168 1.5609 -15.3229 10.9966 15.7388 -60.3781 2.1019 2.2313 13.5853 12.4543 15.1997 66.5710 -2.2910 6.5506 -0.4949 0.4253 40.6050 -1.8864 2.0590 1.2310 15.2681 7.4304 -16.2065 49.6232 -3.6912 -5.2297 3.9131 2.6626 15.9957 -0.0609 2.3484 -0.1514 -4.0533 -2.9111 -3.7627 1.6586 -0.0443 -1.9818 -5.2390 -1.1144 -18.4011 -0.0033 6.9437 -0.0698 4.7267 -4.9004 1.1287 -1.4088 -0.0978 0.9229
-11.1986 100.1644 -52.7314 0.2609 -2.0727 6.9407 -1.1706 2.5322 -0.3305 -0.7608 -4.2131 -0.5917 -0.0800 11.2007 -2.9167 1.3075 2.3947 2.5671 -1.4724 -3.5338 -3.1676 -0.0621 -11.0733 -4.2613 0.0021 0.0580 -0.1323 0.6878 -10.5111 -3.9965 -0.6866 -10.5101 3.7388 -7.0559 12.7242 -11.2225 -63.2046 6.6772 -23.0695 0.0120 0.1193 -47.4749 -0.4324 -12.7665 1.6690 -15.3515 10.9938 15.7263 -60.4234 2.1030 2.2303 13.5211 12.2469 15.1406 66.4368 -2.1135 6.7923 -0.4734 0.4383 41.4891 -1.7623 2.0387 1.3543 15.2254 7.4549 -16.2304 49.6190 -3.7010 -5.2536 4.2277 2.6031 16.1316 -0.0588 2.2062 -0.1408 -4.2994 -2.8457 -3.7016 1.6631 -0.1251 -1.9936 -4.9062 -0.8640 -18.4026 -0.0038 6.4986 -0.0674 4.6676 -4.8334 1.1672 -1.4088 -0.0624 0.9335
-11.4735 100.1627 -52.6536 0.1224 -1.9811 6.7672 -1.0525 2.4357 -0.3257 -0.7381 -4.2203 -0.5817 -0.0693 11.1521 -2.9035 1.1223 2.3955 2.5282 -1.4358 -3.5236 -3.0869 -0.0686 -11.0068 -4.1951 0.0013 0.0538 -0.1392 0.6858 -10.5031 -4.0009 -0.6861 -10.5085 3.7299 -7.2642 12.6539 -11.1600 -63.2878 7.0720 -22.9506 -0.0274 0.1739 -47.0007 -0.7327 -12.4919 1.8078 -15.4252 10.9787 15.7152 -60.5248 2.0912 2.2318 13.4205 12.0099 15.0542 66.3604 -1.9643 6.9580 -0.4897 0.4882 42.4274 -1.7049 1.9368 1.4613 15.1527 7.4721 -16.2531 49.6118 -3.7016 -5.2645 4.5479 2.5538 16.2006 -0.0532 2.0841 -0.1326 -4.5582 -2.7801 -3.5159 1.6714 -0.1842 -1.9968 -4.5709 -0.5801 -18.4264 -0.0031 6.0410 -0.0567 4.5850 -4.7503 1.1903 -1.4075 -0.0713 0.9373
-11.8033 100.1545 -52.5742 -0.0098 -1.9319 6.6386 -0.9389 2.3529 -0.3182 -0.7100 -4.2287 -0.5900 -0.0284 11.1401 -2.8938 0.9417 2.4148 2.4053 -1.3673 -3.5148 -2.8461 -0.1014 -10.9197 -4.1888 0.0008 0.0535 -0.1445 0.6819 -10.5061 -4.0060 -0.6832 -10.5139 3.7238 -7.3921 12.5666 -11.1106 -63.3885 7.5770 -22.8580 -0.0799 0.2197 -46.6375 -1.0202 -12.1414 1.9914 -15.4804 10.9964 15.7346 -60.6583 2.0733 2.2602 13.3280 11.7703 14.9212 66.2796 -1.8795 7.0431 -0.4801 0.5145 43.2719 -1.6891 1.7540 1.5167 15.0907 7.5235 -16.2936 49.6554 -3.6824 -5.2607 4.8653 2.5301 16.2404 -0.0497 2.0470 -0.1117 -4.7771 -2.7641 -3.3021 1.6767 -0.2053 -1.9866 -4.2636 -0.2856 -18.5101 0.0040 5.6443 -0.0251 4.5077 -4.7052 1.2027 -1.4031 -0.0988 0.9353
