HIERARCHY
ROOT Hips
{
	OFFSET 0.0000 0.0000 0.0000
	CHANNELS 6 Xposition Yposition Zposition Zrotation Xrotation Yrotation
	JOINT Spine1
	{
		OFFSET -0.0137 5.0038 -0.0537
		CHANNELS 3 Zrotation Xrotation Yrotation
		JOINT Spine2
		{
			OFFSET -0.0000 7.1253 -0.0298
			CHANNELS 3 Zrotation Xrotation Yrotation
			JOINT Chest
			{
				OFFSET -0.0000 7.5501 -0.8160
				CHANNELS 3 Zrotation Xrotation Yrotation
				JOINT Neck1
				{
					OFFSET -0.1817 26.3113 -0.5533
					CHANNELS 3 Zrotation Xrotation Yrotation
					JOINT Neck2
					{
						OFFSET -0.0000 7.7094 2.3026
						CHANNELS 3 Zrotation Xrotation Yrotation
						JOINT Head
						{
							OFFSET -0.0000 6.1289 1.9537
							CHANNELS 3 Zrotation Xrotation Yrotation
							JOINT Jaw
							{
								OFFSET 0.0026 0.4756 3.0949
								CHANNELS 3 Zrotation Xrotation Yrotation
								End Site
								{
									OFFSET 0.0 1.0 0.0
								}
							}
							JOINT LeftEye
							{
								OFFSET 3.2064 5.3802 7.5869
								CHANNELS 3 Zrotation Xrotation Yrotation
								End Site
								{
									OFFSET 0.0 1.0 0.0
								}
							}
							JOINT RightEye
							{
								OFFSET -3.2224 5.3619 7.5582
								CHANNELS 3 Zrotation Xrotation Yrotation
								End Site
								{
									OFFSET 0.0 1.0 0.0
								}
							}
						}
					}
				}
				JOINT LeftShoulder
				{
					OFFSET 1.6217 23.2372 5.1134
					CHANNELS 3 Zrotation Xrotation Yrotation
					JOINT LeftArm
					{
						OFFSET 14.9198 0.0000 -5.5023
						CHANNELS 3 Zrotation Xrotation Yrotation
						JOINT LeftForeArm
						{
							OFFSET 28.7393 0.0000 -0.0026
							CHANNELS 3 Zrotation Xrotation Yrotation
							JOINT LeftHand
							{
								OFFSET 27.0940 -0.0000 0.0026
								CHANNELS 3 Zrotation Xrotation Yrotation
								JOINT LeftHandThumbEnd
								{
									OFFSET 12.2686 -3.2202 4.8331
									CHANNELS 3 Zrotation Xrotation Yrotation
									End Site
									{
										OFFSET 0.0 1.0 0.0
									}
								}
								JOINT LeftHandMiddleEnd
								{
									OFFSET 19.0120 -0.3129 -0.0340
									CHANNELS 3 Zrotation Xrotation Yrotation
									End Site
									{
										OFFSET 0.0 1.0 0.0
									}
								}
							}
						}
					}
				}
				JOINT RightShoulder
				{
					OFFSET -1.3801 23.1803 5.2142
					CHANNELS 3 Zrotation Xrotation Yrotation
					JOINT RightArm
					{
						OFFSET -15.0372 0.0000 -5.5456
						CHANNELS 3 Zrotation Xrotation Yrotation
						JOINT RightForeArm
						{
							OFFSET -28.7366 0.0000 -0.0026
							CHANNELS 3 Zrotation Xrotation Yrotation
							JOINT RightHand
							{
								OFFSET -27.1336 -0.0000 0.0026
								CHANNELS 3 Zrotation Xrotation Yrotation
								JOINT RightHandThumbEnd
								{
									OFFSET -12.2642 -3.2115 4.8040
									CHANNELS 3 Zrotation Xrotation Yrotation
									End Site
									{
										OFFSET 0.0 1.0 0.0
									}
								}
								JOINT RightHandMiddleEnd
								{
									OFFSET -19.0006 -0.3066 -0.0316
									CHANNELS 3 Zrotation Xrotation Yrotation
									End Site
									{
										OFFSET 0.0 1.0 0.0
									}
								}
							}
						}
					}
				}
			}
		}
	}
	JOINT LeftLeg
	{
		OFFSET 10.0432 -8.4345 2.5957
		CHANNELS 3 Zrotation Xrotation Yrotation
		JOINT LeftShin
		{
			OFFSET -0.0000 -43.2218 -0.8029
			CHANNELS 3 Zrotation Xrotation Yrotation
			JOINT LeftFoot
			{
				OFFSET 0.0000 -42.1551 -3.4815
				CHANNELS 3 Zrotation Xrotation Yrotation
				JOINT LeftToeBase
				{
					OFFSET 0.0000 -5.0595 13.2315
					CHANNELS 3 Zrotation Xrotation Yrotation
					End Site
					{
						OFFSET 0.0 1.0 0.0
					}
				}
			}
		}
	}
	JOINT RightLeg
	{
		OFFSET -10.0473 -8.2953 2.6203
		CHANNELS 3 Zrotation Xrotation Yrotation
		JOINT RightShin
		{
			OFFSET 0.0000 -43.3622 -0.8056
			CHANNELS 3 Zrotation Xrotation Yrotation
			JOINT RightFoot
			{
				OFFSET 0.0000 -42.1174 -3.4784
				CHANNELS 3 Zrotation Xrotation Yrotation
				JOINT RightToeBase
				{
					OFFSET -0.0000 -5.0796 13.2842
					CHANNELS 3 Zrotation Xrotation Yrotation
					End Site
					{
						OFFSET 0.0 1.0 0.0
					}
				}
			}
		}
	}
}
MOTION
Frames: 75
Frame Time: 0.033333
-0.7326 99.6684 5.9616 2.1907 -1.5578 -0.9128 -1.3861 -0.1242 0.1430 -0.9518 -4.6190 0.1954 -1.5414 10.4948 -1.8478 2.7432 -9.3571 1.7526 -0.3998 -3.5353 2.2413 -0.9273 -0.3506 1.3786 0.0242 -0.0262 0.0563 0.7645 -10.5029 -3.7963 -0.7178 -10.5120 3.9099 -18.6960 9.1186 -8.8404 -56.2393 9.3600 -22.6134 0.2727 0.3608 -30.3868 -0.7190 -7.1605 8.7562 -15.7217 10.9228 15.4225 -60.7809 1.7440 1.6962 15.3725 9.8312 14.0622 63.3776 1.3023 17.2617 0.3170 -0.1735 27.1199 5.1791 10.5641 -2.9161 15.3287 6.9741 -16.1289 49.4857 -4.0764 -4.9503 -1.8327 2.8907 0.3581 0.0555 6.0360 0.3352 -5.2105 -7.7587 13.8668 1.6249 -1.6268 -2.0734 -4.9527 3.5691 1.9687 0.0093 2.1921 0.0900 3.1578 -5.7349 -5.9715 -1.4146 -2.1385 1.0530
-0.8781 99.6624 5.1958 1.8245 -0.6571 0.1437 -1.1480 0.7805 0.0269 -0.9143 -4.2912 0.1991 -1.4378 10.0624 -1.8115 3.0189 -11.9102 1.5282 -0.4869 -3.5807 2.0100 -0.8607 -0.4856 0.7972 0.0300 -0.0725 0.0704 0.7615 -10.4482 -3.7850 -0.7023 -10.4371 3.9218 -17.5845 9.1047 -9.4112 -56.3687 8.3707 -21.8332 0.3221 0.3718 -32.1590 -1.0872 -6.5302 8.4025 -15.6120 11.0265 15.4969 -60.8366 1.7270 1.6956 13.8083 9.9733 14.0224 63.6786 0.9845 17.8717 0.9463 -0.1878 28.1991 4.7083 10.5360 -3.9598 15.3047 6.8398 -16.0282 49.2363 -4.0960 -4.9186 -1.4074 -1.0226 -0.3970 0.0501 10.7886 0.1669 -5.5641 -9.3560 14.0472 1.6324 -2.0431 -2.0566 -4.4031 1.4477 1.6698 0.0118 3.8008 0.1164 3.0560 -6.4722 -6.8834 -1.4180 -2.3142 1.0594
-0.9553 99.2032 3.6590 1.2051 0.5646 1.2150 -0.6245 2.7754 -0.0769 -0.6799 -3.4163 0.3427 -1.1505 9.3312 -1.6119 3.0531 -16.7371 1.2570 -0.7449 -3.4280 1.2481 -1.1528 -2.1043 -0.0081 0.0445 -0.0786 0.0627 0.7843 -10.4126 -3.8029 -0.6974 -10.3901 3.9153 -13.8718 9.5390 -10.4135 -58.8394 4.6252 -18.7858 0.6381 0.5265 -36.4183 -1.4365 -4.3460 7.8501 -15.4230 10.9880 15.6051 -60.5962 1.7103 1.9870 9.1287 10.4771 14.0378 64.2357 1.4313 20.0084 2.1840 -0.4889 33.2376 4.7256 9.0268 -5.8866 15.1948 6.8052 -15.8857 48.8458 -4.0515 -4.8583 -0.8948 -8.0687 -2.2449 0.0686 19.9558 0.0749 -4.9391 -11.9474 14.8048 1.7019 -2.4023 -1.9654 -3.6511 -4.4900 2.1503 0.0359 11.4458 0.1344 3.1385 -8.9580 -8.4437 -1.4506 -2.3311 1.0731
-0.6541 98.0677 1.6934 1.0398 1.6971 1.3878 -0.0303 5.3010 -0.0709 -0.3084 -2.2228 0.6290 -0.9212 9.2956 -1.4325 1.8609 -22.9138 1.6496 -0.9485 -3.3449 0.5996 -2.0347 -3.6480 -0.5967 0.0427 -0.1047 0.0617 0.8127 -10.4038 -3.7771 -0.7299 -10.3743 3.8864 -9.7760 10.2977 -10.4276 -61.7335 0.5895 -13.8904 0.7662 0.5626 -44.8719 -1.8796 -1.7970 8.2593 -15.0866 11.1103 15.6212 -60.4722 1.8385 2.2665 4.4110 11.1684 14.6043 61.0589 5.7380 23.5327 2.4969 -0.5409 44.9442 7.1550 4.1751 -6.5772 15.3556 6.8287 -15.9538 48.8428 -4.0672 -4.8587 -1.0224 -16.5401 -5.1633 0.1615 31.4538 0.0253 -3.8124 -13.9675 15.9871 1.7541 -2.4016 -2.0566 -4.0349 -13.1349 3.3049 0.0073 23.7708 0.2491 4.1959 -11.7025 -8.7575 -1.4762 -2.2971 1.0260
0.0261 95.9129 -0.1997 1.2028 2.6591 0.1328 0.6582 7.9897 0.1157 -0.0012 -1.1691 0.9820 -0.5831 10.0821 -1.0098 -0.3498 -28.5616 2.8866 -1.0028 -3.3103 0.0955 -3.4050 -4.8246 0.1129 0.0584 -0.1617 0.0449 0.8397 -10.4040 -3.7492 -0.7284 -10.3758 3.8147 -7.9567 10.5860 -9.2384 -62.6818 -1.6490 -7.3225 0.0356 0.6746 -57.2667 -1.1412 -0.8543 9.7613 -15.3738 10.8950 15.6913 -60.4895 2.0241 2.5448 1.3712 11.6571 16.0430 52.7793 13.9769 22.9706 1.4950 -0.2966 62.5169 10.7787 -0.9099 -6.2954 15.5666 7.0025 -16.3735 49.5795 -3.9568 -5.3983 -1.3458 -24.7345 -7.1582 0.1900 42.4862 0.0626 -1.7984 -14.6982 15.9950 1.7697 -2.8392 -2.1506 -5.8183 -22.2672 6.7886 0.0027 36.8103 0.2512 6.2561 -13.8789 -8.3337 -1.4452 -2.4682 1.0368
0.8302 92.1815 -1.9626 1.3432 3.4468 -2.2773 1.3785 10.4784 0.2371 0.0575 -0.1236 1.6401 -0.2912 10.7868 -0.5733 -2.1098 -31.3094 3.8125 -0.5355 -3.2141 0.8388 -4.8664 -6.7981 1.3807 0.0676 -0.1205 0.0196 0.8249 -10.4998 -3.7880 -0.7015 -10.4466 3.7930 -6.3956 10.3279 -7.4925 -63.3355 -2.5589 -0.1906 -0.8769 1.1112 -69.6808 3.2065 -2.6040 11.1409 -15.2872 10.8305 15.6630 -60.0372 1.9213 2.5225 -2.2910 12.0352 16.6840 42.2922 18.5961 15.8317 1.0778 0.3306 77.4613 12.2722 -4.9427 -5.0467 15.6780 7.3325 -16.3577 50.0673 -3.8304 -5.4287 -1.5132 -31.2058 -5.1967 -0.0912 52.6245 -0.1505 -4.5755 -19.7029 13.6399 1.7243 -3.4103 -2.1961 -7.8718 -29.7513 10.4426 0.2124 47.8936 0.4135 8.3877 -18.7943 -7.8254 -1.4387 -1.8778 1.0798
1.5069 88.0909 -3.3999 1.1977 4.8807 -4.2835 2.0132 12.2878 0.6342 0.0866 0.5912 1.8978 -0.0941 11.2043 -0.3597 -2.9244 -31.8652 4.5295 -0.2530 -3.1681 1.2338 -5.6778 -8.9623 2.4831 0.0463 -0.0633 -0.0174 0.7722 -10.6263 -3.8658 -0.6931 -10.5752 3.8067 -5.4639 9.5154 -6.5528 -63.0387 -3.5707 5.7162 -1.0169 1.2030 -77.6555 8.5456 -5.4983 11.1483 -15.1937 11.1820 15.7196 -59.7570 1.7852 2.3018 -5.3832 12.0627 16.9798 33.1958 16.9435 7.1573 0.8003 0.2973 82.0722 11.1403 -7.7010 -4.4975 15.7169 7.7905 -16.1701 50.6611 -3.6199 -5.1082 -1.9971 -37.0508 -0.9676 -0.4067 60.8572 -0.4550 -6.0380 -27.2332 12.3024 1.6613 -1.9640 -2.1698 -9.5022 -36.2691 13.3417 0.4470 56.4137 0.7506 9.6365 -24.9284 -8.4554 -1.4277 -0.8447 1.0368
1.9425 85.3404 -4.5949 0.6583 6.8138 -4.9715 2.3147 13.1221 1.0464 0.2680 1.3898 1.6967 0.2558 12.4621 -0.4046 -2.7075 -33.4704 4.6019 -0.0220 -3.2548 1.7181 -5.9851 -9.4941 3.0964 0.0170 -0.0667 -0.1250 0.7474 -10.7922 -3.9923 -0.7273 -10.7376 3.7325 -6.8777 8.1117 -7.4189 -59.9500 -6.6000 10.2662 -0.7935 1.3324 -81.2134 12.5973 -7.7022 10.2327 -15.0936 11.1350 15.9361 -59.1857 1.5411 2.2359 -3.7490 11.4408 18.4539 24.0411 10.5889 -0.9949 0.9128 0.1457 77.8167 8.8259 -9.0850 -5.2034 15.1643 7.6860 -15.7486 50.1115 -3.4709 -5.1234 -2.2565 -43.6348 1.8174 -0.1973 67.9514 -0.2166 -5.5502 -29.7857 11.3693 1.6579 -1.7172 -2.1457 -10.7395 -42.7560 15.5333 0.7569 63.0892 1.2385 10.3950 -27.2334 -9.8946 -1.4123 -1.0776 1.0653
1.9852 83.5312 -5.3332 0.2119 7.8756 -4.1124 2.2167 13.6788 1.0342 0.3001 2.0485 1.2804 0.6602 13.9996 -0.4323 -1.5837 -33.8685 4.3544 0.1142 -3.3050 1.8686 -5.9281 -9.2163 3.2419 0.0088 -0.0650 -0.1869 0.7621 -10.9339 -4.0620 -0.7570 -10.9044 3.6873 -6.8339 7.0115 -9.0514 -57.0655 -10.3274 11.7076 -0.1514 1.4421 -79.9414 14.9323 -7.8397 10.5528 -15.2506 11.0642 16.0294 -59.1986 1.5535 2.1700 -0.5953 10.8253 20.8070 18.6600 1.9324 -5.5150 1.0616 -0.0938 67.8304 6.6007 -11.1464 -6.5673 14.9197 7.4200 -15.5429 49.3736 -3.6331 -5.2164 -2.2448 -47.9301 2.7918 -0.0862 72.3764 -0.0618 -4.2556 -30.5466 9.7558 1.6615 -1.5709 -2.1396 -11.4430 -46.4750 16.6011 1.1986 67.1409 1.7853 11.7952 -28.4427 -11.8417 -1.3938 -1.3762 1.1056
1.7543 82.3157 -5.6418 -0.3547 7.9857 -2.2657 2.0470 14.0647 0.8594 0.2451 2.5107 0.8578 1.1692 15.2114 -0.3753 0.0757 -32.6834 3.7400 0.1727 -3.2881 1.8667 -5.7345 -8.9909 3.4279 0.0078 -0.0402 -0.2327 0.7830 -10.9743 -4.1150 -0.7789 -10.9798 3.6501 -5.4879 6.3154 -10.9286 -54.2953 -13.0669 10.5441 0.4857 1.4083 -76.0290 15.6801 -7.2061 12.0783 -15.5529 10.9666 16.1144 -59.3892 1.6771 2.2112 2.4516 9.9967 23.0531 16.4897 -6.2644 -7.1647 0.6256 -0.0322 57.2022 4.5884 -13.4213 -7.9645 14.9176 7.3844 -15.6075 49.0820 -3.8429 -5.2320 -1.4108 -50.1147 2.4935 -0.1112 75.1830 -0.0966 -2.8013 -30.6933 7.4420 1.6624 -1.3273 -2.0627 -10.8445 -47.8343 16.2633 1.4234 69.5474 2.0695 13.4266 -29.5031 -14.2955 -1.3794 -1.2199 1.1551
1.4665 81.7459 -5.4836 -0.8754 7.2281 -0.0523 1.8218 14.2683 0.6712 0.2015 2.6908 0.4141 1.4989 16.1458 -0.3461 1.7323 -30.4026 2.9234 0.1982 -3.2720 2.0701 -5.2293 -8.7583 3.3222 0.0096 -0.0257 -0.2651 0.7971 -10.9733 -4.1531 -0.7886 -11.0089 3.6244 -4.0454 6.1875 -12.7239 -51.3857 -14.7695 8.0506 0.7884 1.1350 -71.2599 15.4838 -6.1603 13.6185 -15.6700 10.8700 16.1586 -59.6734 1.8568 2.2630 4.9228 9.0446 24.4988 16.7775 -12.9870 -7.2792 -0.0128 0.2256 48.5744 2.0531 -14.6981 -8.7505 14.7214 7.4321 -15.6628 48.9914 -3.9718 -5.1180 -0.3134 -50.2620 1.8501 -0.2814 76.6462 -0.3201 -1.4254 -30.6276 4.5911 1.6613 -1.1876 -1.9824 -9.3503 -47.1483 14.8623 1.3351 70.6497 2.0091 14.7452 -30.4714 -16.7533 -1.3740 -0.8859 1.2015
1.1632 82.0233 -4.7495 -1.0594 5.3144 1.8524 1.5200 14.4295 0.4774 0.0810 2.6389 -0.0035 1.2863 16.7335 -0.5783 3.0837 -27.0910 2.1709 0.1676 -3.2672 2.2070 -4.3474 -8.4178 3.0922 0.0067 -0.0191 -0.2269 0.7872 -10.9533 -4.1196 -0.7837 -11.0111 3.6720 -3.0428 6.5771 -14.0968 -49.3257 -15.6108 5.6035 0.5507 0.8855 -66.4198 14.8513 -4.4784 14.0688 -15.6146 10.7835 16.1599 -59.7447 1.9787 2.1783 6.3766 8.6154 24.5958 19.6811 -16.0265 -5.8663 -0.4094 0.4278 43.6345 -0.1983 -13.4945 -9.0067 14.6497 7.4897 -15.7145 49.1511 -3.9159 -4.9652 0.2089 -47.6769 1.9274 -0.4947 76.3669 -0.6055 0.0620 -30.3214 1.7219 1.6694 -1.5297 -1.9258 -7.6035 -44.0612 12.7635 1.0317 70.2679 1.6689 15.2750 -30.8155 -18.2556 -1.3788 -0.9784 1.2108
0.9757 82.9607 -3.4485 -1.0149 2.6592 3.0440 1.1903 14.6248 0.2951 -0.0735 2.2530 -0.3660 0.5855 16.9195 -0.9410 3.8997 -23.0881 1.7335 0.0950 -3.1821 2.3613 -3.3820 -8.3320 2.8288 0.0014 -0.0103 -0.1321 0.7772 -10.9471 -4.0359 -0.7837 -11.0285 3.7816 -2.6134 7.2564 -15.0075 -48.9487 -15.6617 4.7307 0.1344 0.5179 -62.8805 14.5451 -2.1924 13.4313 -15.5827 10.7531 16.0773 -59.7560 2.0185 1.8900 7.0117 8.9183 23.5981 24.2151 -14.7028 -3.6541 -0.1525 0.5328 43.7691 -0.9710 -11.9224 -8.5525 14.8027 7.3959 -15.8773 49.2987 -3.8342 -4.9627 0.4959 -43.0209 2.5124 -0.6396 74.6248 -0.7876 1.4347 -29.7446 -0.4608 1.6942 -2.4056 -1.8818 -6.1797 -39.3542 10.5633 0.7028 68.8118 1.2296 14.6406 -30.3904 -18.0610 -1.4118 -1.8309 1.1706
0.8268 83.8992 -1.9551 -1.1422 0.2098 3.4749 0.7439 14.3775 0.1266 -0.2232 1.7898 -0.5577 -0.0060 16.8383 -1.4082 4.2119 -19.5837 1.6296 0.0911 -3.2480 2.5566 -2.4494 -8.5968 2.5956 -0.0071 -0.0242 -0.1021 0.7526 -10.8970 -3.9959 -0.7763 -10.9764 3.8070 -2.5824 7.9737 -15.2674 -50.0679 -15.1201 6.1060 -0.3336 0.6445 -62.1764 15.1071 -0.9981 12.3879 -15.3594 10.7126 15.9415 -59.4619 2.0154 2.0288 7.2441 9.5789 22.1088 28.5464 -9.4225 -0.4036 -0.1448 0.8664 48.9091 0.4538 -10.7479 -6.7959 14.9405 7.2422 -15.9640 49.1986 -3.7127 -5.0268 1.1543 -38.2980 2.7772 -0.4386 72.7834 -0.5382 1.9758 -29.3798 -1.4911 1.7465 -2.7255 -1.8033 -5.0961 -34.7883 8.5776 0.6903 67.4250 1.2837 12.9259 -29.0252 -15.9350 -1.4317 -2.7547 1.1704
0.6128 84.7371 -0.3423 -1.4009 -2.0552 3.6253 0.2553 13.7884 0.0124 -0.4819 1.1796 -0.8522 -0.4742 16.6100 -1.8748 4.4166 -16.3889 1.5371 0.2778 -3.2992 2.7868 -1.5096 -8.9770 2.7028 -0.0061 -0.0252 -0.0568 0.7491 -10.8521 -3.9535 -0.7698 -10.9233 3.8571 -2.4705 8.6100 -15.4581 -51.1594 -12.7642 8.2856 -0.5330 0.7131 -63.7503 15.7910 -0.5457 11.2683 -15.0781 10.8684 16.0010 -59.4048 2.0183 2.1560 7.4553 10.5647 20.0700 32.2148 -3.1355 3.9694 -0.2808 1.0920 56.2231 2.6677 -8.0646 -5.3872 14.9537 7.2603 -16.0707 49.3769 -3.6963 -5.0905 1.9731 -33.7939 2.7409 -0.2711 71.0869 -0.3104 1.2939 -28.9014 -1.8708 1.7727 -3.0090 -1.8164 -4.4217 -30.0835 7.7310 0.4979 66.0907 1.0792 12.1937 -27.8564 -14.6146 -1.4646 -3.5223 1.1759
0.3549 85.5289 1.2880 -1.5241 -4.2152 3.8807 -0.2906 13.1344 -0.0667 -0.8511 0.5356 -1.1229 -0.9680 16.2686 -2.4720 4.7264 -13.3591 1.2714 0.5906 -3.3039 2.9802 -0.6742 -9.9075 2.8509 -0.0023 0.0066 -0.0062 0.7569 -10.8114 -3.9142 -0.7673 -10.8886 3.9171 -1.9671 9.5351 -15.7038 -51.6544 -9.3981 9.4587 -0.2588 0.7848 -65.9543 15.5511 0.4976 10.6596 -15.0997 11.1618 16.0837 -60.0179 2.0669 1.7176 7.1148 11.6825 17.7483 36.0747 2.0197 8.5037 -0.1320 1.0867 62.4143 5.1018 -3.5131 -4.9936 15.0346 7.3260 -16.2530 49.6401 -3.7621 -5.1177 2.5830 -29.6460 2.3235 -0.2335 69.7646 -0.2528 0.1264 -28.3079 -1.9841 1.7590 -3.5045 -1.8695 -3.9202 -25.1216 7.2995 0.2626 63.9593 0.7566 12.7223 -27.9080 -14.3006 -1.4825 -3.8981 1.1735
0.0382 86.2600 2.8180 -1.4683 -5.9285 4.1938 -0.8445 12.2084 -0.1829 -1.1465 0.0513 -1.1601 -1.7122 15.7233 -3.1166 5.2054 -10.7343 0.9602 0.6288 -3.3574 3.0047 0.2438 -10.6454 2.7893 -0.0090 0.0268 -0.0322 0.7313 -10.7033 -3.9284 -0.7536 -10.7570 3.8842 -1.6223 10.2827 -15.7714 -51.7935 -6.9639 10.4389 -0.3694 0.7943 -67.8040 14.6131 2.3525 10.0811 -15.1075 11.2451 16.0724 -60.2157 2.0735 1.6009 6.5879 12.4117 15.6078 39.9888 6.8944 12.7566 0.0121 1.1034 67.2487 7.0658 1.8708 -5.3526 15.3485 7.4416 -16.2194 49.8603 -3.7564 -5.0810 2.8811 -26.0657 1.8498 -0.3324 68.4641 -0.4338 -0.6992 -27.5773 -1.6750 1.7609 -4.0930 -1.8934 -3.2589 -20.6183 6.5888 0.0629 61.3089 0.5823 12.6108 -28.7858 -14.4378 -1.4572 -3.4866 1.1589
-0.2387 86.9035 4.1417 -1.4237 -7.3181 4.1687 -1.2552 11.2868 -0.2178 -1.3287 -0.4061 -1.1131 -2.4869 15.3170 -3.4963 5.4495 -9.0581 0.7178 0.6087 -3.3265 3.1039 1.1126 -10.9220 2.4527 -0.0078 0.0360 0.0006 0.7208 -10.6463 -3.8920 -0.7394 -10.6856 3.9137 -1.9901 10.7565 -15.7563 -51.8464 -5.7114 11.6049 -0.5235 0.7194 -69.5230 14.0830 3.6073 9.5516 -15.0712 11.2635 16.0099 -60.2457 1.9798 1.4846 6.3692 12.9234 13.9767 42.8953 11.2584 16.4564 0.1971 1.2448 71.0711 9.0658 7.0453 -5.9603 15.4753 7.5676 -16.1674 49.9551 -3.7188 -5.0242 3.1381 -22.8819 1.4624 -0.3501 66.9890 -0.4957 -1.7308 -26.9290 -0.8839 1.7773 -4.8896 -1.9427 -2.6815 -16.8601 5.9755 -0.0785 58.7212 0.3842 12.1893 -29.5421 -14.4612 -1.4411 -3.0624 1.1160
-0.4603 87.5201 5.2706 -1.3265 -8.4329 3.7338 -1.5891 10.3493 -0.1614 -1.4419 -0.7743 -1.0594 -3.2477 14.9042 -3.6971 5.4828 -7.9385 0.6599 0.5765 -3.3264 3.1614 1.8643 -10.9758 2.0544 -0.0051 0.0384 -0.0005 0.7086 -10.5812 -3.8860 -0.7206 -10.6156 3.9044 -2.8068 10.8711 -15.6326 -52.1145 -5.1308 13.0955 -0.6633 0.5906 -71.0018 14.0430 4.2894 9.2577 -15.0468 11.3201 15.9753 -60.2249 1.9470 1.4624 6.2977 13.2632 12.8798 45.0970 15.1340 19.7695 0.2703 1.5286 74.0807 11.4409 11.5495 -6.4055 15.5007 7.6641 -16.1455 49.9179 -3.7542 -5.0742 3.2584 -20.0256 1.3541 -0.3557 65.3839 -0.5409 -2.7913 -26.4584 0.1807 1.7888 -5.5074 -1.9694 -2.3833 -13.7453 5.4938 -0.0720 56.2658 0.3459 11.6427 -29.9791 -13.9932 -1.4350 -2.8516 1.1178
-0.6408 88.0976 6.1564 -1.2449 -9.3078 2.9666 -1.8427 9.4783 -0.0989 -1.5160 -1.0939 -0.9689 -3.8651 14.4616 -3.7694 5.3776 -7.1585 0.6803 0.5430 -3.3352 3.1934 2.4571 -10.9776 1.7233 -0.0022 0.0393 -0.0059 0.7018 -10.5238 -3.8848 -0.7067 -10.5521 3.8897 -3.6649 10.8654 -15.3990 -52.6900 -4.7437 14.2968 -0.7334 0.5349 -71.9942 14.1471 4.7882 9.2682 -15.0258 11.3773 15.9527 -60.1720 1.9555 1.5090 6.1610 13.4449 12.1975 46.6083 18.0708 22.0924 0.3670 1.8666 76.3543 13.6568 14.1504 -6.5057 15.4180 7.7102 -16.1114 49.8238 -3.7952 -5.1711 3.3586 -17.4874 1.3913 -0.3271 63.6974 -0.5415 -3.8071 -26.1976 1.4122 1.7948 -5.9143 -2.0019 -2.2180 -11.2458 5.1138 -0.0184 54.0460 0.3866 11.0397 -30.1225 -13.1943 -1.4319 -2.7553 1.1312
-0.8042 88.6349 6.8315 -1.2352 -9.9991 1.9586 -2.0010 8.6797 -0.0512 -1.5635 -1.3737 -0.8609 -4.3234 14.0446 -3.7769 5.2661 -6.5849 0.7169 0.5095 -3.3549 3.2278 2.8702 -11.0404 1.4684 0.0011 0.0384 -0.0084 0.6935 -10.4941 -3.8812 -0.6907 -10.5160 3.8786 -4.3805 10.8368 -15.0762 -53.4336 -4.1518 14.8893 -0.7084 0.5347 -72.6567 14.1816 5.0764 9.3214 -14.9922 11.3702 15.9251 -60.0825 1.9544 1.5702 5.9611 13.5463 11.8351 47.0388 19.7784 22.7501 0.5639 2.1043 78.2166 15.2025 14.7601 -6.4624 15.3500 7.7046 -16.0723 49.8065 -3.8297 -5.2213 3.4808 -15.2326 1.4186 -0.3046 62.0276 -0.5298 -4.8473 -26.1295 2.8898 1.8009 -6.1563 -2.0379 -2.0599 -9.2611 4.8447 0.0116 52.0485 0.4303 10.4120 -30.0572 -12.1698 -1.4291 -2.7271 1.1354
-0.9954 89.0761 7.3560 -1.2627 -10.5432 0.7587 -2.1062 7.9735 -0.0430 -1.6000 -1.6237 -0.7180 -4.6303 13.6312 -3.7754 5.1799 -5.9882 0.7190 0.4839 -3.3695 3.2678 3.1215 -11.2548 1.2591 0.0053 0.0462 -0.0036 0.6863 -10.4807 -3.8754 -0.6744 -10.4959 3.8783 -4.7589 10.8154 -14.6842 -54.3702 -3.1888 14.7765 -0.5853 0.6256 -73.1164 14.1549 5.3182 9.2765 -14.9357 11.3831 15.9299 -60.0817 1.9669 1.5813 5.5807 13.4953 11.6857 46.4185 20.2200 21.6144 0.7367 2.2462 79.5765 15.9823 14.2210 -6.3287 15.3300 7.6644 -16.0242 49.7960 -3.8784 -5.2031 3.5845 -13.2721 1.4350 -0.2914 60.4730 -0.5157 -5.8994 -26.2038 4.4784 1.8090 -6.2068 -2.0742 -1.9109 -7.7149 4.7575 0.0264 50.3027 0.4582 9.9200 -29.9482 -11.0544 -1.4270 -2.6664 1.1282
-1.1833 89.4574 7.7786 -1.3510 -10.9875 -0.6082 -2.1563 7.3370 -0.0367 -1.6201 -1.8662 -0.5616 -4.7880 13.2390 -3.7511 5.1049 -5.2812 0.7205 0.4649 -3.3842 3.2802 3.2233 -11.5991 1.0735 0.0102 0.0607 0.0011 0.6780 -10.4822 -3.8731 -0.6560 -10.4972 3.8815 -4.8283 10.8259 -14.2232 -55.4792 -2.0006 14.1644 -0.4098 0.7216 -73.5254 14.0870 5.5481 9.0187 -14.8964 11.4163 15.9867 -60.1825 1.9802 1.5776 5.0858 13.3164 11.7259 44.8506 19.5203 19.0251 0.8036 2.1446 80.1630 15.7843 12.7566 -6.1266 15.3653 7.5882 -15.9821 49.7591 -3.9106 -5.1366 3.7112 -11.5960 1.5022 -0.2824 59.1003 -0.5013 -6.9203 -26.2643 6.1808 1.8164 -6.1773 -2.0884 -1.7163 -6.5650 4.8401 0.0239 48.8784 0.4654 9.5134 -29.7244 -9.8026 -1.4264 -2.6189 1.1170
-1.3558 89.7920 8.0815 -1.4594 -11.3713 -1.9526 -2.1678 6.7429 -0.0077 -1.6383 -2.0984 -0.4083 -4.8512 12.8959 -3.7287 5.0720 -4.4855 0.7437 0.4350 -3.4208 3.2108 3.2296 -11.7700 0.8670 0.0107 0.0792 -0.0141 0.6585 -10.4730 -3.8846 -0.6351 -10.4895 3.8613 -4.7630 10.8042 -13.8198 -56.5582 -0.8281 13.3968 -0.3131 0.7449 -73.7567 14.1153 5.6528 8.6252 -14.9184 11.4665 16.0294 -60.3561 1.9700 1.5809 4.6016 13.1223 11.8583 42.6678 18.1599 16.1081 0.7774 1.9392 79.6984 15.1285 11.0904 -5.8486 15.4022 7.5456 -16.0117 49.6989 -3.9095 -5.0841 3.8357 -10.0818 1.5383 -0.2600 57.7609 -0.4625 -7.8261 -26.3574 7.8207 1.8133 -5.9631 -2.0876 -1.4820 -5.6460 5.0155 0.0131 47.6898 0.4386 9.1039 -29.4200 -8.6498 -1.4291 -2.5950 1.1054
-1.5423 90.0975 8.3384 -1.5350 -11.7291 -3.1858 -2.1474 6.1603 0.0584 -1.6452 -2.3143 -0.2584 -4.9135 12.6377 -3.6869 5.0596 -3.7265 0.7803 0.3758 -3.4487 3.0426 3.1862 -11.7146 0.6680 0.0113 0.0944 -0.0298 0.6464 -10.4561 -3.8924 -0.6220 -10.4747 3.8372 -4.7911 10.7898 -13.5394 -57.4586 0.0974 12.6850 -0.2990 0.6838 -73.7437 14.2688 5.5477 8.1227 -14.9498 11.5114 16.0574 -60.4963 1.9343 1.6005 4.2145 12.9856 12.0860 40.2751 16.3961 13.3540 0.7573 1.8181 78.2548 14.4641 9.6101 -5.4813 15.4342 7.4880 -16.0674 49.6087 -3.8974 -5.0473 3.9027 -8.6195 1.5153 -0.2123 56.3492 -0.3979 -8.5662 -26.3955 9.3436 1.8020 -5.6914 -2.0827 -1.2709 -4.8324 5.1509 0.0206 46.6314 0.4518 8.6364 -29.0172 -7.6308 -1.4297 -2.5705 1.0860
-1.7126 90.4132 8.5547 -1.5408 -12.0576 -4.2165 -2.1185 5.5941 0.1149 -1.6410 -2.5252 -0.1258 -5.0092 12.4382 -3.6230 5.1002 -3.0386 0.8032 0.2786 -3.4454 2.8063 3.1085 -11.5150 0.4770 0.0132 0.1050 -0.0374 0.6406 -10.4383 -3.8940 -0.6125 -10.4551 3.8223 -4.9146 10.7801 -13.3334 -58.2785 0.7306 11.9524 -0.2738 0.5452 -73.3617 14.6174 5.3093 7.5428 -15.0213 11.5520 16.0717 -60.6137 1.8897 1.6231 3.9084 12.8609 12.4021 38.1098 14.4167 10.9406 0.8185 1.6709 76.0871 13.9683 8.4662 -5.1866 15.4669 7.4625 -16.1376 49.6043 -3.8810 -4.9749 3.7978 -7.1172 1.3082 -0.1523 54.7091 -0.3398 -9.1314 -26.4586 10.8163 1.7881 -5.2722 -2.0945 -1.1290 -4.0032 5.2681 0.0443 45.4876 0.4910 8.2295 -28.5019 -6.8488 -1.4275 -2.5349 1.0637
-1.8594 90.7560 8.7058 -1.4921 -12.3207 -4.9250 -2.0789 5.0646 0.1758 -1.6244 -2.7432 -0.0516 -5.1413 12.2810 -3.5565 5.1961 -2.4990 0.8100 0.1492 -3.4403 2.5555 2.9648 -11.1724 0.2496 0.0160 0.1064 -0.0386 0.6388 -10.4417 -3.8956 -0.6047 -10.4568 3.8203 -5.1481 10.7703 -13.1888 -59.0222 1.0748 11.1393 -0.2365 0.3658 -72.7535 15.1028 5.0433 7.0448 -15.1027 11.5704 16.0557 -60.6997 1.8773 1.6238 3.7627 12.7335 12.7718 36.3949 12.3219 8.7692 1.0039 1.4361 73.5803 13.6062 7.5940 -5.0578 15.5332 7.4398 -16.1945 49.6439 -3.8804 -4.9130 3.4998 -5.7196 0.7910 -0.1008 53.0027 -0.2996 -9.4732 -26.4661 12.2610 1.7806 -4.8482 -2.1332 -1.0451 -3.1751 5.3861 0.0638 44.2759 0.5202 7.9701 -27.9476 -6.3670 -1.4263 -2.5086 1.0449
-1.9779 91.1091 8.7485 -1.4585 -12.4711 -5.2922 -2.0405 4.5705 0.1976 -1.5818 -2.9104 0.0463 -5.2410 12.1096 -3.5432 5.2955 -2.1225 0.8110 -0.0003 -3.4546 2.3047 2.8256 -10.6985 0.0570 0.0160 0.1027 -0.0429 0.6398 -10.4503 -3.8985 -0.6063 -10.4619 3.8131 -5.4054 10.7257 -13.0857 -59.7266 1.2447 10.2064 -0.1580 0.2925 -72.0702 15.6362 4.9015 6.6393 -15.1462 11.5976 16.0742 -60.7489 1.8868 1.6466 3.7945 12.5814 13.1131 35.1047 10.3137 6.8891 1.1649 1.1897 71.0334 13.3647 6.7351 -5.0855 15.5655 7.4312 -16.2612 49.7384 -3.9131 -4.8897 3.1326 -4.5178 0.0433 -0.0439 51.1987 -0.2390 -9.5930 -26.4535 13.5519 1.7705 -4.3981 -2.1445 -0.9767 -2.4339 5.4025 0.0774 42.9931 0.5500 7.8214 -27.3398 -6.1117 -1.4231 -2.4803 1.0334
-2.0451 91.4642 8.6664 -1.4522 -12.5518 -5.4133 -1.9965 4.1728 0.2264 -1.5404 -3.0719 0.0945 -5.2746 11.9449 -3.5146 5.4081 -1.8679 0.7816 -0.1385 -3.4662 2.0848 2.6821 -10.1854 -0.0948 0.0141 0.0968 -0.0485 0.6428 -10.4678 -3.9053 -0.6134 -10.4733 3.8085 -5.5717 10.7055 -13.0294 -60.4838 1.3309 9.2229 -0.1125 0.2823 -71.4637 16.1875 4.7634 6.3415 -15.1938 11.5999 16.0751 -60.8079 1.9128 1.6965 3.9404 12.4219 13.4156 34.1961 8.5499 5.2806 1.3260 1.0194 68.6472 13.2092 5.8913 -5.2501 15.5997 7.4217 -16.2947 49.7915 -3.9279 -4.8774 2.7716 -3.4821 -0.8099 0.0037 49.3780 -0.1863 -9.6031 -26.5395 14.6659 1.7577 -3.8583 -2.1465 -0.9324 -1.7929 5.3325 0.0802 41.7250 0.5602 7.7318 -26.7588 -5.9901 -1.4219 -2.4633 1.0306
-2.0424 91.8256 8.4683 -1.4403 -12.5572 -5.3424 -1.9690 3.8469 0.2305 -1.5081 -3.2061 0.1354 -5.2544 11.8094 -3.4828 5.5827 -1.7190 0.7713 -0.2791 -3.4785 1.8650 2.4998 -9.6506 -0.1748 0.0095 0.0875 -0.0569 0.6409 -10.4965 -3.9160 -0.6209 -10.4988 3.8032 -5.6164 10.7604 -12.9929 -61.2827 1.3104 8.1896 -0.1171 0.2354 -70.9240 16.7826 4.5621 6.0405 -15.2186 11.6073 16.0944 -60.8627 1.9442 1.7478 4.1989 12.2395 13.6807 33.5267 7.0230 3.8980 1.4523 0.8382 66.4598 13.1091 5.2304 -5.4913 15.6369 7.4212 -16.3056 49.8967 -3.9104 -4.9095 2.4163 -2.6807 -1.6484 0.0472 47.6378 -0.1390 -9.5082 -26.5399 15.5724 1.7477 -3.4524 -2.1553 -0.9259 -1.3147 5.2378 0.0706 40.5154 0.5470 7.6975 -26.0985 -6.0135 -1.4195 -2.4461 1.0280
-2.0071 92.2190 8.1499 -1.4126 -12.5288 -5.1656 -1.9539 3.6062 0.2336 -1.4888 -3.3181 0.1274 -5.1766 11.7017 -3.4298 5.7613 -1.6089 0.7263 -0.3965 -3.4805 1.7209 2.3109 -9.1620 -0.1706 0.0049 0.0806 -0.0653 0.6384 -10.5194 -3.9260 -0.6278 -10.5203 3.7975 -5.5170 10.8336 -12.9721 -62.1377 1.3177 7.0945 -0.1512 0.2102 -70.4207 17.3424 4.3357 5.7264 -15.2534 11.5868 16.0787 -60.9414 1.9559 1.7794 4.4811 12.0579 13.8976 33.0395 5.6714 2.7330 1.6145 0.6603 64.4194 12.9126 4.8040 -5.7953 15.6695 7.4256 -16.3081 49.9832 -3.8963 -4.9266 2.1013 -2.0632 -2.3599 0.0675 45.9458 -0.1158 -9.3065 -26.4051 16.1954 1.7404 -3.1270 -2.1648 -0.9549 -0.9328 5.1564 0.0615 39.3018 0.5403 7.6509 -25.3538 -6.1023 -1.4184 -2.4322 1.0261
-1.9505 92.6147 7.7626 -1.3638 -12.4631 -4.8977 -1.9588 3.4383 0.1871 -1.4806 -3.3904 0.1432 -5.0591 11.6015 -3.4056 5.9619 -1.4996 0.7198 -0.4837 -3.4888 1.5716 2.1269 -8.7233 -0.1248 0.0013 0.0784 -0.0706 0.6377 -10.5316 -3.9297 -0.6345 -10.5305 3.7911 -5.2738 10.9158 -12.9365 -62.9631 1.4616 5.8148 -0.1398 0.1867 -69.9316 17.8089 4.1767 5.4916 -15.2887 11.5904 16.0898 -60.9926 1.9566 1.8178 4.7313 11.8683 14.0494 32.7653 4.5828 1.8573 1.7188 0.5288 62.5184 12.5890 4.3303 -6.1701 15.6979 7.4411 -16.2985 50.0743 -3.8757 -4.9285 1.8289 -1.6270 -2.9026 0.0906 44.3228 -0.0944 -9.0373 -26.1403 16.5467 1.7284 -2.8739 -2.1603 -1.0243 -0.6240 5.0759 0.0600 38.0431 0.5565 7.6363 -24.5677 -6.3486 -1.4163 -2.4181 1.0335
-1.8317 93.0355 7.2403 -1.2940 -12.3549 -4.6326 -1.9701 3.3335 0.1553 -1.4738 -3.4338 0.1530 -4.9081 11.5001 -3.3775 6.1792 -1.4313 0.7077 -0.5535 -3.5015 1.4697 1.9665 -8.2847 -0.1163 -0.0009 0.0777 -0.0733 0.6398 -10.5380 -3.9320 -0.6412 -10.5346 3.7878 -5.0048 11.0089 -12.8920 -63.7006 1.6939 4.3976 -0.0470 0.1884 -69.4080 18.0867 4.1670 5.3863 -15.2988 11.6128 16.1274 -61.0519 1.9779 1.8521 4.9790 11.6679 14.1758 32.6724 3.6491 1.1010 1.9024 0.4094 60.7325 12.0109 3.9504 -6.5921 15.7049 7.4313 -16.2537 50.0803 -3.8427 -4.9140 1.5746 -1.3435 -3.2951 0.1004 42.7135 -0.0908 -8.6628 -25.6877 16.7139 1.7202 -2.7045 -2.1582 -1.1232 -0.3848 5.0702 0.0541 36.7033 0.5618 7.6275 -23.6736 -6.6373 -1.4157 -2.3923 1.0388
-1.6824 93.4831 6.6281 -1.1798 -12.1979 -4.3795 -1.9840 3.2736 0.1327 -1.4764 -3.4587 0.1645 -4.7536 11.3905 -3.3650 6.4121 -1.3984 0.6682 -0.6095 -3.5015 1.4123 1.8092 -7.8372 -0.1223 -0.0050 0.0763 -0.0836 0.6419 -10.5552 -3.9430 -0.6514 -10.5521 3.7798 -4.7581 11.0804 -12.8213 -64.3168 1.9934 2.9089 0.1292 0.1780 -68.8343 18.1349 4.1953 5.3789 -15.2807 11.5998 16.1283 -61.0735 1.9986 1.8638 5.2654 11.4874 14.2949 32.6756 3.0133 0.6037 2.0532 0.2959 59.0216 11.3389 3.6794 -6.9975 15.6818 7.4096 -16.2122 49.9927 -3.8252 -4.9116 1.3013 -1.2127 -3.6102 0.1011 41.1471 -0.0899 -8.1854 -25.0146 16.7508 1.7138 -2.6166 -2.1555 -1.3086 -0.2090 5.0901 0.0455 35.2741 0.5436 7.6435 -22.6943 -6.8816 -1.4162 -2.4177 1.0352
-1.4774 93.9350 5.9670 -1.0612 -11.9925 -4.1418 -1.9986 3.2346 0.1135 -1.4764 -3.4580 0.1752 -4.5793 11.2664 -3.3652 6.6703 -1.3679 0.6377 -0.6487 -3.4986 1.3689 1.6639 -7.4386 -0.1167 -0.0099 0.0768 -0.0903 0.6431 -10.5621 -3.9475 -0.6624 -10.5554 3.7724 -4.5486 11.1315 -12.7040 -64.8409 2.2468 1.5508 0.2685 0.1906 -68.1685 18.0417 4.1538 5.2755 -15.2087 11.5853 16.1359 -61.0643 2.0030 1.8853 5.5730 11.3284 14.3791 32.8196 2.6547 0.3915 2.1388 0.2352 57.3832 10.6517 3.6350 -7.3512 15.6545 7.3912 -16.1766 49.8817 -3.8135 -4.9298 1.0642 -1.1961 -3.7915 0.0991 39.5903 -0.0889 -7.5774 -24.1734 16.6624 1.7081 -2.5692 -2.1537 -1.5132 -0.0878 5.1414 0.0302 33.7442 0.5228 7.6708 -21.6424 -7.1361 -1.4156 -2.4477 1.0335
-1.2773 94.4208 5.2788 -0.9597 -11.7786 -3.9496 -2.0132 3.2146 0.1087 -1.4666 -3.4620 0.1524 -4.3849 11.1593 -3.3442 6.9554 -1.3049 0.5580 -0.6722 -3.4900 1.3795 1.5308 -7.1096 -0.0929 -0.0149 0.0773 -0.0937 0.6434 -10.5756 -3.9502 -0.6725 -10.5671 3.7711 -4.3984 11.1720 -12.5871 -65.2660 2.4257 0.5176 0.3246 0.1741 -67.4755 17.8828 3.9724 5.0837 -15.1808 11.5958 16.1587 -61.0428 2.0016 1.9011 5.9471 11.1547 14.3992 33.1541 2.5143 0.4546 2.0848 0.2579 55.8138 9.9768 3.7146 -7.6887 15.6311 7.3676 -16.1449 49.8055 -3.7936 -4.9360 0.8734 -1.1979 -3.8779 0.0984 37.9807 -0.0786 -6.9003 -23.1735 16.5008 1.7025 -2.5790 -2.1538 -1.6992 0.0579 5.2454 0.0109 32.0565 0.5099 7.6670 -20.4568 -7.4027 -1.4135 -2.5014 1.0473
-1.0640 94.9269 4.5492 -0.9130 -11.5521 -3.7790 -2.0234 3.1910 0.0856 -1.4423 -3.4822 0.1406 -4.1694 11.0949 -3.3226 7.2704 -1.2409 0.4931 -0.6877 -3.4980 1.3664 1.4239 -6.8299 -0.0790 -0.0183 0.0718 -0.0898 0.6463 -10.5965 -3.9467 -0.6823 -10.5898 3.7759 -4.2844 11.1660 -12.4586 -65.5672 2.5954 -0.3300 0.3623 0.1522 -66.7161 17.6617 3.6725 4.8825 -15.1275 11.5872 16.1767 -60.9512 1.9812 1.9016 6.3986 10.9528 14.3351 33.7091 2.3661 0.6106 1.9884 0.2405 54.3416 9.1855 3.8645 -8.0375 15.5812 7.3431 -16.1197 49.7297 -3.7794 -4.9290 0.7560 -1.1886 -3.9026 0.0979 36.2907 -0.0700 -6.1891 -22.1027 16.3047 1.6975 -2.6283 -2.1575 -1.8228 0.2511 5.3771 -0.0025 30.1926 0.5061 7.6388 -19.1510 -7.7011 -1.4105 -2.6371 1.0675
-0.8866 95.4313 3.7848 -0.9026 -11.2637 -3.6499 -2.0413 3.1380 0.0498 -1.4304 -3.4878 0.1262 -3.9080 10.9887 -3.2953 7.6293 -1.1569 0.4089 -0.7182 -3.5022 1.3349 1.3316 -6.4965 -0.0329 -0.0229 0.0668 -0.0937 0.6494 -10.5978 -3.9476 -0.6946 -10.5946 3.7714 -4.2210 11.1805 -12.3084 -65.7289 2.7394 -1.0943 0.3951 0.1533 -65.7121 17.3786 3.3485 4.6908 -15.1044 11.5694 16.2037 -60.8479 1.9619 1.9288 6.9475 10.6808 14.2063 34.5929 2.3264 0.9393 1.7469 0.3559 52.8658 8.4286 4.0875 -8.4483 15.5647 7.3078 -16.1147 49.6898 -3.7795 -4.9363 0.6826 -1.1699 -3.9108 0.0990 34.4318 -0.0675 -5.4742 -20.9747 16.1360 1.6945 -2.7516 -2.1597 -1.9523 0.4852 5.4194 -0.0086 28.0655 0.5054 7.5748 -17.7063 -7.9184 -1.4054 -2.8284 1.0850
-0.7173 95.9329 2.9769 -0.9472 -10.9879 -3.5307 -2.0576 3.0912 0.0413 -1.4235 -3.5148 0.0588 -3.6295 10.9220 -3.2720 8.0035 -1.0712 0.2967 -0.7263 -3.5106 1.3441 1.2551 -6.1756 -0.0033 -0.0256 0.0614 -0.0912 0.6502 -10.6098 -3.9449 -0.7004 -10.6070 3.7745 -4.1818 11.2545 -12.1448 -65.7445 2.9266 -1.8960 0.4887 0.1548 -64.5715 17.0920 2.9956 4.5394 -15.0812 11.5809 16.2175 -60.8145 1.9592 1.9241 7.5402 10.4630 14.0498 35.7632 2.2344 1.3484 1.4483 0.4550 51.4578 7.6281 4.4315 -8.9737 15.5235 7.2871 -16.1304 49.6628 -3.7725 -4.9644 0.6676 -1.1139 -3.9433 0.0917 32.5638 -0.0724 -4.8010 -19.8724 16.0443 1.6906 -2.8932 -2.1683 -2.0442 0.7910 5.3638 -0.0125 25.8030 0.4877 7.5048 -16.2094 -8.0175 -1.4017 -3.0616 1.1016
-0.5492 96.4103 2.1651 -1.0454 -10.6803 -3.4030 -2.0771 3.0501 0.0091 -1.4158 -3.5315 0.0224 -3.3206 10.8515 -3.2901 8.3673 -1.0036 0.2001 -0.7438 -3.5264 1.3319 1.1893 -5.9404 0.0243 -0.0281 0.0523 -0.0938 0.6521 -10.6129 -3.9439 -0.7070 -10.6127 3.7701 -4.1646 11.2797 -11.9663 -65.5940 3.1974 -2.7952 0.5876 0.1766 -63.2652 16.7712 2.6887 4.3430 -15.0552 11.6112 16.2420 -60.7523 1.9786 1.9064 8.1051 10.2474 13.8662 37.2606 2.0255 1.7035 1.2224 0.5645 50.1577 6.7032 4.7143 -9.6017 15.4811 7.2730 -16.1350 49.6155 -3.8020 -4.9681 0.7109 -1.1119 -4.0355 0.0942 30.7436 -0.0695 -4.1718 -18.7724 15.9938 1.6866 -3.0671 -2.1724 -2.0974 1.0943 5.1743 -0.0196 23.4717 0.4694 7.4346 -14.7253 -8.0377 -1.3968 -3.2904 1.1208
-0.4430 96.8573 1.3632 -1.1246 -10.3746 -3.2916 -2.1108 3.0276 0.0013 -1.4193 -3.5483 -0.0210 -3.0330 10.7993 -3.3178 8.7038 -0.9670 0.1494 -0.7709 -3.5364 1.2751 1.1264 -5.8645 -0.0139 -0.0298 0.0460 -0.0979 0.6535 -10.6208 -3.9467 -0.7113 -10.6221 3.7659 -4.1630 11.2947 -11.8045 -65.2802 3.4957 -3.7506 0.6740 0.1884 -61.8902 16.4828 2.4967 4.1467 -15.0138 11.6286 16.2605 -60.6552 2.0105 1.8805 8.5390 10.0626 13.7032 39.0412 1.9152 2.1447 1.0635 0.6314 48.9307 5.8970 4.9650 -10.2187 15.4533 7.2586 -16.1496 49.5414 -3.8354 -4.9699 0.7816 -1.1613 -4.0750 0.0919 29.0335 -0.0723 -3.6463 -17.6877 15.9419 1.6832 -3.2384 -2.1748 -2.1694 1.3713 4.8952 -0.0266 21.2028 0.4383 7.3864 -13.3043 -7.9331 -1.3942 -3.5340 1.1358
-0.3367 97.2438 0.5391 -1.1504 -10.0922 -3.1714 -2.1661 3.0416 -0.0119 -1.4291 -3.5594 -0.0506 -2.7959 10.7793 -3.3287 8.9558 -0.9695 0.0859 -0.7876 -3.5387 1.2011 1.1057 -5.9247 -0.1031 -0.0291 0.0451 -0.0879 0.6571 -10.6220 -3.9359 -0.7132 -10.6252 3.7752 -4.1712 11.3452 -11.6891 -64.8043 3.7617 -4.8111 0.7590 0.1823 -60.4421 16.2287 2.4216 3.9625 -14.9814 11.6368 16.2880 -60.5794 2.0291 1.8515 8.7429 9.9075 13.5501 41.1214 2.1321 2.8973 0.9025 0.7048 47.7638 5.5497 5.1971 -10.7507 15.4520 7.2507 -16.1466 49.5153 -3.8264 -4.9611 0.8289 -1.2429 -4.0572 0.0853 27.4528 -0.0815 -3.2451 -16.6851 15.8218 1.6771 -3.4082 -2.1825 -2.2913 1.5585 4.5329 -0.0297 19.1625 0.4103 7.3412 -12.0213 -7.7984 -1.3913 -3.7762 1.1324
-0.2574 97.5843 -0.2903 -1.0957 -9.8431 -3.0168 -2.2237 3.0928 -0.0165 -1.4401 -3.5529 -0.0818 -2.6416 10.7648 -3.3197 9.0948 -1.0166 0.0327 -0.8059 -3.5449 1.1202 1.1436 -6.0572 -0.2708 -0.0291 0.0417 -0.0777 0.6591 -10.6253 -3.9265 -0.7148 -10.6299 3.7873 -4.2607 11.3768 -11.6465 -64.1256 4.0776 -5.9221 0.8010 0.1887 -59.0706 16.0094 2.3528 3.7965 -14.9588 11.6178 16.3123 -60.4388 2.0122 1.8508 8.7239 9.8274 13.3606 43.4321 2.7319 4.0755 0.6459 0.7706 46.7600 5.8173 5.3390 -11.1216 15.4856 7.2292 -16.1410 49.5251 -3.8139 -4.9772 0.8041 -1.3129 -3.9950 0.0774 25.9359 -0.0953 -2.9075 -15.7625 15.7153 1.6724 -3.5806 -2.1878 -2.4840 1.6972 4.1333 -0.0368 17.3471 0.3781 7.3015 -10.8621 -7.6724 -1.3893 -4.0112 1.1248
-0.1962 97.8767 -1.0504 -0.9650 -9.6322 -2.7979 -2.2736 3.1746 -0.0303 -1.4305 -3.5364 -0.1112 -2.5896 10.7905 -3.3274 9.0912 -1.1195 0.0048 -0.8286 -3.5615 1.0440 1.2252 -6.2993 -0.5665 -0.0268 0.0354 -0.0644 0.6655 -10.6349 -3.9151 -0.7164 -10.6377 3.8018 -4.4464 11.3318 -11.6299 -63.2780 4.4538 -7.0394 0.8235 0.2029 -57.8543 15.7239 2.3149 3.6566 -14.9152 11.5822 16.3196 -60.3437 1.9932 1.8336 8.4897 9.8130 13.1317 45.8878 3.3626 5.3503 0.3908 0.7517 46.0856 6.6231 5.3561 -11.3497 15.5598 7.2182 -16.1437 49.5966 -3.8169 -4.9961 0.6777 -1.3626 -3.9787 0.0648 24.4880 -0.1135 -2.5940 -14.9151 15.6825 1.6658 -3.7728 -2.1850 -2.7496 1.7858 3.7560 -0.0481 15.7958 0.3609 7.3154 -9.8727 -7.6388 -1.3866 -4.2438 1.1267
-0.1217 98.1364 -1.7669 -0.7355 -9.4768 -2.5305 -2.3221 3.2886 -0.0395 -1.4103 -3.5174 -0.1444 -2.6275 10.8369 -3.3579 8.9579 -1.2006 0.0350 -0.8609 -3.5751 0.9106 1.3156 -6.6402 -0.9396 -0.0233 0.0286 -0.0535 0.6698 -10.6412 -3.9052 -0.7139 -10.6407 3.8122 -4.7607 11.2313 -11.6212 -62.3863 4.7897 -7.9907 0.8145 0.2297 -56.7588 15.3717 2.2876 3.5429 -14.8642 11.5285 16.2962 -60.2868 2.0044 1.8196 8.1614 9.8618 12.9111 48.3637 3.9143 6.5125 0.1977 0.6938 45.7215 7.7463 5.0333 -11.4122 15.6376 7.2177 -16.1487 49.6636 -3.8270 -5.0421 0.3931 -1.3173 -4.0644 0.0573 22.9971 -0.1230 -2.2839 -14.1399 15.7444 1.6607 -3.9700 -2.1844 -3.1165 1.8581 3.4067 -0.0617 14.5046 0.3359 7.3600 -9.0440 -7.6498 -1.3855 -4.4791 1.1226
-0.0124 98.3505 -2.3908 -0.4564 -9.3812 -2.1973 -2.3570 3.3859 -0.0528 -1.3827 -3.4819 -0.1529 -2.7283 10.9041 -3.4225 8.7454 -1.2072 0.1002 -0.9020 -3.5873 0.7196 1.3892 -7.0105 -1.3396 -0.0173 0.0257 -0.0359 0.6733 -10.6300 -3.8884 -0.7054 -10.6288 3.8275 -5.1912 11.0533 -11.5899 -61.5560 5.0618 -8.6912 0.8004 0.2803 -55.7500 14.9451 2.0694 3.4111 -14.8128 11.4874 16.2971 -60.2084 2.0262 1.8383 7.8680 9.9501 12.6715 50.7213 4.2312 7.3381 0.1026 0.5932 45.4687 8.9984 4.2450 -11.3457 15.6874 7.2330 -16.1643 49.7309 -3.8616 -5.0982 0.0212 -1.1536 -4.2251 0.0613 21.4746 -0.1105 -1.9969 -13.4320 15.7711 1.6573 -4.1866 -2.1804 -3.5428 1.9951 3.0746 -0.0725 13.3402 0.3145 7.4651 -8.3595 -7.7422 -1.3863 -4.7169 1.1242
0.0833 98.5494 -2.8987 -0.1742 -9.3874 -1.8294 -2.3762 3.4463 -0.0320 -1.3519 -3.4627 -0.1707 -2.8409 11.0183 -3.4666 8.4955 -1.0609 0.1729 -0.9538 -3.5893 0.5201 1.4758 -7.3700 -1.7483 -0.0100 0.0274 -0.0116 0.6738 -10.6223 -3.8630 -0.6917 -10.6191 3.8484 -5.7235 10.8778 -11.5094 -60.8401 5.1199 -9.0702 0.7421 0.2764 -54.7592 14.4803 1.6293 3.1993 -14.7890 11.4439 16.2768 -60.1476 2.0435 1.8521 7.7256 10.0969 12.4112 52.7645 4.3900 7.9010 0.1067 0.4386 45.0024 10.1127 3.0990 -11.2162 15.7000 7.2779 -16.2332 49.8292 -3.8869 -5.1680 -0.3696 -0.8225 -4.3876 0.0659 19.9733 -0.1002 -1.7685 -12.8188 15.7417 1.6545 -4.4551 -2.1795 -3.9703 2.2902 2.7285 -0.0828 12.2448 0.2886 7.5698 -7.8150 -7.8312 -1.3859 -4.9652 1.1311
0.1454 98.7086 -3.3316 0.0942 -9.4922 -1.4447 -2.3927 3.4644 -0.0116 -1.3124 -3.4548 -0.1641 -2.9484 11.1352 -3.4839 8.2567 -0.6895 0.2442 -1.0329 -3.6004 0.2799 1.5884 -7.6806 -2.1395 -0.0014 0.0292 0.0172 0.6760 -10.6144 -3.8356 -0.6766 -10.6100 3.8759 -6.3675 10.7632 -11.3859 -60.2160 4.8828 -9.1541 0.5932 0.2405 -53.5844 14.0458 0.8254 2.8734 -14.8036 11.3909 16.2496 -60.0841 2.0373 1.8820 7.6919 10.2787 12.1337 54.6520 4.4115 8.3532 0.2013 0.2922 43.9560 11.0545 2.0545 -11.1117 15.7017 7.3521 -16.2962 49.9557 -3.8645 -5.1914 -0.7499 -0.3009 -4.5481 0.0690 18.4634 -0.1002 -1.5847 -12.2596 15.6304 1.6524 -4.7439 -2.1952 -4.3916 2.7524 2.3093 -0.0909 11.1783 0.2733 7.7137 -7.3295 -7.8842 -1.3892 -5.2137 1.1414
0.2286 98.8495 -3.6239 0.3464 -9.6583 -1.0612 -2.4114 3.4481 0.0249 -1.2811 -3.4478 -0.1681 -3.0198 11.2310 -3.4386 8.0370 -0.1946 0.3247 -1.1149 -3.6127 -0.0084 1.7242 -7.9281 -2.4915 0.0032 0.0308 0.0358 0.6761 -10.6128 -3.8170 -0.6678 -10.6038 3.8942 -7.1020 10.6281 -11.2075 -59.6511 4.5222 -9.1167 0.4402 0.1869 -52.1965 13.5730 -0.3771 2.5392 -14.8629 11.3204 16.2167 -60.0591 2.0041 1.9343 7.7432 10.5219 11.9190 56.3982 4.3760 8.8294 0.2321 0.1571 42.2243 12.0326 1.1512 -11.0956 15.6982 7.4116 -16.3666 50.0737 -3.8425 -5.2281 -1.1094 0.3152 -4.6907 0.0721 17.0613 -0.0990 -1.4236 -11.7896 15.4587 1.6494 -5.0166 -2.2175 -4.8265 3.2828 1.7501 -0.0916 10.2203 0.2456 7.9234 -6.9975 -7.8420 -1.3939 -5.4660 1.1361
0.2754 98.9608 -3.8637 0.5395 -9.8337 -0.6709 -2.4204 3.4026 0.0429 -1.2525 -3.4507 -0.1546 -3.0212 11.2990 -3.3546 7.8046 0.3100 0.3796 -1.1621 -3.6088 -0.2639 1.8220 -8.0955 -2.8040 0.0028 0.0329 0.0405 0.6729 -10.6106 -3.8108 -0.6660 -10.5965 3.8985 -7.8054 10.4847 -10.9831 -59.2127 4.0989 -9.1336 0.2524 0.1519 -50.5991 13.0891 -1.7135 2.3883 -14.9365 11.2532 16.1836 -60.0706 1.9632 1.9893 7.7806 10.7252 11.7605 58.0726 4.3363 9.3519 0.2252 0.0087 39.8930 13.1487 0.5958 -11.2395 15.7217 7.4942 -16.4695 50.2354 -3.8236 -5.2579 -1.3901 0.8788 -4.8031 0.0713 15.9011 -0.0859 -1.2826 -11.4535 15.2070 1.6437 -5.2357 -2.2336 -5.2026 3.7965 1.0764 -0.0874 9.3839 0.2146 8.1897 -6.7889 -7.7449 -1.3975 -5.6748 1.1241
0.3088 99.0408 -4.0750 0.6770 -9.9843 -0.3079 -2.4163 3.3668 0.0596 -1.2344 -3.4655 -0.1518 -2.9565 11.3375 -3.2597 7.5599 0.7066 0.4172 -1.1809 -3.5951 -0.4808 1.8625 -8.2162 -3.0343 0.0013 0.0332 0.0438 0.6704 -10.6098 -3.8077 -0.6666 -10.5920 3.9037 -8.3743 10.3771 -10.7651 -58.9742 3.7594 -9.3161 0.1263 0.1815 -48.8950 12.6136 -2.9059 2.5387 -14.9798 11.2161 16.1488 -60.0559 1.9471 2.0206 7.7971 10.8282 11.6810 59.6882 4.2457 9.7153 0.2187 -0.0657 37.3552 14.1792 0.4350 -11.5175 15.7392 7.5447 -16.5674 50.3145 -3.8251 -5.2726 -1.6044 1.3311 -4.9118 0.0729 14.9884 -0.0735 -1.1074 -11.2024 14.9728 1.6357 -5.4246 -2.2577 -5.5211 4.2782 0.3920 -0.0770 8.6136 0.1773 8.4642 -6.6704 -7.5718 -1.3975 -5.8377 1.1123
0.3339 99.1135 -4.2664 0.7359 -10.0677 0.0755 -2.3927 3.3200 0.0396 -1.2095 -3.4993 -0.1285 -2.8178 11.3811 -3.2013 7.2798 0.9613 0.4465 -1.1884 -3.5859 -0.6584 1.8633 -8.3571 -3.1404 -0.0015 0.0282 0.0355 0.6707 -10.6104 -3.8175 -0.6731 -10.5926 3.8977 -8.7923 10.3090 -10.5523 -58.9384 3.5932 -9.7170 0.0690 0.2300 -47.2043 12.0868 -3.9604 2.8505 -15.0269 11.1872 16.1284 -60.0194 1.9266 2.0282 7.8633 10.8567 11.6190 61.1708 4.0838 9.6972 0.2206 -0.1134 35.1076 14.7974 0.2950 -11.9172 15.7369 7.6086 -16.6754 50.3820 -3.8213 -5.2792 -1.7474 1.6419 -5.0790 0.0772 14.2622 -0.0743 -0.8736 -10.9809 14.7780 1.6286 -5.5665 -2.2629 -5.7605 4.7466 -0.3141 -0.0652 7.7710 0.1524 8.7456 -6.5652 -7.3943 -1.3910 -5.9943 1.1031
0.3888 99.1872 -4.4227 0.7464 -10.0462 0.4496 -2.3696 3.2471 0.0291 -1.1749 -3.5645 -0.1148 -2.6318 11.4207 -3.1833 7.0001 1.0672 0.4762 -1.1842 -3.5896 -0.7305 1.8115 -8.5022 -3.2186 -0.0019 0.0196 0.0283 0.6738 -10.6073 -3.8251 -0.6768 -10.5919 3.8915 -9.1326 10.2592 -10.3357 -58.9958 3.7051 -10.2837 0.0170 0.2315 -45.7116 11.4993 -4.9477 3.1498 -15.0333 11.1705 16.1099 -59.9847 1.9100 2.0153 8.0767 10.8750 11.5634 62.4240 3.8079 9.1708 0.2482 -0.1264 33.3323 14.8724 -0.3099 -12.3111 15.7035 7.6813 -16.7654 50.4087 -3.8050 -5.2791 -1.8485 1.8275 -5.3356 0.0764 13.6006 -0.0764 -0.6661 -10.7010 14.6947 1.6244 -5.6543 -2.2543 -5.9580 5.1559 -1.0581 -0.0606 6.8320 0.1142 9.0435 -6.4462 -7.1754 -1.3847 -6.1420 1.1041
0.4547 99.2614 -4.5233 0.7976 -9.9569 0.7364 -2.3727 3.1546 0.0124 -1.1383 -3.6215 -0.0937 -2.4342 11.4415 -3.1788 6.6794 1.0693 0.5408 -1.1694 -3.5909 -0.7716 1.7337 -8.6357 -3.2508 0.0017 0.0131 0.0354 0.6780 -10.5887 -3.8192 -0.6736 -10.5773 3.8988 -9.4544 10.2150 -10.0895 -59.0586 4.0538 -11.0852 -0.0024 0.2314 -44.3628 10.8351 -6.0131 3.3044 -15.0273 11.0875 16.0482 -59.9658 1.9005 2.0264 8.3975 10.9130 11.5402 63.5323 3.3278 8.0505 0.2771 -0.1168 32.0032 14.3462 -1.5364 -12.6044 15.6549 7.7472 -16.8191 50.3941 -3.8050 -5.2704 -1.9803 2.0143 -5.5765 0.0670 12.8392 -0.0967 -0.4900 -10.3040 14.7004 1.6246 -5.6492 -2.2346 -6.2110 5.4384 -1.8003 -0.0571 5.9893 0.0710 9.3759 -6.3488 -6.8635 -1.3826 -6.2672 1.1043
0.5244 99.3179 -4.5997 0.9155 -9.8969 0.9568 -2.3929 3.0738 -0.0022 -1.1111 -3.6409 -0.0625 -2.2795 11.4289 -3.1799 6.3619 1.0346 0.6394 -1.1499 -3.5987 -0.7928 1.6653 -8.7554 -3.2174 0.0067 0.0120 0.0479 0.6794 -10.5617 -3.8080 -0.6652 -10.5522 3.9102 -9.8136 10.1250 -9.8356 -59.0436 4.6359 -12.0166 -0.0482 0.2248 -43.0766 10.0961 -7.2261 3.3238 -14.9832 10.9931 15.9820 -59.9255 1.9078 2.0473 8.7468 10.9495 11.5351 64.6108 2.8045 6.7826 0.2850 -0.1114 30.9420 13.5074 -3.2403 -12.7167 15.6123 7.7858 -16.8471 50.3385 -3.8226 -5.2498 -2.1701 2.3158 -5.7397 0.0545 11.9521 -0.1194 -0.3765 -9.8565 14.7707 1.6287 -5.6282 -2.2151 -6.5277 5.6679 -2.5013 -0.0612 5.3121 0.0280 9.6354 -6.2798 -6.4689 -1.3847 -6.3839 1.0974
0.6011 99.3779 -4.6168 1.0660 -9.8935 1.0608 -2.3847 3.0074 0.0111 -1.0888 -3.6777 -0.0355 -2.1725 11.4622 -3.1580 6.0254 0.9772 0.7349 -1.1350 -3.5918 -0.7882 1.6068 -8.8688 -3.1826 0.0102 0.0140 0.0581 0.6780 -10.5447 -3.7998 -0.6568 -10.5375 3.9211 -10.3403 10.0462 -9.6389 -58.8815 5.2610 -12.8485 -0.0897 0.1972 -41.8903 9.3570 -8.4264 3.3800 -14.9658 10.9129 15.8853 -59.9629 1.8948 2.0491 9.1038 11.0021 11.5638 65.5602 2.3364 5.7244 0.2894 -0.1069 30.1293 12.6066 -4.9556 -12.6491 15.5560 7.8210 -16.8565 50.3336 -3.8080 -5.2133 -2.3720 2.7407 -5.7755 0.0452 11.0518 -0.1389 -0.3256 -9.4373 14.8469 1.6320 -5.5910 -2.1975 -6.8477 5.8930 -3.0970 -0.0689 4.8093 -0.0096 9.8055 -6.2451 -5.9975 -1.3897 -6.5090 1.0908
0.6416 99.4215 -4.5720 1.2149 -9.9497 1.0814 -2.3462 2.9422 0.0226 -1.0588 -3.7040 -0.0164 -2.1034 11.5089 -3.1126 5.6575 0.9293 0.8561 -1.1206 -3.5748 -0.7891 1.5340 -8.9599 -3.1353 0.0122 0.0167 0.0620 0.6810 -10.5257 -3.7978 -0.6563 -10.5234 3.9259 -10.9890 9.9687 -9.4804 -58.6828 5.7103 -13.3021 -0.1919 0.1523 -40.6525 8.6509 -9.5668 3.4764 -14.9571 10.8412 15.8084 -59.9389 1.8710 2.0984 9.4014 11.0240 11.6051 66.4206 1.9539 4.9744 0.3155 -0.0833 29.4635 11.9002 -6.4189 -12.5423 15.5046 7.8244 -16.8492 50.2966 -3.8088 -5.1717 -2.5574 3.2800 -5.7290 0.0386 10.1128 -0.1535 -0.3329 -8.9624 14.9111 1.6373 -5.5756 -2.1898 -7.1292 6.1658 -3.5387 -0.0728 4.4055 -0.0302 9.8958 -6.1617 -5.5299 -1.3978 -6.6234 1.0807
0.6800 99.4503 -4.4614 1.3647 -10.1149 1.0743 -2.2674 2.8916 0.0164 -1.0291 -3.7246 -0.0471 -2.0845 11.6039 -3.0263 5.2302 0.9102 1.0594 -1.1257 -3.5671 -0.8622 1.4693 -8.9886 -3.0606 0.0130 0.0175 0.0558 0.6858 -10.5133 -3.8040 -0.6600 -10.5182 3.9188 -11.7647 9.9855 -9.3001 -58.4286 5.8826 -13.4605 -0.2742 0.0711 -39.3201 7.9471 -10.6446 3.6767 -14.9987 10.8437 15.8114 -59.9610 1.8464 2.1671 9.6488 11.0751 11.6778 67.2062 1.5690 4.5530 0.3665 -0.0255 28.8768 11.3986 -7.5117 -12.5148 15.4464 7.8227 -16.8277 50.2046 -3.8086 -5.1280 -2.7199 3.9715 -5.6265 0.0420 9.1931 -0.1388 -0.4087 -8.4255 14.8995 1.6471 -5.5426 -2.1929 -7.3759 6.5694 -3.8306 -0.0691 4.0867 -0.0351 9.9374 -6.1921 -5.0663 -1.4066 -6.7013 1.0662
0.6778 99.3797 -4.3206 1.5041 -10.3729 1.0262 -2.1601 2.8197 -0.0164 -0.9922 -3.7162 0.0055 -2.1372 11.7502 -2.8908 4.9013 0.6938 1.2396 -1.2104 -3.4984 -1.0581 1.4123 -8.9695 -2.9914 0.0181 0.0264 0.0799 0.6867 -10.5303 -3.7960 -0.6513 -10.5366 3.9582 -12.5093 9.9208 -9.1965 -58.3780 6.2367 -13.7027 -0.0187 0.0609 -38.0041 7.3034 -12.4192 3.9144 -15.1050 10.7195 15.6448 -59.8186 1.7325 2.1818 9.8805 11.0022 11.7540 68.0614 1.4458 4.3883 0.1941 0.0357 28.4599 11.4877 -8.4877 -12.5518 15.3373 7.8124 -16.8291 50.0011 -4.0105 -5.0960 -2.8322 4.8271 -5.5873 0.0138 8.2303 -0.1353 -0.8027 -7.7272 14.9217 1.6487 -5.6316 -2.1887 -7.6258 7.1290 -4.2103 -0.1354 3.7277 0.0368 10.0696 -5.5953 -4.8955 -1.4107 -7.1135 0.9928
0.6273 99.4404 -4.0319 1.5494 -10.7644 0.7954 -1.9597 2.7899 0.0441 -0.9556 -3.7394 0.0426 -2.0495 11.9159 -2.7925 4.1730 0.8677 1.4638 -1.1187 -3.5713 -0.9976 1.3004 -8.7991 -3.0069 0.0121 0.0048 0.0472 0.6898 -10.5062 -3.8094 -0.6671 -10.5128 3.9093 -13.7433 9.9480 -9.0815 -57.8638 6.1274 -12.9788 -0.2958 0.0390 -36.7681 6.5205 -13.9772 4.4118 -15.0301 10.8168 15.6637 -59.8219 1.8084 2.2291 10.0122 11.2049 11.9062 68.6331 1.0604 4.3186 0.3349 0.0402 28.3337 11.1186 -9.1751 -13.0535 15.2705 7.8009 -16.8013 50.0996 -3.8414 -5.1209 -2.8772 5.6558 -5.4485 0.0482 7.8094 -0.0948 -0.7644 -7.3475 14.9666 1.6556 -5.3393 -2.2172 -7.5825 7.7554 -3.8315 -0.0681 3.5545 -0.0260 9.7788 -5.6898 -4.0824 -1.4115 -6.6776 1.0550
0.5480 99.4027 -3.6967 1.5682 -11.1807 0.6688 -1.7340 2.7483 0.0645 -0.8954 -3.7120 0.1549 -2.0871 12.0624 -2.7429 3.6464 0.8925 1.6274 -1.0967 -3.5384 -1.0508 1.2638 -8.6285 -2.8724 0.0100 0.0095 0.0329 0.6894 -10.4866 -3.8195 -0.6717 -10.4941 3.8929 -14.7579 9.8096 -8.9842 -57.6970 6.3120 -12.4131 -0.2709 0.0583 -35.6761 5.7494 -16.1643 4.7506 -15.0549 10.8436 15.5859 -59.8217 1.7873 2.1888 10.2423 11.2493 11.9946 69.0728 1.0635 4.7743 0.1899 0.0693 28.3435 11.1933 -9.6596 -13.2716 15.2055 7.7669 -16.7853 50.0144 -3.8875 -5.1722 -2.8733 6.5059 -5.3591 0.0552 7.4499 -0.0807 -0.9068 -6.9321 15.0475 1.6526 -5.1129 -2.2372 -7.6004 8.4758 -3.9766 -0.0711 3.2707 -0.0499 9.4716 -5.1146 -3.5908 -1.4116 -6.3891 1.0726
0.4535 99.3634 -3.3056 1.5480 -11.5745 0.5270 -1.5101 2.6597 0.0974 -0.8402 -3.7250 0.2043 -2.1024 12.2447 -2.6530 3.1556 0.9365 1.7220 -1.0688 -3.5173 -0.9852 1.1687 -8.3417 -2.7706 0.0153 0.0041 0.0394 0.6970 -10.4710 -3.8118 -0.6688 -10.4829 3.8976 -15.7324 9.7105 -8.8634 -57.6775 6.4146 -11.6539 -0.2578 0.0955 -34.6589 4.7571 -18.1081 5.3230 -15.1018 10.8350 15.5302 -59.8856 1.7492 2.1473 10.5276 11.3107 12.0265 69.2288 1.0733 5.2677 0.2146 0.0659 28.4941 11.1095 -9.7374 -13.2552 15.2281 7.7292 -16.8243 49.9656 -3.9003 -5.1858 -2.8066 7.3438 -5.2935 0.0592 7.1761 -0.0680 -1.0346 -6.6218 15.1188 1.6522 -4.9580 -2.2542 -7.5827 9.2896 -4.0603 -0.0581 2.8568 -0.0707 9.3042 -4.5931 -3.2504 -1.4081 -6.1272 1.0830
0.2977 99.3333 -2.8686 1.5195 -11.9321 0.4075 -1.3341 2.5549 0.1350 -0.7933 -3.7633 0.2124 -2.0858 12.3836 -2.5499 2.7546 1.0478 1.7878 -1.0428 -3.5181 -0.9398 1.0333 -8.0800 -2.6596 0.0189 -0.0033 0.0395 0.7007 -10.4640 -3.8112 -0.6650 -10.4795 3.8968 -16.4584 9.7154 -8.7281 -57.9102 6.5971 -11.1078 -0.2773 0.1112 -33.7734 3.7417 -19.5550 5.9580 -15.1604 10.7995 15.4744 -59.9505 1.6789 2.1188 10.7311 11.3544 12.0190 69.2094 1.1990 5.8485 0.2663 0.0324 28.8900 10.9821 -9.4672 -13.0435 15.2664 7.6682 -16.8592 49.8826 -3.9212 -5.2088 -2.7130 8.1344 -5.2168 0.0561 6.9757 -0.0494 -1.1271 -6.4039 15.1667 1.6543 -4.7598 -2.2528 -7.5472 10.0782 -4.1694 -0.0430 2.4952 -0.0887 9.1832 -4.2634 -2.9618 -1.4013 -5.8382 1.0921
0.1679 99.2871 -2.3957 1.4962 -12.2068 0.3013 -1.2069 2.4428 0.1360 -0.7475 -3.7899 0.2313 -2.0672 12.4593 -2.4628 2.4468 1.1485 1.8380 -1.0291 -3.5318 -0.9269 0.9007 -7.9039 -2.5353 0.0216 -0.0093 0.0383 0.7034 -10.4529 -3.8122 -0.6626 -10.4715 3.8940 -16.9675 9.7416 -8.5878 -58.2389 7.0439 -11.0531 -0.3033 0.1380 -33.0493 2.7018 -20.4385 6.6381 -15.2176 10.7437 15.3978 -60.0052 1.5970 2.0885 10.8875 11.3755 12.0193 68.9919 1.3797 6.3666 0.2512 0.0249 29.4689 10.7273 -8.9772 -12.7394 15.3426 7.5977 -16.8477 49.8381 -3.9392 -5.2357 -2.6241 8.8218 -5.1957 0.0542 6.8168 -0.0275 -1.2131 -6.2783 15.2653 1.6565 -4.5904 -2.2476 -7.4965 10.7591 -4.2679 -0.0326 2.2135 -0.1008 9.0632 -4.0695 -2.7424 -1.3967 -5.5891 1.0927
0.0511 99.2637 -1.9432 1.4874 -12.4089 0.1705 -1.0965 2.3439 0.1436 -0.7109 -3.8266 0.2696 -2.0582 12.5180 -2.4043 2.2035 1.1709 1.8947 -1.0102 -3.5511 -0.9430 0.7921 -7.8138 -2.4322 0.0233 -0.0078 0.0362 0.6995 -10.4505 -3.8131 -0.6551 -10.4671 3.8901 -17.3608 9.7632 -8.4708 -58.5351 7.7559 -11.5027 -0.3041 0.1547 -32.4721 1.5884 -20.7736 7.3787 -15.2837 10.7340 15.3405 -60.1410 1.5797 2.0725 11.0007 11.3611 12.0628 68.5236 1.6698 6.9841 0.1959 0.0093 30.1238 10.0719 -8.3651 -12.3024 15.4152 7.5283 -16.7620 49.8521 -3.9229 -5.2278 -2.5557 9.4190 -5.1993 0.0537 6.6473 -0.0063 -1.2845 -6.1793 15.4134 1.6579 -4.4170 -2.2426 -7.4464 11.3021 -4.3496 -0.0325 2.0540 -0.1035 8.9510 -4.0227 -2.5238 -1.3955 -5.3728 1.0725
-0.1026 99.2326 -1.4961 1.4970 -12.5168 0.0596 -1.0074 2.2350 0.1503 -0.6806 -3.8654 0.3293 -2.0653 12.5514 -2.3738 2.0235 1.1285 1.9446 -1.0072 -3.5612 -0.9643 0.6912 -7.7819 -2.3826 0.0229 0.0030 0.0259 0.6932 -10.4348 -3.8215 -0.6494 -10.4495 3.8783 -17.6776 9.7825 -8.3963 -58.7863 8.5536 -12.2210 -0.2997 0.1851 -31.9761 0.5027 -20.6886 8.1310 -15.3440 10.7437 15.2904 -60.2684 1.6038 2.0624 11.0579 11.2713 12.1327 67.8572 2.0984 7.7809 0.0925 0.0102 30.7504 9.0358 -7.4062 -11.7267 15.4719 7.4603 -16.6127 49.8812 -3.8482 -5.1880 -2.5190 9.9103 -5.2618 0.0575 6.4596 0.0186 -1.3898 -6.0694 15.5847 1.6561 -4.2735 -2.2349 -7.4043 11.7031 -4.4298 -0.0271 1.9613 -0.1039 8.7928 -4.0114 -2.3409 -1.3981 -5.1497 1.0396
-0.2462 99.2128 -1.0539 1.5470 -12.5833 -0.0270 -0.9427 2.1420 0.1394 -0.6556 -3.8957 0.3979 -2.0929 12.5667 -2.3458 1.8800 1.0781 1.9999 -1.0227 -3.5690 -1.0346 0.6149 -7.7968 -2.3398 0.0193 0.0120 0.0118 0.6850 -10.4282 -3.8332 -0.6486 -10.4388 3.8628 -17.9445 9.7999 -8.3449 -58.9927 9.2472 -12.9367 -0.2765 0.1985 -31.5787 -0.2552 -20.5502 8.6702 -15.3908 10.7563 15.2531 -60.3520 1.6267 2.0397 11.0571 11.1460 12.2182 67.0783 2.5767 8.6303 -0.0139 0.0065 31.3613 7.8159 -6.2704 -11.0938 15.5296 7.3828 -16.4585 49.9090 -3.7714 -5.1505 -2.5385 10.3732 -5.3795 0.0633 6.1983 0.0460 -1.4646 -5.9400 15.7928 1.6543 -4.1449 -2.2269 -7.4027 12.0371 -4.4994 -0.0148 1.8977 -0.1007 8.6424 -4.0075 -2.2336 -1.3972 -4.9714 1.0034
-0.3725 99.1986 -0.6448 1.6166 -12.6239 -0.0892 -0.8805 2.0749 0.1434 -0.6332 -3.9226 0.4507 -2.1431 12.5821 -2.3075 1.7470 1.0181 2.0508 -1.0538 -3.5751 -1.0993 0.5516 -7.8611 -2.3799 0.0169 0.0155 0.0026 0.6794 -10.4269 -3.8407 -0.6478 -10.4313 3.8522 -18.1609 9.7461 -8.2848 -59.1511 9.8152 -13.4920 -0.2230 0.2236 -31.3402 -0.6276 -20.5727 8.9586 -15.4158 10.7333 15.1990 -60.3543 1.6253 2.0132 11.0414 11.0132 12.3120 66.2389 3.0339 9.3989 -0.0475 -0.0075 31.9795 6.6278 -5.3556 -10.4756 15.5640 7.3021 -16.3078 49.9249 -3.6911 -5.1321 -2.5916 10.8144 -5.5239 0.0666 5.8925 0.0610 -1.4997 -5.7957 16.0383 1.6558 -4.0389 -2.2182 -7.4030 12.3386 -4.5128 -0.0115 1.8453 -0.0920 8.5068 -3.9971 -2.2355 -1.3958 -4.8362 0.9881
-0.5152 99.1953 -0.2488 1.6936 -12.6237 -0.1363 -0.8318 2.0192 0.1488 -0.6154 -3.9486 0.4795 -2.1816 12.5968 -2.2361 1.5976 0.9795 2.1194 -1.0878 -3.5809 -1.1849 0.4749 -7.9457 -2.4097 0.0156 0.0157 -0.0018 0.6773 -10.4389 -3.8452 -0.6482 -10.4377 3.8479 -18.2812 9.6630 -8.2163 -59.2956 10.1882 -13.8634 -0.1593 0.2097 -31.2475 -0.6406 -20.7017 9.0077 -15.4212 10.6981 15.1513 -60.3093 1.6100 1.9781 11.0385 10.8674 12.4217 65.3989 3.4650 10.1439 -0.0075 -0.0453 32.5543 5.6655 -4.6656 -9.8660 15.5713 7.2283 -16.1920 49.9170 -3.6541 -5.1063 -2.6503 11.2122 -5.6491 0.0619 5.5574 0.0666 -1.5026 -5.6659 16.2812 1.6589 -3.9683 -2.2151 -7.3918 12.5805 -4.4731 -0.0115 1.8278 -0.0802 8.3753 -3.9950 -2.2803 -1.3947 -4.7406 0.9824
-0.6685 99.1846 0.1428 1.7622 -12.5787 -0.1685 -0.7989 1.9632 0.1277 -0.6002 -3.9475 0.5180 -2.1877 12.5736 -2.1342 1.4176 0.9732 2.1975 -1.1039 -3.5953 -1.2850 0.3861 -7.9732 -2.4019 0.0132 0.0154 -0.0096 0.6761 -10.4477 -3.8539 -0.6517 -10.4399 3.8403 -18.3304 9.5973 -8.1664 -59.4064 10.3794 -14.1725 -0.0609 0.1900 -31.2499 -0.5039 -20.8212 8.9692 -15.4113 10.6906 15.1615 -60.2457 1.6003 1.9750 11.0278 10.7013 12.5225 64.6894 3.9534 11.0784 -0.0369 -0.0619 33.0543 5.0669 -4.0615 -9.3064 15.5928 7.1664 -16.1272 49.8913 -3.6635 -5.0995 -2.6842 11.5875 -5.7274 0.0596 5.1456 0.0680 -1.5054 -5.5278 16.4709 1.6644 -3.9182 -2.2118 -7.3514 12.7691 -4.3868 -0.0119 1.8117 -0.0624 8.1794 -3.9992 -2.3800 -1.3961 -4.6372 0.9783
-0.8151 99.1901 0.4941 1.7973 -12.4948 -0.1994 -0.7518 1.9299 0.1452 -0.5976 -3.9617 0.5226 -2.1467 12.5521 -2.0178 1.2328 0.9898 2.2672 -1.1107 -3.5960 -1.3478 0.2907 -7.9541 -2.4020 0.0109 0.0160 -0.0190 0.6750 -10.4590 -3.8637 -0.6553 -10.4443 3.8320 -18.3160 9.5580 -8.1459 -59.4577 10.4191 -14.4385 0.0235 0.1653 -31.4265 -0.3263 -20.7281 9.0213 -15.4391 10.7108 15.1971 -60.2605 1.6268 1.9685 11.0438 10.5817 12.6417 64.0701 4.3674 12.0695 -0.0379 -0.0882 33.4511 4.7195 -3.4322 -8.8291 15.5883 7.1433 -16.0950 49.8863 -3.6630 -5.0930 -2.6478 11.9085 -5.7374 0.0508 4.7484 0.0694 -1.5113 -5.4177 16.5271 1.6676 -3.8771 -2.2124 -7.2589 12.8997 -4.2528 -0.0175 1.8296 -0.0432 7.9876 -4.0586 -2.4984 -1.3994 -4.5496 0.9743
-0.9772 99.1791 0.8312 1.7998 -12.3661 -0.1933 -0.7088 1.9090 0.1357 -0.5942 -3.9541 0.5455 -2.0611 12.5049 -1.9180 1.0605 1.0086 2.3361 -1.1181 -3.6005 -1.4114 0.2013 -7.8907 -2.3659 0.0080 0.0198 -0.0302 0.6686 -10.4610 -3.8724 -0.6551 -10.4414 3.8193 -18.2495 9.5093 -8.1539 -59.4651 10.3296 -14.6128 0.0614 0.1299 -31.7108 -0.1436 -20.5585 9.0470 -15.4963 10.7394 15.2652 -60.3049 1.6510 1.9993 11.0870 10.4483 12.7188 63.5879 4.7132 13.0645 -0.0786 -0.0929 33.7287 4.5291 -2.6436 -8.4278 15.5832 7.1362 -16.0853 49.8914 -3.6686 -5.0866 -2.5680 12.1203 -5.6768 0.0521 4.4204 0.0782 -1.5112 -5.3212 16.4505 1.6705 -3.8198 -2.2211 -7.1336 12.9653 -4.1163 -0.0242 1.8419 -0.0312 7.8029 -4.1258 -2.6508 -1.4033 -4.4785 0.9700
-1.1016 99.1725 1.1507 1.7969 -12.1811 -0.1859 -0.6687 1.8878 0.1355 -0.5866 -3.9510 0.5308 -1.9580 12.4707 -1.8078 0.8787 1.0030 2.3894 -1.1119 -3.5844 -1.4698 0.1049 -7.8535 -2.2880 0.0049 0.0254 -0.0430 0.6635 -10.4483 -3.8810 -0.6564 -10.4298 3.8047 -18.2018 9.3651 -8.1923 -59.3921 10.1948 -14.6459 0.0448 0.1032 -32.0757 0.1230 -20.4321 9.0310 -15.5176 10.7505 15.3136 -60.2996 1.6593 2.0454 11.1899 10.2729 12.7572 63.1708 4.9893 14.0015 -0.1097 -0.0886 33.9250 4.3640 -1.7114 -8.0834 15.5454 7.1168 -16.0848 49.8888 -3.6826 -5.0849 -2.4720 12.1981 -5.5999 0.0544 4.1914 0.0983 -1.5537 -5.2454 16.3098 1.6735 -3.7946 -2.2341 -7.0004 12.9636 -3.9413 -0.0368 1.8282 -0.0219 7.6335 -4.1762 -2.8649 -1.4074 -4.4228 0.9893
-1.2204 99.1733 1.4684 1.7784 -11.9721 -0.1521 -0.6301 1.8637 0.1444 -0.5731 -3.9578 0.5055 -1.8485 12.4877 -1.7582 0.6995 0.9972 2.3947 -1.0876 -3.5496 -1.4488 0.0253 -7.8845 -2.1959 0.0019 0.0300 -0.0492 0.6603 -10.4155 -3.8793 -0.6596 -10.4032 3.7923 -18.1462 9.1588 -8.2354 -59.2833 10.0077 -14.6026 0.0124 0.0955 -32.4512 0.4101 -20.4145 9.0357 -15.4974 10.7411 15.3388 -60.2681 1.6355 2.0873 11.2669 10.0740 12.7828 62.9053 5.1358 14.8112 -0.1967 -0.0604 34.0533 4.2641 -0.9678 -7.8193 15.5069 7.1134 -16.1179 49.8946 -3.6994 -5.0821 -2.3852 12.1529 -5.5547 0.0632 4.0871 0.1345 -1.6502 -5.2309 16.1755 1.6756 -3.7833 -2.2479 -6.8654 12.9042 -3.7718 -0.0425 1.8166 -0.0094 7.4677 -4.2088 -3.1165 -1.4084 -4.4250 1.0180
-1.3340 99.1757 1.7672 1.7727 -11.7287 -0.1298 -0.6161 1.8441 0.1639 -0.5604 -3.9747 0.4633 -1.7406 12.5051 -1.7436 0.5632 1.0144 2.3497 -1.0166 -3.5056 -1.3004 -0.0937 -7.9160 -2.1401 0.0004 0.0379 -0.0444 0.6555 -10.3789 -3.8684 -0.6582 -10.3762 3.7914 -18.0732 8.9905 -8.3305 -59.1398 9.7530 -14.5229 -0.0174 0.0802 -32.7730 0.7056 -20.3870 9.0275 -15.4639 10.7350 15.3629 -60.2506 1.5990 2.1480 11.3226 9.8822 12.7753 62.7451 5.0339 15.2622 -0.1886 -0.0321 34.0767 4.2571 -0.5292 -7.6354 15.4603 7.1296 -16.1525 49.8617 -3.7169 -5.0820 -2.3301 12.0226 -5.4909 0.0684 4.0590 0.1731 -1.7210 -5.2758 16.0686 1.6766 -3.7256 -2.2535 -6.7851 12.7563 -3.6944 -0.0407 1.8236 -0.0016 7.3603 -4.2694 -3.2551 -1.4048 -4.4351 1.0456
