HIERARCHY
ROOT Hips
{
	OFFSET 0.0000 0.0000 0.0000
	CHANNELS 6 Xposition Yposition Zposition Zrotation Xrotation Yrotation
	JOINT Spine1
	{
		OFFSET -0.0137 5.0038 -0.0537
		CHANNELS 3 Zrotation Xrotation Yrotation
		JOINT Spine2
		{
			OFFSET -0.0000 7.1253 -0.0298
			CHANNELS 3 Zrotation Xrotation Yrotation
			JOINT Chest
			{
				OFFSET -0.0000 7.5501 -0.8160
				CHANNELS 3 Zrotation Xrotation Yrotation
				JOINT Neck1
				{
					OFFSET -0.1817 26.3113 -0.5533
					CHANNELS 3 Zrotation Xrotation Yrotation
					JOINT Neck2
					{
						OFFSET -0.0000 7.7094 2.3026
						CHANNELS 3 Zrotation Xrotation Yrotation
						JOINT Head
						{
							OFFSET -0.0000 6.1289 1.9537
							CHANNELS 3 Zrotation Xrotation Yrotation
							JOINT Jaw
							{
								OFFSET 0.0026 0.4756 3.0949
								CHANNELS 3 Zrotation Xrotation Yrotation
								End Site
								{
									OFFSET 0.0 1.0 0.0
								}
							}
							JOINT LeftEye
							{
								OFFSET 3.2064 5.3802 7.5869
								CHANNELS 3 Zrotation Xrotation Yrotation
								End Site
								{
									OFFSET 0.0 1.0 0.0
								}
							}
							JOINT RightEye
							{
								OFFSET -3.2224 5.3619 7.5582
								CHANNELS 3 Zrotation Xrotation Yrotation
								End Site
								{
									OFFSET 0.0 1.0 0.0
								}
							}
						}
					}
				}
				JOINT LeftShoulder
				{
					OFFSET 1.6217 23.2372 5.1134
					CHANNELS 3 Zrotation Xrotation Yrotation
					JOINT LeftArm
					{
						OFFSET 14.9198 0.0000 -5.5023
						CHANNELS 3 Zrotation Xrotation Yrotation
						JOINT LeftForeArm
						{
							OFFSET 28.7393 0.0000 -0.0026
							CHANNELS 3 Zrotation Xrotation Yrotation
							JOINT LeftHand
							{
								OFFSET 27.0940 -0.0000 0.0026
								CHANNELS 3 Zrotation Xrotation Yrotation
								JOINT LeftHandThumbEnd
								{
									OFFSET 12.2686 -3.2202 4.8331
									CHANNELS 3 Zrotation Xrotation Yrotation
									End Site
									{
										OFFSET 0.0 1.0 0.0
									}
								}
								JOINT LeftHandMiddleEnd
								{
									OFFSET 19.0120 -0.3129 -0.0340
									CHANNELS 3 Zrotation Xrotation Yrotation
									End Site
									{
										OFFSET 0.0 1.0 0.0
									}
								}
							}
						}
					}
				}
				JOINT RightShoulder
				{
					OFFSET -1.3801 23.1803 5.2142
					CHANNELS 3 Zrotation Xrotation Yrotation
					JOINT RightArm
					{
						OFFSET -15.0372 0.0000 -5.5456
						CHANNELS 3 Zrotation Xrotation Yrotation
						JOINT RightForeArm
						{
							OFFSET -28.7366 0.0000 -0.0026
							CHANNELS 3 Zrotation Xrotation Yrotation
							JOINT RightHand
							{
								OFFSET -27.1336 -0.0000 0.0026
								CHANNELS 3 Zrotation Xrotation Yrotation
								JOINT RightHandThumbEnd
								{
									OFFSET -12.2642 -3.2115 4.8040
									CHANNELS 3 Zrotation Xrotation Yrotation
									End Site
									{
										OFFSET 0.0 1.0 0.0
									}
								}
								JOINT RightHandMiddleEnd
								{
									OFFSET -19.0006 -0.3066 -0.0316
									CHANNELS 3 Zrotation Xrotation Yrotation
									End Site
									{
										OFFSET 0.0 1.0 0.0
									}
								}
							}
						}
					}
				}
			}
		}
	}
	JOINT LeftLeg
	{
		OFFSET 10.0432 -8.4345 2.5957
		CHANNELS 3 Zrotation Xrotation Yrotation
		JOINT LeftShin
		{
			OFFSET -0.0000 -43.2218 -0.8029
			CHANNELS 3 Zrotation Xrotation Yrotation
			JOINT LeftFoot
			{
				OFFSET 0.0000 -42.1551 -3.4815
				CHANNELS 3 Zrotation Xrotation Yrotation
				JOINT LeftToeBase
				{
					OFFSET 0.0000 -5.0595 13.2315
					CHANNELS 3 Zrotation Xrotation Yrotation
					End Site
					{
						OFFSET 0.0 1.0 0.0
					}
				}
			}
		}
	}
	JOINT RightLeg
	{
		OFFSET -10.0473 -8.2953 2.6203
		CHANNELS 3 Zrotation Xrotation Yrotation
		JOINT RightShin
		{
			OFFSET 0.0000 -43.3622 -0.8056
			CHANNELS 3 Zrotation Xrotation Yrotation
			JOINT RightFoot
			{
				OFFSET 0.0000 -42.1174 -3.4784
				CHANNELS 3 Zrotation Xrotation Yrotation
				JOINT RightToeBase
				{
					OFFSET -0.0000 -5.0796 13.2842
					CHANNELS 3 Zrotation Xrotation Yrotation
					End Site
					{
						OFFSET 0.0 1.0 0.0
					}
				}
			}
		}
	}
}
MOTION
Frames: 75
Frame Time: 0.033333
-2.7645 95.3642 -2.7447 1.8366 -2.0608 -0.0822 -0.2629 4.3970 0.0687 -0.6567 -3.6486 -0.3885 -0.2524 14.2267 -1.8331 -1.3750 33.3649 3.2439 -1.0305 -3.6301 -4.8258 0.4749 -13.5181 -6.5753 -0.0310 0.0464 -0.0107 0.5175 -10.4213 -3.8097 -0.5877 -10.4477 3.8094 -2.6597 15.9077 -6.8512 -59.3114 1.6434 -17.1383 -1.7388 0.5526 -111.4042 -21.3571 35.1825 13.3157 -14.4725 11.3446 15.8599 -59.7548 1.9252 2.0406 -1.0087 11.6470 12.4199 62.5120 -40.7260 -0.0348 -1.5751 0.9429 121.0099 -18.2070 -9.7524 -7.2619 14.6450 8.0278 -15.7396 48.6910 -3.5243 -4.9702 13.4876 -14.4505 14.4884 -0.3797 25.1970 -0.6667 -16.8424 -7.6884 -2.0697 1.6088 0.7720 -1.9179 -15.2484 -16.7351 -17.0349 0.2800 30.2026 0.4135 12.9831 -10.3682 -9.2566 -1.4390 1.2291 0.9465
-3.2615 95.8770 -1.2970 1.3627 -3.1764 0.4864 -0.3570 3.5957 -0.0491 -0.6633 -3.9533 -0.5174 -0.5549 13.0722 -2.3336 -1.0508 29.7103 3.2632 -1.2360 -3.6318 -4.8584 0.2478 -13.2327 -6.4837 -0.0563 0.0770 0.0509 0.5020 -10.2187 -3.7148 -0.6222 -10.2557 3.8442 -3.3021 15.2498 -7.8471 -57.2838 2.4856 -16.8049 -1.9019 0.4510 -111.9952 -25.2802 31.3477 10.7626 -14.4508 11.0223 15.8083 -59.5284 1.6912 2.2712 -1.2932 11.2893 12.0843 60.3405 -37.7953 1.2808 -0.4384 0.9780 116.5581 -18.1451 -12.0750 -4.8193 14.7527 8.0994 -15.9565 48.9970 -3.5851 -4.9475 14.6008 -11.3208 13.6247 -0.3783 22.7542 -0.7252 -16.9957 -7.1750 -1.6325 1.6343 0.4703 -1.8271 -14.8464 -12.7579 -17.1577 0.1878 27.4740 0.3426 13.4126 -9.9677 -10.4263 -1.4576 1.2614 0.9215
-3.7316 96.3063 0.3035 0.9708 -3.6119 0.5796 -0.6241 2.4675 -0.0952 -0.7714 -4.3258 -0.5261 -0.8262 11.4835 -2.7629 -0.4395 24.1525 3.3572 -1.5261 -3.6271 -5.0366 0.0004 -12.9163 -6.2881 -0.0409 0.0907 0.0127 0.5611 -10.1866 -3.7679 -0.6486 -10.2280 3.8120 -3.4680 14.8346 -8.6775 -56.3757 3.4433 -13.8281 -1.7504 0.2542 -111.8561 -27.4656 31.4851 9.0911 -14.3514 10.9000 15.8586 -59.4607 1.4486 2.4488 -1.2987 11.0751 11.9000 56.7351 -34.6901 2.7317 0.0609 1.0687 110.4527 -15.6903 -10.3373 -4.9009 15.1103 8.0718 -16.0037 49.5490 -3.6113 -4.9896 15.4540 -8.1577 12.5314 -0.3122 19.6708 -0.6464 -16.9396 -6.5676 -0.2546 1.6541 0.1860 -1.7810 -14.3127 -9.5649 -16.7750 0.1179 24.9583 0.3500 13.6491 -9.6570 -11.4486 -1.4567 1.3019 0.9515
-4.1652 96.6051 1.7448 0.6471 -3.6403 0.0542 -0.9620 1.3105 -0.1662 -0.8999 -4.6490 -0.4648 -1.0044 10.1212 -2.9832 0.0498 17.7461 3.2855 -1.6779 -3.6254 -4.9136 0.1258 -12.8154 -5.9466 -0.0273 0.0852 -0.0528 0.6421 -10.2689 -3.8754 -0.7003 -10.3165 3.7787 -2.7433 14.7088 -9.3431 -56.7388 4.1157 -9.2690 -1.5744 0.1590 -110.8341 -27.8382 37.0545 8.3491 -14.4022 10.9970 15.9382 -59.8308 1.3166 2.4138 -1.1955 10.9779 11.8836 52.5399 -32.5795 4.1990 0.1354 1.0296 103.9197 -12.4077 -5.2608 -7.7083 15.5198 7.7389 -15.6854 50.1010 -3.5088 -5.0299 16.0329 -5.4557 11.7133 -0.2373 16.8372 -0.5075 -16.9812 -5.9208 1.5584 1.6501 -0.0027 -1.8256 -13.7463 -7.4397 -16.1032 0.0773 23.0196 0.3481 13.5766 -9.4579 -11.8173 -1.4405 1.1498 0.9505
-4.4719 96.8304 2.8912 0.4350 -3.5993 -0.9407 -1.3011 0.3467 -0.2236 -1.0150 -4.8816 -0.4247 -1.2144 9.2570 -3.0722 0.5487 11.1498 2.9883 -1.6741 -3.6223 -4.1846 0.6708 -12.9030 -5.6305 -0.0227 0.0569 -0.0801 0.7175 -10.3808 -3.9377 -0.7644 -10.4358 3.7797 -1.8559 14.7671 -9.9667 -57.2679 4.5395 -4.4143 -1.4476 0.1755 -109.9039 -27.4472 43.1843 8.5527 -14.6350 10.9889 15.8973 -60.0780 1.3761 2.3403 -0.9172 10.9689 12.0180 47.9986 -31.5058 6.0833 -0.1416 1.1424 98.4011 -9.5452 -0.4680 -10.3038 15.5095 7.3338 -15.4840 50.3308 -3.4167 -5.0870 16.3542 -3.2405 11.3384 -0.1599 14.7017 -0.3908 -16.9853 -5.3965 3.5111 1.6332 -0.1507 -1.9083 -13.3397 -6.1563 -15.3526 0.0759 21.7778 0.3532 13.4066 -9.3119 -11.5680 -1.4208 0.8703 0.9498
-4.7006 96.8959 3.7838 0.3133 -3.7360 -2.2482 -1.5765 -0.1959 -0.2055 -1.1021 -5.0323 -0.4697 -1.4777 8.8444 -3.1459 1.1093 6.0704 2.5860 -1.5113 -3.5842 -3.2054 1.4711 -13.4817 -5.2774 -0.0169 0.0389 -0.0531 0.7508 -10.4566 -3.9288 -0.7843 -10.5058 3.8142 -1.3449 14.8010 -10.4934 -57.4179 5.0130 -0.6675 -1.0244 0.0590 -109.6534 -26.4647 45.4273 9.5542 -14.8718 10.8897 15.7787 -60.2558 1.4183 2.2657 -0.6862 10.9233 12.2430 44.5971 -31.6123 7.4710 -0.4351 1.3655 95.6723 -8.5566 1.3735 -10.4346 15.4698 7.1981 -15.4980 50.5620 -3.3728 -5.1090 16.6354 -1.4992 11.5628 -0.1323 13.5294 -0.3273 -17.0986 -5.0918 5.0990 1.6233 -0.2671 -1.9594 -13.1987 -5.4181 -14.6497 0.0830 21.3259 0.3897 13.3808 -9.3005 -11.0403 -1.4138 0.6797 0.9818
-4.7243 96.7779 4.3024 0.1984 -3.9550 -3.5859 -1.8045 -0.3284 -0.1833 -1.1502 -5.0552 -0.4885 -1.7157 8.7215 -3.2201 1.7283 2.9994 2.2395 -1.2337 -3.5486 -2.3541 2.3182 -14.3006 -4.8252 -0.0090 0.0382 -0.0150 0.7351 -10.4785 -3.8916 -0.7518 -10.5136 3.8429 -1.2178 14.6880 -10.9669 -57.4098 5.1135 2.1961 -0.7892 -0.1198 -109.9315 -25.1714 45.3401 10.6988 -15.0137 10.8668 15.7602 -60.4224 1.4220 2.2114 -0.6024 10.8660 12.3456 42.4318 -32.6540 8.1322 -0.2871 1.5591 95.0444 -8.8498 1.9876 -9.5705 15.7180 7.1826 -15.5553 50.7942 -3.3774 -5.1623 16.9580 -0.7315 12.2861 -0.1313 13.7667 -0.2961 -17.4344 -5.3627 6.0038 1.6337 -0.3626 -1.9972 -13.2029 -5.3257 -14.0810 0.0989 21.7679 0.4296 13.4521 -9.5317 -10.3771 -1.4164 0.6104 0.9951
-4.6021 96.4966 4.4859 -0.0271 -4.1904 -4.6433 -1.9624 -0.1686 -0.1432 -1.1819 -4.9777 -0.5486 -1.8774 8.8852 -3.2801 2.4393 1.5990 1.9132 -1.0266 -3.5342 -1.6621 3.0524 -14.9034 -4.4677 -0.0073 0.0438 0.0040 0.7083 -10.5031 -3.8658 -0.7206 -10.5300 3.8535 -1.2377 14.5926 -11.3874 -57.4759 4.5732 4.0673 -0.7810 -0.2659 -110.3052 -23.8431 44.2265 11.7168 -15.0276 10.9106 15.7859 -60.5226 1.4791 2.2121 -0.6581 10.8289 12.2148 41.1784 -33.6294 8.3627 0.0032 1.5906 95.5537 -8.8714 2.2860 -8.5519 15.9904 7.1548 -15.6177 50.9170 -3.3829 -5.2378 17.3522 -0.9641 13.1105 -0.1318 15.2815 -0.2959 -17.8626 -6.4664 6.3670 1.6389 -0.3222 -2.0098 -13.1832 -5.8210 -13.7786 0.1065 23.0508 0.4142 13.5896 -10.0828 -9.6754 -1.4237 0.5678 0.9890
-4.3154 96.0609 4.4157 -0.3081 -4.4970 -5.2976 -2.1094 0.2070 -0.1067 -1.1923 -4.8302 -0.6360 -1.9788 9.3864 -3.3234 3.1688 1.6031 1.6862 -0.9277 -3.5578 -1.2739 3.6223 -15.1857 -4.1789 -0.0151 0.0476 -0.0060 0.6855 -10.5232 -3.8677 -0.7126 -10.5513 3.8401 -1.2972 14.6442 -11.7473 -57.7602 3.3514 4.7991 -0.8446 -0.3784 -110.4539 -22.2889 42.5475 12.7259 -14.8826 10.9978 15.8385 -60.4737 1.5454 2.2484 -0.6578 10.9687 11.9276 40.6314 -34.2835 8.2573 0.0798 1.3588 96.7082 -8.3648 2.6010 -7.3945 16.1435 7.1486 -15.7026 50.9344 -3.3937 -5.3288 17.7567 -1.9747 13.9071 -0.1328 17.8091 -0.3352 -18.2817 -8.1369 6.3688 1.6407 -0.1082 -2.0134 -13.2301 -6.7159 -13.6923 0.1212 25.0163 0.4049 13.8261 -10.8380 -9.0001 -1.4322 0.5866 0.9811
-3.8890 95.5832 4.2141 -0.4784 -4.9930 -5.5919 -2.2658 0.6793 -0.0824 -1.2028 -4.6596 -0.7165 -2.1038 10.2088 -3.3581 3.7016 3.0675 1.6198 -0.8659 -3.5951 -1.1140 3.9333 -14.9329 -3.9532 -0.0257 0.0485 -0.0409 0.6770 -10.5315 -3.8944 -0.7246 -10.5628 3.8047 -1.3866 14.8502 -11.9781 -58.1938 1.6240 4.2715 -0.7938 -0.4677 -110.1087 -20.7717 40.5453 13.6273 -14.6612 11.0787 15.8890 -60.4167 1.5773 2.2662 -0.4856 11.4016 11.6087 40.6742 -34.5683 8.0086 -0.0397 0.9315 97.9742 -7.4717 2.9690 -6.0845 16.1347 7.1550 -15.7413 50.8124 -3.4285 -5.3584 18.0737 -3.2314 14.6991 -0.1438 20.7890 -0.4057 -18.6025 -9.8775 5.8156 1.6428 0.1812 -2.0211 -13.5501 -7.6154 -13.8058 0.1550 27.1761 0.4531 14.1700 -11.5438 -8.2667 -1.4382 0.6829 0.9950
-3.3933 95.1425 4.0286 -0.4904 -5.6861 -5.6839 -2.4043 1.0364 -0.0462 -1.2175 -4.5411 -0.7411 -2.2758 11.2783 -3.4021 3.9854 6.1193 1.6421 -0.7644 -3.6284 -1.0105 3.8797 -13.4927 -3.6737 -0.0263 0.0499 -0.0717 0.6802 -10.5183 -3.9084 -0.7279 -10.5467 3.7641 -1.5631 15.2020 -12.0241 -58.5845 -0.3491 2.4669 -0.6937 -0.5005 -109.0847 -19.8448 38.8461 14.3965 -14.4700 11.0676 15.8780 -60.3148 1.5660 2.2493 -0.1040 12.1395 11.3039 41.1221 -34.4237 7.9078 -0.1976 0.5334 98.6845 -6.2736 3.9950 -4.8658 15.9629 7.1571 -15.7555 50.5808 -3.4555 -5.3554 18.2569 -4.1708 15.5450 -0.1789 23.4692 -0.4877 -18.6365 -11.3289 4.8700 1.6419 0.4439 -2.0331 -14.1971 -8.0901 -13.9860 0.2018 28.8636 0.5354 14.6044 -12.0198 -7.4398 -1.4395 0.7344 1.0200
-2.7952 94.8161 3.9099 -0.4437 -6.4574 -5.7889 -2.4635 1.1806 0.0177 -1.2137 -4.5156 -0.7303 -2.4057 12.4136 -3.4543 4.0653 10.6354 1.7331 -0.6902 -3.6131 -0.9987 3.4449 -10.4194 -3.1684 -0.0147 0.0444 -0.0798 0.6814 -10.4968 -3.8955 -0.7047 -10.5100 3.7347 -1.7936 15.6377 -11.8748 -58.9967 -2.2777 -0.1803 -0.6699 -0.3427 -107.3959 -19.4634 37.8470 15.0544 -14.3434 11.0532 15.8620 -60.1236 1.5538 2.2437 0.3781 13.0248 11.1325 41.8248 -33.8403 8.0456 -0.2883 0.3912 98.5677 -4.9843 6.0012 -3.8106 15.7600 7.1128 -15.7497 50.3932 -3.4547 -5.3284 18.3453 -4.6015 16.4044 -0.2023 25.4707 -0.5392 -18.3556 -12.4258 3.9089 1.6425 0.5916 -2.0526 -14.9472 -8.0595 -14.0134 0.2386 29.7816 0.5966 14.9913 -12.1459 -6.6024 -1.4404 0.6467 1.0377
-2.1987 94.5867 3.8466 -0.4120 -7.1153 -6.0373 -2.4481 1.1594 0.1079 -1.1841 -4.5787 -0.7260 -2.4264 13.4956 -3.4902 4.0049 15.9953 1.9616 -0.7359 -3.5451 -1.0684 2.7611 -6.2737 -2.5771 -0.0031 0.0258 -0.0597 0.6792 -10.5079 -3.8655 -0.6780 -10.4992 3.7426 -1.9378 16.0576 -11.5817 -59.5238 -3.8569 -3.0538 -0.7679 -0.0903 -105.6449 -19.1859 37.5930 15.6087 -14.2453 11.0911 15.8565 -59.9190 1.5914 2.2859 0.6908 13.8512 11.1195 42.8673 -32.9530 8.2205 -0.3304 0.5328 97.9302 -4.1677 8.2188 -2.9487 15.6612 7.0348 -15.7165 50.2753 -3.4390 -5.2790 18.3495 -4.7553 17.1360 -0.2156 26.9903 -0.5597 -17.8688 -13.3319 3.2487 1.6435 0.6248 -2.0632 -15.5924 -7.8252 -13.7976 0.2587 30.1669 0.6110 15.3425 -12.0682 -5.9083 -1.4391 0.4890 1.0330
-1.6479 94.3662 3.7576 -0.3362 -7.5804 -6.4736 -2.4199 1.1665 0.1755 -1.1523 -4.6449 -0.7308 -2.3768 14.4730 -3.5180 3.6989 21.0003 2.2365 -0.8062 -3.5118 -1.0362 2.1468 -3.0584 -2.1131 -0.0003 0.0052 -0.0394 0.6806 -10.5521 -3.8575 -0.6731 -10.5356 3.7729 -1.8407 16.3942 -11.2396 -60.1910 -4.8774 -5.5839 -0.9063 0.1689 -104.7516 -18.7900 37.2991 15.9538 -14.1491 11.1899 15.8985 -59.8513 1.6660 2.3488 0.6429 14.4895 11.0920 44.4577 -32.2251 8.1920 -0.4386 0.6203 97.6303 -4.2674 9.3482 -2.3701 15.6008 7.0058 -15.6446 50.1319 -3.4035 -5.2400 18.2322 -4.8859 17.7009 -0.2300 28.3161 -0.5641 -17.4100 -14.1319 2.9784 1.6444 0.6483 -2.0381 -16.1321 -7.7487 -13.3841 0.2629 30.4574 0.6059 15.7176 -12.1169 -5.4206 -1.4348 0.4176 1.0330
-1.1746 94.1437 3.6264 -0.1764 -7.8521 -7.0589 -2.4007 1.2498 0.2022 -1.1191 -4.6556 -0.7310 -2.3327 15.3157 -3.5204 3.2161 25.1243 2.4981 -0.8329 -3.5120 -0.9654 1.7015 -1.1454 -1.7512 0.0034 -0.0024 -0.0394 0.6885 -10.5985 -3.8793 -0.6732 -10.5838 3.7924 -1.5995 16.6002 -10.8843 -60.8668 -5.5329 -7.5546 -1.2404 0.3380 -104.8486 -18.2992 36.2356 16.1749 -14.0759 11.2229 15.9157 -59.8119 1.7267 2.3694 0.3350 14.9494 11.0130 46.7699 -31.9907 7.6362 -0.3229 0.5369 98.1190 -5.0241 9.0189 -2.0420 15.6149 7.0193 -15.5838 50.0181 -3.4041 -5.2021 17.9837 -5.0638 18.1995 -0.2344 29.4509 -0.5508 -17.0578 -14.7815 2.9357 1.6461 0.6956 -1.9991 -16.6405 -7.9479 -12.8488 0.2604 30.7945 0.5736 16.0549 -12.3225 -5.0265 -1.4339 0.4185 1.0439
-0.7622 93.9550 3.4681 0.0567 -7.9471 -7.7843 -2.3709 1.3851 0.2028 -1.0740 -4.6314 -0.6987 -2.3298 16.0654 -3.4892 2.6214 28.4847 2.7503 -0.8227 -3.5125 -0.9583 1.3416 0.0356 -1.4780 0.0086 -0.0071 -0.0423 0.6987 -10.6337 -3.9045 -0.6730 -10.6244 3.8108 -1.2536 16.8120 -10.4983 -61.5108 -6.0237 -8.9992 -1.6271 0.3991 -105.6673 -17.9299 34.5814 16.1497 -14.0308 11.1778 15.9139 -59.7581 1.7489 2.3734 -0.1753 15.3220 10.9232 49.8320 -32.1817 6.5249 0.0083 0.3272 99.4944 -6.2635 7.2947 -1.8463 15.6947 7.0631 -15.5866 49.9622 -3.4621 -5.1945 17.6524 -5.2976 18.7610 -0.2290 30.3792 -0.5105 -16.7758 -15.2989 3.0078 1.6505 0.7281 -1.9604 -17.1224 -8.4477 -12.3021 0.2617 31.1917 0.5654 16.3305 -12.5313 -4.5515 -1.4336 0.3972 1.0404
-0.4721 93.8095 3.2857 0.3049 -7.8872 -8.5634 -2.3150 1.5979 0.1825 -1.0136 -4.6086 -0.6831 -2.3784 16.7361 -3.4478 1.9770 31.1866 3.0078 -0.7982 -3.5261 -0.9702 1.0106 0.7347 -1.2879 0.0118 -0.0179 -0.0395 0.7032 -10.6739 -3.9184 -0.6715 -10.6633 3.8297 -0.7877 17.1223 -10.1112 -62.1528 -6.3215 -9.3959 -1.9243 0.2717 -107.0915 -17.7671 32.7782 16.0077 -14.0555 11.0672 15.8874 -59.7920 1.7315 2.4018 -0.9190 15.6066 10.8005 53.3661 -32.4148 5.3625 0.2125 0.0908 101.7973 -7.7958 3.5210 -1.5879 15.8262 7.1981 -15.6658 50.0379 -3.5573 -5.1456 17.2911 -5.6005 19.3395 -0.2316 31.0849 -0.5149 -16.5649 -15.6793 3.1403 1.6497 0.7678 -1.9137 -17.4842 -9.1597 -11.7728 0.2696 31.6462 0.6100 16.5301 -12.6856 -4.1306 -1.4335 0.3737 1.0416
-0.2877 93.7382 3.0763 0.5169 -7.6762 -9.3062 -2.2262 1.8340 0.1362 -0.9641 -4.5505 -0.6922 -2.4411 17.2699 -3.4141 1.3501 33.4544 3.2226 -0.7042 -3.5692 -1.0195 0.6702 1.2176 -1.1006 0.0191 -0.0345 -0.0449 0.7205 -10.7493 -3.9480 -0.6735 -10.7294 3.8447 -0.3002 17.4613 -9.8016 -62.7960 -6.3566 -8.6696 -1.8990 -0.0152 -108.5374 -17.5130 31.7279 16.3118 -14.1585 10.9345 15.8405 -59.9268 1.6780 2.4396 -1.7506 15.8738 10.6153 56.5388 -32.7050 4.7516 0.2974 -0.0460 104.2789 -9.2188 -1.0948 -1.2159 15.9434 7.3987 -15.8314 50.1538 -3.6303 -5.1192 16.9543 -5.9211 19.8563 -0.2342 31.4338 -0.5193 -16.4472 -15.8506 3.3056 1.6458 0.7671 -1.8611 -17.6553 -9.9250 -11.2436 0.2895 31.9942 0.6529 16.6055 -12.7040 -3.9084 -1.4338 0.3848 1.0343
-0.2288 93.7317 2.8717 0.6347 -7.3495 -9.9167 -2.1053 2.0557 0.0842 -0.9508 -4.4622 -0.7403 -2.4860 17.7135 -3.3942 0.9435 35.3553 3.2906 -0.5678 -3.6212 -1.0732 0.2900 1.5827 -0.8612 0.0352 -0.0396 -0.0661 0.7601 -10.8209 -3.9932 -0.6804 -10.7957 3.8414 -0.0307 17.7805 -9.6384 -63.3391 -6.2278 -7.1534 -1.6517 -0.3250 -109.3552 -16.6996 32.9113 17.3362 -14.2670 10.9293 15.8400 -60.0538 1.6372 2.3909 -2.5856 16.0211 10.3554 58.5382 -33.2325 4.9464 0.3028 -0.1156 105.8585 -10.3091 -3.5905 -1.1491 15.9377 7.4781 -15.9410 50.1598 -3.6719 -5.1272 16.6988 -6.2733 20.1914 -0.2402 31.5229 -0.5189 -16.3689 -15.7862 3.5572 1.6430 0.7208 -1.8432 -17.5974 -10.6152 -10.7062 0.3097 32.1746 0.6794 16.5101 -12.6376 -3.8457 -1.4324 0.3910 1.0223
-0.2508 93.7910 2.6628 0.6923 -6.8511 -10.3339 -1.9701 2.2190 0.0396 -0.9537 -4.3666 -0.8004 -2.5223 18.0957 -3.3780 0.7836 36.9880 3.1649 -0.4353 -3.6713 -1.0522 -0.0383 1.6749 -0.6537 0.0523 -0.0451 -0.0857 0.7968 -10.8602 -4.0333 -0.6817 -10.8414 3.8355 -0.0660 18.0529 -9.6218 -63.8004 -6.0172 -5.3779 -1.3368 -0.5410 -109.5557 -15.2774 35.8543 18.7666 -14.3396 11.0337 15.8468 -59.9857 1.5991 2.3321 -3.4740 15.9597 9.9838 59.8451 -33.8913 5.5139 0.3494 -0.1006 106.5151 -11.1437 -4.4055 -1.4464 15.9046 7.4618 -15.9739 50.1459 -3.6943 -5.1359 16.4352 -6.7193 20.2460 -0.2361 31.4005 -0.4970 -16.2891 -15.5039 3.9351 1.6421 0.6132 -1.8574 -17.3837 -11.2622 -10.2381 0.3356 32.1180 0.7126 16.3032 -12.5435 -4.0237 -1.4325 0.4272 1.0094
-0.3745 93.9034 2.4680 0.7090 -6.2336 -10.5092 -1.8159 2.3497 -0.0189 -0.9445 -4.2965 -0.8434 -2.5882 18.4835 -3.4364 0.9203 38.3699 2.9773 -0.3806 -3.7045 -0.9579 -0.2675 1.5117 -0.5019 0.0593 -0.0528 -0.0864 0.8141 -10.8829 -4.0436 -0.6838 -10.8729 3.8412 -0.3048 18.3522 -9.5822 -64.1827 -5.7178 -4.1574 -0.9637 -0.6319 -109.5537 -13.6718 38.4605 20.1562 -14.3235 11.1737 15.8322 -59.7965 1.5784 2.2652 -4.3411 15.8754 9.6725 60.6763 -34.6684 6.0983 0.4500 -0.1150 106.7433 -11.7681 -4.8121 -1.9492 15.8219 7.4382 -15.9965 50.0925 -3.6954 -5.1511 16.1371 -7.2088 19.9347 -0.2339 31.1021 -0.4864 -16.2260 -15.1292 4.4317 1.6416 0.5015 -1.8975 -17.0597 -11.9119 -9.9395 0.3554 31.9637 0.7410 16.0326 -12.3684 -4.2929 -1.4336 0.4521 0.9790
-0.5866 94.0604 2.2585 0.7169 -5.5315 -10.4733 -1.6634 2.4880 -0.1013 -0.9200 -4.2150 -0.8438 -2.6865 18.8528 -3.5274 1.3279 39.5345 2.7653 -0.3255 -3.7186 -0.7530 -0.3579 1.1269 -0.3677 0.0636 -0.0593 -0.0801 0.8156 -10.8966 -4.0409 -0.6745 -10.8881 3.8481 -0.5164 18.6687 -9.4093 -64.5373 -5.2868 -3.8431 -0.6267 -0.6420 -109.7803 -12.7161 39.6249 20.8664 -14.2276 11.2411 15.7940 -59.5248 1.5448 2.2465 -5.1621 15.7776 9.4171 61.4163 -35.4413 6.5548 0.5060 -0.0406 106.9367 -12.1712 -5.7088 -2.5187 15.7086 7.4669 -16.0363 50.0533 -3.7398 -5.1216 15.8171 -7.7213 19.2951 -0.2419 30.6737 -0.4937 -16.2271 -14.6893 4.9754 1.6430 0.4418 -1.9254 -16.7102 -12.5680 -9.8023 0.3615 31.7464 0.7767 15.8453 -12.1233 -4.5427 -1.4367 0.4931 0.9584
-0.8542 94.2226 2.0566 0.7395 -4.8217 -10.1256 -1.5296 2.7139 -0.1810 -0.8901 -4.1374 -0.8483 -2.7477 19.2739 -3.5552 1.9740 40.7715 2.5106 -0.1923 -3.7335 -0.4050 -0.2796 0.5774 -0.1692 0.0639 -0.0553 -0.0702 0.8104 -10.9080 -4.0252 -0.6652 -10.8970 3.8492 -0.4847 18.9851 -9.1135 -64.8840 -4.7532 -4.4345 -0.4048 -0.6882 -110.4302 -12.9224 39.6075 20.7530 -14.0714 11.2525 15.7488 -59.3555 1.5229 2.2308 -5.9066 15.7686 9.1829 62.2762 -36.3134 6.5970 0.5594 0.0282 107.3674 -12.4829 -7.4918 -3.0239 15.6146 7.5285 -16.0871 50.0189 -3.7258 -5.0995 15.4898 -8.2821 18.3166 -0.2676 30.2787 -0.5410 -16.2494 -14.1997 5.4900 1.6457 0.4127 -1.9389 -16.3648 -13.2003 -9.8637 0.3252 31.6015 0.7406 15.7985 -11.9642 -4.7339 -1.4414 0.5372 0.9418
-1.2052 94.3640 1.8219 0.7954 -4.1183 -9.3323 -1.4461 3.0159 -0.1995 -0.8729 -4.0083 -0.8375 -2.6887 19.7266 -3.5227 2.9487 42.1571 2.1784 -0.0291 -3.7628 0.1034 -0.0086 -0.0822 0.1314 0.0661 -0.0476 -0.0590 0.8026 -10.8999 -3.9960 -0.6511 -10.8788 3.8408 -0.0404 19.2359 -8.7208 -65.2301 -4.3355 -5.6184 -0.3763 -0.7009 -111.3781 -14.2408 39.3574 20.0441 -13.9676 11.2731 15.7100 -59.2542 1.5226 2.2069 -6.2948 15.8355 8.9866 63.0465 -37.2421 6.1784 0.5940 0.1210 108.1307 -13.0416 -10.0993 -3.3401 15.5437 7.5855 -16.1271 49.9443 -3.7255 -5.1064 15.1686 -8.9755 16.9551 -0.2956 30.0067 -0.5622 -16.2550 -13.6782 5.7900 1.6489 0.3564 -1.9379 -16.0691 -13.8008 -10.2298 0.2782 31.5732 0.6703 15.8886 -11.9318 -5.1254 -1.4458 0.5350 0.9288
-1.6117 94.4412 1.5757 0.9566 -3.4672 -8.0418 -1.4287 3.4270 -0.1767 -0.8752 -3.8293 -0.8208 -2.4873 20.1928 -3.3481 4.3297 43.4573 1.7533 0.1210 -3.7877 0.8385 0.3436 -0.8131 0.6222 0.0716 -0.0422 -0.0457 0.7931 -10.8665 -3.9538 -0.6289 -10.8385 3.8226 0.7731 19.3750 -8.2661 -65.4791 -4.3060 -6.9740 -0.4960 -0.7762 -112.4070 -15.7832 39.3131 19.1808 -13.9807 11.3208 15.7228 -59.3350 1.5565 2.2428 -6.1408 15.8855 8.8570 63.3739 -37.9787 5.4352 0.5691 0.2298 109.2470 -13.8339 -13.0743 -3.3178 15.5581 7.6152 -16.1247 49.9426 -3.6692 -5.1230 14.7900 -9.8171 15.1439 -0.3050 29.9748 -0.5431 -16.2491 -13.2477 5.8832 1.6450 0.2962 -1.9334 -15.8858 -14.4963 -11.0055 0.2379 31.9076 0.5960 15.9418 -12.1607 -5.7233 -1.4476 0.5303 0.9240
-2.0945 94.4599 1.2771 1.2977 -2.8519 -6.2834 -1.4984 3.9747 -0.1603 -0.9017 -3.5792 -0.7393 -2.2445 20.6338 -3.1108 6.2936 44.2724 1.4149 0.3069 -3.7836 1.6717 0.6569 -1.6976 1.3263 0.0790 -0.0396 -0.0304 0.7863 -10.8327 -3.9174 -0.6053 -10.8026 3.8140 1.8087 19.3737 -7.7979 -65.4605 -4.6395 -8.3459 -0.6291 -0.8836 -113.2040 -17.0114 39.5845 18.3301 -13.9683 11.3656 15.7487 -59.3702 1.5833 2.2889 -5.4345 15.8721 8.8335 63.0651 -38.4808 4.5013 0.5369 0.3408 110.5386 -14.6764 -16.5062 -2.6581 15.6011 7.6095 -16.1264 49.9840 -3.6417 -5.1221 14.2745 -10.8018 12.8880 -0.2886 30.1435 -0.4819 -16.2310 -12.8335 5.8940 1.6335 0.2439 -1.9697 -15.9043 -15.4064 -12.1374 0.2222 32.7109 0.5662 15.9059 -12.5857 -6.4612 -1.4465 0.6250 0.9032
-2.6152 94.4402 0.8728 1.6648 -2.1576 -4.1588 -1.5871 4.7718 -0.1762 -0.9259 -3.2675 -0.6436 -1.9659 21.0466 -2.8084 8.7283 44.0872 1.0976 0.5138 -3.7408 2.6434 1.0135 -2.7897 2.1809 0.0893 -0.0395 -0.0145 0.7877 -10.7660 -3.8901 -0.5846 -10.7448 3.8165 3.0283 19.3464 -7.3751 -65.1542 -5.1967 -9.8926 -0.5854 -0.9023 -113.7651 -18.2382 40.4325 17.3430 -14.0191 11.3618 15.7898 -59.3898 1.5536 2.2843 -4.4785 15.8361 8.9034 62.1684 -38.8614 3.6169 0.2698 0.4651 111.7729 -15.2097 -20.1722 -1.3581 15.5935 7.6113 -16.2507 50.0729 -3.6379 -5.1808 13.7647 -12.1259 10.2917 -0.2807 30.4754 -0.4224 -16.1403 -12.2934 5.8967 1.6153 0.1705 -2.0239 -15.8875 -16.5474 -13.4930 0.2163 33.7431 0.5676 15.8768 -12.9580 -7.2220 -1.4380 0.8578 0.8669
-3.1358 94.5297 0.3573 1.8064 -1.0608 -1.9104 -1.5908 5.7614 -0.3032 -0.9599 -2.9451 -0.4520 -1.6132 21.3549 -2.5041 11.3911 42.5955 0.6696 0.7407 -3.6842 3.6972 1.5843 -4.0214 3.1502 0.0939 -0.0490 0.0116 0.7761 -10.6531 -3.8482 -0.5637 -10.6441 3.8289 4.1359 19.3227 -7.2280 -64.7041 -5.8535 -11.0168 -0.6490 -0.7971 -114.3834 -20.0038 42.0257 15.9110 -14.2893 11.2765 15.9270 -59.4413 1.4326 2.3288 -3.3949 15.6868 9.0993 61.1166 -39.2972 2.5818 -0.0925 0.5617 112.6700 -15.6681 -23.6264 0.0013 15.4330 7.5698 -16.3514 50.0610 -3.6880 -5.2234 13.4665 -14.0463 7.6117 -0.2585 30.7039 -0.3931 -15.8472 -11.4668 6.0019 1.5939 0.0455 -2.0679 -15.3892 -17.8744 -14.8756 0.1880 34.3142 0.5717 15.7228 -12.9218 -8.1594 -1.4272 1.1465 0.8347
-3.5829 94.9989 -0.3540 1.8000 0.8602 0.1737 -1.5759 6.7913 -0.4784 -1.0207 -2.5454 -0.2429 -1.3570 21.5610 -2.3322 14.0465 39.7646 0.0266 0.8984 -3.5872 4.6609 2.5516 -5.3387 3.9110 0.1267 -0.0702 0.0360 0.7796 -10.5399 -3.7989 -0.4998 -10.5421 3.8205 4.6081 18.9139 -7.3546 -64.1315 -6.1461 -11.2824 -0.9054 -0.5693 -115.6641 -22.0081 44.0095 14.4753 -14.5181 11.0946 16.0017 -59.4697 1.3228 2.4053 -2.1941 15.2050 9.6452 60.5094 -39.6738 0.9809 -0.3453 0.5491 113.6918 -16.5809 -26.6072 1.4278 15.2502 7.4553 -16.3079 49.7960 -3.7694 -5.3419 13.2323 -16.7899 5.0827 -0.1949 30.4168 -0.3361 -15.3897 -9.5388 6.4713 1.6194 -0.1947 -2.0679 -14.2745 -19.6128 -15.8980 0.1307 33.8384 0.5491 15.3589 -11.8567 -9.4356 -1.4218 1.4057 0.8723
-3.8529 96.0595 -1.3608 2.0137 4.0217 1.7182 -1.6132 7.9899 -0.5574 -1.1217 -2.0780 -0.1894 -1.3799 21.3882 -2.1392 16.4267 35.5006 -0.6715 0.9042 -3.4921 5.0505 3.4914 -7.1506 3.9493 0.1365 -0.0615 0.0707 0.7810 -10.5159 -3.7775 -0.4797 -10.5113 3.8663 4.3587 18.2058 -8.1154 -63.7401 -5.9458 -10.6264 -1.0704 -0.6997 -117.3939 -22.3706 46.4743 13.8460 -14.8337 10.8733 15.9378 -59.3854 1.2341 2.5938 -1.2160 14.4658 10.5920 60.8804 -39.7185 -1.4817 -0.3142 0.5976 115.4450 -18.1365 -28.9640 2.9625 14.9991 7.4609 -16.1547 49.4112 -3.8219 -5.1746 12.6648 -20.5521 3.7079 -0.1883 28.8805 -0.3646 -14.9294 -5.8253 6.3591 1.6297 -0.8296 -2.0498 -12.9659 -22.2255 -16.1598 0.0849 31.7836 0.4839 14.6944 -9.3375 -10.5488 -1.4438 1.4025 0.8055
-3.9045 97.6061 -2.5292 2.2910 8.2272 2.3495 -1.6050 9.2631 -0.5966 -1.2094 -1.5046 -0.0507 -1.6074 21.0021 -2.0886 17.5513 29.1870 -1.2372 0.7485 -3.5128 4.2576 4.2029 -9.5405 2.9606 0.1284 -0.0670 0.0695 0.7932 -10.6010 -3.8258 -0.5079 -10.5955 3.9135 3.9365 17.1334 -8.9142 -63.9393 -5.3256 -9.8311 -0.9819 -0.7731 -118.8192 -20.4231 50.0786 14.3343 -15.0036 10.7322 15.7762 -59.3963 1.2445 2.6467 -1.3578 13.9027 12.1499 62.8032 -39.3991 -4.7774 -0.3713 0.6027 117.9855 -20.2804 -30.7663 5.3932 14.6297 7.5728 -16.0864 49.0982 -3.8009 -5.0382 11.8385 -24.8671 3.2803 -0.1437 26.1018 -0.3466 -14.6442 -0.3322 6.2147 1.6494 -1.9996 -2.0018 -11.6509 -25.4189 -15.5274 0.0194 28.0039 0.3946 14.0682 -4.9012 -11.1605 -1.4577 0.9634 0.7909
-3.7699 99.3423 -3.8222 2.1936 12.9618 1.8173 -1.5569 10.3931 -0.6025 -1.2767 -0.8538 0.2135 -1.8255 20.8652 -1.7784 17.6244 21.7013 -1.4957 0.1914 -3.5292 2.4782 4.6685 -12.4412 0.9661 0.0711 -0.0749 0.0452 0.7798 -10.6630 -3.8845 -0.6115 -10.6535 3.9425 3.8153 16.2265 -9.1455 -64.6073 -5.1405 -9.9825 -0.2899 -0.5726 -119.8649 -17.2973 54.9131 15.6059 -15.0920 10.6017 15.6192 -59.5989 1.1879 2.6135 -2.9490 13.9548 13.7444 66.3190 -39.2869 -8.3440 -0.6120 0.5141 121.2352 -22.7907 -32.3571 8.6587 14.3999 7.7005 -16.1269 49.2159 -3.7461 -5.0320 11.2147 -29.1727 3.5506 -0.1598 22.5801 -0.3472 -13.9238 6.1591 6.4130 1.6954 -3.3715 -2.0272 -10.2024 -28.9106 -14.3077 -0.0617 23.1895 0.2751 13.2895 1.2880 -10.6308 -1.4542 -0.2577 0.7829
-3.5578 100.6770 -5.0691 1.7248 17.6911 0.2511 -1.6427 11.0591 -0.4951 -1.4308 -0.2501 0.5983 -2.2156 21.0531 -1.1802 16.9333 16.2678 -1.2066 -0.5769 -3.5557 0.6828 4.6796 -15.3137 -1.3750 0.0477 -0.0718 -0.0099 0.7631 -10.5138 -3.9278 -0.6443 -10.5005 3.8818 4.0906 15.4776 -8.6627 -65.1799 -5.4023 -11.1628 0.6242 -0.2273 -120.9132 -15.0023 59.4117 16.6058 -15.2215 10.5008 15.4357 -59.8339 1.1023 2.5419 -5.4323 14.3147 14.8806 70.5656 -39.6166 -11.1425 -0.6572 0.3898 124.3564 -24.0293 -32.4416 10.8300 14.3483 7.6962 -16.2109 49.3672 -3.6641 -5.1638 10.6769 -32.7653 4.6842 -0.1711 18.3965 -0.2661 -12.5675 11.5573 7.2928 1.7371 -3.9138 -2.0703 -8.6185 -32.1600 -13.4664 -0.0927 17.5889 0.1719 12.7683 7.4046 -9.2279 -1.4498 -1.6234 0.8356
-3.3558 101.2145 -5.9555 1.1408 21.3617 -1.9284 -2.0894 11.4219 -0.2514 -1.6014 0.2558 0.9631 -3.0186 21.6244 -0.4866 15.2908 15.4534 -0.2129 -0.9568 -3.6356 -0.4903 4.2597 -16.7305 -3.1117 0.0483 -0.0473 -0.0644 0.7261 -10.3578 -3.9580 -0.6094 -10.3626 3.8010 4.2733 14.7451 -7.7119 -65.2763 -5.8043 -12.3365 1.1254 0.0657 -121.9229 -14.2178 62.7585 16.7602 -15.2511 10.5090 15.3388 -59.9352 1.0858 2.4967 -7.7638 14.5982 15.6476 74.6903 -40.5204 -13.0316 -0.3154 0.1887 126.7898 -23.8329 -30.9314 11.0566 14.5955 7.6268 -16.2936 49.2387 -3.5287 -5.3348 9.8727 -34.7568 6.9275 -0.1920 14.3834 -0.1604 -12.1729 13.6047 8.1835 1.7472 -3.5121 -2.0941 -6.7851 -34.3433 -13.8619 -0.0474 12.3467 0.0989 12.6675 10.7981 -7.8591 -1.4517 -1.9249 0.9054
-3.1755 100.9435 -6.4412 0.5260 23.3988 -3.9080 -2.6889 11.9367 -0.0633 -1.7290 0.6811 1.3277 -3.9717 22.5724 0.0747 12.7920 18.6689 1.2464 -0.9689 -3.7753 -1.1253 3.4446 -16.6979 -4.0712 0.0646 -0.0374 -0.1094 0.6958 -10.3568 -3.9683 -0.5507 -10.3831 3.7136 4.0324 14.2202 -6.5946 -65.1622 -6.5893 -12.7563 1.1322 0.4111 -122.1601 -14.1506 65.0221 16.3009 -15.3170 10.5951 15.3999 -59.8640 1.1515 2.4499 -9.2946 14.8569 16.3449 77.8180 -41.7035 -13.7464 0.0069 0.0720 128.5188 -22.7005 -29.0540 10.2638 15.0348 7.6118 -16.4241 49.2250 -3.4397 -5.4497 9.0912 -35.4326 9.4092 -0.2177 11.8279 -0.0538 -12.7709 12.3285 8.6882 1.7311 -2.3142 -2.1247 -4.7757 -35.4978 -15.3411 0.0479 9.2087 0.0927 12.5046 10.9412 -6.7779 -1.4462 -1.0713 0.9542
-3.0786 100.1349 -6.6638 0.2129 24.2034 -4.7686 -3.0584 12.6243 0.0126 -1.9259 1.1555 1.6385 -4.8434 23.7436 0.2841 10.3467 23.3717 2.6869 -1.1416 -3.9290 -1.5038 2.5547 -15.8317 -4.4429 0.0583 -0.0811 -0.1179 0.6479 -10.4311 -3.9084 -0.5207 -10.5004 3.6386 3.2748 13.9863 -5.8907 -64.8473 -8.2746 -12.1326 0.5947 0.6065 -121.2865 -13.8771 66.6565 15.6441 -15.3933 10.6578 15.5098 -59.4939 1.2382 2.3018 -9.8340 15.1387 17.0481 79.3780 -42.7636 -13.3466 -0.2515 0.1428 129.2001 -21.4773 -26.5763 9.0058 15.2284 7.7022 -16.3919 49.2626 -3.2699 -5.4713 8.5124 -35.9218 11.0262 -0.2123 11.3575 0.0311 -13.3726 9.3908 8.8007 1.6986 -0.6024 -2.1550 -3.3148 -36.1311 -16.9566 0.1053 8.2872 0.2358 12.1267 9.0388 -6.4355 -1.4324 0.1174 1.0151
-2.9510 99.5257 -6.8691 -0.0012 24.7131 -4.8918 -3.2879 13.3621 0.0873 -1.9668 1.6277 1.6865 -5.7118 25.1326 0.3390 8.6849 27.5951 4.1485 -1.2715 -4.0795 -1.9889 1.6499 -15.0743 -4.5339 0.0257 -0.0995 -0.1076 0.5736 -10.4467 -3.8303 -0.5160 -10.5264 3.5955 2.0368 13.9346 -5.8661 -63.9889 -10.7475 -11.3130 0.1239 0.5338 -120.0302 -13.5437 67.0663 15.4243 -15.5999 10.4051 15.4857 -59.0220 1.1576 2.3637 -9.8554 15.4915 17.6600 80.8610 -43.9699 -14.2230 -0.2910 0.0064 128.8912 -20.9540 -24.7022 8.1766 15.4115 7.8817 -16.4409 49.6686 -3.3082 -5.3030 8.1573 -36.9524 11.9282 -0.2566 11.9885 -0.0016 -13.6501 7.4873 8.5173 1.6585 0.0281 -2.2289 -2.4870 -37.5782 -17.8427 0.1062 9.8038 0.3180 11.9038 7.3162 -6.5833 -1.4215 0.7242 0.9909
-2.8720 99.1157 -7.1102 -0.1555 25.2933 -4.2652 -3.3033 14.0321 0.1084 -1.9921 2.1008 1.7075 -6.4212 26.5189 0.0949 7.5288 30.9069 5.3857 -1.2690 -4.1284 -2.3774 0.6951 -14.6653 -4.5345 0.0437 -0.1216 -0.1077 0.5467 -10.4322 -3.7930 -0.4545 -10.5461 3.5568 0.9340 13.6604 -6.1971 -63.2411 -13.4929 -10.5733 -0.1957 0.4813 -119.0981 -13.6747 67.0787 15.7621 -15.7130 10.2042 15.4126 -58.7166 1.1327 2.3518 -10.5837 15.6478 17.8993 83.6121 -44.4367 -16.9790 -0.2640 -0.2616 127.9580 -20.8955 -22.2820 6.8529 15.5689 7.9127 -16.5039 49.9770 -3.5030 -5.3385 8.1396 -38.8170 11.8778 -0.2388 13.5261 -0.0263 -13.6805 6.3472 7.9425 1.6475 0.4971 -2.2174 -1.8424 -39.2677 -18.4067 0.0788 11.9578 0.3638 11.5663 6.0866 -7.2034 -1.4193 0.9280 1.0382
-2.8633 98.8160 -7.4367 -0.2496 26.1096 -3.2390 -3.2108 14.6312 0.0883 -1.9833 2.4638 1.6516 -7.0813 27.5742 -0.2691 6.7305 33.3901 6.3872 -1.1251 -4.1026 -2.4885 -0.0062 -14.4690 -4.5578 0.0255 -0.1263 -0.0980 0.4839 -10.4267 -3.7608 -0.4308 -10.5765 3.5568 0.2354 13.3940 -6.4582 -62.8672 -15.6994 -10.3036 -0.1556 0.4520 -119.0309 -13.2576 67.0012 17.1579 -15.8716 10.1207 15.4215 -58.8926 1.1574 2.3411 -12.1200 15.5855 17.3884 86.7420 -43.9913 -19.7342 -0.3886 -0.4453 127.0293 -20.7801 -19.2060 5.1726 15.8126 7.8338 -16.4112 50.3200 -3.6858 -5.3639 8.1117 -40.8883 11.5730 -0.2303 14.7483 -0.0626 -13.4706 5.9563 7.3699 1.6479 0.6823 -2.2317 -1.3702 -40.9438 -18.5751 0.0397 13.8464 0.3460 11.1484 5.1754 -8.4461 -1.4170 1.0820 1.0565
-2.8604 98.6303 -7.7102 -0.3131 26.8836 -2.1556 -3.1277 15.1576 0.1188 -1.9341 2.7064 1.5927 -7.5910 28.2700 -0.6707 6.1944 35.1404 7.0376 -0.9649 -4.0439 -2.4055 -0.3836 -14.2486 -4.6255 0.0107 -0.1251 -0.0922 0.4294 -10.4002 -3.7309 -0.4088 -10.5693 3.5481 -0.2997 13.3021 -6.6694 -62.5604 -16.8740 -10.4923 0.0697 0.5407 -119.4072 -12.7593 66.6692 18.4610 -16.0014 10.1288 15.4581 -59.1707 1.1264 2.2820 -13.5938 15.4026 16.6148 88.4062 -43.3213 -20.4871 -0.6829 -0.5109 126.6740 -20.1210 -17.0243 4.3508 15.9247 7.7699 -16.4536 50.4749 -3.7682 -5.4602 8.1500 -42.5945 11.1165 -0.2408 15.4334 -0.1250 -13.1464 5.9318 6.9651 1.6471 0.8037 -2.2448 -1.0857 -42.3243 -18.5933 0.0259 15.3413 0.3037 10.9001 4.5273 -9.7179 -1.4180 1.2533 1.0549
-2.8740 98.4976 -7.9315 -0.3322 27.4211 -1.1875 -3.0250 15.5588 0.1157 -1.9168 2.8650 1.5973 -7.8932 28.7084 -0.9208 5.9498 36.3495 7.3677 -0.9015 -3.9932 -2.2581 -0.5617 -13.8788 -4.6405 0.0225 -0.1279 -0.0868 0.4237 -10.4062 -3.7143 -0.3781 -10.5737 3.5395 -0.7546 13.4017 -6.8312 -62.2492 -17.4365 -11.0574 0.0549 0.6494 -119.3664 -11.9070 66.6682 19.6400 -16.0688 10.1464 15.4357 -59.3606 1.1018 2.2327 -14.4632 15.3400 15.9057 88.5285 -43.1225 -19.1757 -0.9957 -0.5355 126.9340 -19.1705 -16.0143 4.3708 16.0139 7.7749 -16.5654 50.5545 -3.8113 -5.5252 8.3143 -43.7807 10.4695 -0.2292 15.8412 -0.1860 -12.8524 5.9417 6.6736 1.6427 0.9146 -2.2255 -0.8647 -43.3102 -18.7447 0.0158 16.5513 0.2581 10.8403 3.9177 -10.6621 -1.4217 1.4731 1.0729
-2.9008 98.3849 -8.1195 -0.3206 27.6383 -0.4561 -2.9234 15.9066 0.1429 -1.9024 2.9460 1.6383 -8.0202 28.9342 -1.0080 5.8857 37.2386 7.4893 -0.9409 -3.9834 -2.1348 -0.6960 -13.3225 -4.6265 0.0360 -0.1376 -0.0789 0.4395 -10.4388 -3.7154 -0.3665 -10.6061 3.5521 -1.1285 13.5297 -6.8518 -62.0592 -17.5180 -11.9718 -0.1094 0.8427 -119.0025 -11.1618 67.0444 20.6147 -16.0021 10.1396 15.3864 -59.3713 1.1113 2.1470 -15.0318 15.3586 15.3528 88.5423 -43.1807 -17.3306 -1.0441 -0.6406 127.4833 -18.5415 -15.7282 4.9464 16.0722 7.7967 -16.5753 50.6812 -3.8083 -5.4999 8.5855 -44.5034 9.7274 -0.2241 16.2513 -0.2631 -12.6303 5.8539 6.6393 1.6398 1.0427 -2.2168 -0.7685 -43.9343 -18.9100 0.0204 17.5860 0.2230 10.8517 3.2974 -11.2195 -1.4240 1.6461 1.0930
-2.8967 98.2787 -8.2881 -0.3024 27.5701 -0.0234 -2.8198 16.1917 0.1671 -1.9240 3.0019 1.7098 -8.0374 29.0371 -0.9750 5.8903 37.8701 7.4772 -0.9978 -3.9919 -2.0368 -0.8825 -12.7477 -4.5859 0.0379 -0.1539 -0.0733 0.4511 -10.4784 -3.7220 -0.3745 -10.6528 3.5694 -1.4837 13.6074 -6.7875 -61.9866 -17.3053 -12.9433 -0.3681 1.0153 -118.5444 -10.7401 67.9093 21.3330 -15.8782 10.1036 15.3376 -59.2413 1.1299 2.0862 -15.4062 15.3712 14.9579 88.7979 -43.2927 -15.5379 -0.9689 -0.7600 127.9345 -18.1982 -15.7225 5.5693 16.0017 7.8211 -16.5155 50.7674 -3.7831 -5.4218 8.9517 -44.8942 8.9689 -0.2066 16.8179 -0.3135 -12.4501 5.6837 6.8510 1.6376 1.1100 -2.2317 -0.8069 -44.2870 -18.9627 0.0296 18.5134 0.2067 10.8246 2.7458 -11.4898 -1.4259 1.6948 1.1006
-2.8640 98.1740 -8.4753 -0.2795 27.3411 0.1126 -2.7397 16.4461 0.2092 -1.9151 3.0249 1.7472 -8.0262 29.0042 -0.9064 5.8068 38.3007 7.3505 -1.0555 -4.0057 -2.0100 -1.0390 -12.0851 -4.5711 0.0320 -0.1667 -0.0710 0.4508 -10.4836 -3.7219 -0.3877 -10.6616 3.5772 -1.7998 13.6571 -6.6108 -62.0847 -16.8467 -13.9066 -0.6423 1.1665 -118.3323 -10.5664 69.1055 21.9382 -15.7439 10.0366 15.3058 -59.1082 1.1519 2.0251 -15.7899 15.3025 14.6307 89.2981 -43.3375 -13.8252 -0.8886 -0.8767 128.3403 -18.0177 -16.1573 6.2903 15.9080 7.8731 -16.4606 50.7941 -3.7435 -5.3615 9.2738 -45.1475 8.3548 -0.2052 17.5943 -0.3668 -12.3355 5.3949 7.1833 1.6350 1.1702 -2.2572 -0.9149 -44.5773 -18.9680 0.0377 19.4280 0.2066 10.8161 2.2641 -11.5033 -1.4276 1.7416 1.0891
-2.8244 98.0601 -8.6655 -0.2232 26.9863 -0.0332 -2.6712 16.6580 0.2055 -1.9124 3.0257 1.7902 -7.9938 28.8647 -0.8646 5.4823 38.5866 7.0893 -1.0706 -4.0102 -2.0431 -1.1827 -11.3187 -4.5802 0.0387 -0.1775 -0.0688 0.4626 -10.4733 -3.7226 -0.3846 -10.6409 3.5796 -2.0806 13.6724 -6.3762 -62.2516 -16.2409 -14.8264 -0.8991 1.2988 -118.4279 -10.8629 70.2460 22.2376 -15.6997 9.9613 15.3094 -59.0846 1.1428 1.9901 -16.2186 15.1761 14.3186 90.0281 -43.3801 -12.1684 -0.8139 -0.9673 128.6829 -17.9003 -17.3843 7.2048 15.8259 7.9201 -16.4209 50.7301 -3.6968 -5.2714 9.4789 -45.2616 7.9304 -0.2135 18.4862 -0.4150 -12.3228 5.0138 7.5961 1.6347 1.2412 -2.2591 -1.1044 -44.8569 -18.8717 0.0621 20.3534 0.2143 10.7927 1.8416 -11.3178 -1.4273 1.7982 1.0739
-2.7684 97.9204 -8.8920 -0.1369 26.4986 -0.4552 -2.6332 16.8206 0.2098 -1.8893 3.0327 1.8045 -7.9821 28.6333 -0.8703 4.8118 38.7639 6.6736 -1.0397 -4.0046 -2.1668 -1.2671 -10.4545 -4.6029 0.0406 -0.1860 -0.0663 0.4623 -10.4596 -3.7212 -0.3814 -10.6094 3.5822 -2.3478 13.5523 -6.1740 -62.3404 -15.4861 -15.6446 -1.0959 1.3119 -118.7363 -11.2859 70.9445 22.3651 -15.5842 9.9393 15.3077 -59.0056 1.1359 1.9744 -16.6848 15.0327 14.0723 91.0086 -43.4704 -10.9022 -0.5931 -1.0343 128.8230 -17.9163 -19.3059 8.2370 15.6720 7.9922 -16.4313 50.5507 -3.6398 -5.2064 9.5689 -45.1637 7.7821 -0.2187 19.3274 -0.4292 -12.4710 4.6147 8.0626 1.6383 1.3362 -2.2595 -1.4667 -45.0916 -18.5703 0.0891 21.2385 0.2261 10.7816 1.4806 -10.9867 -1.4311 1.8773 1.0674
-2.7072 97.7819 -9.1671 0.0273 25.9495 -0.9944 -2.6090 16.9544 0.2068 -1.8456 3.0403 1.7795 -7.9414 28.3923 -0.9268 3.9525 38.8536 6.1298 -1.0028 -3.9975 -2.3289 -1.4480 -9.6489 -4.6731 0.0331 -0.1967 -0.0674 0.4699 -10.4819 -3.7377 -0.4030 -10.6226 3.5978 -2.4926 13.3970 -6.0223 -62.3397 -14.8812 -16.4190 -1.2014 1.3499 -119.1559 -11.3238 70.7778 22.4495 -15.5606 9.9870 15.3344 -59.0703 1.1619 1.9733 -17.1207 14.8759 13.7706 91.8161 -43.5514 -9.8352 -0.3766 -1.0828 128.8303 -17.8432 -21.0139 8.9809 15.5763 8.0180 -16.4245 50.4695 -3.6318 -5.1686 9.4436 -44.9689 7.9298 -0.2345 20.1193 -0.4403 -12.6845 4.2030 8.4656 1.6403 1.3938 -2.2615 -1.9451 -45.3703 -18.1617 0.1264 22.1292 0.2416 10.7366 1.1332 -10.4953 -1.4364 1.8759 1.0483
-2.6774 97.6222 -9.4606 0.2597 25.3194 -1.5573 -2.5666 17.0566 0.2028 -1.7877 3.0558 1.7220 -7.8183 28.1821 -1.0106 3.2138 38.8598 5.6397 -0.9911 -3.9972 -2.5240 -1.6859 -8.9503 -4.7731 0.0144 -0.2099 -0.0694 0.4721 -10.5123 -3.7564 -0.4441 -10.6573 3.6181 -2.5231 13.2466 -5.9304 -62.2968 -14.4730 -17.0963 -1.2424 1.3142 -119.5798 -10.7614 70.2406 22.6788 -15.6014 10.0732 15.4109 -59.1302 1.2212 2.0240 -17.4472 14.7160 13.4439 92.2080 -43.5151 -8.8710 -0.2220 -1.1714 128.7460 -17.6910 -22.4128 9.4359 15.5024 8.0067 -16.3777 50.5113 -3.6065 -5.1616 9.1945 -44.6006 8.2572 -0.2478 20.7311 -0.4478 -12.9319 3.8036 8.8035 1.6411 1.4368 -2.2923 -2.4950 -45.5944 -17.7332 0.1565 23.0097 0.2565 10.6984 0.7756 -9.9483 -1.4417 1.8760 1.0254
-2.6628 97.4661 -9.7853 0.5191 24.6376 -2.0912 -2.4582 17.1358 0.1697 -1.7421 3.0952 1.6624 -7.6166 28.1046 -1.1384 2.7904 38.7883 5.3156 -1.0003 -4.0074 -2.6743 -1.8608 -8.2291 -4.8538 -0.0008 -0.2225 -0.0701 0.4914 -10.5600 -3.7877 -0.4922 -10.7110 3.6529 -2.4735 13.1312 -5.8629 -62.1427 -14.2219 -17.8224 -1.1733 1.2214 -119.9635 -10.0934 69.5947 22.8195 -15.6567 10.1524 15.5013 -59.2084 1.2892 2.1136 -17.6073 14.5570 13.0887 92.2391 -43.3534 -8.1271 -0.0772 -1.2072 128.7821 -17.4716 -24.1200 9.8966 15.5416 7.9676 -16.3275 50.6704 -3.6368 -5.1517 8.9275 -44.1280 8.6109 -0.2529 21.1952 -0.4339 -13.1724 3.4788 9.0070 1.6376 1.4676 -2.3122 -3.0134 -45.7619 -17.3654 0.1947 23.8439 0.3043 10.6598 0.4878 -9.4551 -1.4434 1.8789 1.0082
-2.7222 97.3011 -10.1446 0.7823 23.9181 -2.5675 -2.3221 17.1986 0.1514 -1.6527 3.1413 1.5579 -7.3530 28.1719 -1.2864 2.8523 38.7966 5.1760 -1.0796 -4.0233 -2.6717 -1.8505 -7.5019 -4.8076 -0.0107 -0.2278 -0.0658 0.5072 -10.5643 -3.8042 -0.5277 -10.7224 3.6809 -2.3336 13.0774 -5.7890 -61.8669 -14.0638 -18.6295 -1.1264 1.1715 -120.2520 -9.5635 68.4853 22.7504 -15.7413 10.2145 15.5515 -59.2475 1.3301 2.1531 -17.5861 14.4573 12.7756 91.9762 -43.0422 -7.6890 0.0760 -1.2647 128.9085 -17.1972 -25.8033 10.3701 15.5889 7.9660 -16.3694 50.7606 -3.6288 -5.1744 8.7446 -43.5738 8.8555 -0.2502 21.5503 -0.4124 -13.3907 3.1967 9.1587 1.6350 1.4991 -2.3254 -3.4907 -45.8584 -17.0671 0.2187 24.6475 0.3390 10.6587 0.2443 -8.9498 -1.4447 1.8950 0.9972
-2.7775 97.1701 -10.5283 1.0534 23.1233 -2.9447 -2.1535 17.2594 0.1241 -1.5448 3.1693 1.4311 -6.9848 28.3742 -1.4157 3.4704 39.0801 5.2143 -1.2074 -4.0189 -2.4605 -1.6895 -6.7737 -4.6049 -0.0055 -0.2313 -0.0554 0.5298 -10.5385 -3.8027 -0.5402 -10.7089 3.6988 -2.1517 13.1240 -5.6978 -61.4403 -13.9774 -19.5723 -1.0850 1.1602 -120.3502 -9.5869 66.7152 22.2324 -15.7868 10.1683 15.5260 -59.1628 1.3081 2.1536 -17.3407 14.4730 12.5081 91.3685 -42.7031 -7.4852 0.2030 -1.3402 128.8953 -16.8142 -27.0559 10.6240 15.5370 7.9666 -16.4642 50.7449 -3.6158 -5.1826 8.6420 -42.9109 8.9778 -0.2577 21.8366 -0.4026 -13.5778 2.9730 9.2633 1.6339 1.5100 -2.3284 -3.9616 -45.8009 -16.8182 0.2410 25.3792 0.3507 10.7036 -0.0220 -8.4534 -1.4471 1.9258 0.9835
-2.8619 97.0176 -10.9203 1.3188 22.2416 -3.2628 -1.9419 17.3042 0.0930 -1.4351 3.2024 1.3033 -6.5015 28.6754 -1.4976 4.5863 39.5793 5.3730 -1.3081 -4.0015 -2.0149 -1.3903 -5.9487 -4.1809 0.0221 -0.2386 -0.0398 0.5625 -10.4844 -3.7880 -0.5154 -10.6714 3.7065 -1.8974 13.2096 -5.5650 -61.0274 -13.9203 -20.5331 -1.2064 1.2103 -120.3779 -10.2237 64.5389 21.2513 -15.8223 10.0433 15.4385 -58.9115 1.2233 2.1653 -16.8522 14.5165 12.2440 90.3221 -42.4385 -7.3959 0.2513 -1.3504 128.7744 -16.4027 -27.9177 10.6484 15.4599 7.9495 -16.5549 50.6980 -3.6430 -5.2009 8.5923 -42.1972 9.0294 -0.2574 22.1612 -0.3770 -13.6845 2.7702 9.2898 1.6320 1.5083 -2.3065 -4.4040 -45.6176 -16.6921 0.2636 26.0753 0.3712 10.7785 -0.3003 -7.9313 -1.4467 1.9510 0.9858
-2.9545 96.8677 -11.3066 1.5832 21.2212 -3.5972 -1.6958 17.3493 0.0980 -1.3083 3.2083 1.1753 -5.8897 29.0196 -1.5392 6.0065 40.2102 5.5975 -1.3910 -3.9854 -1.3119 -0.9003 -4.9964 -3.5293 0.0621 -0.2397 -0.0173 0.6060 -10.4067 -3.7634 -0.4772 -10.6099 3.7152 -1.6207 13.3380 -5.3939 -60.7784 -13.8319 -21.4224 -1.2630 1.3048 -120.4035 -10.8715 62.3879 20.3523 -15.8191 9.9829 15.3686 -58.7749 1.1683 2.1336 -16.1178 14.6236 12.0946 88.8820 -42.3034 -7.5884 0.2736 -1.3278 128.5360 -16.1364 -28.3215 10.6220 15.4118 7.9134 -16.5951 50.5761 -3.6279 -5.2184 8.5410 -41.4305 9.1386 -0.2689 22.6918 -0.3600 -13.7448 2.4706 9.2355 1.6269 1.4940 -2.2837 -4.9112 -45.3246 -16.5428 0.2819 26.8654 0.3757 10.8760 -0.6538 -7.3132 -1.4426 1.9808 1.0034
-2.9803 96.6528 -11.6306 1.8947 19.9992 -3.9498 -1.4207 17.3906 0.1046 -1.1955 3.2080 1.0684 -5.1605 29.3278 -1.4947 7.5640 40.8909 5.8709 -1.3976 -3.9696 -0.4528 -0.3287 -4.0696 -2.6950 0.0907 -0.2379 0.0052 0.6315 -10.3250 -3.7413 -0.4443 -10.5365 3.7307 -1.2921 13.4857 -5.1845 -60.7614 -13.8132 -22.1272 -1.2294 1.3621 -120.2865 -11.2303 60.7027 19.7374 -15.7936 9.9815 15.3624 -58.6733 1.1335 2.1019 -15.1812 14.7279 12.0638 87.0815 -42.3385 -7.9852 0.2499 -1.3178 128.0901 -16.0248 -27.9168 10.4126 15.3898 7.8846 -16.5540 50.4214 -3.6176 -5.1711 8.4193 -40.5489 9.3713 -0.2888 23.4786 -0.3647 -13.7649 2.0363 9.1149 1.6224 1.4896 -2.2612 -5.6495 -44.8987 -16.2286 0.3108 27.8025 0.3957 10.9934 -1.1062 -6.6710 -1.4374 2.0371 1.0308
-2.9904 96.4075 -11.8712 2.2005 18.5750 -4.3925 -1.1153 17.3924 0.1112 -1.0776 3.1754 0.9830 -4.3729 29.5642 -1.3610 8.9559 41.6222 6.0535 -1.3241 -3.9591 0.4888 0.2262 -3.3557 -1.7321 0.0947 -0.2328 0.0239 0.6349 -10.2553 -3.7281 -0.4394 -10.4784 3.7561 -0.9644 13.6584 -4.9414 -60.9440 -13.8959 -22.6198 -1.0307 1.3089 -119.9531 -11.1270 59.5858 19.4845 -15.7431 9.9851 15.3204 -58.6356 1.1493 2.0408 -14.1325 14.8465 12.1419 84.9465 -42.5674 -8.3404 0.0905 -1.2309 127.3631 -16.1441 -26.5514 9.9646 15.3247 7.8576 -16.4535 50.2739 -3.6024 -5.1468 8.2408 -39.5516 9.7849 -0.3080 24.5692 -0.3804 -13.6930 1.4097 9.0585 1.6208 1.4096 -2.2510 -6.5906 -44.3025 -15.6772 0.3393 28.8555 0.4257 11.0478 -1.6754 -5.9682 -1.4327 2.0586 1.0517
-2.9176 96.1142 -12.0571 2.4873 16.9575 -5.0000 -0.7855 17.3527 0.1226 -0.9626 3.1019 0.9090 -3.5961 29.7516 -1.2089 9.9790 42.3441 6.1303 -1.2103 -3.9408 1.4076 0.7575 -2.9028 -0.7938 0.0744 -0.2213 0.0414 0.6270 -10.2143 -3.7255 -0.4711 -10.4428 3.7971 -0.6889 13.8668 -4.6663 -61.3089 -13.9774 -22.9805 -0.5473 1.1190 -119.6046 -10.5489 59.1437 19.6235 -15.6857 10.0365 15.3433 -58.7310 1.1937 1.9826 -13.1977 14.9486 12.1842 82.6514 -42.9250 -8.3949 -0.1835 -1.2055 126.5471 -16.4776 -24.2550 9.2571 15.2523 7.7939 -16.2570 50.1446 -3.5802 -5.1590 8.0495 -38.4015 10.3922 -0.3332 25.9155 -0.4064 -13.5851 0.5901 9.0548 1.6183 1.3218 -2.2570 -7.7082 -43.5342 -14.8656 0.3662 30.0170 0.4636 11.0459 -2.3409 -5.2523 -1.4298 2.0720 1.0599
-2.8006 95.8059 -12.1396 2.7347 15.2365 -5.7659 -0.4685 17.2345 0.0978 -0.8460 3.0157 0.8420 -2.9432 29.8518 -1.1111 10.5852 43.0696 6.0817 -1.1077 -3.9102 2.2167 1.3185 -2.6430 0.0187 0.0557 -0.2071 0.0622 0.6027 -10.1644 -3.7064 -0.4824 -10.3787 3.8262 -0.5242 14.0766 -4.3420 -61.7147 -13.9045 -23.2269 0.0765 0.7439 -119.3718 -9.6827 58.9037 19.8892 -15.6226 10.1563 15.4100 -58.8954 1.2405 1.9749 -12.5463 14.9996 12.1328 80.5562 -43.1494 -8.0483 -0.4256 -1.1923 126.0019 -16.8888 -22.0596 8.4583 15.1923 7.7609 -16.1348 49.9507 -3.5109 -5.1759 7.9029 -37.1128 11.1200 -0.3653 27.3417 -0.4462 -13.5381 -0.3453 9.0619 1.6197 1.2558 -2.2586 -8.8327 -42.6427 -13.9660 0.3899 31.2187 0.4969 11.0567 -3.0219 -4.5004 -1.4297 2.1325 1.0454
-2.6468 95.4612 -12.1680 2.9326 13.4752 -6.6495 -0.2087 17.0416 0.0804 -0.7038 2.8961 0.7136 -2.4295 29.8931 -1.1078 10.8186 43.9022 5.8790 -1.0456 -3.8710 2.8471 1.7916 -2.4999 0.6269 0.0487 -0.1887 0.0850 0.5758 -10.1123 -3.6682 -0.4674 -10.3003 3.8363 -0.4545 14.3400 -3.9731 -62.0443 -13.7282 -23.3322 0.5462 0.3700 -119.1642 -8.9538 58.1969 19.8325 -15.5389 10.2806 15.4647 -59.0126 1.3082 1.9686 -12.1735 15.0428 11.9109 78.7789 -43.1864 -7.0857 -0.4698 -1.1894 125.8008 -17.2672 -20.6113 7.8798 15.1278 7.7635 -16.1746 49.7628 -3.4188 -5.2215 7.8574 -35.7140 11.8751 -0.4049 28.7727 -0.4805 -13.5909 -1.3871 9.0677 1.6207 1.2024 -2.2508 -9.9014 -41.6776 -13.0826 0.4150 32.4537 0.5320 11.1566 -3.7599 -3.7207 -1.4336 2.2386 1.0259
-2.4746 95.1093 -12.1294 3.0820 11.5922 -7.5016 0.0225 16.8232 0.0198 -0.5791 2.7236 0.5550 -1.9630 29.9015 -1.1691 10.7717 44.8330 5.4843 -0.9877 -3.8457 3.2324 2.0939 -2.3838 1.0149 0.0453 -0.1726 0.1025 0.5491 -10.1026 -3.6332 -0.4456 -10.2622 3.8377 -0.3516 14.6314 -3.5829 -62.2798 -13.4173 -23.4451 0.7428 0.0982 -118.8591 -8.5688 57.0337 19.3133 -15.4303 10.3550 15.4803 -59.0602 1.3702 1.9578 -11.9409 15.1227 11.4932 77.2534 -43.0742 -5.4908 -0.4458 -1.1171 125.6943 -17.6110 -19.9637 7.7149 15.0063 7.8050 -16.2957 49.6988 -3.3347 -5.2852 7.9780 -34.1409 12.5295 -0.4502 30.2223 -0.4969 -13.7010 -2.5791 9.0620 1.6234 1.1367 -2.2402 -10.9283 -40.5007 -12.3109 0.4387 33.6850 0.5566 11.3408 -4.6126 -2.9295 -1.4368 2.2995 1.0048
-2.2860 94.7174 -12.0087 3.1741 9.5890 -8.3068 0.2219 16.5421 -0.0795 -0.4895 2.5401 0.4009 -1.4755 29.8064 -1.2537 10.5123 45.7170 4.8879 -0.8914 -3.8294 3.3529 2.1898 -2.3414 1.1590 0.0202 -0.1605 0.1065 0.5147 -10.1549 -3.6190 -0.4603 -10.2853 3.8411 -0.1438 14.9295 -3.2618 -62.3992 -13.0681 -23.6900 0.6980 -0.0105 -118.2549 -8.4067 55.4310 18.3338 -15.3332 10.3938 15.5106 -59.0529 1.4043 1.9687 -11.6667 15.2398 10.9911 76.0336 -42.8633 -3.5290 -0.3849 -0.9473 125.3110 -18.0413 -19.8506 7.7598 14.9098 7.8859 -16.4170 49.7259 -3.3004 -5.3328 8.2159 -32.4289 13.0958 -0.4857 31.7045 -0.5194 -13.8281 -3.8964 9.0723 1.6245 1.0955 -2.2370 -11.8957 -39.0748 -11.6351 0.4583 34.8847 0.5718 11.5075 -5.5688 -2.1285 -1.4423 2.3143 0.9762
-2.0462 94.3437 -11.7890 3.1733 7.5134 -9.0333 0.4114 16.1918 -0.1656 -0.4058 2.3346 0.2150 -0.9973 29.6598 -1.3600 10.2049 46.4266 4.2166 -0.8410 -3.8121 3.2510 2.1492 -2.3923 1.0307 -0.0103 -0.1560 0.1018 0.4906 -10.2311 -3.6153 -0.4975 -10.3304 3.8396 0.2097 15.2267 -2.9906 -62.2961 -12.7484 -24.2303 0.5780 -0.0544 -117.4567 -8.2521 53.5197 17.1230 -15.1794 10.4084 15.4987 -59.0138 1.4512 1.9956 -11.2949 15.3491 10.4608 75.1772 -42.6663 -1.4667 -0.2930 -0.8185 124.5167 -18.6321 -19.9910 7.9169 14.7700 7.9073 -16.4862 49.6119 -3.2948 -5.3399 8.6114 -30.6507 13.5139 -0.5074 33.2179 -0.5208 -13.9875 -5.2916 9.1470 1.6248 1.0762 -2.2304 -12.7555 -37.4320 -11.0562 0.4751 35.9712 0.5999 11.6709 -6.5325 -1.4376 -1.4477 2.2697 0.9496
-1.7512 93.9998 -11.4954 3.0708 5.4393 -9.6711 0.5907 15.7011 -0.2815 -0.3340 2.1111 0.0211 -0.5493 29.4529 -1.4829 9.7819 46.8998 3.4844 -0.7970 -3.7863 2.9579 2.0561 -2.5424 0.7057 -0.0288 -0.1553 0.0913 0.4775 -10.3228 -3.6250 -0.5211 -10.3849 3.8352 0.6256 15.5086 -2.8315 -62.0383 -12.4631 -24.7910 0.4168 -0.1150 -116.5626 -8.1252 51.5267 15.8848 -14.9992 10.3854 15.4620 -58.8852 1.4917 2.0928 -10.8026 15.4119 9.9813 74.5772 -42.4767 0.5584 -0.1502 -0.7185 123.2983 -19.4111 -20.3886 8.2248 14.6655 7.9127 -16.5050 49.4435 -3.2896 -5.3136 9.1478 -28.8234 13.8312 -0.5177 34.6283 -0.5255 -14.1167 -6.6720 9.2532 1.6240 1.0315 -2.2080 -13.5141 -35.5661 -10.5262 0.4906 36.8334 0.6397 11.9071 -7.4185 -0.9412 -1.4525 2.1607 0.9441
-1.4069 93.6777 -11.0804 2.9238 3.3091 -10.2540 0.7500 15.1426 -0.3694 -0.2421 1.8262 -0.2340 -0.1648 29.2038 -1.6097 9.1842 47.2737 2.6879 -0.8047 -3.7587 2.5417 1.8662 -2.7002 0.2225 -0.0438 -0.1492 0.0797 0.4728 -10.3938 -3.6286 -0.5460 -10.4231 3.8214 1.0906 15.7923 -2.8094 -61.7532 -12.1966 -25.1018 0.3073 -0.2320 -115.7317 -7.9195 49.5875 14.9009 -14.8230 10.4254 15.4581 -58.9066 1.5506 2.1807 -10.2490 15.4881 9.5540 73.9888 -42.2666 2.4453 0.0113 -0.7302 121.9050 -20.1878 -20.9422 8.5544 14.6317 7.8918 -16.4927 49.3273 -3.2894 -5.2712 9.7382 -26.9105 14.1589 -0.5334 36.0445 -0.5535 -14.1874 -8.0998 9.3038 1.6236 0.9700 -2.1847 -14.2500 -33.5547 -10.0407 0.4878 37.6547 0.6498 12.2662 -8.2990 -0.4368 -1.4528 2.0399 0.9434
-1.0039 93.3136 -10.5490 2.7704 1.1089 -10.7562 0.9085 14.4800 -0.4647 -0.1434 1.4974 -0.4936 0.1612 28.8395 -1.7417 8.2705 47.6302 1.7918 -0.7432 -3.7282 2.0429 1.5000 -2.8558 -0.3199 -0.0426 -0.1415 0.0677 0.4768 -10.4483 -3.6335 -0.5480 -10.4569 3.8004 1.4965 16.0256 -2.8784 -61.4366 -11.8492 -25.0598 0.2621 -0.3756 -114.8455 -7.7509 47.6952 14.1039 -14.6252 10.5128 15.4884 -58.9041 1.5980 2.2964 -9.7376 15.5749 9.1754 73.4078 -41.9538 4.1391 0.1714 -0.6949 120.4369 -20.8617 -21.6230 8.7609 14.6552 7.9023 -16.4846 49.2497 -3.2485 -5.2522 10.3729 -24.8633 14.5106 -0.5430 37.4551 -0.5762 -14.2818 -9.5875 9.3148 1.6276 0.9035 -2.1483 -15.0326 -31.3861 -9.6229 0.4911 38.4611 0.6774 12.7482 -9.2064 0.0538 -1.4526 1.8905 0.9305
-0.5356 92.8794 -9.8813 2.6655 -1.1479 -11.2664 1.0595 13.7338 -0.5126 -0.0331 1.0786 -0.7754 0.4073 28.3778 -1.8855 7.0290 47.8749 0.8679 -0.6042 -3.7004 1.4347 0.9945 -2.9483 -0.8714 -0.0432 -0.1281 0.0556 0.4888 -10.5015 -3.6438 -0.5606 -10.5012 3.7849 1.8274 16.1913 -2.9934 -61.1190 -11.3967 -24.6790 0.3391 -0.4327 -113.8727 -7.5850 45.7507 13.5594 -14.4385 10.6647 15.5203 -58.9990 1.6527 2.3454 -9.3019 15.7076 8.8348 72.5910 -41.5483 5.7351 0.3225 -0.6432 118.9860 -21.5115 -22.3336 8.8002 14.7044 7.9547 -16.4728 49.2193 -3.1792 -5.2327 10.9837 -22.7694 15.0441 -0.5552 39.0441 -0.6066 -14.3481 -11.1775 9.2851 1.6342 0.8436 -2.1200 -15.9332 -29.1871 -9.2080 0.4860 39.4449 0.6811 13.3302 -10.1842 0.6117 -1.4538 1.8058 0.9108
-0.0674 92.4182 -9.1005 2.5893 -3.3254 -11.7205 1.1968 12.8993 -0.5413 0.0679 0.6242 -1.0502 0.6076 27.7997 -2.0242 5.6237 47.9457 0.0873 -0.4170 -3.6747 0.7749 0.4414 -2.9978 -1.3884 -0.0406 -0.1107 0.0434 0.5196 -10.5644 -3.6644 -0.5854 -10.5663 3.7768 2.0534 16.2513 -3.0975 -60.8246 -10.8445 -24.0376 0.5245 -0.4541 -112.8199 -7.4584 44.0044 13.3329 -14.2882 10.8189 15.5916 -59.1163 1.7092 2.3730 -8.9818 15.8325 8.5803 71.5287 -41.0339 7.1610 0.4766 -0.5567 117.5680 -22.0206 -22.9553 8.5978 14.7653 7.9870 -16.4517 49.1979 -3.1521 -5.1987 11.5907 -20.7196 15.6199 -0.5611 40.6598 -0.6288 -14.4981 -12.7535 9.2147 1.6433 0.8470 -2.0911 -16.8638 -27.0526 -8.9063 0.4960 40.4850 0.7058 13.9416 -11.1434 1.2456 -1.4552 1.7517 0.8856
0.4515 91.9434 -8.2265 2.5040 -5.4091 -12.0860 1.3213 11.9692 -0.5458 0.1657 0.1423 -1.3211 0.7899 27.1339 -2.1799 4.2647 47.8375 -0.4875 -0.2388 -3.6499 0.1065 -0.2000 -3.0920 -1.8463 -0.0333 -0.0918 0.0307 0.5551 -10.6176 -3.6873 -0.6061 -10.6265 3.7670 2.1496 16.1945 -3.1578 -60.6066 -10.2187 -23.1789 0.7394 -0.3847 -111.6790 -7.4727 42.6660 13.2208 -14.2383 10.9443 15.6743 -59.2296 1.7328 2.4175 -8.7391 15.8789 8.3951 70.1769 -40.4281 8.5191 0.6582 -0.4322 116.0268 -22.4146 -23.5473 8.2875 14.8099 7.9903 -16.4620 49.1948 -3.1754 -5.2260 12.2345 -18.7222 16.1689 -0.5590 42.2365 -0.6550 -14.6931 -14.2547 9.1752 1.6515 0.9045 -2.0625 -17.8008 -24.9593 -8.7649 0.5245 41.5054 0.7531 14.5744 -12.0330 1.9026 -1.4578 1.7277 0.8643
0.9148 91.5093 -7.3027 2.4082 -7.3300 -12.2709 1.4143 10.9561 -0.5612 0.2427 -0.3548 -1.5462 0.9554 26.4606 -2.3610 3.1996 47.5014 -0.7922 -0.0840 -3.6331 -0.5292 -0.8104 -3.1766 -2.1876 -0.0144 -0.0790 0.0153 0.5960 -10.6403 -3.7129 -0.6082 -10.6555 3.7508 2.1768 16.0459 -3.1953 -60.4616 -9.5450 -22.2358 0.9089 -0.2754 -110.4953 -7.8102 41.7737 13.1092 -14.2498 11.0556 15.7878 -59.3383 1.7277 2.4810 -8.4906 15.8181 8.3348 68.5432 -39.7482 9.7445 0.8879 -0.3232 114.3942 -22.8917 -24.3353 8.0413 14.8290 8.0057 -16.4719 49.2221 -3.2380 -5.2180 12.8613 -16.8354 16.6649 -0.5544 43.6345 -0.6883 -14.8204 -15.6322 9.1269 1.6572 0.9877 -2.0211 -18.7195 -22.9114 -8.8119 0.5600 42.3619 0.8149 15.2771 -12.8258 2.4771 -1.4574 1.7019 0.8513
1.3575 91.1384 -6.3622 2.2916 -9.1102 -12.1563 1.4655 9.8765 -0.5837 0.3080 -0.8507 -1.7526 1.1263 25.7511 -2.5073 2.5908 46.9098 -0.7912 0.0240 -3.6387 -1.1241 -1.2896 -3.2253 -2.4767 0.0165 -0.0678 -0.0033 0.6535 -10.6654 -3.7577 -0.6025 -10.6806 3.7439 2.1902 15.8810 -3.2494 -60.3947 -8.8319 -21.4050 1.0063 -0.1041 -109.2780 -8.5052 40.9439 12.9561 -14.3142 11.1224 15.8649 -59.4572 1.7107 2.5376 -8.0249 15.6055 8.4265 66.5635 -38.9220 10.8230 1.0902 -0.2208 112.7034 -23.4084 -25.3216 7.9630 14.8415 7.9936 -16.4277 49.2023 -3.2755 -5.1773 13.4613 -15.0745 17.0389 -0.5590 44.8646 -0.7430 -14.8213 -16.8928 8.9914 1.6616 1.0520 -1.9779 -19.6434 -20.8400 -9.0711 0.5992 43.0041 0.8792 16.0275 -13.5016 2.8978 -1.4576 1.6367 0.8631
1.7177 90.8268 -5.4284 2.1430 -10.6488 -11.6942 1.4569 8.7729 -0.6104 0.3588 -1.2967 -1.8658 1.3635 24.9808 -2.5845 2.4632 46.0241 -0.5628 0.0607 -3.6516 -1.6918 -1.6406 -3.3491 -2.7610 0.0349 -0.0549 -0.0175 0.6990 -10.6917 -3.8065 -0.6111 -10.7005 3.7550 2.2208 15.6675 -3.2775 -60.4158 -8.1405 -20.9036 0.9846 0.1433 -108.1228 -9.5817 40.2274 12.7148 -14.3707 11.1533 15.8979 -59.5179 1.6938 2.5565 -7.2104 15.2939 8.6367 64.1979 -38.0235 11.7362 1.2162 -0.0783 111.0066 -23.8048 -26.1814 7.9381 14.8595 7.9585 -16.3801 49.0970 -3.3418 -5.1205 14.0152 -13.5559 17.2932 -0.5699 45.8592 -0.7926 -14.7115 -17.9235 8.6988 1.6654 1.0805 -1.9440 -20.5068 -18.8240 -9.5524 0.6283 43.3421 0.9278 16.7538 -14.0063 3.1536 -1.4592 1.5549 0.8662
2.0591 90.5723 -4.5743 1.9368 -11.9502 -10.9231 1.4012 7.7007 -0.6077 0.3832 -1.7466 -1.9249 1.6907 24.1723 -2.5041 2.7270 44.8230 -0.2519 -0.0342 -3.6552 -2.1606 -1.8926 -3.7251 -3.0973 0.0417 -0.0362 -0.0283 0.7307 -10.7374 -3.8592 -0.6295 -10.7295 3.7810 2.3056 15.4331 -3.2707 -60.5206 -7.5051 -20.7429 0.8097 0.3225 -107.1840 -10.9346 39.5957 12.3352 -14.4525 11.1903 15.8877 -59.6032 1.6967 2.5508 -6.0090 14.9590 8.9204 61.3022 -37.1794 12.4444 1.2542 0.1279 109.2305 -23.9587 -26.7612 7.8317 14.8705 7.9108 -16.3197 48.9129 -3.4226 -5.0664 14.5160 -12.3152 17.3104 -0.5705 46.7368 -0.8251 -14.5448 -18.7891 8.2489 1.6676 1.1174 -1.9275 -21.2503 -16.9181 -10.2127 0.6224 43.4854 0.9423 17.3407 -14.4726 3.1620 -1.4619 1.4731 0.8619
2.3527 90.3763 -3.8183 1.6837 -12.8912 -9.9800 1.3009 6.6900 -0.5733 0.3984 -2.1613 -1.8771 2.0463 23.3238 -2.3299 3.1610 43.3246 0.0705 -0.1881 -3.6507 -2.6109 -2.0299 -4.3966 -3.4327 0.0465 -0.0183 -0.0386 0.7438 -10.7498 -3.9007 -0.6337 -10.7220 3.7982 2.3248 15.1449 -3.2544 -60.6259 -6.8979 -20.8183 0.5226 0.4004 -106.6265 -12.4913 39.0386 11.8189 -14.5296 11.2119 15.8293 -59.6888 1.6592 2.5193 -4.4511 14.6061 9.3351 57.8897 -36.5303 13.0643 1.1089 0.3987 107.2768 -23.8926 -26.8236 7.5296 14.8931 7.8550 -16.2669 48.6839 -3.4885 -5.0250 14.9130 -11.4573 17.1280 -0.5833 47.4365 -0.8652 -14.3505 -19.4168 7.7938 1.6739 1.1401 -1.9319 -21.8376 -15.3178 -10.9484 0.6171 43.4473 0.9672 17.7781 -14.8156 2.9591 -1.4663 1.3654 0.8542
2.6485 90.2420 -3.1579 1.4379 -13.5317 -8.9704 1.1483 5.7689 -0.5058 0.4166 -2.5424 -1.7380 2.3740 22.4868 -2.0729 3.6961 41.4883 0.4360 -0.3898 -3.6417 -3.1192 -2.0911 -5.2689 -3.7855 0.0609 -0.0104 -0.0600 0.7552 -10.7020 -3.9362 -0.6172 -10.6623 3.7838 2.2181 14.7763 -3.1906 -60.6639 -6.2808 -21.0955 0.1162 0.4546 -106.3753 -13.9502 38.4163 11.3580 -14.5491 11.2637 15.7700 -59.7434 1.6164 2.4391 -2.6655 14.2175 9.9050 54.0246 -36.1461 13.5607 0.6950 0.6986 105.1226 -23.6056 -26.4699 7.1008 14.9703 7.8179 -16.1838 48.5739 -3.5143 -5.0139 15.1186 -10.9454 16.7956 -0.5884 48.0886 -0.8777 -14.0990 -19.8883 7.4357 1.6815 1.1303 -1.9425 -22.3451 -14.0287 -11.6591 0.6144 43.2619 1.0007 18.1471 -15.0092 2.5904 -1.4688 1.1913 0.8353
3.0060 90.1385 -2.6005 1.2655 -13.8758 -8.0995 0.9596 4.9570 -0.3516 0.4255 -2.8891 -1.5865 2.6281 21.6914 -1.7011 4.1065 39.5536 0.7294 -0.6237 -3.6160 -3.6865 -2.0113 -5.9503 -4.1817 0.0835 -0.0066 -0.1007 0.7850 -10.5877 -3.9722 -0.6021 -10.5495 3.7296 1.9471 14.3603 -3.0901 -60.5976 -5.5652 -21.5981 -0.2796 0.4414 -106.3080 -15.3455 38.0222 10.9098 -14.5238 11.3273 15.6977 -59.7071 1.5840 2.3620 -0.9421 13.7477 10.6768 50.1400 -35.9940 13.8147 0.0855 0.7972 102.8086 -23.1673 -25.8466 6.7818 15.0723 7.8128 -16.0714 48.6926 -3.4757 -5.0666 15.0977 -10.7194 16.4685 -0.6026 48.6857 -0.8864 -13.8782 -20.2878 7.2461 1.6935 1.1765 -1.9438 -22.7920 -13.1280 -12.1787 0.5997 43.0502 0.9807 18.3507 -15.1835 2.1605 -1.4736 0.9035 0.8394
3.4023 90.0358 -2.1829 1.0997 -13.9831 -7.2478 0.7737 4.2763 -0.1694 0.4462 -3.1461 -1.3956 2.8387 20.8986 -1.3386 4.2397 37.7272 0.6938 -0.9423 -3.5635 -4.0538 -1.7417 -6.1131 -4.6135 0.1018 -0.0049 -0.1469 0.8187 -10.4220 -3.9986 -0.6006 -10.3891 3.6572 1.6320 13.8854 -3.0488 -60.5825 -4.8307 -22.0166 -0.6924 0.3824 -106.4110 -16.7723 38.1596 10.2160 -14.6373 11.4193 15.7457 -59.8788 1.5819 2.3885 0.3619 13.1331 11.4290 47.1871 -36.1990 13.4377 -0.3958 0.7749 100.7066 -22.6584 -25.5283 6.3937 15.2150 7.7843 -15.9495 48.9620 -3.3857 -5.2361 14.9789 -10.7855 16.1699 -0.6240 49.2325 -0.9067 -13.6893 -20.6066 7.0216 1.7084 1.2799 -1.9173 -23.1135 -12.5836 -12.6148 0.5913 42.9010 0.9304 18.4455 -15.3197 1.6637 -1.4753 0.4724 0.8365
