HIERARCHY
ROOT Hips
{
	OFFSET 0.0000 0.0000 0.0000
	CHANNELS 6 Xposition Yposition Zposition Zrotation Xrotation Yrotation
	JOINT Spine1
	{
		OFFSET -0.0137 5.0038 -0.0537
		CHANNELS 3 Zrotation Xrotation Yrotation
		JOINT Spine2
		{
			OFFSET -0.0000 7.1253 -0.0298
			CHANNELS 3 Zrotation Xrotation Yrotation
			JOINT Chest
			{
				OFFSET -0.0000 7.5501 -0.8160
				CHANNELS 3 Zrotation Xrotation Yrotation
				JOINT Neck1
				{
					OFFSET -0.1817 26.3113 -0.5533
					CHANNELS 3 Zrotation Xrotation Yrotation
					JOINT Neck2
					{
						OFFSET -0.0000 7.7094 2.3026
						CHANNELS 3 Zrotation Xrotation Yrotation
						JOINT Head
						{
							OFFSET -0.0000 6.1289 1.9537
							CHANNELS 3 Zrotation Xrotation Yrotation
							JOINT Jaw
							{
								OFFSET 0.0026 0.4756 3.0949
								CHANNELS 3 Zrotation Xrotation Yrotation
								End Site
								{
									OFFSET 0.0 1.0 0.0
								}
							}
							JOINT LeftEye
							{
								OFFSET 3.2064 5.3802 7.5869
								CHANNELS 3 Zrotation Xrotation Yrotation
								End Site
								{
									OFFSET 0.0 1.0 0.0
								}
							}
							JOINT RightEye
							{
								OFFSET -3.2224 5.3619 7.5582
								CHANNELS 3 Zrotation Xrotation Yrotation
								End Site
								{
									OFFSET 0.0 1.0 0.0
								}
							}
						}
					}
				}
				JOINT LeftShoulder
				{
					OFFSET 1.6217 23.2372 5.1134
					CHANNELS 3 Zrotation Xrotation Yrotation
					JOINT LeftArm
					{
						OFFSET 14.9198 0.0000 -5.5023
						CHANNELS 3 Zrotation Xrotation Yrotation
						JOINT LeftForeArm
						{
							OFFSET 28.7393 0.0000 -0.0026
							CHANNELS 3 Zrotation Xrotation Yrotation
							JOINT LeftHand
							{
								OFFSET 27.0940 -0.0000 0.0026
								CHANNELS 3 Zrotation Xrotation Yrotation
								JOINT LeftHandThumbEnd
								{
									OFFSET 12.2686 -3.2202 4.8331
									CHANNELS 3 Zrotation Xrotation Yrotation
									End Site
									{
										OFFSET 0.0 1.0 0.0
									}
								}
								JOINT LeftHandMiddleEnd
								{
									OFFSET 19.0120 -0.3129 -0.0340
									CHANNELS 3 Zrotation Xrotation Yrotation
									End Site
									{
										OFFSET 0.0 1.0 0.0
									}
								}
							}
						}
					}
				}
				JOINT RightShoulder
				{
					OFFSET -1.3801 23.1803 5.2142
					CHANNELS 3 Zrotation Xrotation Yrotation
					JOINT RightArm
					{
						OFFSET -15.0372 0.0000 -5.5456
						CHANNELS 3 Zrotation Xrotation Yrotation
						JOINT RightForeArm
						{
							OFFSET -28.7366 0.0000 -0.0026
							CHANNELS 3 Zrotation Xrotation Yrotation
							JOINT RightHand
							{
								OFFSET -27.1336 -0.0000 0.0026
								CHANNELS 3 Zrotation Xrotation Yrotation
								JOINT RightHandThumbEnd
								{
									OFFSET -12.2642 -3.2115 4.8040
									CHANNELS 3 Zrotation Xrotation Yrotation
									End Site
									{
										OFFSET 0.0 1.0 0.0
									}
								}
								JOINT RightHandMiddleEnd
								{
									OFFSET -19.0006 -0.3066 -0.0316
									CHANNELS 3 Zrotation Xrotation Yrotation
									End Site
									{
										OFFSET 0.0 1.0 0.0
									}
								}
							}
						}
					}
				}
			}
		}
	}
	JOINT LeftLeg
	{
		OFFSET 10.0432 -8.4345 2.5957
		CHANNELS 3 Zrotation Xrotation Yrotation
		JOINT LeftShin
		{
			OFFSET -0.0000 -43.2218 -0.8029
			CHANNELS 3 Zrotation Xrotation Yrotation
			JOINT LeftFoot
			{
				OFFSET 0.0000 -42.1551 -3.4815
				CHANNELS 3 Zrotation Xrotation Yrotation
				JOINT LeftToeBase
				{
					OFFSET 0.0000 -5.0595 13.2315
					CHANNELS 3 Zrotation Xrotation Yrotation
					End Site
					{
						OFFSET 0.0 1.0 0.0
					}
				}
			}
		}
	}
	JOINT RightLeg
	{
		OFFSET -10.0473 -8.2953 2.6203
		CHANNELS 3 Zrotation Xrotation Yrotation
		JOINT RightShin
		{
			OFFSET 0.0000 -43.3622 -0.8056
			CHANNELS 3 Zrotation Xrotation Yrotation
			JOINT RightFoot
			{
				OFFSET 0.0000 -42.1174 -3.4784
				CHANNELS 3 Zrotation Xrotation Yrotation
				JOINT RightToeBase
				{
					OFFSET -0.0000 -5.0796 13.2842
					CHANNELS 3 Zrotation Xrotation Yrotation
					End Site
					{
						OFFSET 0.0 1.0 0.0
					}
				}
			}
		}
	}
}
MOTION
Frames: 75
Frame Time: 0.033333
1.4237 93.9845 -5.7206 2.0406 -4.3833 -0.3213 -0.5875 9.3265 -0.6830 -0.4224 -1.7597 -0.2875 -1.9309 19.6097 -2.7797 0.0731 21.3173 2.5505 -2.0534 -3.6931 -4.8743 0.4903 -13.5902 -6.7547 -0.0313 0.0133 0.0815 0.6223 -10.3163 -3.7019 -0.6954 -10.3669 3.8793 4.5327 13.8314 -9.3828 -66.2478 -24.7183 17.5060 0.4637 -0.0302 -137.7352 -27.0956 39.2374 1.7039 -15.6043 9.7120 15.3887 -59.3531 1.1602 2.8726 4.7370 18.3836 11.8185 48.4505 -1.5120 -1.9252 1.3801 1.6266 116.7716 -10.3513 57.6353 -40.0161 16.0011 7.1707 -15.5043 50.4648 -3.3319 -5.1156 6.4990 -23.1237 12.9874 -0.1901 34.6154 -0.3250 -13.3748 -9.3937 -9.9925 1.6361 -2.2751 -2.0669 -13.7071 -21.3724 -29.6490 0.2969 39.2515 0.4304 11.7424 -16.7253 -3.4300 -1.4147 -1.0349 1.0126
1.4620 93.8322 -5.4362 1.9471 -4.6831 -0.3121 -0.5651 9.3254 -0.6934 -0.4043 -1.7618 -0.2228 -1.9851 19.5573 -2.7281 -0.1616 21.1248 2.6572 -2.0332 -3.6914 -4.8802 0.4751 -13.4763 -6.7337 -0.0593 -0.0040 0.1341 0.5918 -10.3234 -3.6451 -0.7226 -10.3649 3.9377 4.5406 13.7902 -9.2125 -66.2332 -24.5068 16.9152 0.4890 -0.1688 -137.8008 -27.0988 39.2108 1.6960 -15.3590 9.7162 15.3189 -59.1977 1.1226 2.8511 4.7712 18.5460 11.7992 48.3489 -1.5437 -1.9557 1.4907 1.7496 116.7778 -9.6425 57.2855 -39.1448 15.9769 7.1681 -15.4553 50.4428 -3.2665 -5.0688 6.7905 -23.1425 12.7442 -0.2388 35.6898 -0.3984 -13.2441 -10.2106 -9.9580 1.6446 -2.2439 -2.0888 -13.9325 -21.0714 -29.1362 0.2862 39.8387 0.4032 11.9510 -17.0791 -3.7470 -1.4266 -1.0139 1.0024
1.4539 93.5868 -5.0079 1.8867 -4.9928 -0.2679 -0.5896 9.3643 -0.6949 -0.4095 -1.7753 -0.1984 -1.9586 19.5215 -2.6602 -0.2791 20.9086 2.7745 -2.0524 -3.6997 -4.9105 0.3365 -13.4512 -6.6066 -0.0688 -0.0057 0.1576 0.5867 -10.3247 -3.6200 -0.7368 -10.3595 3.9615 4.7477 13.7334 -9.0616 -66.5816 -24.1916 16.6198 0.4680 -0.2995 -137.8980 -27.4728 38.9973 1.6407 -15.2105 9.6765 15.2291 -59.0511 1.1398 2.8390 4.8288 18.6974 11.8705 48.3072 -1.5533 -2.2010 1.5972 1.8101 117.0020 -9.1182 57.1895 -38.6809 15.9462 7.1474 -15.4051 50.3680 -3.2343 -5.0579 7.0561 -23.2077 12.3529 -0.2645 36.9385 -0.4343 -12.9984 -10.9605 -9.7372 1.6550 -2.0874 -2.0930 -14.1976 -20.8567 -28.5220 0.2949 40.7210 0.4011 12.1836 -17.5528 -4.2271 -1.4333 -0.8672 1.0131
1.4291 93.3307 -4.5694 1.8168 -5.2313 -0.2554 -0.6148 9.3965 -0.6756 -0.4248 -1.7900 -0.1675 -1.8652 19.5013 -2.5913 -0.3574 20.6247 2.8670 -2.1111 -3.7022 -4.9169 0.1883 -13.5248 -6.4587 -0.0673 -0.0028 0.1582 0.5921 -10.3107 -3.6192 -0.7399 -10.3430 3.9618 5.0080 13.7091 -8.9370 -66.9798 -23.9323 16.5088 0.3930 -0.3980 -137.9235 -28.1544 38.8432 1.4969 -15.1045 9.6379 15.1549 -58.9033 1.1448 2.8037 4.9584 18.8864 11.9979 48.2977 -1.6511 -2.5581 1.6929 1.8925 117.3028 -8.8422 57.4092 -38.5795 15.9282 7.1145 -15.3761 50.2842 -3.2168 -5.0544 7.3216 -23.3046 11.9262 -0.2624 38.1336 -0.4306 -12.7569 -11.6195 -9.3806 1.6626 -1.8847 -2.0872 -14.3872 -20.6654 -27.8288 0.2825 41.6031 0.3654 12.4201 -18.0130 -4.7969 -1.4371 -0.7161 1.0207
1.3755 93.1032 -4.1854 1.7603 -5.3459 -0.2957 -0.6217 9.4221 -0.6444 -0.4329 -1.8130 -0.1424 -1.7682 19.4996 -2.5540 -0.4361 20.2516 2.9356 -2.1770 -3.7088 -4.8599 0.0682 -13.6587 -6.2982 -0.0625 -0.0004 0.1553 0.5973 -10.2981 -3.6210 -0.7362 -10.3299 3.9571 5.2350 13.6866 -8.8451 -67.2237 -23.7762 16.6510 0.3241 -0.4374 -137.8850 -28.8891 38.6360 1.1886 -15.0477 9.6247 15.1139 -58.8442 1.1428 2.7630 5.0571 19.0429 12.1601 48.3745 -1.7694 -3.0509 1.7675 1.9047 117.6880 -9.0282 57.7289 -38.8102 15.9787 7.1040 -15.3941 50.2904 -3.2128 -5.0960 7.5471 -23.4280 11.5486 -0.2629 39.1560 -0.4262 -12.5101 -12.1986 -8.9841 1.6603 -1.7029 -2.0782 -14.4806 -20.5516 -27.1989 0.2704 42.3877 0.3522 12.6654 -18.4062 -5.2871 -1.4373 -0.5770 1.0294
1.3093 92.9403 -3.7771 1.7600 -5.3041 -0.4298 -0.6370 9.4448 -0.6538 -0.4328 -1.8149 -0.0826 -1.6870 19.4413 -2.5539 -0.5233 19.7819 2.9848 -2.1918 -3.7235 -4.7797 -0.0474 -13.8094 -6.0707 -0.0612 -0.0043 0.1569 0.5964 -10.2922 -3.6182 -0.7322 -10.3238 3.9563 5.3764 13.6161 -8.8208 -67.2447 -23.6441 16.9711 0.2901 -0.4125 -137.7191 -29.4905 38.2486 0.7061 -15.0907 9.6199 15.0979 -58.8589 1.1370 2.7834 5.1719 19.1114 12.3818 48.5242 -1.7967 -3.6804 1.8697 1.9117 118.0427 -9.4818 57.9130 -39.0958 16.0381 7.1314 -15.4440 50.3691 -3.1987 -5.1282 7.6574 -23.5313 11.1851 -0.2613 39.8976 -0.4235 -12.2763 -12.6620 -8.4590 1.6580 -1.5847 -2.0597 -14.5226 -20.5843 -26.6898 0.2909 42.9881 0.4022 12.8420 -18.6375 -5.6226 -1.4344 -0.4973 1.0337
1.2351 92.8660 -3.3846 1.7724 -5.1239 -0.6728 -0.6444 9.4926 -0.6733 -0.4217 -1.7790 -0.0276 -1.5953 19.2931 -2.5446 -0.5744 19.1199 3.0276 -2.1685 -3.7277 -4.7005 -0.1865 -13.9848 -5.8010 -0.0633 -0.0088 0.1650 0.5914 -10.2905 -3.6101 -0.7310 -10.3206 3.9649 5.4131 13.5004 -8.8669 -67.0997 -23.5025 17.4903 0.2788 -0.3426 -137.4106 -29.9066 37.6585 0.0372 -15.1360 9.6556 15.1160 -58.9253 1.1424 2.8212 5.3467 19.0957 12.6772 48.6937 -1.6614 -4.3654 2.0200 1.9148 118.2966 -10.0096 57.8485 -39.1635 16.0795 7.1678 -15.4848 50.4591 -3.1972 -5.1175 7.7261 -23.5873 10.7952 -0.2683 40.3273 -0.4373 -12.1158 -13.0311 -7.7195 1.6562 -1.5234 -2.0382 -14.4933 -20.6781 -26.2293 0.3138 43.3655 0.4479 12.9660 -18.7129 -5.8064 -1.4318 -0.4355 1.0239
1.1804 92.8426 -2.9891 1.7853 -4.8399 -0.9822 -0.6568 9.6018 -0.6578 -0.4135 -1.7442 -0.0274 -1.4765 19.1213 -2.5164 -0.4716 18.2371 3.0435 -2.1528 -3.7185 -4.5862 -0.4051 -14.1235 -5.4985 -0.0632 -0.0111 0.1664 0.5922 -10.3020 -3.6107 -0.7317 -10.3312 3.9699 5.4227 13.4538 -9.0217 -66.9549 -23.4491 18.3372 0.2734 -0.3529 -137.0381 -30.0294 36.9630 -0.6899 -15.1127 9.6969 15.1414 -58.9335 1.1694 2.8347 5.6086 19.0425 13.0719 48.8374 -1.3810 -5.0327 2.1745 1.9254 118.3849 -10.3539 57.4680 -38.8473 16.1452 7.1877 -15.5231 50.5264 -3.1981 -5.0929 7.7724 -23.6375 10.2854 -0.2756 40.6058 -0.4459 -12.0046 -13.3731 -6.7564 1.6552 -1.4665 -2.0266 -14.4046 -20.8541 -25.8324 0.3249 43.6560 0.4761 13.0209 -18.7558 -5.8633 -1.4324 -0.4102 1.0057
1.1461 92.8305 -2.6226 1.7778 -4.4933 -1.3317 -0.6982 9.7229 -0.6857 -0.4153 -1.6664 -0.0001 -1.3115 18.9465 -2.5130 -0.2007 17.1678 2.9968 -2.1192 -3.7071 -4.4493 -0.7031 -14.2202 -5.1311 -0.0607 -0.0118 0.1572 0.5950 -10.3109 -3.6244 -0.7284 -10.3388 3.9638 5.4673 13.4567 -9.2932 -66.9087 -23.4789 19.5314 0.2755 -0.4042 -136.6297 -29.8012 36.1729 -1.5374 -15.1609 9.7443 15.1878 -58.9349 1.1939 2.9170 5.8900 18.9183 13.4344 48.9862 -1.0696 -5.4425 2.2275 1.9964 118.1337 -10.2501 56.7719 -37.9384 16.1816 7.2046 -15.5620 50.5297 -3.2053 -5.0658 7.8304 -23.6642 9.6598 -0.2655 40.7343 -0.4399 -11.9651 -13.6740 -5.6450 1.6583 -1.3768 -2.0147 -14.2491 -21.0506 -25.5135 0.3406 43.8201 0.5212 13.0523 -18.7670 -5.9018 -1.4344 -0.3725 0.9887
1.0836 92.8060 -2.2459 1.7663 -4.1449 -1.7177 -0.7604 9.9004 -0.6849 -0.4236 -1.5988 -0.0437 -1.1474 18.8480 -2.5359 0.2521 16.0963 2.9016 -2.1036 -3.6789 -4.2832 -0.9682 -14.3090 -4.8578 -0.0555 -0.0063 0.1421 0.6026 -10.3152 -3.6411 -0.7247 -10.3392 3.9474 5.5773 13.5503 -9.6123 -66.9302 -23.5401 20.9169 0.3185 -0.5221 -136.2653 -29.1932 35.1285 -2.1696 -15.2074 9.7870 15.2056 -59.0064 1.2175 2.9509 6.1604 18.8181 13.7395 49.1870 -0.9157 -5.6691 2.2410 2.0318 117.7324 -10.2229 55.9496 -36.9961 16.2115 7.2080 -15.6068 50.5156 -3.2008 -5.0281 7.9057 -23.7148 8.9822 -0.2564 40.9275 -0.4344 -11.9128 -13.9815 -4.4626 1.6603 -1.2671 -2.0133 -14.0713 -21.2815 -25.1572 0.3456 44.0779 0.5380 13.0837 -18.8361 -5.9569 -1.4389 -0.3282 0.9882
1.0306 92.7469 -1.8598 1.7667 -3.7896 -2.1489 -0.8453 10.1091 -0.6883 -0.4463 -1.5086 -0.1157 -0.9894 18.8062 -2.5871 0.8506 15.0476 2.7090 -2.1173 -3.6553 -4.1309 -1.1652 -14.4050 -4.6356 -0.0485 0.0033 0.1218 0.6136 -10.3141 -3.6622 -0.7208 -10.3361 3.9244 5.7385 13.6841 -9.9304 -66.9325 -23.5605 22.3599 0.4007 -0.6718 -135.9162 -28.3500 33.6072 -2.6124 -15.2078 9.8092 15.2017 -59.0552 1.2078 2.9716 6.4265 18.7117 13.9487 49.4883 -1.0146 -5.8790 2.3095 1.9333 117.3147 -10.2722 55.1577 -36.1103 16.2004 7.2039 -15.6479 50.4621 -3.1916 -4.9828 7.9946 -23.7921 8.2843 -0.2418 41.2127 -0.4109 -11.8390 -14.3081 -3.2582 1.6592 -1.1050 -2.0152 -13.8969 -21.5609 -24.7198 0.3555 44.4598 0.5625 13.1729 -18.9641 -6.0952 -1.4424 -0.2898 0.9970
0.9893 92.6532 -1.4619 1.8048 -3.4045 -2.5992 -0.9582 10.3537 -0.7111 -0.4767 -1.3986 -0.1837 -0.8604 18.7612 -2.6601 1.5467 14.0467 2.4526 -2.1373 -3.6371 -4.0510 -1.3092 -14.4947 -4.4474 -0.0403 0.0129 0.1017 0.6249 -10.2964 -3.6832 -0.7144 -10.3179 3.9006 5.9463 13.8115 -10.2481 -66.9535 -23.4770 23.8672 0.4455 -0.7854 -135.6194 -27.3916 31.6535 -2.9870 -15.2008 9.8169 15.2096 -59.0717 1.1766 2.9801 6.6745 18.5879 14.0506 49.9547 -1.2626 -6.2609 2.4615 1.7880 117.0161 -10.2832 54.3265 -35.1344 16.2137 7.1888 -15.6989 50.4169 -3.1888 -4.9423 8.0549 -23.9294 7.6402 -0.2301 41.5867 -0.3904 -11.7868 -14.6484 -2.0964 1.6582 -0.9368 -2.0183 -13.7641 -21.9225 -24.2075 0.3589 44.9654 0.5600 13.3169 -19.1575 -6.3157 -1.4456 -0.2625 1.0007
0.9134 92.5224 -1.0572 1.8730 -2.9728 -3.0789 -1.0790 10.6447 -0.7317 -0.5175 -1.2815 -0.2591 -0.7522 18.7400 -2.7466 2.2759 13.0843 2.1324 -2.1706 -3.6426 -3.9711 -1.3919 -14.5534 -4.3057 -0.0303 0.0200 0.0811 0.6351 -10.2876 -3.7061 -0.7038 -10.3066 3.8793 6.1833 13.9049 -10.5538 -66.9780 -23.3278 25.4049 0.5019 -0.9025 -135.3104 -26.4172 29.3527 -3.3900 -15.1586 9.7802 15.2094 -59.0871 1.1186 2.9542 6.9057 18.4800 14.0820 50.5141 -1.5372 -6.8081 2.5565 1.6181 116.8301 -10.2589 53.4028 -34.1368 16.2784 7.1536 -15.7813 50.4042 -3.2052 -4.9148 8.0776 -24.1723 6.9998 -0.2226 42.1006 -0.3757 -11.7595 -15.0582 -0.9055 1.6534 -0.7967 -2.0318 -13.6397 -22.4269 -23.6340 0.3544 45.6447 0.5459 13.4830 -19.3805 -6.5770 -1.4449 -0.2680 0.9988
0.8189 92.3615 -0.6447 1.9583 -2.4547 -3.5500 -1.1840 10.9494 -0.7655 -0.5743 -1.1497 -0.3220 -0.6671 18.7172 -2.8512 2.9438 12.1805 1.7865 -2.1983 -3.6560 -3.8976 -1.4154 -14.5715 -4.2317 -0.0249 0.0151 0.0785 0.6391 -10.2826 -3.7101 -0.6960 -10.2967 3.8752 6.3941 14.0143 -10.8389 -67.0599 -23.2432 27.0395 0.5765 -1.0008 -134.9775 -25.6436 27.0318 -3.8671 -15.1270 9.7045 15.1987 -59.0913 1.0532 2.9421 7.0884 18.3849 14.0805 51.2095 -1.7070 -7.5575 2.5515 1.4870 116.7370 -10.3061 52.3364 -33.2355 16.3517 7.0889 -15.8946 50.3391 -3.2522 -4.9183 8.0781 -24.5610 6.3663 -0.2112 42.6995 -0.3546 -11.7822 -15.4907 0.2611 1.6495 -0.6979 -2.0457 -13.5021 -23.0777 -23.0402 0.3654 46.4258 0.5648 13.6595 -19.6136 -6.9141 -1.4420 -0.3168 0.9958
0.7227 92.1925 -0.2549 2.0780 -1.8420 -4.0222 -1.2787 11.3096 -0.8448 -0.6300 -0.9908 -0.3465 -0.6534 18.6456 -2.9828 3.4442 11.3448 1.4992 -2.1758 -3.6554 -3.8521 -1.4548 -14.6168 -4.1330 -0.0277 -0.0058 0.0916 0.6276 -10.2729 -3.6945 -0.6889 -10.2884 3.8864 6.6969 14.1219 -11.1177 -67.4457 -23.2054 28.6348 0.7457 -1.0824 -134.4457 -24.6153 25.2017 -4.1474 -15.1977 9.6605 15.2061 -59.1667 1.0533 2.9725 7.0755 18.2860 14.0274 52.1831 -1.7902 -8.6222 2.5246 1.4095 116.7553 -10.4581 50.9023 -32.4566 16.3591 6.9733 -15.9429 50.1666 -3.3319 -4.9261 8.0232 -25.1042 5.6827 -0.1852 43.3465 -0.3213 -11.8572 -15.8785 1.4069 1.6474 -0.6454 -2.0490 -13.3532 -23.9115 -22.4295 0.3902 47.2692 0.6254 13.7677 -19.8263 -7.3193 -1.4381 -0.3545 0.9837
0.6416 91.9827 0.1025 2.2230 -1.1984 -4.5370 -1.3572 11.8418 -0.9402 -0.6576 -0.7714 -0.3714 -0.7388 18.5372 -3.1090 3.7013 10.4862 1.3775 -2.1614 -3.6406 -3.8089 -1.5948 -14.6368 -4.0184 -0.0323 -0.0375 0.1045 0.6139 -10.2603 -3.6723 -0.6839 -10.2836 3.8916 7.3586 14.2380 -11.3964 -68.5694 -23.1607 30.2246 1.0346 -1.1965 -133.5506 -22.1977 23.5657 -3.5781 -15.2856 9.6227 15.2155 -59.2537 1.0737 2.9997 6.5440 18.1844 13.9534 53.7145 -1.7778 -10.3102 2.5354 1.3415 117.0699 -11.1483 48.8975 -32.0190 16.3183 6.8969 -15.9648 49.9975 -3.4113 -4.9299 7.9270 -25.7956 4.8357 -0.1908 44.1934 -0.3354 -12.0342 -16.2882 2.7701 1.6492 -0.6321 -2.0378 -13.2353 -24.9200 -21.7100 0.3938 48.2786 0.6565 13.8811 -20.0659 -7.7659 -1.4400 -0.3516 0.9742
0.6066 91.6626 0.3529 2.3904 -0.5348 -5.1327 -1.4001 12.5039 -1.0333 -0.6413 -0.4897 -0.3826 -0.8898 18.4981 -3.2384 3.6520 9.7543 1.5102 -2.1521 -3.6190 -3.8130 -1.8885 -14.4801 -3.9155 -0.0365 -0.0557 0.1149 0.6076 -10.2554 -3.6573 -0.6859 -10.2807 3.8985 8.4691 14.2214 -11.6561 -70.7440 -23.0583 31.6128 1.1209 -1.2281 -132.2127 -17.8763 21.8949 -1.8447 -15.3047 9.6626 15.2715 -59.4116 1.1248 2.9556 5.5049 18.1828 13.9042 55.2892 -1.6467 -12.3894 2.5184 1.1408 117.8300 -12.3203 46.8291 -32.0507 16.3102 6.9254 -15.9378 49.9154 -3.4581 -4.9048 7.7788 -26.7441 3.8067 -0.2367 45.4686 -0.4051 -12.2560 -16.7331 4.4481 1.6600 -0.6698 -2.0503 -13.1960 -26.2684 -21.0129 0.3826 49.6813 0.6401 13.9337 -20.2964 -8.0547 -1.4462 -0.3561 0.9274
0.6103 91.1358 0.5444 2.5220 0.1772 -5.7211 -1.3384 13.0725 -1.0420 -0.6046 -0.2394 -0.4072 -1.0255 18.6501 -3.3904 3.2860 9.7153 1.7610 -2.1579 -3.6082 -3.7626 -2.3147 -13.8949 -3.8128 -0.0434 -0.0533 0.1247 0.6064 -10.2623 -3.6504 -0.6994 -10.2824 3.9147 9.3887 14.1506 -11.8874 -73.3676 -23.2861 32.4756 0.8442 -1.1388 -130.7893 -14.2323 21.6945 0.3836 -15.1921 9.7769 15.3326 -59.4498 1.1944 2.8180 4.5001 18.2692 13.8849 55.7437 -1.4815 -13.9075 2.3190 1.0172 118.8049 -13.1064 46.0501 -32.2269 16.4135 7.0141 -15.8791 50.0587 -3.5096 -4.8896 7.6328 -28.0919 3.0380 -0.2801 47.2776 -0.4605 -12.4284 -17.3767 5.9424 1.6714 -0.6281 -2.0979 -13.2103 -28.0248 -20.5319 0.3701 51.6091 0.5948 13.9810 -20.6560 -8.1461 -1.4522 -0.3442 0.8656
0.6828 90.4106 0.7400 2.6143 0.8898 -6.3130 -1.2080 13.3265 -0.9715 -0.5617 -0.0455 -0.5050 -1.1133 19.0234 -3.5581 2.7556 11.0591 1.9488 -2.1462 -3.6466 -3.6255 -2.8432 -12.6510 -3.7819 -0.0559 -0.0496 0.1364 0.5878 -10.2868 -3.6523 -0.7077 -10.3043 3.9479 9.5909 14.1312 -11.8354 -75.8095 -23.8085 32.4956 0.4821 -0.8655 -129.6400 -12.8928 24.1499 2.7367 -15.0086 9.9180 15.4265 -59.2959 1.2425 2.6907 3.5214 18.2545 13.7423 55.2742 -1.7817 -14.7471 2.3089 1.2181 119.3922 -13.5741 46.5597 -32.6892 16.4166 7.0758 -15.8622 50.2295 -3.5291 -4.9039 7.5420 -29.7144 2.9374 -0.3033 49.5399 -0.4728 -12.5547 -18.3257 6.7813 1.6753 -0.4827 -2.1465 -13.3140 -30.0451 -20.3028 0.3966 54.0292 0.5853 14.1443 -21.2768 -8.0030 -1.4535 -0.3434 0.8591
0.7721 89.6142 1.0677 2.8829 1.3217 -6.8827 -1.1341 13.3576 -0.9548 -0.5525 0.0952 -0.5977 -1.3269 19.4664 -3.7365 2.3790 13.9706 1.9821 -2.2167 -3.7039 -3.5191 -3.2439 -10.7164 -3.8854 -0.0752 -0.0541 0.1313 0.5538 -10.3538 -3.6812 -0.7139 -10.3815 3.9769 9.3970 14.2183 -11.2824 -78.0082 -24.0945 32.3338 0.1598 -0.5476 -129.4216 -13.7371 28.6759 4.3915 -15.1125 10.0475 15.5359 -59.2095 1.2561 2.6822 2.1065 18.0653 13.0149 55.4261 -2.5127 -15.0848 2.3090 1.5728 119.5846 -15.8494 48.3793 -35.3814 16.2789 7.1088 -15.8955 50.4226 -3.5181 -5.0021 7.2504 -31.0634 3.7786 -0.3102 51.8832 -0.4733 -12.6225 -19.4777 6.7258 1.6673 -0.2670 -2.1786 -13.8863 -31.8826 -19.9505 0.4307 56.6689 0.6000 14.4258 -22.1498 -7.7470 -1.4525 -0.3030 0.8904
0.8079 88.8603 1.4828 3.3641 1.4188 -7.3040 -1.1054 13.2721 -1.0085 -0.5743 0.1332 -0.6425 -1.6969 19.9059 -4.0077 2.1050 18.1827 1.9948 -2.2034 -3.7328 -3.6213 -3.5274 -7.9591 -4.1664 -0.1007 -0.0579 0.1080 0.5146 -10.5217 -3.7400 -0.7265 -10.5546 4.0015 8.9642 14.3077 -10.4524 -79.2018 -23.8951 32.4001 0.2075 -0.3077 -130.4723 -14.9059 32.1072 4.6294 -15.3807 10.0605 15.5882 -59.3176 1.2210 2.6976 0.6036 17.9396 11.7461 56.7344 -3.1530 -16.0913 2.1983 1.5766 120.8775 -19.9791 50.4902 -39.8036 16.2091 7.2052 -15.9903 50.6542 -3.5139 -5.1170 6.7118 -31.8559 4.8155 -0.3465 53.9931 -0.5004 -12.6463 -20.6771 6.4644 1.6616 -0.0818 -2.1811 -14.9018 -33.2433 -19.4868 0.4912 59.1435 0.6882 14.7269 -23.0678 -7.5712 -1.4455 -0.3244 0.9182
0.8037 88.2737 1.9717 3.7232 1.2441 -7.5296 -1.0456 13.1631 -1.0497 -0.5542 0.1074 -0.7182 -1.9666 20.2422 -4.2525 1.9240 23.1424 1.8636 -2.0759 -3.7302 -3.7265 -3.7877 -4.4491 -4.4849 -0.1152 -0.0697 0.0721 0.5141 -10.7428 -3.8052 -0.7537 -10.7693 3.9993 8.4833 14.2892 -9.5158 -79.2492 -23.4670 32.6544 0.4700 -0.1638 -131.9986 -15.9666 33.5597 3.7843 -15.6198 9.9200 15.5444 -59.3354 1.1551 2.7159 -0.3249 17.9034 10.3288 58.2278 -3.0895 -18.2890 2.2018 1.3713 123.7989 -23.8656 52.0416 -44.1153 16.1483 7.3864 -16.0566 50.8940 -3.5117 -5.1902 6.3438 -32.0662 5.4324 -0.4086 55.6120 -0.5541 -12.7204 -21.7048 6.3128 1.6647 -0.0405 -2.1538 -15.8619 -33.9430 -19.1569 0.5554 61.0909 0.8026 15.1013 -23.5134 -7.4139 -1.4422 -0.5242 0.9269
0.7721 87.9176 2.4980 3.8245 0.9642 -7.5209 -0.9582 13.0058 -1.1101 -0.5103 0.0200 -0.8239 -2.0449 20.4451 -4.3849 2.0760 28.3703 1.5733 -2.0239 -3.7156 -3.7060 -4.0334 -0.6981 -4.7464 -0.1220 -0.0926 0.0379 0.5420 -10.8803 -3.8299 -0.7923 -10.9059 3.9540 8.2535 14.3033 -8.5597 -78.6101 -23.0051 33.2325 0.7726 -0.1858 -133.3700 -16.6593 33.7865 2.6054 -15.7643 9.7802 15.4958 -59.2976 1.1166 2.7540 -0.5652 18.0073 8.8545 59.2665 -2.1038 -21.0359 2.2576 1.1067 127.4245 -27.0919 53.0921 -47.9557 16.1328 7.6213 -16.0238 51.2092 -3.4288 -5.2230 6.2908 -31.8565 5.6631 -0.4675 56.5710 -0.6313 -12.8508 -22.4913 6.1640 1.6653 -0.0750 -2.1110 -16.4582 -34.0916 -19.1893 0.5823 62.4488 0.8702 15.4437 -23.4912 -7.2107 -1.4415 -0.9243 0.9271
0.6977 87.8578 3.0177 3.6942 0.6839 -7.3244 -0.8797 12.7851 -1.1469 -0.4720 -0.1232 -0.9343 -1.9586 20.5356 -4.4416 2.6291 32.9315 1.2800 -2.0713 -3.7070 -3.5889 -4.1968 2.4992 -4.8844 -0.1174 -0.1221 0.0041 0.5742 -10.8912 -3.8241 -0.8134 -10.9304 3.8762 8.4004 14.3952 -7.5973 -77.7496 -22.5661 34.2015 1.0253 -0.2777 -134.4802 -16.8121 33.4624 1.3249 -15.8975 9.7302 15.4584 -59.3580 1.1107 2.7482 -0.1924 18.2351 7.4871 59.7291 -0.5163 -23.8230 2.1822 0.8892 130.6930 -29.9333 53.7906 -51.2266 16.0877 7.8948 -15.9374 51.5471 -3.2847 -5.2207 6.5615 -31.3238 5.5873 -0.5301 56.7493 -0.7217 -13.0143 -22.8799 5.8991 1.6639 -0.1777 -2.0684 -16.6379 -33.7433 -19.5505 0.5157 63.0595 0.8054 15.6180 -23.0470 -6.9862 -1.4403 -1.4898 0.9425
0.6015 88.0730 3.5201 3.4261 0.4887 -7.0964 -0.8305 12.4440 -1.1244 -0.4608 -0.3341 -1.0747 -1.7970 20.5014 -4.4270 3.4550 36.4216 1.1624 -2.1694 -3.7197 -3.4460 -4.1976 4.8072 -4.9507 -0.0929 -0.1461 -0.0266 0.6341 -10.8869 -3.8296 -0.8231 -10.9340 3.8098 8.7256 14.5118 -6.6901 -76.7083 -22.0987 35.2920 1.3033 -0.4102 -135.4751 -16.4704 32.7970 0.1917 -15.9454 9.7943 15.4638 -59.5572 1.1521 2.7373 0.6084 18.4806 6.3548 59.6847 1.2213 -26.1754 1.9596 0.7346 132.9354 -31.9861 54.0588 -53.2891 15.9075 8.1318 -15.8526 51.5976 -3.1720 -5.2323 6.9634 -30.5137 5.3537 -0.5632 56.1473 -0.7643 -13.2229 -22.9542 5.6300 1.6555 -0.2893 -2.0249 -16.4925 -33.0696 -20.0532 0.4282 63.0309 0.6740 15.6189 -22.2125 -6.8096 -1.4428 -2.1730 0.9807
0.5226 88.6073 4.0998 3.0799 0.3502 -6.9579 -0.8211 11.8974 -1.0897 -0.4773 -0.6004 -1.1902 -1.6674 20.2884 -4.3788 4.2319 38.7178 1.2327 -2.2371 -3.7235 -3.3197 -4.0446 6.3375 -4.9150 -0.0545 -0.1652 -0.0495 0.6914 -10.8694 -3.8370 -0.8022 -10.9216 3.7566 8.9181 14.5933 -5.8867 -75.4930 -21.5932 36.0260 1.5072 -0.5754 -136.3303 -15.8360 32.1273 -0.7209 -15.9641 9.8499 15.4354 -59.7367 1.1971 2.7574 1.5812 18.6614 5.5644 59.3087 2.5932 -27.7121 1.7865 0.6824 133.6842 -32.2142 53.5847 -53.0646 15.7024 8.2549 -15.8534 51.4608 -3.1312 -5.2733 7.4191 -29.3146 5.1357 -0.5704 54.7022 -0.7685 -13.4758 -22.6296 5.4235 1.6482 -0.4109 -2.0061 -16.1244 -32.0268 -20.5688 0.3610 62.1880 0.5592 15.4705 -20.9416 -6.7155 -1.4462 -2.9244 1.0107
0.3808 89.4409 4.7232 2.6763 0.2876 -6.9478 -0.8516 11.1236 -1.0351 -0.5130 -0.9450 -1.2577 -1.6368 19.8080 -4.2918 4.8029 40.1018 1.3975 -2.2353 -3.7174 -3.1812 -3.7532 7.3553 -4.7975 -0.0205 -0.1778 -0.0654 0.7365 -10.8638 -3.8492 -0.7780 -10.9141 3.7236 8.7453 14.6812 -5.2409 -73.9685 -20.9222 36.0198 1.5328 -0.6730 -137.1984 -15.1911 31.4935 -1.4048 -15.9493 9.8463 15.3710 -59.7221 1.2172 2.7670 2.6447 18.7968 5.0907 58.6867 3.3075 -28.5586 1.8532 0.5856 133.1426 -30.4515 52.1493 -50.5000 15.5508 8.2287 -15.9451 51.2327 -3.2047 -5.3160 7.8744 -27.6987 5.0296 -0.5434 52.4232 -0.7398 -13.8437 -21.8851 5.3246 1.6438 -0.5856 -2.0039 -15.5471 -30.6632 -21.1028 0.3330 60.6117 0.5203 15.2052 -19.2051 -6.5662 -1.4543 -3.8256 1.0373
0.2134 90.6075 5.5159 2.2266 0.3445 -7.0012 -0.9424 10.0370 -0.9682 -0.5604 -1.3734 -1.2881 -1.7506 18.9406 -4.1935 4.9287 40.6781 1.5999 -2.0969 -3.7218 -3.0232 -3.3429 7.9873 -4.5686 0.0039 -0.1909 -0.0823 0.7670 -10.8757 -3.8745 -0.7590 -10.9300 3.7060 7.9897 14.7771 -4.6848 -71.8884 -20.0832 35.0925 1.2119 -0.5937 -137.9998 -14.7755 30.9248 -2.1388 -15.9742 9.7567 15.2397 -59.5678 1.1994 2.7298 3.7741 18.8672 4.8126 57.7932 3.3086 -28.7994 2.1336 0.5584 131.6152 -27.5122 50.4518 -47.0413 15.4188 8.0853 -16.0857 51.0012 -3.3664 -5.3507 8.3036 -25.6393 5.0129 -0.5002 49.1713 -0.7169 -14.3585 -20.6877 5.3390 1.6435 -0.8409 -1.9946 -14.8244 -28.9902 -21.6811 0.3553 58.2591 0.5827 14.9117 -16.8460 -6.3270 -1.4644 -4.9599 1.0540
-0.0795 92.1113 6.4402 1.6816 0.6113 -7.0427 -1.0193 8.6610 -0.9072 -0.6489 -2.0058 -1.2811 -2.0517 17.7263 -4.0839 4.6630 40.5255 1.9234 -1.9279 -3.6710 -2.8361 -2.5688 8.2551 -4.2907 -0.0309 -0.1745 -0.0807 0.7505 -10.9168 -3.8999 -0.8129 -10.9678 3.7493 6.5325 14.9204 -4.1741 -68.8755 -18.9681 32.8677 0.6052 -0.3089 -138.5426 -14.9624 30.4216 -3.0931 -15.9883 9.6912 15.1956 -59.4305 1.2019 2.7808 5.0141 18.9059 4.6729 56.5480 2.5163 -28.6792 2.5502 0.4238 129.5697 -24.4528 48.9400 -43.9036 15.2084 8.0128 -16.1411 50.7101 -3.4637 -5.2917 8.8189 -23.2790 5.0834 -0.4738 45.0030 -0.7411 -14.9345 -18.8565 5.1587 1.6493 -1.2861 -2.0156 -13.8621 -27.1032 -22.4598 0.3861 55.2490 0.6552 14.5026 -13.8823 -6.0414 -1.4940 -6.0328 1.0469
-0.4444 93.8847 7.5601 1.0460 1.1929 -6.9487 -1.1769 6.8810 -0.8774 -0.7420 -2.5795 -1.0651 -2.4020 16.0331 -4.0618 3.9075 39.5982 2.3935 -1.7702 -3.6892 -2.7022 -1.5777 8.3286 -3.9438 -0.0052 -0.1664 -0.0975 0.7605 -10.8883 -3.9316 -0.7686 -10.9370 3.7332 4.3113 14.6940 -3.7077 -64.5909 -17.2890 29.5918 -0.3685 0.0499 -138.5376 -16.0574 30.2247 -4.8699 -15.9365 9.6865 15.1179 -59.3901 1.1931 2.5366 6.3303 18.7596 4.5025 55.0633 1.2172 -28.1362 2.6737 0.3352 127.6955 -20.8608 48.1190 -40.8043 15.2147 7.7392 -16.1567 50.3615 -3.5535 -5.1653 9.3750 -20.8782 5.0892 -0.3414 40.0307 -0.6474 -15.4813 -15.8743 5.1500 1.7042 -1.8008 -2.0023 -12.7160 -25.1641 -23.3550 0.3948 51.7760 0.7738 14.2655 -10.0113 -5.4146 -1.5143 -7.8628 1.0912
-0.9640 95.8604 8.7861 0.2499 2.1481 -6.6128 -1.3201 4.8120 -0.7991 -0.8451 -3.2228 -0.9186 -2.7089 13.8623 -3.8456 2.7646 37.7792 2.9230 -1.5334 -3.7320 -2.4648 -0.4306 8.5553 -3.7042 0.0032 -0.1458 -0.1113 0.7492 -10.9022 -3.9792 -0.7408 -10.9440 3.7489 1.5792 14.5149 -3.4636 -59.6740 -15.0988 25.8674 -1.4205 0.3291 -137.8262 -17.7405 29.9778 -7.2053 -15.9339 9.7069 15.0840 -59.2726 1.1079 2.4812 7.2532 18.3736 4.1827 53.6940 -0.3606 -27.4199 2.6584 0.1510 126.4982 -17.3616 47.9534 -37.7665 15.4491 7.4104 -16.1005 50.1927 -3.6426 -5.0464 10.1813 -18.7102 5.1999 -0.2717 34.5668 -0.6252 -15.9252 -11.7909 4.3189 1.7205 -3.0090 -1.9767 -11.2084 -22.9386 -24.5239 0.3828 47.3634 0.9051 13.8616 -5.6316 -4.8056 -1.5250 -9.9030 1.0871
-1.5522 97.9177 10.0536 -0.6936 3.4276 -6.2308 -1.3763 2.6779 -0.6342 -0.9347 -3.8678 -0.6580 -2.9691 11.3659 -3.5679 1.5382 34.2666 3.5678 -1.3331 -3.7690 -2.1755 0.6422 8.6192 -3.7122 -0.0167 -0.1270 -0.1062 0.6908 -10.8888 -4.0212 -0.7255 -10.9441 3.8113 -1.3590 14.0341 -3.4031 -54.9884 -12.2859 22.6740 -2.2765 0.4554 -135.9900 -18.5247 29.4161 -9.7473 -16.0487 9.8685 15.1140 -59.2938 1.0763 2.5016 7.7888 17.6070 4.2308 52.6686 -2.3572 -27.1485 2.3863 0.2380 126.7073 -13.5124 47.5440 -33.7658 15.8969 7.0790 -16.0210 50.2059 -3.6460 -4.9782 11.1667 -17.0506 5.2153 -0.1940 29.1591 -0.5398 -16.3150 -6.7352 3.2289 1.7145 -4.8781 -1.9015 -9.4240 -20.4215 -25.5679 0.3451 41.9566 0.9699 13.6016 -0.9235 -4.2950 -1.5326 -12.0219 1.0870
-2.1171 99.9519 11.2456 -1.7564 4.9531 -5.9635 -1.2924 0.6989 -0.4429 -1.0519 -4.4702 -0.1046 -3.1689 8.6512 -3.1640 0.4167 28.1671 4.2671 -1.1995 -3.7552 -2.0011 1.4877 7.6530 -3.8959 -0.0576 -0.1150 -0.0673 0.5731 -10.7066 -3.9812 -0.6938 -10.7993 3.8694 -4.0449 13.1933 -3.4027 -51.3488 -8.7074 20.2209 -2.6477 0.4298 -132.2723 -17.5049 28.8747 -11.9869 -16.1517 10.2213 15.3199 -59.5332 1.1476 2.5089 7.9058 16.3998 5.2320 52.4322 -5.1698 -27.4138 1.6518 0.9353 127.8430 -9.9670 46.3293 -28.3711 16.4584 6.9093 -16.0059 50.4172 -3.5794 -4.9177 12.2696 -15.9809 5.0357 -0.1108 24.1376 -0.4025 -16.5934 -1.0000 2.1595 1.6866 -7.3136 -1.8062 -7.4356 -17.4310 -26.0406 0.2567 35.1939 0.9058 13.4865 4.0816 -4.0796 -1.5353 -13.8591 1.0936
-2.5642 101.7879 12.1248 -2.7888 6.4787 -5.8721 -1.0989 -0.7661 -0.2275 -1.1668 -4.9604 0.7364 -3.3214 6.1607 -2.5321 -0.4738 19.2677 4.4728 -1.3872 -3.6905 -2.0692 2.2939 5.0605 -4.4720 -0.0691 -0.1045 -0.0040 0.5437 -10.3139 -3.8358 -0.6904 -10.4287 3.8578 -5.6489 12.1192 -3.4390 -50.0598 -4.3596 17.8939 -2.2024 0.3237 -125.6098 -14.2088 28.4567 -13.6505 -15.9664 10.7644 15.8150 -60.0465 1.2282 2.4444 7.4542 15.0997 7.6766 53.1546 -9.0789 -27.7280 0.3360 1.8749 128.9849 -9.0405 44.5082 -22.7238 16.6353 6.9869 -16.2727 50.3415 -3.6160 -4.9145 13.3531 -15.4891 4.0987 -0.0559 20.2490 -0.3041 -16.5233 4.5231 1.8925 1.6718 -9.6867 -1.8179 -5.5325 -14.0781 -25.4715 0.1407 27.4021 0.6915 13.5685 9.1873 -4.3046 -1.5519 -15.1810 1.1490
-2.7694 103.1014 12.3833 -3.7373 7.5664 -5.8627 -0.7197 -1.3169 -0.0258 -1.1814 -5.1839 1.6382 -3.3510 4.5905 -1.6029 -1.5935 8.0711 3.9704 -1.6297 -3.7053 -2.5112 2.9984 1.7701 -5.9485 -0.0130 -0.1225 -0.0304 0.6953 -10.2521 -3.8471 -0.7304 -10.3560 3.7944 -5.9473 11.2056 -3.7421 -51.8826 -1.3861 15.2753 -1.2946 0.1681 -115.1970 -10.6937 29.3291 -14.9833 -15.7055 11.1883 16.3036 -60.7908 1.2041 2.2878 5.9911 14.1233 11.5279 54.1703 -14.3564 -27.3377 -0.7580 2.5073 129.0366 -11.4567 43.0247 -18.7528 16.6796 7.1392 -16.5409 50.3041 -3.7383 -4.9960 14.4466 -15.5717 2.0427 -0.0088 18.4688 -0.2070 -15.8235 8.4996 2.6512 1.7023 -11.3358 -1.9631 -4.0134 -10.9704 -24.2042 0.0616 20.1149 0.4538 13.8666 13.5231 -4.6862 -1.5603 -15.6717 1.2052
-2.5335 103.8657 11.9932 -4.4624 7.8855 -6.0282 -0.2181 -0.8397 0.1994 -1.0446 -5.0680 2.3804 -3.0641 4.0715 -0.5199 -2.8702 -3.6308 3.7142 -1.8027 -3.8410 -3.1448 3.1262 -1.9017 -8.1229 0.0216 -0.1807 -0.1315 0.7929 -10.5694 -4.0281 -0.7600 -10.6423 3.7498 -6.0808 10.5259 -4.4930 -55.3197 -2.0669 13.1180 -0.6191 -0.1655 -101.2250 -8.3861 32.0582 -16.1179 -15.5919 11.1793 16.5392 -61.0879 1.1592 2.1451 3.5851 13.4332 16.1867 53.6211 -20.2822 -24.4776 -1.5774 2.5900 126.9546 -15.4107 42.9408 -15.9454 16.8715 7.3614 -16.5240 50.6713 -3.7671 -5.1846 15.3081 -15.9513 -0.1750 0.0466 18.6351 -0.1143 -15.0269 10.7179 3.4337 1.7681 -12.7315 -2.1695 -3.1699 -8.6280 -22.9624 0.0415 14.5900 0.2921 14.0917 16.4870 -4.8139 -1.5543 -15.4373 1.2579
-2.0061 104.2664 11.0021 -4.8229 7.6498 -6.4111 0.3174 0.4372 0.5547 -0.8181 -4.6796 2.8758 -2.4985 4.3629 0.5167 -3.7214 -13.1353 3.7802 -1.9346 -3.9072 -3.8667 2.6272 -6.2017 -9.7325 0.0028 -0.2127 -0.2087 0.7576 -10.8143 -4.1505 -0.7665 -10.8309 3.7131 -7.0448 10.0585 -5.8368 -58.5136 -6.2632 12.1907 -0.2215 -0.3315 -86.4897 -6.3425 34.8818 -16.4687 -15.5370 10.9261 16.5435 -60.6387 1.1653 2.1585 0.6570 12.7927 21.2008 49.2817 -26.1121 -18.1624 -2.1704 1.7169 121.7321 -18.1291 43.5799 -11.4830 16.8174 7.6452 -16.3126 50.9203 -3.6810 -5.3937 15.7016 -16.8629 -1.2616 0.0697 19.9652 -0.0474 -14.8539 12.2535 3.1737 1.8539 -14.1814 -2.3911 -2.8913 -7.3147 -21.9802 0.0281 11.0977 0.2133 13.9501 18.1461 -4.6753 -1.5233 -14.5765 1.2774
-1.2889 104.4217 9.3664 -4.7451 7.3988 -6.9286 0.8574 2.3223 0.9375 -0.6118 -4.0572 3.2752 -1.8195 5.2168 1.2045 -3.3609 -18.8263 3.4770 -2.1525 -3.9128 -4.4933 2.0714 -11.4623 -10.2790 -0.0082 -0.1859 -0.1644 0.7475 -10.9506 -4.1286 -0.7797 -10.9019 3.7761 -7.6603 9.7322 -7.2949 -61.1898 -10.8177 11.9998 0.1882 -0.2525 -76.0233 -3.6173 36.2579 -15.3518 -15.3962 10.7509 16.3681 -59.9800 1.2327 2.1614 -3.1826 12.3505 25.9346 41.2810 -31.0147 -10.2456 -1.8833 0.7290 113.2601 -17.1408 43.6165 -5.4995 16.2048 7.5934 -16.2870 50.2152 -3.8199 -5.6448 15.4793 -19.0366 -0.3494 0.0507 21.9553 -0.0800 -15.2014 13.9097 1.2649 1.9490 -15.5730 -2.5845 -2.9315 -7.8167 -20.9138 -0.0341 10.2628 0.1780 13.1368 18.8462 -4.9943 -1.4820 -14.0413 1.2510
-0.4399 104.4204 7.1350 -4.1488 7.2759 -7.3753 1.3092 4.6145 1.1532 -0.5275 -3.2133 3.7019 -1.2151 6.5792 1.5260 -1.3083 -19.9313 2.8949 -2.5578 -3.9822 -5.3761 1.4749 -17.9685 -10.4254 0.0366 -0.1266 -0.0356 0.8015 -11.1507 -4.0519 -0.7391 -11.0587 3.9369 -6.1262 10.0365 -8.2015 -63.7657 -12.7857 11.4019 -0.0205 -0.4536 -73.0065 -0.3710 36.0102 -12.6453 -15.2181 10.8666 16.2271 -59.5297 1.4227 2.1063 -8.6900 12.8354 29.6097 32.7009 -33.6599 -3.5976 -0.8352 0.5278 104.3584 -13.7770 43.6471 -0.6762 15.7580 7.2590 -16.5348 49.6062 -3.8791 -5.9906 14.4739 -22.1153 1.7752 0.0187 24.1088 -0.1960 -15.4636 16.4859 -1.7326 2.0618 -16.7537 -2.7241 -3.3243 -10.2616 -19.5818 -0.0890 12.0545 0.1886 12.0425 18.5407 -5.8897 -1.4501 -13.5373 1.1962
0.5464 104.2161 4.7544 -3.3822 7.2264 -7.6315 1.4952 6.9604 1.3012 -0.5464 -2.3914 3.9780 -0.4160 8.2404 1.5684 1.7969 -17.1471 2.3131 -2.6790 -4.0210 -6.6134 0.6826 -23.2394 -9.9717 0.0420 -0.0613 -0.0174 0.7561 -11.2290 -4.0534 -0.6776 -11.1286 3.9733 -3.0755 11.8550 -8.0029 -64.3629 -10.8541 8.7641 -0.3845 -0.7217 -79.1234 -1.3539 34.1005 -11.6350 -14.9332 10.9777 16.1946 -59.6991 1.4389 2.1017 -15.0708 13.8960 30.6747 25.7070 -31.2608 0.9850 -0.2048 0.5745 99.7313 -3.9900 42.6693 6.2728 16.6936 7.0309 -16.6606 51.1027 -3.4771 -6.2696 12.8692 -24.4609 4.1744 -0.0402 25.1177 -0.3788 -14.3559 17.6145 -3.7808 2.0823 -16.1848 -2.6816 -4.1386 -13.4847 -18.1329 -0.0751 15.3324 0.2090 11.7216 16.6310 -6.3401 -1.4245 -11.4190 1.1276
1.4297 103.1975 2.4719 -2.8193 7.0878 -7.3670 1.4804 8.8313 1.2325 -0.5284 -1.7953 3.8815 0.5723 10.3988 1.9094 5.3832 -11.7063 1.2839 -2.5103 -4.0657 -7.3524 -0.5180 -25.0872 -8.4016 0.0245 0.0266 -0.0629 0.6927 -11.0592 -4.0130 -0.6461 -10.9704 3.8524 -0.6979 14.3432 -6.8442 -61.8014 -6.9682 7.0177 -0.8365 -0.6614 -92.2069 -8.1610 31.7988 -13.7057 -14.6404 10.6865 15.9506 -59.7778 1.2862 2.2403 -19.9563 14.6416 29.1484 20.8142 -23.8261 3.1446 -0.4006 -0.1156 100.0474 15.7464 38.2816 15.5202 18.3351 6.8075 -16.6713 52.7945 -3.0284 -6.4147 11.0559 -25.1104 6.7731 -0.1694 24.5727 -0.5572 -11.6199 13.8205 -3.7865 1.9479 -13.1123 -2.4051 -5.3305 -16.3285 -17.1065 -0.0495 19.7256 0.2366 11.9707 11.5087 -5.5250 -1.3796 -7.8148 0.9816
1.9934 101.3249 0.3986 -1.7427 6.5731 -5.9613 1.1885 10.6586 1.0115 -0.4128 -1.3310 3.4854 1.2336 12.6190 2.3088 7.8389 -5.1733 0.4047 -2.3312 -4.0410 -6.8699 -1.6895 -23.8731 -6.5451 0.0222 0.0667 -0.1520 0.6754 -10.8222 -3.9953 -0.6302 -10.6729 3.6629 1.7111 16.1486 -5.4576 -58.3859 -2.5851 8.6850 -0.5310 -0.9497 -106.2794 -13.4789 29.0182 -15.2074 -14.1557 10.7406 15.9428 -59.2006 1.2428 2.7036 -23.3593 15.5124 25.6622 19.5000 -14.3256 2.8773 -0.4354 -0.5067 103.0920 33.1301 34.3436 17.5198 17.3953 7.1640 -16.9289 50.7743 -3.0408 -6.6109 8.5278 -24.0113 8.8383 -0.1936 22.5654 -0.4706 -8.5657 6.1758 -2.6446 1.8040 -7.5804 -2.1216 -7.5811 -18.8983 -16.1769 0.0205 28.2394 0.3790 10.8571 2.5827 -6.7406 -1.4024 -4.8065 0.9341
2.2576 99.2807 -1.8648 0.5085 6.1361 -2.9616 0.5420 12.4118 0.6251 -0.2593 -0.8836 3.0236 1.2952 14.8757 2.2408 8.7085 0.9287 -0.0270 -2.6109 -4.0870 -6.1464 -3.0450 -22.1462 -5.0219 0.0423 0.0364 -0.1768 0.7069 -10.6957 -3.9718 -0.6206 -10.5185 3.5899 4.1818 16.8857 -4.0326 -54.7097 0.5105 12.6687 0.5666 -1.2767 -115.6035 -14.5515 29.0359 -16.4235 -14.3726 11.1583 15.9574 -59.0803 1.2718 2.8353 -23.6015 16.3643 21.9778 20.2036 -5.6322 0.3161 -0.4818 0.1056 107.0920 38.1884 34.0202 13.2192 16.5287 7.4262 -16.4808 49.7722 -2.9441 -6.5765 5.0072 -24.2958 9.7307 -0.1665 22.1216 -0.3549 -6.1440 0.4694 -2.7977 1.7100 -3.1758 -2.0322 -10.9650 -21.3295 -15.2385 0.0663 40.4938 0.5706 7.9399 -6.1028 -11.0088 -1.4328 -3.8493 0.8847
2.2391 97.6895 -4.2814 3.2217 6.1799 0.5577 -0.0145 13.6532 0.1167 -0.1470 -0.3876 2.7201 1.1939 17.3986 2.2627 8.5051 5.8331 0.2530 -3.2344 -4.1596 -6.0120 -3.9614 -20.0790 -4.9042 0.0213 -0.0358 -0.0381 0.6960 -10.6816 -3.8317 -0.6560 -10.5580 3.7469 5.6544 17.1154 -2.7630 -51.0601 1.7320 16.9110 1.6921 -1.6963 -119.5432 -13.0874 31.6849 -17.6040 -15.1591 10.9637 15.7223 -59.0518 1.0858 2.7776 -20.1472 17.3537 19.6056 21.3460 0.1978 -4.7529 -0.5978 1.1947 111.3477 37.6956 34.5419 7.1996 16.2383 7.4433 -16.3482 49.9953 -3.1537 -6.5731 1.1986 -27.2975 10.1908 -0.2009 24.6326 -0.3747 -4.8517 -0.6422 -4.6552 1.6482 -1.9580 -2.1207 -14.1941 -23.0000 -13.8146 0.1690 51.4228 0.8735 5.2881 -10.8598 -14.4321 -1.4584 -3.6817 0.8624
2.0035 96.4576 -6.7333 5.2799 6.4847 3.1944 -0.0697 14.6160 -0.1083 -0.0492 0.1325 2.5960 1.5153 19.7683 2.6114 7.9442 10.0057 0.6712 -3.7634 -4.0724 -6.1652 -4.2338 -18.0590 -5.7974 -0.0425 -0.0711 0.0847 0.6298 -10.6651 -3.7284 -0.7246 -10.5807 3.9180 6.1345 17.3915 -1.2226 -48.6259 2.6998 19.6121 2.5905 -2.2975 -120.2719 -10.5047 34.9181 -17.8262 -15.6869 10.4758 15.4697 -58.7751 1.0664 2.4835 -15.5500 18.2454 18.7530 23.6365 3.0007 -10.5112 -0.3526 2.1136 114.8105 35.2090 36.2955 1.2347 16.0252 7.4680 -16.3920 50.2090 -3.4415 -6.4120 -1.7290 -30.9481 10.3252 -0.2702 27.4420 -0.3545 -4.4143 0.1528 -5.8804 1.6533 -1.6200 -2.1685 -16.1232 -23.5456 -12.2340 0.4730 58.5166 1.3855 4.9306 -12.1910 -13.2819 -1.4935 -4.1994 0.9595
1.5942 95.3193 -9.1934 6.7225 6.9984 4.5869 -0.0300 15.3874 -0.1471 0.0198 0.6185 2.5479 2.2301 21.8184 3.3731 7.7532 13.8287 0.8479 -4.0535 -3.9907 -6.2737 -4.3380 -16.0210 -6.6832 -0.0930 -0.0592 0.1272 0.5846 -10.6681 -3.7133 -0.7836 -10.6135 4.0023 5.8754 18.0282 0.4713 -47.5071 4.6674 20.1676 3.6060 -3.1461 -119.5116 -7.8067 37.8557 -17.4313 -16.0490 9.9240 15.2497 -58.4509 1.1718 2.2963 -10.8223 18.8234 18.7659 27.4224 3.8639 -14.7068 -0.3326 2.5619 116.7071 31.2997 40.2538 -4.8139 15.7724 7.4933 -16.3105 50.2998 -3.5377 -6.1811 -3.7462 -34.4749 10.1007 -0.3160 29.6867 -0.3293 -4.4797 1.2355 -5.5446 1.6692 -1.2179 -2.1718 -17.0605 -23.2666 -11.0148 0.6973 61.0243 1.8059 5.8981 -12.4801 -9.9919 -1.5075 -5.4372 1.0220
1.1342 94.2256 -11.6072 7.6101 7.6746 4.7695 -0.0626 15.8504 -0.0907 0.0013 1.0770 2.6294 3.0776 23.5014 4.0820 8.0877 17.1080 0.7927 -4.1175 -3.9690 -6.1372 -4.5954 -14.0586 -7.1426 -0.1029 -0.0384 0.1183 0.5808 -10.5642 -3.7072 -0.7988 -10.5637 3.9784 5.0368 19.0510 2.1231 -47.4798 7.7328 18.8696 4.7044 -3.7641 -117.9455 -5.4237 40.7644 -16.5950 -16.4207 9.5099 15.1408 -58.2506 1.2146 2.1413 -6.4289 18.8483 19.3611 32.7343 2.9791 -16.8524 -0.4327 2.1035 117.2085 25.1746 46.4099 -11.8124 15.5658 7.4292 -15.9949 50.2214 -3.5393 -5.9217 -4.7388 -37.8671 9.4410 -0.3114 31.5806 -0.2963 -4.8818 2.1820 -3.7965 1.6727 -0.6361 -2.1448 -17.4246 -22.4795 -10.5308 0.6261 58.7124 1.8366 7.2425 -13.0231 -7.4876 -1.5341 -8.6397 1.1145
0.6333 93.2302 -14.0445 8.0126 8.4200 3.8422 -0.2888 15.9842 -0.0882 -0.0903 1.4696 2.8026 3.7986 24.7356 4.4815 8.6486 19.8881 0.9845 -4.0235 -3.9795 -5.8337 -4.9460 -12.3570 -7.3575 -0.0948 -0.0300 0.1066 0.5781 -10.4364 -3.6870 -0.7778 -10.4842 3.9302 3.7597 20.1525 3.5406 -48.1419 11.3542 16.7583 5.5590 -3.7888 -116.2534 -3.6612 43.5519 -15.1270 -16.7650 9.2372 15.0385 -58.1241 1.2327 1.8585 -2.7622 18.6374 20.0949 38.9654 0.7735 -17.0592 -0.4289 1.3153 116.8294 16.1705 51.8426 -20.8102 15.4966 7.2327 -15.5744 49.9196 -3.6977 -5.6258 -4.6589 -41.1588 8.3006 -0.2884 33.3642 -0.2972 -5.5505 3.0850 -1.0667 1.6667 -0.1912 -2.1184 -17.5111 -21.6780 -10.6784 0.4509 54.0795 1.6279 9.5935 -16.1628 -6.7328 -1.5698 -11.0102 1.2513
0.1563 92.3239 -16.6623 7.9218 8.9627 1.9496 -0.4744 16.1557 -0.1822 -0.2155 1.7901 2.8733 4.0729 25.3125 4.6266 9.1163 22.5517 1.3203 -3.8184 -3.9760 -5.3212 -5.2793 -11.2350 -7.1800 -0.0729 -0.0448 0.0946 0.5748 -10.3378 -3.6592 -0.7281 -10.4130 3.8704 2.6092 21.2875 4.4747 -49.4242 14.7840 14.1705 6.1130 -3.7225 -114.9179 -3.0519 45.6527 -13.1433 -16.5286 9.2174 15.1468 -57.7297 1.1663 1.5892 -0.3905 18.6642 20.2578 44.7860 -1.3297 -15.5200 -0.0011 0.7534 115.9319 5.4132 53.4019 -30.3668 15.6435 7.0710 -15.3170 49.9160 -3.8249 -5.4132 -3.4594 -44.1105 6.8140 -0.2427 35.1113 -0.2776 -6.4074 3.9930 2.2981 1.6723 -0.2228 -2.1332 -17.2588 -21.4827 -11.4836 0.3838 49.7967 1.2890 13.1189 -22.3165 -6.9742 -1.5478 -7.4544 1.3096
-0.2580 91.4861 -19.4882 7.1734 9.3911 -0.7908 -0.4739 16.3742 -0.2246 -0.3429 1.8861 2.8847 4.0965 25.5080 4.5301 8.8730 24.5788 1.5358 -3.5433 -3.9392 -4.4566 -5.8648 -10.8911 -6.5514 -0.0443 -0.0652 0.0739 0.5901 -10.3093 -3.6869 -0.6850 -10.3818 3.8473 1.5632 22.2140 5.1036 -51.1174 17.3863 11.4718 6.5120 -3.0369 -113.9117 -3.6904 46.5003 -12.0239 -16.2423 9.3312 15.2253 -57.7351 1.1985 1.4655 -0.0525 18.5511 19.6158 49.0288 -1.3565 -12.3405 0.3905 0.7667 114.2529 -2.2065 52.0478 -36.0090 15.7095 6.9543 -15.2860 49.8873 -3.9656 -5.3205 -1.1445 -46.5514 5.5923 -0.2541 36.3517 -0.3877 -6.9228 5.1724 5.2724 1.6707 -0.3335 -2.1812 -16.1161 -23.2535 -11.8767 0.3928 48.9057 1.0398 13.7792 -27.2004 -6.8038 -1.4875 -3.0352 1.1715
-0.6032 90.9512 -22.3826 6.0752 9.6805 -3.8039 -0.3045 16.5757 -0.1926 -0.3934 1.9125 2.7307 3.9703 25.5889 4.1148 8.1512 26.1556 1.4739 -3.2976 -4.0021 -3.4199 -6.7143 -10.7236 -5.4148 -0.0349 -0.1034 0.0624 0.5691 -10.2848 -3.6922 -0.6439 -10.3447 3.8285 0.5005 22.8626 5.1641 -53.0391 18.6034 9.3050 6.8325 -2.3197 -113.2263 -4.4274 47.4201 -11.3219 -16.0756 9.4380 15.2012 -58.0694 1.2222 1.6363 -1.2583 18.5651 18.4333 51.5278 -0.1858 -8.4389 0.7197 1.1897 112.1050 -4.6279 49.9613 -36.9376 15.7578 6.8330 -15.4621 50.0560 -4.0186 -5.3194 1.6688 -47.9507 4.5552 -0.2203 36.0092 -0.4885 -6.8228 6.9090 7.7480 1.6539 -0.1597 -2.1915 -14.5827 -25.9378 -11.5548 0.4885 49.9243 1.0385 13.1224 -29.1825 -5.3629 -1.4468 -1.2166 1.0952
-0.9774 90.8915 -25.1325 4.9992 9.9187 -6.3686 -0.0234 16.6283 -0.2451 -0.3295 1.8218 2.3889 3.7976 25.7701 3.5511 7.4681 27.3916 1.1962 -2.9744 -4.0256 -2.3649 -7.8774 -10.6541 -4.1332 -0.0350 -0.1256 0.0574 0.5477 -10.2342 -3.6768 -0.6213 -10.2895 3.8069 -0.6150 23.3486 4.5335 -54.8516 18.1222 8.1958 6.8200 -1.6733 -112.8024 -4.1135 47.6054 -9.5222 -16.0266 9.4710 15.1869 -58.4052 1.2082 2.0713 -2.8350 18.6898 16.9769 52.7599 1.2138 -4.9561 0.8655 1.5605 110.1147 -5.4907 47.8903 -36.3787 15.4887 6.8013 -15.5414 50.0506 -3.9894 -5.2932 4.3938 -48.1241 3.6139 -0.1943 33.4343 -0.5535 -6.4792 9.5301 9.5318 1.6458 -0.1260 -2.2303 -12.8395 -28.7322 -11.1910 0.6033 51.0911 1.0271 12.0291 -28.8438 -3.7442 -1.4277 -0.6842 1.0237
-1.4348 91.1959 -27.6385 4.1520 9.9649 -8.0631 0.3592 16.5713 -0.3618 -0.2340 1.7443 1.9202 3.6621 25.9464 2.8553 7.2775 28.6199 0.9658 -2.7325 -4.0158 -1.3594 -8.9577 -10.5319 -3.0440 -0.0426 -0.1346 0.0617 0.5069 -10.1737 -3.6346 -0.5972 -10.2529 3.7834 -1.6919 23.8028 3.5756 -56.3978 16.5314 8.0695 6.5074 -1.2630 -112.3157 -2.7974 47.9446 -6.9441 -15.9983 9.4396 15.0783 -58.5258 1.1839 2.2699 -4.0561 18.6953 15.7391 53.6838 2.2819 -3.2322 0.9397 1.6187 108.8919 -7.2933 45.6021 -35.9371 15.4237 6.8080 -15.4713 50.2201 -3.9256 -5.1434 6.4488 -46.9572 3.0377 -0.1548 28.6684 -0.5803 -5.8157 12.6112 10.5093 1.6451 -0.1335 -2.2357 -11.0659 -30.6198 -11.1221 0.6338 51.1420 0.9655 10.9207 -27.6998 -2.4461 -1.4203 -0.4940 1.0564
-1.9113 91.8021 -29.9074 3.5428 9.7177 -9.0837 0.8872 16.6238 -0.5181 -0.2264 1.6561 1.6553 3.7085 26.0904 2.0625 7.3717 29.7177 0.7655 -2.4488 -4.0005 -0.6019 -10.0799 -10.1734 -2.1819 -0.0265 -0.1657 0.0610 0.5118 -10.1714 -3.6153 -0.5688 -10.2824 3.7629 -2.6513 24.1258 2.8951 -57.8604 14.9308 7.7564 6.1718 -0.9339 -112.0126 -1.6124 48.3597 -4.4861 -15.7700 9.4652 14.9537 -58.4490 1.3198 2.0432 -5.0130 18.6133 14.5792 54.5641 3.3418 -2.8971 0.8042 1.4112 108.7048 -9.6502 42.2491 -35.2013 15.7130 6.9494 -15.4513 50.7479 -3.7714 -5.0156 7.7887 -44.5907 2.8665 -0.1070 22.1661 -0.5630 -5.2922 15.8576 10.4405 1.6892 -0.6479 -2.1880 -9.3428 -31.6295 -11.7309 0.5467 50.2648 0.8523 9.7785 -26.1581 -0.9857 -1.4197 -0.4036 1.1732
-2.2695 92.4583 -32.0131 3.4189 9.4989 -9.6935 1.4281 16.5854 -0.6172 -0.2291 1.6103 1.3756 3.5913 25.9463 1.3655 7.2792 30.9430 0.6404 -2.2519 -3.9856 -0.0374 -10.4270 -9.8294 -1.7841 0.0081 -0.1789 0.0595 0.5391 -10.1914 -3.6230 -0.5241 -10.3063 3.7545 -3.4830 24.5856 2.4085 -59.2045 13.5763 7.3125 5.3003 -0.6435 -112.2834 -1.0216 47.6291 -2.8077 -15.6785 9.4122 14.9320 -58.3731 1.2404 1.9260 -5.7558 18.8697 13.6135 54.8355 4.8020 -3.2553 0.6025 1.4725 109.0253 -11.1017 38.1653 -34.3331 15.9334 7.0872 -15.4830 51.3234 -3.7152 -4.8065 7.7862 -41.8617 3.5333 -0.0673 15.8685 -0.4451 -5.3537 15.3106 10.1962 1.6341 -1.1319 -2.1673 -8.3310 -32.2759 -12.2459 0.5520 48.8300 0.7781 8.9343 -24.6173 0.4876 -1.4179 -0.1584 1.1738
-2.3763 93.1578 -34.0536 3.7533 9.5175 -10.0026 1.8833 16.4697 -0.6139 -0.2146 1.4946 1.1643 3.3859 25.6162 0.7768 6.9714 31.8112 0.5485 -2.0392 -4.0253 0.0759 -10.8293 -9.5781 -1.5640 0.0629 -0.1956 0.0392 0.5956 -10.2196 -3.6708 -0.4679 -10.3500 3.7439 -4.1326 24.9988 2.0030 -60.5318 12.5086 6.9404 4.1758 -0.3081 -113.3979 -1.2287 46.1782 -2.1439 -15.5705 9.3893 15.0653 -58.1038 1.0384 2.0262 -6.2309 19.1847 12.9725 54.2845 6.6897 -4.4597 0.6482 1.8246 109.4952 -11.4702 35.2422 -33.9638 16.0488 7.1327 -15.5285 51.5314 -3.7266 -4.6402 6.4953 -40.1069 5.0534 -0.0124 12.1454 -0.3409 -7.1173 10.8310 9.8856 1.5532 -1.7506 -2.1946 -7.8897 -33.1195 -12.8352 0.5385 47.2156 0.6911 8.1529 -23.0567 1.9169 -1.4130 0.0917 1.0780
-2.2424 93.9862 -36.1968 4.6313 9.8172 -10.0046 2.0579 16.2447 -0.5910 -0.1125 1.3268 0.9214 3.0324 25.3610 0.3481 6.5888 32.0500 0.5914 -1.9233 -4.0357 -0.0549 -11.1006 -9.1240 -1.5532 0.1050 -0.2122 0.0202 0.6469 -10.2285 -3.7222 -0.4331 -10.3573 3.7462 -4.4481 25.0379 1.4047 -61.7546 11.7184 6.6582 3.4752 0.2383 -115.1986 -1.4271 44.4156 -1.5561 -15.3752 9.4388 15.1738 -57.8951 0.9858 2.1169 -6.5386 19.2076 12.6458 53.1037 8.9817 -6.2415 0.7624 2.4014 110.0502 -11.0117 32.7880 -34.0538 16.0951 7.1291 -15.5830 51.4844 -3.7431 -4.6544 3.6668 -39.9980 7.9843 -0.0384 12.9760 -0.3470 -9.9706 6.7728 8.9481 1.5253 -2.2236 -2.2747 -8.0504 -34.3267 -13.2417 0.5256 45.3649 0.6647 7.5284 -21.1862 3.0016 -1.4070 0.2291 0.9518
-1.9851 94.8414 -38.3759 5.7745 10.1905 -9.9744 1.9881 15.9899 -0.6072 0.0064 1.2167 0.7425 2.6350 25.2387 0.0703 6.0778 31.8851 0.7947 -1.9956 -3.9948 -0.2616 -11.2754 -8.4940 -1.5808 0.1344 -0.2103 0.0170 0.7069 -10.2222 -3.7543 -0.4339 -10.3352 3.7645 -4.4565 24.6536 0.7301 -62.5262 11.1416 6.6434 3.3831 0.5598 -117.2700 -1.0591 43.1675 -0.7403 -15.1483 9.5974 15.2809 -57.8768 1.1104 2.0817 -6.7841 19.0814 12.5491 51.7319 10.9680 -8.1570 0.9157 2.9563 110.7527 -10.1998 30.8170 -34.7733 16.2953 7.1820 -15.7380 51.5018 -3.7823 -4.8264 0.3577 -41.0700 11.6838 -0.1574 19.5444 -0.4261 -12.3217 4.4923 6.5685 1.5531 -2.3951 -2.3383 -8.5996 -35.6478 -13.3748 0.5127 43.3347 0.6460 7.2521 -19.0499 3.7997 -1.4052 0.2148 0.8984
-1.5870 95.5745 -40.4796 6.7329 10.4120 -10.2020 1.8530 15.7309 -0.6571 0.0649 1.1598 0.6800 2.3421 25.0580 -0.0928 5.3445 31.8245 0.9956 -2.1999 -3.9508 -0.3437 -11.5124 -7.9427 -1.5026 0.1378 -0.1925 0.0287 0.7311 -10.1681 -3.7463 -0.4506 -10.2649 3.7768 -4.2269 24.0678 0.2128 -62.7361 10.5791 7.0027 3.6096 0.4828 -119.0395 -0.1457 42.8114 0.1117 -15.0972 9.7713 15.3901 -57.9301 1.2250 2.0690 -6.9906 18.8968 12.4396 50.7012 12.2132 -9.4668 1.0393 3.2679 111.3481 -9.3927 29.8071 -35.9892 16.5395 7.2643 -15.9072 51.6042 -3.7847 -4.9642 -1.5840 -41.9234 14.3369 -0.2824 29.5094 -0.4920 -13.7436 1.8924 3.8644 1.6285 -2.6371 -2.3909 -9.0722 -36.7096 -13.4756 0.5551 41.1943 0.6782 7.1913 -16.9391 4.5671 -1.4047 0.1547 0.8557
-1.0858 96.1536 -42.4271 7.3044 10.4636 -10.8134 1.7008 15.4919 -0.6505 0.0802 1.0230 0.6420 2.1542 24.7585 -0.2938 4.4165 31.8920 1.1913 -2.4592 -3.9312 -0.2806 -11.6331 -7.4332 -1.2424 0.0882 -0.1729 0.0539 0.6895 -10.1141 -3.7032 -0.5103 -10.2012 3.8008 -3.9306 23.4877 -0.2315 -62.5052 9.8931 7.8105 3.8688 0.2324 -120.3911 1.0519 42.8954 1.1292 -15.1617 9.9225 15.4286 -58.0464 1.2793 2.0100 -7.1428 18.6229 12.3001 50.3160 12.4946 -9.9002 1.1434 3.0274 111.8677 -9.4803 29.7662 -37.6046 16.7265 7.3221 -15.9537 51.8772 -3.6966 -5.0101 -1.6470 -41.6994 15.4557 -0.4043 39.5122 -0.5702 -13.9030 -0.9178 2.1579 1.7161 -2.9864 -2.4356 -9.1820 -37.4853 -13.7347 0.5894 39.2422 0.6619 7.1483 -15.0117 5.5871 -1.4090 0.0165 0.8063
-0.4777 96.5080 -44.2671 7.5275 10.3969 -11.5535 1.5442 15.1292 -0.6294 0.0682 0.8027 0.5547 2.0415 24.3611 -0.6426 3.3514 32.0027 1.3146 -2.6008 -3.9106 -0.0563 -11.6594 -7.0363 -0.7676 0.0389 -0.1613 0.0690 0.6323 -10.0764 -3.6569 -0.5542 -10.1462 3.8033 -3.5686 22.9636 -0.6811 -62.0751 8.9566 9.0286 3.8431 -0.1413 -121.3318 2.0803 43.3869 2.3037 -15.2618 9.9628 15.3781 -58.0761 1.2465 1.9873 -7.1865 18.2297 12.0089 50.7793 11.8118 -9.3495 1.2907 2.3886 112.4780 -10.6374 30.6127 -39.6152 16.7450 7.3323 -15.8803 52.0937 -3.5638 -5.0052 -0.4044 -40.1022 15.7084 -0.5392 47.4800 -0.7034 -13.3708 -3.1446 1.2292 1.7922 -3.3656 -2.4449 -8.9053 -38.1075 -14.3254 0.5974 37.6531 0.6198 7.1499 -13.3320 6.6308 -1.4129 -0.1283 0.7821
0.1912 96.6644 -45.9288 7.5396 10.1638 -12.0627 1.3686 14.5857 -0.6816 0.0537 0.5272 0.3417 1.9301 23.8866 -1.1961 2.2676 32.0607 1.3589 -2.5893 -3.8687 0.2802 -11.6020 -6.7331 -0.1026 -0.0013 -0.1456 0.0757 0.5816 -10.0545 -3.6143 -0.5847 -10.1064 3.7906 -3.2469 22.3568 -1.2613 -61.5251 7.8142 10.3916 3.6104 -0.5701 -122.0046 2.6773 44.3065 3.7357 -15.2243 9.9995 15.2873 -58.0946 1.2240 1.9594 -6.8516 17.6926 11.5329 51.9350 10.4950 -7.9512 1.3825 1.6911 113.1781 -12.6043 32.0078 -41.7432 16.7184 7.3439 -15.7778 52.3521 -3.3999 -5.0174 1.3733 -37.2203 15.8206 -0.7268 52.9443 -0.9671 -12.6341 -4.4216 0.6926 1.8599 -3.7955 -2.4494 -8.4480 -38.6535 -15.2102 0.5838 36.6426 0.5746 7.2524 -11.9184 7.4714 -1.4092 -0.2610 0.7809
0.9206 96.5485 -47.4341 7.4633 9.6322 -12.0012 1.2091 13.9015 -0.8292 0.0545 0.2368 -0.0366 1.8120 23.3299 -1.8674 1.3719 32.0283 1.3228 -2.3977 -3.8235 0.6468 -11.5823 -6.6014 0.6962 -0.0366 -0.1364 0.0824 0.5383 -10.0487 -3.5748 -0.6129 -10.0866 3.7792 -2.9851 21.7034 -2.0732 -60.9772 6.3659 11.6673 3.1639 -1.0297 -122.4896 2.9799 45.8790 5.3576 -15.1511 10.0707 15.2264 -58.1300 1.2165 1.9671 -6.0389 17.0989 10.8434 53.5619 9.1363 -6.1213 1.4134 1.3433 113.7249 -14.6928 33.5958 -43.4961 16.6542 7.3942 -15.7227 52.6410 -3.2077 -5.0101 3.2878 -33.2769 16.2733 -0.9739 55.9533 -1.3630 -11.9334 -4.9587 0.3399 1.9281 -4.2961 -2.4534 -8.1691 -39.0990 -16.0459 0.5600 36.4120 0.5541 7.3983 -10.8547 7.7865 -1.4025 -0.3843 0.7898
1.6499 96.1802 -48.8374 7.3775 8.8004 -11.0943 1.0505 13.1118 -1.0474 0.0683 -0.0484 -0.5447 1.7048 22.7293 -2.6659 0.8288 31.7398 1.2575 -2.0454 -3.7807 0.9268 -11.5307 -6.5375 1.5197 -0.0680 -0.1256 0.0936 0.5029 -10.0511 -3.5418 -0.6403 -10.0848 3.7823 -2.9116 20.9889 -3.0939 -60.4101 4.5634 12.4946 2.6347 -1.3608 -122.9372 3.1087 47.5528 7.1064 -15.0459 10.1570 15.1497 -58.0803 1.2573 1.9849 -4.7356 16.6499 9.9713 55.3160 8.0079 -4.4448 1.4351 1.3595 114.0124 -16.2541 34.8654 -44.4116 16.6160 7.4671 -15.7389 52.8517 -3.0844 -4.9933 5.1484 -28.7367 17.1940 -1.1340 56.3550 -1.7094 -11.2231 -4.4761 0.1696 1.9947 -4.9413 -2.4688 -8.3440 -39.5106 -16.4838 0.5271 37.0776 0.5499 7.5329 -10.1605 7.3182 -1.3990 -0.4274 0.7958
2.4077 95.4960 -50.2478 7.3507 7.6504 -9.0312 0.8821 12.2745 -1.3585 0.0798 -0.3378 -1.1704 1.5592 22.1402 -3.5842 0.8180 31.1555 1.2140 -1.6674 -3.7467 1.0266 -11.2450 -6.5110 2.1595 -0.0740 -0.1024 0.0951 0.5063 -10.0727 -3.5422 -0.6550 -10.1010 3.7870 -3.0571 20.3235 -4.1703 -59.7185 2.2822 12.4407 2.1499 -1.4423 -123.6120 3.0689 48.4287 8.8295 -15.0112 10.3202 15.1181 -58.0719 1.3517 1.9771 -2.9579 16.3856 8.9513 56.9151 7.4938 -3.5649 1.5834 1.4101 114.2678 -17.6035 35.7470 -44.6882 16.5232 7.5427 -15.8390 52.9584 -3.0515 -4.9654 6.8593 -24.0255 18.6066 -1.1316 53.9999 -1.8879 -10.4276 -3.6015 0.0093 2.0325 -6.0076 -2.4872 -9.1044 -40.0534 -16.6122 0.4637 38.9213 0.4799 7.4614 -9.9635 5.9602 -1.4017 -0.2286 0.7996
3.1537 94.4399 -51.7650 7.2774 6.3488 -5.9874 0.7723 11.4845 -1.6555 0.0870 -0.6024 -1.7734 1.3750 21.5366 -4.4121 1.2144 30.4526 1.1874 -1.3619 -3.7381 0.8249 -10.4647 -6.4879 2.3100 -0.0664 -0.0717 0.0865 0.5283 -10.1023 -3.5669 -0.6600 -10.1151 3.7859 -3.2120 19.6936 -5.1824 -58.7818 -0.2613 11.3199 1.6959 -1.2884 -124.5441 2.6256 47.5810 10.1717 -15.0085 10.5439 15.1780 -58.1394 1.4444 2.0098 -0.9680 16.3452 7.8357 58.0539 7.9182 -3.8068 1.7918 1.3750 114.7254 -18.8114 36.3353 -44.3942 16.3921 7.5989 -15.9464 52.7848 -3.1222 -4.9519 8.2313 -20.0208 20.5549 -1.0271 49.5172 -1.9352 -10.8239 -3.9120 -0.9412 2.0231 -8.1577 -2.4998 -10.2199 -40.7635 -16.6801 0.3654 41.6991 0.3561 7.3213 -10.4136 3.9167 -1.4150 0.2290 0.8242
3.9522 93.1017 -53.3167 6.9325 5.0106 -2.4827 0.7658 10.8244 -1.8630 0.0907 -0.8574 -2.2629 1.1965 21.0298 -4.9370 1.8643 29.9577 1.1296 -1.2309 -3.7723 0.4262 -9.2851 -6.5604 1.8682 -0.0701 -0.0590 0.0838 0.5450 -10.1731 -3.5928 -0.6843 -10.1716 3.7993 -3.2061 18.9121 -6.0208 -57.7385 -2.7428 9.1436 1.2294 -0.9776 -125.3151 2.0622 45.0402 11.2445 -15.0276 10.7951 15.2740 -58.3969 1.6118 2.0813 0.7950 16.5511 6.7343 58.5476 9.0251 -4.8441 2.1546 1.2180 115.1398 -19.2756 36.1099 -42.8613 16.1815 7.5210 -15.9585 52.2311 -3.2685 -4.9225 9.2606 -17.2215 22.7547 -0.8567 44.4539 -1.8025 -14.0774 -8.1417 -3.2231 1.9894 -9.5790 -2.4871 -11.2377 -41.6108 -17.0668 0.2888 44.9900 0.2816 7.3889 -11.2891 1.6887 -1.4341 0.6276 0.8492
4.7920 91.7164 -54.8723 6.2786 3.6721 0.8034 0.7205 10.3478 -1.9473 0.1264 -0.9512 -2.5300 0.9975 20.7132 -5.2021 2.3044 29.7287 0.9540 -1.1785 -3.7620 0.0476 -7.6409 -6.6992 1.0627 -0.0776 -0.0529 0.0888 0.5486 -10.3207 -3.6344 -0.7045 -10.2992 3.8414 -2.9859 17.9943 -6.4662 -56.8773 -5.1684 6.2154 0.5433 -0.7112 -125.3807 1.8096 41.2764 12.1320 -14.8740 11.0419 15.4742 -58.6346 1.6641 2.2254 2.0230 16.6542 5.9786 58.3564 10.3738 -5.9376 2.7072 1.2887 114.9890 -18.3248 34.7156 -39.9477 15.9188 7.2901 -15.8985 51.4373 -3.4093 -4.8405 9.8763 -15.9037 24.2930 -0.7875 41.1156 -1.5609 -17.1436 -15.3177 -3.6883 1.8673 -6.5313 -2.3180 -11.9710 -42.4709 -17.7147 0.2375 48.2141 0.2798 7.6648 -12.0148 -0.1726 -1.4454 0.7277 0.8967
5.5469 90.3813 -56.4277 5.7186 2.1957 3.7086 0.3657 10.2567 -1.9262 0.0946 -0.9177 -2.5553 0.6259 20.7284 -5.2519 2.8910 29.6692 0.7825 -1.0155 -3.7648 -0.3435 -6.0962 -6.9397 0.3590 -0.0411 -0.0591 0.0614 0.6102 -10.4553 -3.7106 -0.6940 -10.4198 3.8463 -2.3743 17.1339 -6.5530 -56.1710 -7.7827 2.5948 -0.1201 -0.5640 -124.7333 1.2590 36.5182 12.5054 -14.6566 11.0820 15.5614 -58.6999 1.6481 2.2514 2.9710 16.7252 5.5561 57.5511 11.2731 -6.3813 3.2697 1.4301 113.7900 -16.9588 32.8966 -36.3392 15.6647 7.0709 -15.8546 50.5785 -3.4487 -4.8512 10.0440 -16.0442 23.9287 -0.7003 41.0481 -1.2397 -17.4122 -21.3796 -3.0634 1.7587 -2.4024 -2.1672 -12.9150 -43.1860 -18.3143 0.2481 51.0051 0.3301 7.9972 -12.2708 -1.6060 -1.4503 0.5809 0.9871
6.1493 89.3519 -58.0594 5.5980 0.7778 6.0446 -0.3708 10.4167 -1.8640 -0.0254 -0.8552 -2.3992 -0.1577 21.0065 -5.0457 3.3676 29.6633 0.8195 -0.7531 -3.7694 -0.7667 -4.5468 -7.2208 -0.3750 -0.0094 -0.0697 0.0259 0.6700 -10.5726 -3.7930 -0.6916 -10.5366 3.8459 -1.7661 16.6062 -6.6377 -54.9660 -10.4375 -1.7304 -0.3239 -0.5788 -123.4306 0.1078 32.4549 12.4754 -14.6449 10.9787 15.6418 -58.8736 1.4990 2.2161 3.7625 16.7148 5.4834 56.6299 11.4506 -5.6601 3.4324 1.1792 111.6664 -16.3285 32.9775 -34.0575 15.4949 6.8704 -15.7254 49.8758 -3.4996 -4.8431 9.7248 -17.1778 22.6322 -0.6207 43.2839 -1.0717 -16.4058 -24.6502 -2.9650 1.6669 -0.5496 -2.0995 -14.4500 -43.6677 -18.0341 0.3679 52.8788 0.4714 8.3483 -12.2220 -2.8272 -1.4530 0.6636 1.0118
6.6273 88.8118 -59.7056 5.6051 -0.3762 7.8623 -1.0120 10.5706 -1.7198 -0.2693 -0.7748 -2.0547 -1.2398 21.4944 -4.9479 3.6859 29.6493 0.9926 -0.7530 -3.7395 -1.1851 -3.1213 -7.6863 -1.1793 -0.0121 -0.0671 0.0149 0.6704 -10.5947 -3.8221 -0.6992 -10.5767 3.8546 -1.4793 16.1177 -6.7564 -53.1264 -12.8895 -5.8459 -0.5539 -0.4152 -121.6591 -1.5637 30.0832 12.4417 -14.6447 10.9740 15.8078 -59.3016 1.4954 2.2880 4.4423 16.7107 5.9042 55.5985 10.7707 -4.3347 3.2095 1.2750 109.8642 -16.3801 35.2302 -33.6483 15.5132 6.7578 -15.6887 49.3176 -3.6174 -4.9070 9.3507 -18.8238 21.5382 -0.5769 46.1367 -0.9552 -15.0306 -25.5893 -3.8465 1.6327 -0.0480 -2.0506 -15.7845 -43.6823 -17.4807 0.4455 53.3901 0.6063 8.5242 -11.5704 -4.1396 -1.4472 0.7498 1.0778
7.0828 88.7022 -61.3024 5.4781 -1.1633 9.2098 -1.4788 10.7369 -1.5689 -0.4819 -0.6920 -1.7344 -2.2092 21.8531 -4.8107 3.3978 29.5868 1.2389 -0.7608 -3.7036 -1.6267 -1.9118 -8.1786 -1.9489 -0.0219 -0.0520 0.0075 0.6573 -10.5823 -3.8323 -0.7065 -10.5759 3.8541 -1.4869 15.6592 -6.9985 -51.2260 -14.5425 -9.1169 -0.7414 -0.1703 -119.6776 -2.6351 29.4379 12.6924 -14.7033 10.9915 15.8968 -59.5602 1.5229 2.3079 4.2892 16.6459 6.3939 54.8883 9.7019 -2.6906 2.7895 1.4973 109.2591 -16.4574 39.3675 -34.5679 15.7294 6.7159 -15.7230 49.1766 -3.7120 -5.0173 8.9304 -20.0342 21.0419 -0.5782 47.6236 -0.9127 -13.7096 -25.5403 -4.6415 1.6238 0.1518 -2.0085 -16.5647 -43.2955 -16.9962 0.5230 52.6641 0.7623 8.5855 -10.3871 -5.3077 -1.4377 0.7814 1.1317
7.5864 88.9215 -62.7440 5.1865 -1.7125 10.2601 -1.8563 10.9331 -1.4454 -0.6055 -0.6084 -1.4781 -2.9931 22.0138 -4.6038 2.9303 29.5446 1.5069 -0.8130 -3.6672 -2.0462 -0.9471 -8.7335 -2.6713 -0.0340 -0.0356 -0.0032 0.6455 -10.5636 -3.8358 -0.7198 -10.5645 3.8411 -1.5544 15.2336 -7.2894 -49.7847 -15.6947 -11.0263 -1.0223 0.0035 -117.7467 -2.7022 29.5179 13.1529 -14.7850 11.0081 15.8924 -59.6545 1.5420 2.2961 3.4931 16.4172 6.7712 54.2596 8.5343 -1.3787 2.6178 1.7437 110.0883 -16.4531 44.3928 -36.1770 16.1445 6.7545 -15.7981 49.5248 -3.7343 -5.1192 8.5253 -20.8417 20.8088 -0.5721 48.0150 -0.9095 -12.5353 -24.8935 -5.1431 1.6266 0.1826 -1.9840 -16.7561 -42.5281 -17.0931 0.5586 50.9529 0.8682 8.7725 -8.9312 -5.9850 -1.4323 0.6956 1.1409
8.1194 89.3780 -63.9787 4.7040 -2.1645 11.1063 -2.1467 11.1162 -1.3076 -0.6604 -0.5215 -1.3447 -3.6139 22.0206 -4.3377 2.5633 29.7665 1.7681 -0.9313 -3.6653 -2.2793 -0.2117 -9.1974 -3.2546 -0.0440 -0.0372 -0.0149 0.6482 -10.5737 -3.8392 -0.7436 -10.5858 3.8247 -1.5366 15.0847 -7.4804 -49.0151 -16.5635 -11.7268 -1.2286 0.0928 -116.0409 -1.8857 29.6465 13.7235 -14.7438 11.0283 15.8682 -59.4537 1.4665 2.2915 2.3910 16.2028 6.9644 53.7495 7.2715 -0.4016 2.7140 2.0811 112.1220 -15.6598 48.7972 -37.4881 16.5962 6.8549 -15.7690 50.2694 -3.5895 -5.1157 8.3470 -21.2345 20.5302 -0.6068 47.6256 -0.9494 -11.6597 -23.8862 -5.4268 1.6375 0.1118 -1.9536 -16.4052 -41.3076 -17.8432 0.5026 48.5301 0.8080 9.1644 -7.4695 -6.2042 -1.4304 0.4350 1.1323
8.5589 89.9475 -64.8167 4.0803 -2.5007 11.8599 -2.3320 11.1848 -1.1743 -0.6732 -0.4399 -1.2793 -4.0410 21.8634 -4.0374 2.3094 30.1790 1.9197 -1.2052 -3.6950 -2.1753 0.4741 -9.4283 -3.7209 -0.0286 -0.0563 -0.0387 0.6794 -10.6431 -3.8707 -0.7435 -10.6746 3.8011 -1.3549 15.0012 -7.5245 -49.0286 -16.9680 -11.2814 -1.3628 -0.0003 -115.1043 -1.1492 30.2596 14.1880 -14.6350 11.0803 15.7848 -59.1762 1.3125 2.2632 1.2551 16.0811 7.0105 53.5289 5.9671 0.0671 2.7858 2.2298 115.4672 -14.4428 51.6424 -38.4349 16.9937 7.1214 -15.8634 51.3010 -3.3747 -5.1532 8.3933 -21.3432 20.1343 -0.7110 46.7292 -1.0933 -11.1908 -22.7490 -5.4180 1.6528 0.0249 -1.9253 -15.7749 -39.8173 -18.7339 0.3694 45.8877 0.5890 9.7086 -6.1414 -6.1905 -1.4241 -0.0409 1.1427
