HIERARCHY
ROOT Hips
{
	OFFSET 0.0000 0.0000 0.0000
	CHANNELS 6 Xposition Yposition Zposition Zrotation Xrotation Yrotation
	JOINT Spine1
	{
		OFFSET -0.0137 5.0038 -0.0537
		CHANNELS 3 Zrotation Xrotation Yrotation
		JOINT Spine2
		{
			OFFSET -0.0000 7.1253 -0.0298
			CHANNELS 3 Zrotation Xrotation Yrotation
			JOINT Chest
			{
				OFFSET -0.0000 7.5501 -0.8160
				CHANNELS 3 Zrotation Xrotation Yrotation
				JOINT Neck1
				{
					OFFSET -0.1817 26.3113 -0.5533
					CHANNELS 3 Zrotation Xrotation Yrotation
					JOINT Neck2
					{
						OFFSET -0.0000 7.7094 2.3026
						CHANNELS 3 Zrotation Xrotation Yrotation
						JOINT Head
						{
							OFFSET -0.0000 6.1289 1.9537
							CHANNELS 3 Zrotation Xrotation Yrotation
							JOINT Jaw
							{
								OFFSET 0.0026 0.4756 3.0949
								CHANNELS 3 Zrotation Xrotation Yrotation
								End Site
								{
									OFFSET 0.0 1.0 0.0
								}
							}
							JOINT LeftEye
							{
								OFFSET 3.2064 5.3802 7.5869
								CHANNELS 3 Zrotation Xrotation Yrotation
								End Site
								{
									OFFSET 0.0 1.0 0.0
								}
							}
							JOINT RightEye
							{
								OFFSET -3.2224 5.3619 7.5582
								CHANNELS 3 Zrotation Xrotation Yrotation
								End Site
								{
									OFFSET 0.0 1.0 0.0
								}
							}
						}
					}
				}
				JOINT LeftShoulder
				{
					OFFSET 1.6217 23.2372 5.1134
					CHANNELS 3 Zrotation Xrotation Yrotation
					JOINT LeftArm
					{
						OFFSET 14.9198 0.0000 -5.5023
						CHANNELS 3 Zrotation Xrotation Yrotation
						JOINT LeftForeArm
						{
							OFFSET 28.7393 0.0000 -0.0026
							CHANNELS 3 Zrotation Xrotation Yrotation
							JOINT LeftHand
							{
								OFFSET 27.0940 -0.0000 0.0026
								CHANNELS 3 Zrotation Xrotation Yrotation
								JOINT LeftHandThumbEnd
								{
									OFFSET 12.2686 -3.2202 4.8331
									CHANNELS 3 Zrotation Xrotation Yrotation
									End Site
									{
										OFFSET 0.0 1.0 0.0
									}
								}
								JOINT LeftHandMiddleEnd
								{
									OFFSET 19.0120 -0.3129 -0.0340
									CHANNELS 3 Zrotation Xrotation Yrotation
									End Site
									{
										OFFSET 0.0 1.0 0.0
									}
								}
							}
						}
					}
				}
				JOINT RightShoulder
				{
					OFFSET -1.3801 23.1803 5.2142
					CHANNELS 3 Zrotation Xrotation Yrotation
					JOINT RightArm
					{
						OFFSET -15.0372 0.0000 -5.5456
						CHANNELS 3 Zrotation Xrotation Yrotation
						JOINT RightForeArm
						{
							OFFSET -28.7366 0.0000 -0.0026
							CHANNELS 3 Zrotation Xrotation Yrotation
							JOINT RightHand
							{
								OFFSET -27.1336 -0.0000 0.0026
								CHANNELS 3 Zrotation Xrotation Yrotation
								JOINT RightHandThumbEnd
								{
									OFFSET -12.2642 -3.2115 4.8040
									CHANNELS 3 Zrotation Xrotation Yrotation
									End Site
									{
										OFFSET 0.0 1.0 0.0
									}
								}
								JOINT RightHandMiddleEnd
								{
									OFFSET -19.0006 -0.3066 -0.0316
									CHANNELS 3 Zrotation Xrotation Yrotation
									End Site
									{
										OFFSET 0.0 1.0 0.0
									}
								}
							}
						}
					}
				}
			}
		}
	}
	JOINT LeftLeg
	{
		OFFSET 10.0432 -8.4345 2.5957
		CHANNELS 3 Zrotation Xrotation Yrotation
		JOINT LeftShin
		{
			OFFSET -0.0000 -43.2218 -0.8029
			CHANNELS 3 Zrotation Xrotation Yrotation
			JOINT LeftFoot
			{
				OFFSET 0.0000 -42.1551 -3.4815
				CHANNELS 3 Zrotation Xrotation Yrotation
				JOINT LeftToeBase
				{
					OFFSET 0.0000 -5.0595 13.2315
					CHANNELS 3 Zrotation Xrotation Yrotation
					End Site
					{
						OFFSET 0.0 1.0 0.0
					}
				}
			}
		}
	}
	JOINT RightLeg
	{
		OFFSET -10.0473 -8.2953 2.6203
		CHANNELS 3 Zrotation Xrotation Yrotation
		JOINT RightShin
		{
			OFFSET 0.0000 -43.3622 -0.8056
			CHANNELS 3 Zrotation Xrotation Yrotation
			JOINT RightFoot
			{
				OFFSET 0.0000 -42.1174 -3.4784
				CHANNELS 3 Zrotation Xrotation Yrotation
				JOINT RightToeBase
				{
					OFFSET -0.0000 -5.0796 13.2842
					CHANNELS 3 Zrotation Xrotation Yrotation
					End Site
					{
						OFFSET 0.0 1.0 0.0
					}
				}
			}
		}
	}
}
MOTION
Frames: 75
Frame Time: 0.033333
-2.2312 99.5497 -2.5090 -0.3264 -1.7922 -0.4524 0.4754 -3.1378 -0.2571 -0.2259 -6.1329 -0.0192 0.6368 13.0052 -1.9879 -0.7192 3.8420 2.7075 -1.0940 -3.6358 -0.8225 3.3963 -3.6112 -3.7876 -0.0062 0.0039 -0.0314 0.7040 -10.5064 -3.8812 -0.7160 -10.5149 3.8296 -16.7558 13.4932 -7.2482 -51.5442 8.5580 -33.0266 -0.3670 -0.0489 -43.3195 6.4719 -9.7149 1.5053 -15.1061 11.0644 15.9343 -60.2504 1.6213 2.3877 4.7313 15.3887 13.0900 65.3681 5.4705 25.2153 -0.5186 -0.1126 43.3726 1.2921 -0.7875 1.3901 15.6071 7.3388 -16.4396 50.0692 -3.6450 -5.3219 8.2305 2.7824 -3.8162 0.0460 1.7938 0.1750 -12.3427 -2.5256 10.0187 1.5944 0.0024 -2.0650 -6.6001 2.3770 -12.2935 0.0790 1.9356 -0.0435 8.5535 -1.1682 -13.7121 -1.4122 0.2437 1.0512
-2.0591 99.5951 -2.6879 -0.2823 -1.8866 -0.5332 0.3560 -2.8695 -0.2787 -0.2508 -6.0676 0.0301 0.3658 12.8124 -2.0349 -0.5635 3.5489 2.6696 -1.1102 -3.5938 -1.0795 3.2863 -3.8491 -4.1013 -0.0041 -0.0087 0.0074 0.6862 -10.4435 -3.8366 -0.6943 -10.4518 3.8586 -16.4310 13.4032 -7.3992 -51.7194 8.6898 -33.0226 -0.5002 -0.0389 -42.8170 5.8573 -10.0477 1.4978 -15.1196 10.9658 15.8317 -60.1751 1.6520 2.3985 4.7233 15.4969 13.2294 65.5280 4.8292 24.9494 -0.4105 -0.0977 42.6016 1.2568 -0.6930 1.6309 15.5928 7.3325 -16.4015 50.1381 -3.6563 -5.3351 8.0658 2.5630 -3.9816 0.0229 2.3611 0.1325 -12.3861 -2.6936 10.2747 1.5984 -0.0336 -2.1067 -6.6395 2.3739 -11.8958 0.0780 1.9652 -0.0487 8.3284 -1.0550 -14.0869 -1.4192 0.2209 1.0063
-1.9281 99.5856 -3.0825 -0.4796 -2.0072 -0.7329 0.2826 -2.5322 -0.2592 -0.3037 -5.9882 0.0331 0.0754 12.6601 -2.1190 -0.2716 2.9669 2.5465 -1.1297 -3.5888 -1.1935 3.1241 -4.1241 -4.5386 0.0020 -0.0166 0.0290 0.6681 -10.3901 -3.8101 -0.6647 -10.3922 3.8695 -15.9605 13.1374 -7.7366 -51.6386 9.3095 -32.9573 -0.6765 -0.0093 -42.5682 4.5445 -10.8583 1.4608 -15.1490 10.8898 15.7221 -60.0993 1.6741 2.3958 4.7163 15.4041 13.4506 65.8615 4.1040 24.4759 -0.3421 -0.0580 41.8897 1.0068 -0.8884 1.9735 15.4923 7.3743 -16.3533 50.0841 -3.6874 -5.3384 8.2255 1.4929 -4.2073 0.0011 4.6767 0.0831 -12.4846 -3.4295 10.4425 1.6141 -0.0047 -2.1360 -6.3774 2.1535 -11.2902 0.0800 2.4781 -0.0893 8.0540 -1.1874 -14.5509 -1.4238 0.3206 1.0121
-1.8967 99.4584 -3.5933 -1.2102 -2.2216 -1.2486 0.3264 -1.9537 -0.1651 -0.3900 -5.8226 -0.0422 -0.1236 12.4696 -2.1866 0.1838 1.8477 2.3423 -1.0759 -3.6223 -1.0737 3.0837 -4.8134 -5.0991 0.0080 -0.0101 0.0267 0.6554 -10.3545 -3.8053 -0.6407 -10.3421 3.8555 -15.2889 12.7710 -8.2838 -50.9130 10.6467 -33.0520 -0.8118 0.0649 -42.6430 2.4343 -12.2357 0.9471 -15.1462 10.8270 15.6370 -60.0386 1.6929 2.3091 4.5631 15.3903 13.7255 66.2492 2.8370 24.1073 -0.2629 -0.1213 41.0590 0.9237 -1.2219 2.8907 15.3593 7.4495 -16.3063 49.8937 -3.7225 -5.2488 9.0930 -0.8009 -4.2046 -0.0253 9.6178 0.0509 -12.6537 -4.9876 10.5257 1.6343 0.0309 -2.1211 -5.4254 1.2510 -10.2655 0.0594 4.4852 -0.1332 7.9117 -1.8137 -14.9664 -1.4329 0.4759 1.0390
-2.1015 99.0758 -4.2956 -2.4945 -2.7312 -2.5703 0.2326 -0.8738 -0.0077 -0.5291 -5.3849 -0.0347 -0.3384 12.0695 -2.1618 1.4112 -0.1374 1.9345 -1.1289 -3.5739 -0.8898 3.7441 -6.7466 -6.0619 0.0220 0.0201 0.0831 0.6854 -10.3079 -3.7604 -0.6434 -10.3005 3.9187 -14.0643 12.3906 -9.2816 -48.6477 13.1579 -32.9729 -0.7439 0.3924 -43.4222 -0.1880 -15.0996 -0.2033 -14.9965 10.6774 15.5922 -59.5449 1.6273 2.2682 3.1696 15.0138 13.6951 67.5385 0.6077 23.9166 -0.1549 -0.1663 40.1110 1.2578 -1.1208 4.6249 15.1904 7.4000 -16.2208 49.2890 -3.6518 -5.2294 10.8696 -4.0788 -3.6470 -0.0399 16.8893 -0.0033 -12.6410 -6.9665 10.4459 1.6891 0.2475 -2.0608 -3.7645 -1.2141 -8.4486 0.0710 9.5607 -0.1906 7.9682 -2.8894 -15.2676 -1.4393 0.5988 1.0513
-2.4937 98.7271 -5.3258 -3.8911 -3.4948 -4.6801 -0.2085 0.4634 0.0647 -0.8688 -4.9192 -0.2261 -1.0047 11.9238 -2.0842 3.5740 -2.6371 1.0266 -0.9878 -3.6411 -0.5974 5.1801 -9.3938 -6.6652 0.0173 0.0070 0.0587 0.7219 -10.3381 -3.7862 -0.6879 -10.3410 3.8976 -11.1118 12.7556 -10.4613 -44.8867 15.8428 -30.4876 -0.4507 0.7260 -46.8691 -0.9141 -17.6702 -0.3645 -14.8548 10.7385 15.7108 -59.1599 1.5709 2.2701 -0.7435 14.5647 13.0138 70.5526 -3.1355 22.1378 -0.1676 -0.2959 41.0903 -0.5685 -1.2527 6.4623 14.9002 7.3858 -16.1472 48.8435 -3.5519 -4.9980 13.0479 -7.6145 -3.6554 -0.0762 25.1219 -0.2190 -13.6359 -7.2618 11.2062 1.7335 -0.2365 -2.0383 -1.8139 -5.4974 -7.0441 0.0414 17.8125 -0.0990 8.0893 -3.5821 -14.5831 -1.4552 0.4725 1.1313
-2.9586 98.5665 -6.4080 -5.2754 -4.6232 -7.6494 -1.0840 1.6948 -0.0418 -1.2208 -4.3457 -0.3427 -2.0772 11.1891 -2.0325 6.5772 -3.5759 0.0485 -0.7802 -3.7672 0.1989 7.3862 -11.6502 -7.1908 -0.0154 -0.0102 0.0445 0.6795 -10.3948 -3.7865 -0.7083 -10.4040 3.8783 -5.7120 13.5296 -11.4809 -41.8154 18.2670 -24.2661 -0.0088 1.0860 -53.9256 -1.0386 -20.4144 1.1790 -14.9272 10.7871 15.6192 -60.0256 1.6730 2.3473 -6.1383 14.0201 12.1291 75.0890 -5.6372 17.2127 -1.1804 0.0731 45.8458 -4.5503 -4.4106 8.1063 14.7735 7.5596 -16.4041 48.7866 -3.3481 -5.0046 15.3247 -9.1092 -3.9189 -0.2266 30.5353 -0.4469 -14.9291 -5.9074 12.7795 1.7618 -1.5967 -1.9475 -0.1522 -10.2095 -7.1081 -0.0272 26.8981 -0.0423 9.1527 -1.3324 -11.0656 -1.4775 -1.7380 1.1862
-3.2694 98.4780 -6.9085 -7.1179 -6.2247 -11.1737 -1.6225 2.0097 0.0760 -1.4966 -4.0864 -0.4340 -2.4284 10.3760 -1.9977 8.3749 -2.6322 -0.3480 -0.3271 -3.8171 0.8688 9.8401 -10.3630 -7.2143 -0.0498 0.0268 0.0308 0.5756 -10.3490 -3.7795 -0.6710 -10.3702 3.8547 -3.0138 13.5796 -11.4399 -36.5632 20.9522 -16.2271 -0.0550 1.1072 -61.3225 -1.2419 -23.5394 2.2945 -14.9316 10.9001 15.6304 -60.8772 1.7296 2.1963 -9.5063 13.8991 12.1414 75.5186 -4.4673 11.7504 -1.3976 0.8035 54.3597 -7.5211 -7.0034 8.8015 14.5883 7.7433 -16.5218 49.3416 -3.2954 -5.0680 17.6824 -6.7244 -3.0603 -0.3631 30.4704 -0.6047 -15.3025 -6.7052 15.2441 1.7685 -1.6915 -1.9666 1.0360 -12.7450 -8.5763 0.0405 32.2347 0.0717 13.7297 2.1619 -2.8165 -1.4704 -4.2203 1.1003
-3.6982 98.2510 -7.0402 -8.2950 -8.3313 -14.3640 -2.0626 1.7531 0.3714 -1.6119 -4.1128 -0.2173 -2.7094 9.9460 -2.0319 9.5172 -0.6997 -0.5891 0.0169 -3.7978 1.6757 11.9404 -7.4312 -7.4698 -0.0639 0.0678 0.0700 0.5129 -10.3410 -3.7277 -0.6351 -10.3771 3.8838 -2.7461 13.0758 -10.2667 -30.0129 22.2851 -9.7286 -0.0636 0.8686 -66.0393 -0.1756 -25.0661 2.9032 -14.6993 10.9820 15.6993 -60.8831 1.7582 1.9837 -10.3815 13.6769 12.3803 71.7242 -1.1967 7.7501 -0.8798 0.7413 64.1887 -8.7578 -7.1423 7.6527 14.5485 7.7169 -16.5580 49.5550 -3.3760 -5.0980 19.0920 -2.7575 -1.4443 -0.3839 28.7222 -0.6579 -15.0839 -8.4801 18.1940 1.7438 -0.4432 -1.9119 0.9624 -13.0594 -9.4345 0.1267 34.6077 0.3602 24.3423 2.6043 7.5246 -1.4057 -3.7592 1.1481
-4.0589 97.7810 -7.0393 -8.3408 -10.5078 -17.1022 -2.4746 1.3382 0.6498 -1.6219 -4.2693 0.1730 -3.2037 9.6966 -1.9680 9.5696 1.6527 -0.6101 0.3078 -3.7702 2.1654 13.7698 -4.5223 -7.5509 -0.0681 0.0861 0.1222 0.4983 -10.3700 -3.6620 -0.6283 -10.4127 3.9220 -3.0948 12.6157 -8.6544 -24.4986 21.1174 -4.9346 -0.1109 0.4793 -68.9689 1.7916 -24.7159 3.9096 -14.4433 10.9510 15.7647 -60.4170 1.7362 1.8299 -10.8882 13.4162 12.3317 66.5381 2.0557 4.3668 -0.3636 0.3160 74.1482 -8.5662 -6.4651 5.6660 14.6620 7.6286 -16.5096 49.5579 -3.4049 -4.9525 19.2200 0.7883 -0.1879 -0.3097 27.8939 -0.6297 -15.0687 -9.7565 20.9140 1.7207 0.4103 -1.9301 -0.3671 -12.7343 -9.4992 0.2557 37.0477 0.6977 29.3022 0.0383 11.2482 -1.3110 -3.0165 1.1668
-4.4022 97.1714 -7.1513 -7.9917 -12.3414 -19.1812 -2.5189 0.9136 0.8829 -1.5229 -4.4712 0.4064 -3.7078 9.4705 -1.8417 8.8710 3.8543 -0.4669 0.4024 -3.7697 2.2387 14.9406 -1.9794 -7.3443 -0.0751 0.0792 0.1212 0.5098 -10.3741 -3.6458 -0.6544 -10.4270 3.9031 -3.4319 12.0650 -7.0614 -21.1549 18.4819 -1.7476 0.1455 0.1613 -71.6475 3.9298 -23.6788 4.7566 -14.3258 10.8969 15.8195 -60.1704 1.7110 1.8333 -11.2272 13.1326 11.8577 60.6670 4.2985 0.5927 -0.0438 0.1001 83.6193 -7.4151 -6.1029 3.9542 14.9164 7.4977 -16.4265 49.4743 -3.4370 -4.8888 19.0106 3.1173 0.4796 -0.2277 28.3958 -0.5836 -15.3889 -10.6919 22.8271 1.7085 1.0851 -1.9725 -2.3690 -12.4771 -8.8465 0.3128 41.0781 0.7955 26.5342 -1.9697 8.1723 -1.3634 -2.8539 1.1022
-4.8036 96.5190 -7.3925 -7.4530 -13.6910 -20.3983 -2.3853 0.4932 1.0024 -1.3877 -4.6694 0.5804 -4.1215 9.2381 -1.7890 7.8196 5.7265 -0.1207 0.3225 -3.7928 2.0053 15.4670 0.1069 -7.1481 -0.0790 0.0603 0.1249 0.5233 -10.3870 -3.6337 -0.6765 -10.4386 3.8957 -3.7806 11.7177 -5.8382 -19.5713 15.2416 0.3004 0.5978 0.0046 -75.0585 5.7698 -22.3613 4.9402 -14.4172 10.7793 15.7648 -60.1460 1.6637 1.8213 -11.4057 12.8136 11.0704 55.1741 5.1702 -3.6012 0.1327 -0.0631 91.4796 -5.9815 -6.3878 2.7746 15.0967 7.3504 -16.3499 49.4164 -3.4853 -4.8259 18.7896 4.2916 0.7101 -0.1892 29.5686 -0.5887 -15.9245 -11.3403 23.7270 1.7030 1.5360 -2.0198 -4.9546 -11.7944 -7.5073 0.3522 45.1230 0.9094 22.8292 -3.4161 3.9618 -1.4224 -2.6523 1.0428
-5.3491 95.8941 -7.7921 -6.7261 -14.5559 -20.8433 -2.2657 0.0359 1.0873 -1.2781 -4.8641 0.6831 -4.5073 9.0339 -1.7444 6.5673 7.2758 0.3424 0.1505 -3.8163 1.6210 15.6003 1.8305 -6.9962 -0.0804 0.0366 0.1208 0.5360 -10.4198 -3.6366 -0.6930 -10.4606 3.8899 -4.4350 11.4217 -5.0377 -18.7061 12.2960 1.5553 1.0614 -0.0469 -79.1973 7.1014 -20.6878 4.6485 -14.6449 10.6042 15.6583 -60.2555 1.6041 1.8024 -11.3304 12.5625 10.1523 50.6576 5.1155 -7.5971 0.1204 -0.2913 97.6600 -4.6990 -6.8183 1.7607 15.2349 7.2313 -16.3139 49.3939 -3.5516 -4.8133 18.5274 4.7662 0.6859 -0.1911 30.4964 -0.6276 -16.5321 -11.6261 23.9279 1.6994 1.8545 -2.0509 -7.6998 -10.5172 -5.7890 0.3959 48.5562 1.0720 19.9678 -4.5904 0.2329 -1.4431 -2.4464 0.9876
-6.1728 95.3461 -8.4749 -5.7041 -14.9801 -20.6091 -2.2348 -0.4890 1.1524 -1.2251 -5.0483 0.7941 -5.0303 8.8641 -1.6693 4.9870 8.6007 0.9015 -0.0681 -3.8366 1.1697 15.5042 3.2027 -6.9038 -0.0777 0.0127 0.1099 0.5486 -10.4473 -3.6493 -0.7017 -10.4673 3.8814 -5.4600 11.1788 -4.5005 -17.9040 9.9277 2.0626 1.4614 -0.0428 -83.7323 8.1808 -18.8882 3.7419 -14.8725 10.5026 15.6214 -60.3311 1.5592 1.8578 -11.1007 12.4366 9.1157 47.3199 4.8867 -11.1295 -0.0700 -0.3642 102.8148 -3.5954 -7.2751 0.7854 15.2216 7.2491 -16.3611 49.4199 -3.5878 -4.8460 18.1166 4.8262 0.3858 -0.1939 30.7499 -0.6297 -17.1527 -11.5163 23.6111 1.6911 2.1622 -2.0573 -10.3384 -8.5807 -4.0861 0.4343 51.2518 1.2583 17.3572 -5.9858 -3.4435 -1.4510 -2.1551 0.9387
-7.2910 94.8756 -9.4387 -4.3407 -15.0684 -19.7713 -2.2951 -1.0698 1.1966 -1.2093 -5.2761 0.9698 -5.8678 8.7836 -1.5064 2.9390 9.8985 1.6810 -0.2825 -3.8424 0.7150 15.2219 4.3920 -6.7810 -0.0663 -0.0082 0.1151 0.5689 -10.4489 -3.6481 -0.7011 -10.4564 3.8881 -6.8251 10.9971 -4.1348 -16.7418 8.1843 1.8869 1.6089 -0.1324 -88.1454 9.2974 -16.9892 2.0581 -15.0836 10.5592 15.7465 -60.3417 1.5341 1.9968 -10.8459 12.5937 7.9706 45.1860 4.8900 -14.3448 -0.2644 -0.2167 107.5928 -2.6818 -8.2111 0.0210 15.1388 7.3450 -16.4346 49.5036 -3.6026 -4.9244 17.4719 4.5511 -0.2520 -0.1943 30.4041 -0.5915 -17.6753 -10.9809 22.8470 1.6816 2.3778 -2.0548 -12.5928 -5.8130 -2.5832 0.4527 53.0500 1.4488 14.5855 -7.5018 -7.4067 -1.4750 -1.8944 0.9182
-8.6938 94.5683 -10.7082 -2.8760 -14.8371 -18.4292 -2.2859 -1.6699 1.1857 -1.1987 -5.5530 1.2557 -6.9486 8.6912 -1.2687 0.2801 11.5382 2.9253 -0.4959 -3.8324 0.3258 14.8367 5.3908 -6.2977 -0.0496 -0.0269 0.1278 0.5876 -10.4202 -3.6404 -0.6891 -10.4277 3.9053 -8.2942 10.8344 -3.7762 -15.4393 7.2884 1.1243 1.4319 -0.2370 -91.6915 10.4977 -15.0581 -0.1304 -15.2125 10.7362 15.9633 -60.1249 1.5449 2.1589 -10.8514 13.1449 7.0074 44.4082 5.5903 -17.2100 -0.3810 0.0696 112.0870 -1.8511 -9.9846 -0.3392 15.1083 7.3416 -16.4418 49.6102 -3.6193 -4.9432 16.8066 3.9238 -1.3092 -0.1784 29.5428 -0.5095 -18.1903 -9.8915 21.8930 1.6845 2.4212 -2.0557 -13.9812 -2.2384 -1.6104 0.4354 53.2008 1.6158 11.8195 -8.4311 -11.1438 -1.5140 -1.8987 0.9070
-10.3304 94.2789 -12.2854 -1.5037 -14.3709 -16.7501 -2.1946 -2.2247 1.1515 -1.2029 -5.8935 1.5751 -8.0195 8.6335 -1.0227 -2.7596 13.7325 4.5895 -0.6517 -3.7877 0.1250 14.3707 6.1849 -5.3889 -0.0389 -0.0435 0.1403 0.5945 -10.4099 -3.6396 -0.6785 -10.4392 3.9298 -9.3839 10.7205 -3.3409 -14.5558 7.3428 0.0381 1.0678 -0.3855 -94.1017 11.5275 -12.9747 -2.0937 -15.2923 10.8746 16.0624 -59.9407 1.6054 2.2547 -11.1350 14.2042 6.3817 44.4555 6.7698 -19.7968 -0.3935 0.2584 116.0808 -1.2491 -11.7623 -0.4846 15.2931 7.2333 -16.3581 49.7360 -3.6181 -4.9501 16.3046 2.8503 -2.7781 -0.1643 28.6365 -0.4198 -18.7728 -8.4358 21.0287 1.6919 2.2534 -2.0840 -14.4102 2.0286 -1.0432 0.3489 50.9988 1.7129 10.1270 -8.6265 -13.4379 -1.5481 -2.5341 0.9274
-12.1346 93.7809 -14.2322 -0.3840 -13.6266 -14.8009 -2.0775 -2.6870 1.1673 -1.2604 -6.2141 1.8411 -8.7635 8.6450 -0.8838 -5.7018 16.1519 6.4146 -0.6814 -3.7752 -0.0067 13.7844 6.7763 -4.3994 -0.0370 -0.0555 0.1540 0.6016 -10.4558 -3.6433 -0.6860 -10.5193 3.9623 -9.9631 10.6999 -2.8307 -14.5378 7.9569 -1.1930 0.8032 -0.5274 -95.6869 12.3712 -10.1490 -3.1535 -15.5016 10.9544 16.0988 -60.0917 1.7145 2.2227 -11.4597 15.5802 6.0815 44.4639 7.7000 -22.3167 -0.1586 0.3009 119.1537 -1.0038 -13.1479 -0.4623 15.6352 7.1010 -16.1884 49.8012 -3.6319 -5.0630 16.3399 0.8326 -4.2313 -0.1882 28.3776 -0.4162 -19.5454 -7.0236 20.0721 1.6841 2.0803 -2.1169 -13.9400 6.7168 -0.3015 0.1865 46.0771 1.7004 11.7915 -9.4361 -12.9707 -1.5509 -4.6602 1.0270
-14.0897 92.8718 -16.5861 0.7068 -12.5606 -12.8781 -2.0716 -3.0321 1.2026 -1.2955 -6.4055 2.0756 -9.2253 8.8226 -0.8271 -8.3297 18.1191 7.8877 -0.5825 -3.8241 -0.1146 13.1250 7.1282 -3.5788 -0.0474 -0.0519 0.1913 0.6222 -10.5529 -3.6292 -0.7326 -10.6441 4.0294 -10.4429 10.8790 -2.1996 -14.8792 8.5170 -2.4465 0.8399 -0.7110 -97.0232 13.1152 -6.7250 -3.1639 -15.7710 11.0698 16.1581 -60.5161 1.8525 2.1954 -11.4152 16.7844 5.9805 43.5884 8.2390 -24.4223 -0.1595 0.1886 121.4609 -0.8634 -14.3922 -0.2538 15.6408 6.9943 -15.9840 49.5526 -3.6886 -5.1763 16.8205 -2.5682 -5.1543 -0.2352 29.1971 -0.5181 -20.6439 -5.9521 18.5767 1.6476 1.9207 -2.0509 -13.1229 10.9462 0.5257 0.0335 39.0393 1.5422 16.8313 -14.0808 -12.2477 -1.5668 -7.6451 1.2213
-15.9890 91.7895 -19.3890 1.4921 -11.5199 -11.3053 -1.8691 -2.9828 1.0492 -1.2317 -6.3645 2.3075 -9.4033 9.2940 -0.7524 -10.3248 19.3438 8.6450 -0.5565 -3.8772 -0.1850 12.5443 6.7048 -3.2076 -0.0654 -0.0563 0.2880 0.6362 -10.6497 -3.5511 -0.7870 -10.7588 4.1578 -11.4128 11.2341 -1.5964 -14.9752 8.5713 -3.4085 0.9522 -0.8806 -98.1375 13.7265 -3.2030 -2.4879 -15.9080 11.1556 16.2499 -60.8843 1.9425 2.2963 -10.3582 17.4293 5.9628 41.3949 7.9038 -25.6887 -0.5538 0.0186 122.9925 -0.6297 -14.8758 0.5231 15.2954 7.0416 -15.9097 49.4091 -3.6530 -5.1470 17.9054 -6.6745 -5.4933 -0.3134 30.5147 -0.6561 -21.6933 -4.6371 16.4493 1.6203 1.4715 -1.9811 -12.2386 12.6712 0.2483 0.0037 33.7338 1.3052 20.4922 -22.5602 -14.9163 -1.5253 -3.8656 1.2922
-17.7282 90.8502 -22.4655 1.1665 -10.9657 -9.9871 -1.0794 -2.4232 0.8453 -1.0782 -6.1492 2.2369 -8.7430 10.1815 -0.7733 -11.6068 20.3957 8.8531 -0.6485 -3.9265 -0.3613 11.8603 5.4098 -2.9928 -0.0753 -0.0845 0.3589 0.6403 -10.6623 -3.4717 -0.8139 -10.7917 4.2306 -13.2058 11.5770 -1.1400 -15.2676 8.5426 -3.8495 0.8117 -0.6803 -98.7971 14.5141 0.0395 -1.8221 -15.8286 11.1987 16.2926 -61.0867 1.8841 2.2728 -8.2293 18.0124 5.9584 38.5676 6.2934 -25.7769 -1.1873 -0.2095 122.8928 -0.8882 -14.0432 2.3434 15.0587 7.1972 -15.9478 49.3455 -3.5805 -5.0896 20.0076 -9.9141 -5.9689 -0.4162 30.9971 -0.8260 -22.6785 -2.7076 14.5716 1.6032 1.1607 -1.9621 -10.6884 11.3029 -0.6389 0.0165 33.0289 0.9024 21.6245 -28.2510 -16.7189 -1.4665 -0.9943 1.2559
-19.2052 90.2725 -25.5779 0.7374 -10.9466 -9.0682 -0.4404 -1.5108 0.6997 -0.9243 -5.6912 2.0728 -7.5742 10.9940 -1.1034 -12.3554 21.7660 8.8845 -0.7796 -3.9404 -0.5716 11.3758 3.8956 -3.2795 -0.0863 -0.1303 0.3705 0.6182 -10.6564 -3.4270 -0.8140 -10.7851 4.2149 -14.4429 12.3377 -0.8008 -17.9849 8.4261 -4.1977 0.7127 -0.2949 -98.5555 14.7698 2.2312 -1.9833 -15.2489 11.2058 16.3305 -61.0816 1.7444 2.1766 -7.3143 18.5480 6.0890 38.2883 5.0079 -24.3925 -1.7759 -0.3526 119.9295 -2.2235 -12.3783 4.1843 14.6864 7.3146 -15.9940 49.2100 -3.3911 -5.1650 21.7227 -11.5228 -6.6423 -0.3435 29.9749 -0.8385 -22.8421 -0.1808 13.4075 1.6433 1.2193 -2.0011 -9.7404 7.9910 -2.1646 0.0918 36.3515 0.7411 20.3909 -30.7344 -16.5863 -1.4239 0.2657 1.3214
-20.3658 90.2320 -28.3094 1.2627 -11.1538 -8.6321 -0.4974 -0.6295 0.5295 -0.9045 -5.3029 1.8756 -6.7183 11.5899 -1.2641 -11.9211 23.8678 8.6613 -0.9438 -3.7919 -0.8716 11.0564 2.4025 -3.6000 -0.1119 -0.1159 0.3275 0.6027 -10.6567 -3.4707 -0.8460 -10.7777 4.1835 -14.5258 13.4470 -0.3355 -23.7058 7.9709 -4.8271 0.5047 0.0189 -97.6236 14.9086 3.8636 -2.5358 -15.2070 11.0920 16.2625 -60.7273 1.7145 2.1646 -7.4755 18.7500 6.4812 41.2836 3.5560 -22.6651 -1.4246 -0.7431 113.7172 -4.3065 -11.2378 5.2310 14.4762 7.2671 -15.8684 48.8596 -3.5013 -5.0185 21.6794 -11.7215 -6.0596 -0.3920 26.7380 -1.0961 -21.6554 2.6469 12.8619 1.6692 0.7559 -2.0478 -10.0112 4.2217 -3.9691 0.2346 40.6061 0.9077 19.2367 -31.1499 -15.3590 -1.4212 0.5367 1.3485
-21.3129 90.5593 -30.5667 1.7739 -11.5056 -8.4013 -0.5201 0.1347 0.4126 -0.8932 -4.9009 1.6451 -5.9899 11.9662 -1.4893 -10.8481 25.9360 8.2618 -0.8522 -3.7022 -1.1194 10.6924 1.6104 -3.9722 -0.1094 -0.0762 0.2543 0.5811 -10.6381 -3.5503 -0.8169 -10.7563 4.1162 -14.4129 14.3084 0.2149 -30.7506 7.6363 -5.2358 0.2517 0.0251 -96.1541 15.1765 5.2212 -3.1203 -15.1792 11.0126 16.1281 -60.5546 1.7171 2.0357 -7.3891 18.6388 7.1249 45.0526 2.0421 -20.8367 -0.7812 -1.0393 105.2776 -7.5441 -11.2728 6.4338 14.5941 7.2233 -15.6306 48.8780 -3.4837 -4.9205 21.2393 -10.9459 -4.6590 -0.3715 22.4658 -1.0636 -20.2919 4.4903 12.7770 1.6689 0.3183 -2.0205 -10.0049 2.1175 -4.8847 0.3392 42.3626 0.9759 18.1432 -30.5782 -14.7095 -1.4260 0.6103 1.2957
-22.0449 91.0256 -32.5301 1.7283 -11.7538 -8.1585 -0.2368 0.8119 0.2587 -0.8657 -4.6159 1.4005 -5.0178 12.3188 -1.7347 -9.4504 27.1026 7.7210 -0.6698 -3.6643 -1.1754 10.2032 0.7516 -4.1322 -0.0769 -0.0470 0.1669 0.6031 -10.6327 -3.6576 -0.7696 -10.7479 4.0334 -14.6656 15.1368 0.5185 -36.9838 7.1291 -5.4050 -0.0607 0.0045 -94.4923 15.5791 6.5962 -3.0545 -15.1719 11.0559 16.0595 -60.6020 1.7318 2.0100 -6.5106 18.5304 7.6424 47.3357 0.5106 -18.7825 -0.2979 -1.1454 96.6690 -9.2286 -10.4912 7.3521 14.7783 7.3525 -15.6983 49.1473 -3.4925 -4.8887 21.2724 -10.4626 -3.2751 -0.3153 19.2553 -0.9638 -19.8511 4.7331 12.5351 1.6500 -0.0857 -1.9633 -9.2346 1.0147 -5.3677 0.2978 42.3914 0.8679 16.8923 -29.6663 -14.5366 -1.4312 0.6821 1.2514
-22.6272 91.5365 -34.2810 1.3872 -11.8287 -7.9129 0.1510 1.4184 0.1287 -0.7884 -4.4272 1.1681 -3.8689 12.7388 -1.9973 -7.9551 27.3553 7.0183 -0.4541 -3.6574 -1.0246 9.6173 -0.4095 -4.0969 -0.0443 -0.0355 0.1040 0.6393 -10.6360 -3.7414 -0.7365 -10.7420 3.9765 -14.7499 15.8799 0.5275 -42.1944 6.4026 -5.6766 -0.2983 0.0462 -92.5772 16.1866 8.1265 -2.6177 -15.1004 11.1083 16.0405 -60.6061 1.7205 2.0280 -5.3745 18.4248 8.1403 48.2872 -0.4701 -16.2755 0.0116 -1.0600 88.6392 -9.4017 -8.8791 8.1206 14.8720 7.5004 -15.9324 49.5613 -3.5215 -4.8581 21.4372 -10.4807 -2.2709 -0.2623 17.4007 -0.8788 -19.8112 4.5276 12.3376 1.6375 -0.3133 -1.9265 -8.1395 0.2468 -5.5897 0.2312 41.6941 0.7229 15.6853 -28.5952 -14.5664 -1.4323 0.8095 1.2357
-23.0336 92.0760 -35.8796 1.0102 -11.8085 -7.5976 0.4750 1.9908 0.0298 -0.7021 -4.3059 0.9184 -2.6281 13.2383 -2.2230 -6.1950 27.0524 6.1920 -0.3001 -3.6363 -0.7098 9.0401 -1.7675 -3.9311 -0.0250 -0.0321 0.0725 0.6595 -10.6277 -3.7839 -0.7144 -10.7238 3.9473 -14.3775 16.5776 0.2281 -46.6272 5.4770 -6.3650 -0.2692 0.1211 -90.6245 16.9047 9.5620 -1.8790 -14.9686 11.2073 16.0638 -60.6303 1.7238 2.0487 -4.2800 18.2794 8.7237 48.6043 -0.7001 -13.2432 0.1278 -0.7840 80.7754 -8.5740 -6.2608 8.2225 14.9706 7.5987 -16.1902 49.9577 -3.5314 -4.8269 21.4210 -10.7057 -1.3427 -0.2208 16.0201 -0.7985 -19.4446 4.4936 12.3626 1.6315 -0.5220 -1.9329 -7.0996 -0.4012 -5.7525 0.1874 40.7194 0.5859 14.5146 -27.4067 -14.6097 -1.4295 0.8225 1.2130
-23.3366 92.6579 -37.3359 0.6449 -11.6833 -7.0354 0.7047 2.4829 -0.0553 -0.6083 -4.2019 0.6464 -1.3811 13.6961 -2.4358 -4.1724 26.4502 5.3393 -0.2158 -3.6143 -0.2812 8.5982 -3.0839 -3.7150 -0.0165 -0.0332 0.0590 0.6622 -10.6203 -3.8047 -0.6964 -10.7060 3.9368 -13.5574 17.1445 -0.3050 -50.1101 4.3834 -7.5168 -0.0925 0.2524 -88.9361 17.5320 10.3970 -0.9891 -14.8715 11.2900 16.1011 -60.6007 1.7475 2.0862 -3.2502 18.0675 9.3751 48.8264 -0.1854 -9.9607 0.1292 -0.2508 72.9721 -7.1245 -3.3438 7.4731 15.1138 7.5886 -16.4309 50.0922 -3.5585 -4.8484 21.2188 -11.0463 -0.3690 -0.1861 14.5436 -0.7230 -19.2440 4.7963 12.4411 1.6338 -0.6904 -1.9729 -6.1955 -0.9054 -6.0584 0.1545 39.4490 0.4697 13.5138 -26.0928 -14.7409 -1.4292 0.7511 1.1601
-23.6121 93.2318 -38.7068 0.3701 -11.4921 -6.1307 0.8386 2.8653 -0.1061 -0.5249 -4.1305 0.3109 -0.1832 14.0849 -2.5667 -2.0899 25.7066 4.5440 -0.1538 -3.5924 0.0830 8.2259 -4.1156 -3.4583 -0.0074 -0.0349 0.0488 0.6698 -10.6244 -3.8202 -0.6821 -10.6996 3.9275 -12.3995 17.5301 -1.0418 -52.4390 3.2242 -8.8868 0.1303 0.3313 -87.8978 17.7782 10.2628 -0.0177 -14.8312 11.2941 16.0951 -60.4867 1.7684 2.0848 -2.1721 17.8577 9.9752 49.2285 0.9617 -6.9324 0.0087 0.2007 66.0019 -5.4571 -1.0401 6.1635 15.2224 7.5001 -16.5926 49.9841 -3.6084 -4.9129 20.7101 -11.6048 0.8879 -0.1694 13.1276 -0.6512 -19.2084 6.1153 12.2496 1.6409 -0.7832 -2.0030 -5.5057 -1.2752 -6.6242 0.1322 38.0849 0.3881 12.7309 -24.8098 -14.9654 -1.4324 0.6057 1.0991
-23.9089 93.7326 -39.8896 0.2182 -11.2934 -4.8599 0.9002 3.1475 -0.1764 -0.4459 -4.0538 -0.0744 0.9144 14.3457 -2.5999 -0.1704 24.8284 3.7914 -0.1219 -3.5493 0.3256 7.7971 -4.8994 -3.2703 0.0006 -0.0309 0.0396 0.6797 -10.6254 -3.8350 -0.6734 -10.6938 3.9198 -11.1751 17.7756 -1.8555 -53.4291 2.0207 -10.2480 0.2869 0.2705 -87.4513 17.7277 9.1859 0.8572 -14.8468 11.2441 16.0341 -60.3953 1.7839 2.0811 -1.0121 17.6810 10.3848 50.0408 2.5359 -4.4927 -0.0634 0.4513 60.3869 -3.6649 0.4361 4.7760 15.2737 7.3923 -16.6193 49.7381 -3.6708 -4.9854 19.9375 -12.3338 2.2830 -0.1653 12.0939 -0.5843 -19.9511 8.4765 11.1522 1.6449 -0.6418 -2.0234 -5.0598 -1.5389 -7.4651 0.1149 36.7990 0.3302 12.0762 -23.6882 -15.2522 -1.4418 0.4578 1.0433
-24.1985 94.1294 -40.9311 0.2040 -11.1161 -3.4084 0.9292 3.3446 -0.2839 -0.3520 -3.9782 -0.4360 1.8561 14.4871 -2.6170 1.3448 23.8958 3.1578 -0.1412 -3.5120 0.3825 7.3639 -5.5101 -3.2445 0.0041 -0.0287 0.0374 0.6935 -10.6256 -3.8428 -0.6779 -10.6864 3.9195 -10.2623 17.8769 -2.6905 -53.0181 1.0457 -11.4872 0.4758 0.1935 -87.3442 17.4405 7.5638 1.5240 -14.8747 11.1937 15.9729 -60.4138 1.8077 2.0905 0.3139 17.5431 10.5175 51.2066 4.3991 -2.6814 -0.1785 0.5261 56.4469 -2.1026 1.0347 3.8094 15.2910 7.3394 -16.5336 49.5944 -3.6683 -5.0349 18.9646 -13.2157 3.6166 -0.1694 11.8137 -0.5212 -21.2643 10.7054 9.3534 1.6548 -0.4679 -2.0387 -4.8463 -1.7814 -8.5180 0.0964 35.7586 0.2870 11.4074 -22.8061 -15.4907 -1.4537 0.3691 1.0022
-24.5069 94.4419 -41.8078 0.2863 -10.9436 -1.9093 0.9625 3.4358 -0.3797 -0.2536 -3.9465 -0.7717 2.6409 14.5842 -2.6834 2.4460 23.0068 2.6547 -0.2264 -3.4905 0.2716 6.9565 -5.9475 -3.3203 0.0078 -0.0304 0.0231 0.7096 -10.6204 -3.8595 -0.6861 -10.6785 3.9065 -9.7354 17.8533 -3.4878 -51.6398 0.4334 -12.5975 0.7401 0.1764 -87.2669 17.0092 5.7940 1.9672 -14.8921 11.1530 15.9516 -60.4436 1.8228 2.1325 1.7568 17.4555 10.3659 52.6462 6.1566 -1.5809 -0.3492 0.5507 53.9652 -0.9718 0.6721 3.3037 15.2839 7.3336 -16.4232 49.5476 -3.6346 -5.0583 17.8086 -14.0637 4.8238 -0.1863 11.9101 -0.4464 -22.2510 12.2900 7.4039 1.6730 -0.3713 -2.0234 -4.7879 -2.0389 -9.6463 0.0718 34.9668 0.2586 10.7321 -22.1536 -15.6941 -1.4636 0.3250 1.0018
-24.7734 94.7159 -42.4543 0.4314 -10.8168 -0.4105 1.0014 3.4105 -0.4912 -0.1588 -3.9632 -1.0860 3.2859 14.6983 -2.8347 3.2524 22.3814 2.2606 -0.3167 -3.4789 0.0587 6.6186 -6.1459 -3.4165 0.0064 -0.0395 0.0233 0.7176 -10.6209 -3.8581 -0.6979 -10.6794 3.9070 -9.4357 17.7869 -4.1898 -49.8301 0.0678 -13.6678 0.9921 0.2884 -86.8197 16.4153 4.0273 2.3354 -14.8964 11.1112 15.9588 -60.4956 1.8364 2.1716 3.1949 17.4008 10.0149 54.3761 7.5271 -1.1111 -0.5140 0.5926 52.2119 -0.2238 -0.4983 2.9562 15.3317 7.3496 -16.3453 49.6112 -3.5914 -5.0502 16.5337 -14.6651 5.9366 -0.2047 11.9167 -0.3791 -23.3269 13.1768 5.4285 1.6831 -0.3845 -2.0041 -4.8626 -2.1634 -10.8445 0.0545 34.1547 0.2413 10.0318 -21.5474 -15.8013 -1.4681 0.3135 1.0203
-25.0105 95.0329 -42.9418 0.5165 -10.7728 0.8809 1.0858 3.2648 -0.5720 -0.0839 -4.0257 -1.4145 3.8426 14.8091 -3.0390 3.8714 22.1938 1.9531 -0.3658 -3.4625 -0.1260 6.3437 -5.9838 -3.5161 -0.0022 -0.0491 0.0386 0.7124 -10.6333 -3.8415 -0.7090 -10.6867 3.9254 -9.2317 17.7045 -4.7265 -48.2199 -0.1426 -14.7563 1.0937 0.5010 -85.6685 15.6958 2.5805 2.7591 -14.8848 11.1310 15.9995 -60.5663 1.8491 2.1969 4.4850 17.3613 9.6411 56.2837 8.3343 -1.1609 -0.5437 0.6256 50.4416 0.1108 -1.9337 2.4810 15.4580 7.3828 -16.3384 49.7729 -3.5447 -5.0365 15.4393 -14.8522 6.9014 -0.2361 11.7183 -0.3464 -24.2878 13.2644 3.6875 1.6744 -0.4724 -2.0053 -4.9345 -1.8973 -11.8812 0.0359 32.9724 0.2133 9.4369 -20.8540 -15.8527 -1.4687 0.3031 1.0379
-25.1586 95.4415 -43.2295 0.5934 -10.7626 1.9162 1.1788 2.9973 -0.6740 -0.0321 -4.1105 -1.6927 4.3158 14.8760 -3.2337 4.3899 22.4016 1.6847 -0.3894 -3.4615 -0.2968 6.1214 -5.4970 -3.5750 -0.0103 -0.0577 0.0515 0.6969 -10.6469 -3.8262 -0.7110 -10.6944 3.9384 -9.1350 17.6541 -5.1354 -47.0191 -0.2035 -16.0349 1.0590 0.7035 -83.9174 14.9451 1.4003 3.1254 -14.8547 11.1929 16.0841 -60.5745 1.8478 2.1907 5.5498 17.2986 9.3083 58.3208 8.7891 -1.3939 -0.5823 0.6771 48.4087 0.0949 -3.6223 1.7901 15.6221 7.4381 -16.4135 50.0065 -3.5249 -5.0855 14.5125 -14.7985 7.7248 -0.2509 11.8722 -0.3262 -24.3167 12.5021 2.8635 1.6700 -0.6199 -2.0101 -5.0353 -1.2436 -12.7052 0.0228 31.2755 0.2031 8.8765 -20.0677 -15.7789 -1.4649 0.2643 1.0341
-25.2617 95.9336 -43.3659 0.6777 -10.7644 2.5562 1.2941 2.6432 -0.7556 -0.0019 -4.2155 -1.9388 4.7118 14.8970 -3.3867 4.7970 22.7521 1.4588 -0.4086 -3.4636 -0.3759 5.9424 -4.7908 -3.6953 -0.0209 -0.0650 0.0745 0.6830 -10.6587 -3.7981 -0.7181 -10.6990 3.9603 -9.2410 17.5512 -5.3954 -46.2597 -0.0143 -17.4790 0.9619 0.7972 -81.8252 14.1319 0.6896 3.4135 -14.7826 11.2715 16.1948 -60.5657 1.8620 2.1885 6.4760 17.1578 9.1082 60.2453 9.1267 -1.5686 -0.5691 0.7000 46.1226 -0.1729 -5.3133 0.8955 15.7031 7.4992 -16.5514 50.1644 -3.5495 -5.1789 13.8243 -14.5467 8.2973 -0.2522 12.6710 -0.2939 -23.1464 11.1865 2.6251 1.6729 -0.7955 -2.0088 -5.1571 -0.2675 -13.2669 0.0098 29.0817 0.1960 8.3319 -19.1300 -15.5303 -1.4611 0.1696 1.0299
-25.2847 96.4233 -43.3777 0.7087 -10.6815 2.7098 1.4809 2.2306 -0.8137 0.0134 -4.3335 -2.0941 5.0632 14.8254 -3.4945 5.0987 22.9945 1.3104 -0.4402 -3.4873 -0.4296 5.7641 -4.0249 -3.7827 -0.0364 -0.0741 0.0899 0.6663 -10.6695 -3.7784 -0.7323 -10.6980 3.9758 -9.5053 17.4039 -5.5039 -46.0499 0.4532 -18.9013 0.8920 0.8948 -79.8694 13.3914 0.2505 3.6529 -14.7439 11.3366 16.3133 -60.5321 1.8728 2.2204 7.1547 16.9541 9.0440 62.0610 9.4425 -1.6693 -0.5545 0.7123 44.0357 -0.2947 -6.4730 -0.2309 15.7366 7.5232 -16.6857 50.2259 -3.5939 -5.2994 13.5084 -13.9818 8.5364 -0.2446 13.8208 -0.2793 -21.7761 9.2022 2.4959 1.6706 -0.9628 -2.0169 -5.2483 0.7869 -13.6047 0.0034 26.6236 0.1823 7.8174 -18.0365 -14.9968 -1.4568 0.0645 1.0099
-25.2239 96.8759 -43.2409 0.6751 -10.4752 2.3552 1.6902 1.7724 -0.8154 0.0311 -4.4568 -2.1846 5.3889 14.7020 -3.5897 5.3120 22.9710 1.2285 -0.4965 -3.5174 -0.4597 5.5656 -3.3487 -3.8478 -0.0527 -0.0802 0.0998 0.6560 -10.6614 -3.7620 -0.7543 -10.6798 3.9846 -9.9317 17.2111 -5.4858 -46.3083 1.1409 -20.0074 0.8305 0.9210 -78.3305 12.6943 -0.1087 3.8281 -14.6836 11.3539 16.3717 -60.4905 1.8846 2.2643 7.7307 16.6574 9.0556 63.4889 9.7978 -1.8614 -0.5334 0.6934 42.7147 -0.2786 -7.3406 -1.3287 15.7012 7.5296 -16.7583 50.2381 -3.6706 -5.3868 13.5452 -13.1903 8.4340 -0.2267 15.4494 -0.2690 -20.4046 6.7303 2.4670 1.6697 -1.1601 -2.0346 -5.2740 1.7787 -13.7657 0.0014 24.0849 0.1798 7.3832 -16.8740 -14.2066 -1.4519 -0.0597 0.9974
-25.0803 97.2408 -43.0547 0.5384 -10.1605 1.6242 1.8955 1.3241 -0.7967 0.0418 -4.5903 -2.2467 5.6937 14.5719 -3.6425 5.5171 22.7149 1.1707 -0.5589 -3.5591 -0.4560 5.3089 -2.9009 -3.8854 -0.0641 -0.0805 0.1054 0.6508 -10.6395 -3.7475 -0.7714 -10.6545 3.9857 -10.4154 17.0408 -5.4284 -46.9424 1.8821 -20.6956 0.8153 0.9716 -77.2138 12.0827 -0.4015 3.9364 -14.6530 11.3695 16.3907 -60.4438 1.9018 2.2736 8.2211 16.3098 9.0715 64.4045 10.1084 -2.2001 -0.4989 0.6772 42.4763 -0.2687 -8.0355 -2.1701 15.6624 7.5083 -16.7852 50.2268 -3.7514 -5.4457 13.9010 -12.2476 8.0482 -0.2162 17.4669 -0.2540 -18.9707 4.2547 2.5982 1.6820 -1.3474 -2.0572 -5.1827 2.5901 -13.7344 0.0009 21.7342 0.1810 7.0623 -15.7568 -13.2252 -1.4446 -0.1685 0.9980
-24.8817 97.5233 -42.7775 0.3241 -9.7300 0.6438 2.0579 0.8392 -0.7880 0.0425 -4.7447 -2.3000 5.9663 14.4589 -3.6921 5.7682 22.3002 1.0843 -0.6351 -3.5881 -0.4156 5.0225 -2.5809 -3.9014 -0.0734 -0.0735 0.1127 0.6461 -10.6111 -3.7307 -0.7853 -10.6277 3.9876 -10.8529 16.9091 -5.3326 -47.7897 2.6747 -21.1743 0.8303 0.9493 -76.3087 11.4574 -0.5404 4.0362 -14.6159 11.3887 16.3787 -60.4170 1.9170 2.2704 8.6257 15.9347 9.0438 64.8322 10.3111 -2.6690 -0.3839 0.5957 43.1652 -0.3906 -8.5356 -2.6933 15.6390 7.4722 -16.7687 50.1842 -3.8001 -5.4703 14.4207 -10.9824 7.4561 -0.2090 19.2605 -0.2601 -17.9769 2.2477 2.5679 1.6967 -1.5274 -2.0754 -5.0248 3.1770 -13.6391 -0.0028 19.6435 0.1908 6.8855 -14.7067 -12.1293 -1.4398 -0.2691 1.0079
-24.6080 97.7498 -42.4517 0.0681 -9.1991 -0.5408 2.1603 0.3149 -0.8149 0.0421 -4.9440 -2.3435 6.1894 14.3851 -3.7316 6.0987 21.8408 0.9218 -0.7347 -3.6226 -0.3354 4.7044 -2.3135 -3.8962 -0.0839 -0.0674 0.1324 0.6425 -10.6004 -3.7043 -0.8023 -10.6250 4.0051 -11.1935 16.8562 -5.2557 -48.6945 3.4526 -21.5867 0.8516 0.9187 -75.4457 10.6720 -0.4762 4.1839 -14.5971 11.4382 16.4051 -60.4331 1.9441 2.2955 8.9343 15.5570 9.0136 64.8678 10.4766 -3.1388 -0.2617 0.4692 44.7288 -0.6307 -8.9931 -2.9278 15.6495 7.4123 -16.7191 50.1571 -3.7979 -5.4744 14.9385 -9.2282 6.6982 -0.2025 20.2577 -0.2800 -17.2827 0.5132 2.4898 1.7157 -1.6346 -2.0958 -4.8489 3.5411 -13.4719 -0.0099 17.8311 0.1985 6.8452 -13.7455 -11.0070 -1.4358 -0.3605 1.0189
-24.2765 97.8963 -42.0761 -0.1769 -8.5911 -1.8712 2.1728 -0.2501 -0.8580 0.0340 -5.1608 -2.3516 6.3554 14.3404 -3.8094 6.4434 21.3435 0.6752 -0.8093 -3.6453 -0.2450 4.3850 -2.0234 -3.8254 -0.0933 -0.0590 0.1546 0.6397 -10.6113 -3.6814 -0.8183 -10.6421 4.0302 -11.4123 16.8363 -5.2276 -49.5635 4.3301 -22.1940 0.9296 0.8583 -74.4818 9.6218 -0.3790 4.2880 -14.5725 11.4909 16.4682 -60.4695 1.9824 2.3845 9.1387 15.1387 8.9758 64.5409 10.7618 -3.2039 -0.1962 0.3559 47.0086 -0.8708 -9.4801 -2.8801 15.6858 7.3267 -16.6217 50.0810 -3.7742 -5.4648 15.2463 -6.8479 5.8623 -0.1795 19.8375 -0.2893 -16.7492 -0.7656 2.6058 1.7347 -1.7111 -2.1132 -4.7367 3.6759 -13.2780 -0.0105 16.3070 0.1902 6.9036 -12.8933 -9.8396 -1.4291 -0.4605 1.0406
-23.8652 97.9864 -41.6433 -0.3797 -7.9838 -3.1825 2.0770 -0.8071 -0.8795 0.0070 -5.3982 -2.3998 6.4647 14.3538 -3.8882 6.8744 20.8626 0.4289 -0.8921 -3.6777 -0.3058 4.0585 -1.7519 -3.6939 -0.0933 -0.0493 0.1383 0.6425 -10.6409 -3.6965 -0.8208 -10.6724 4.0123 -11.5603 16.8325 -5.3205 -50.1727 5.3445 -22.9990 1.0400 0.7883 -73.4964 8.3077 -0.6758 4.1963 -14.5483 11.5091 16.4785 -60.4429 2.0140 2.4179 9.2854 14.7252 8.9417 63.8680 11.1518 -2.7279 -0.2080 0.2637 49.6180 -1.0179 -9.8916 -2.6880 15.6978 7.2500 -16.5447 49.9994 -3.7370 -5.4503 15.2083 -3.9576 5.1888 -0.1224 17.4920 -0.2830 -16.4332 -1.8428 3.1930 1.7439 -1.8135 -2.1217 -4.7324 3.6603 -13.0408 -0.0071 15.0747 0.1400 7.1007 -12.1794 -8.7364 -1.4210 -0.6042 1.0820
-23.4007 98.0392 -41.1507 -0.5933 -7.3447 -4.4152 1.8590 -1.4055 -0.8437 -0.0350 -5.6587 -2.6034 6.5873 14.5134 -3.9752 7.3010 20.2951 0.2559 -0.9015 -3.7296 -0.4364 3.7527 -1.2750 -3.5284 -0.0914 -0.0262 0.1404 0.6584 -10.6956 -3.7145 -0.8338 -10.7219 4.0316 -11.8058 16.6799 -5.4409 -50.4238 6.5761 -23.8286 1.0905 0.7154 -72.5608 6.9727 -1.4166 3.9125 -14.5555 11.4898 16.5158 -60.4849 1.9197 2.3747 9.3514 14.2421 9.0493 62.9592 11.5567 -1.7274 -0.3699 0.1605 51.9615 -0.9838 -10.1898 -2.7063 15.7926 7.2586 -16.4883 50.1485 -3.7469 -5.3683 14.9382 -0.8409 4.7842 -0.1085 13.0496 -0.2521 -16.5725 -2.3357 4.8789 1.6695 -1.8713 -2.1213 -4.7841 3.5881 -12.7863 0.0311 13.9629 0.1282 7.3942 -11.5208 -7.7608 -1.4227 -0.7677 1.0258
-22.8689 98.1600 -40.5946 -0.6102 -6.9061 -5.2810 1.4095 -1.8306 -0.8016 -0.0784 -5.8648 -2.6456 6.5073 14.6408 -4.2048 7.8797 19.7912 0.0508 -0.9376 -3.7320 -0.6878 3.5044 -0.9851 -3.4227 -0.0756 -0.0295 0.1021 0.6589 -10.7114 -3.7489 -0.8014 -10.7382 3.9837 -12.0680 16.4348 -5.7089 -50.2108 7.9541 -24.8652 1.1966 0.7797 -71.4112 5.5355 -3.0362 3.2868 -14.5544 11.4174 16.5056 -60.2799 1.9166 2.4046 9.8715 13.7716 9.1097 61.5750 11.6894 -1.0628 -0.3928 0.1894 53.7136 -1.0346 -10.5951 -2.5425 15.7805 7.3323 -16.5024 50.1330 -3.6600 -5.3822 14.5003 1.3155 4.8975 -0.0455 9.3867 -0.1205 -16.2599 -2.2255 6.2866 1.6486 -1.5685 -2.1184 -5.0246 3.7476 -12.5025 0.0143 12.8395 0.1115 7.6286 -10.8233 -7.2376 -1.4203 -0.8941 0.9880
-22.2996 98.2849 -39.9923 -0.6200 -6.5395 -5.8905 0.9731 -2.1867 -0.7913 -0.1683 -6.0324 -2.6893 6.3310 14.7682 -4.3186 8.3624 19.1518 -0.1508 -0.9484 -3.7169 -0.8478 3.4102 -0.7208 -3.5262 -0.0627 -0.0326 0.0851 0.6666 -10.7180 -3.7632 -0.7837 -10.7425 3.9603 -12.3657 16.2562 -6.0462 -49.8538 8.9600 -25.6974 1.2891 0.7964 -69.8037 4.2070 -4.6221 2.9023 -14.5850 11.3736 16.4715 -60.1291 1.9047 2.3890 10.3764 13.3261 9.1998 60.3588 11.5354 -0.6188 -0.2771 0.1406 54.7344 -1.2609 -11.2138 -2.3827 15.6874 7.3912 -16.5057 50.1284 -3.6184 -5.3336 14.1449 2.7522 5.2825 -0.0354 6.7687 -0.0384 -15.9180 -1.8728 7.1525 1.6328 -1.4845 -2.1057 -5.2555 4.1354 -12.2051 0.0068 11.4928 0.1244 7.8166 -10.0878 -6.9480 -1.4182 -1.0034 0.9680
-21.7464 98.3720 -39.3976 -0.6811 -6.1737 -6.4111 0.6311 -2.4548 -0.7767 -0.2490 -6.1241 -2.6838 6.1160 14.7642 -4.2919 8.6922 18.3196 -0.3088 -0.9856 -3.7173 -0.9896 3.3843 -0.6348 -3.6560 -0.0542 -0.0361 0.0817 0.6715 -10.7252 -3.7670 -0.7720 -10.7494 3.9548 -12.6631 16.0393 -6.3057 -49.7135 9.4333 -26.0413 1.2525 0.7295 -67.7344 3.3046 -6.1171 2.6903 -14.5858 11.3713 16.4593 -60.0055 1.8839 2.3841 10.6417 12.9060 9.3410 59.5822 11.3163 -0.2487 -0.2216 0.1402 55.2360 -1.4142 -11.7943 -2.3053 15.5950 7.4479 -16.5226 50.1424 -3.5901 -5.3169 13.8777 3.7164 5.7162 -0.0385 4.9131 -0.0122 -15.7395 -1.6427 7.7543 1.6204 -1.4555 -2.0808 -5.4465 4.5500 -11.8900 0.0008 10.0927 0.1491 8.0271 -9.3536 -6.8020 -1.4174 -1.0621 0.9614
-21.1671 98.4647 -38.8420 -0.7448 -5.8094 -6.9471 0.3462 -2.6398 -0.7476 -0.3038 -6.1667 -2.6014 5.8356 14.6999 -4.1917 8.8681 17.2718 -0.3788 -1.0542 -3.7228 -1.1204 3.4349 -0.7364 -3.7752 -0.0499 -0.0440 0.0895 0.6773 -10.7288 -3.7571 -0.7684 -10.7559 3.9585 -13.0333 15.8098 -6.4725 -49.6994 9.4229 -25.8830 1.0958 0.5956 -65.2353 2.8674 -7.6539 2.5613 -14.5726 11.3732 16.4534 -59.8934 1.8499 2.4136 10.6895 12.5682 9.5537 59.1738 11.0209 0.1691 -0.2002 0.1960 55.4677 -1.4850 -12.3651 -2.2977 15.5282 7.5003 -16.5401 50.1970 -3.5730 -5.3199 13.5961 4.4045 6.1454 -0.0421 3.5813 -0.0249 -15.6110 -1.5515 8.2726 1.6108 -1.4750 -2.0669 -5.6573 4.9242 -11.5535 -0.0050 8.7337 0.1522 8.2989 -8.5940 -6.6823 -1.4158 -1.1068 0.9683
-20.5972 98.5470 -38.3079 -0.7647 -5.4200 -7.4645 0.0868 -2.7824 -0.7015 -0.3515 -6.1803 -2.4538 5.4861 14.6060 -4.0684 8.8750 16.0763 -0.3540 -1.1195 -3.7357 -1.2217 3.5591 -0.9630 -3.8721 -0.0491 -0.0543 0.0968 0.6821 -10.7290 -3.7480 -0.7722 -10.7565 3.9633 -13.5383 15.6053 -6.6146 -49.7228 9.1124 -25.3409 0.9293 0.4657 -62.4944 2.7580 -9.3612 2.4592 -14.5591 11.3479 16.4471 -59.8090 1.8158 2.4486 10.6198 12.3151 9.8127 59.0208 10.6334 0.6073 -0.2048 0.2374 55.5480 -1.4581 -12.8207 -2.3031 15.5243 7.5427 -16.5715 50.3095 -3.5691 -5.3301 13.2272 4.8191 6.4725 -0.0346 2.7283 -0.0282 -15.4607 -1.5748 8.7392 1.6034 -1.5057 -2.0550 -5.9296 5.1319 -11.2428 -0.0035 7.5783 0.1552 8.6159 -7.8586 -6.5880 -1.4166 -1.1239 0.9698
-19.9848 98.6161 -37.8178 -0.6918 -5.0187 -7.9297 -0.1802 -2.8781 -0.6371 -0.3988 -6.1832 -2.2719 5.0571 14.5084 -3.9334 8.7123 14.8371 -0.2466 -1.1656 -3.7546 -1.2797 3.7403 -1.2283 -4.0488 -0.0527 -0.0613 0.1024 0.6897 -10.7357 -3.7435 -0.7879 -10.7632 3.9705 -14.1574 15.3904 -6.7689 -49.6407 8.8815 -24.6632 0.7822 0.3930 -59.8710 2.6613 -10.8009 2.3525 -14.5983 11.2819 16.4082 -59.7899 1.7910 2.4683 10.4556 12.1750 10.0598 59.0284 10.1592 1.1151 -0.1966 0.2190 55.5822 -1.3947 -13.1470 -2.2902 15.5257 7.5578 -16.6002 50.3276 -3.5769 -5.3131 12.7371 5.0413 6.6932 -0.0338 2.2109 -0.0250 -15.2853 -1.6893 9.1707 1.6003 -1.4755 -2.0425 -6.3172 5.0981 -10.9998 -0.0028 6.8145 0.1481 8.9326 -7.2550 -6.4582 -1.4194 -1.0655 0.9598
-19.3597 98.6463 -37.3816 -0.5225 -4.6780 -8.2889 -0.4594 -2.9269 -0.5426 -0.4571 -6.1815 -2.0862 4.5652 14.4711 -3.8071 8.4166 13.7133 -0.0811 -1.1888 -3.7747 -1.3624 3.9305 -1.5626 -4.1971 -0.0543 -0.0621 0.0961 0.7015 -10.7333 -3.7488 -0.8037 -10.7630 3.9629 -14.8093 15.2264 -6.9591 -49.3886 8.8762 -24.0944 0.7109 0.3279 -57.6180 2.4752 -11.8417 2.1930 -14.6736 11.2322 16.3382 -59.8260 1.7791 2.4419 10.2340 12.1007 10.2567 59.1574 9.7244 1.7304 -0.2710 0.1921 55.6321 -1.2860 -13.1693 -2.2329 15.5093 7.5800 -16.6038 50.3289 -3.5433 -5.2928 12.1413 5.1951 6.7426 -0.0311 1.9022 -0.0108 -15.1119 -1.8474 9.5801 1.6004 -1.3949 -2.0402 -6.8289 4.9106 -10.8468 -0.0026 6.4294 0.1304 9.2474 -6.8370 -6.3330 -1.4240 -0.9622 0.9437
-18.7355 98.6463 -36.9861 -0.2430 -4.4139 -8.4688 -0.7755 -2.9358 -0.4397 -0.5189 -6.1638 -1.8748 3.9745 14.4965 -3.7126 8.0567 12.7740 0.1350 -1.2069 -3.7707 -1.4991 4.1416 -1.9552 -4.3181 -0.0488 -0.0558 0.0739 0.7178 -10.7230 -3.7712 -0.8101 -10.7538 3.9392 -15.4412 15.1203 -7.1348 -49.0017 9.0793 -23.6971 0.7046 0.2955 -55.6942 2.2418 -12.6618 1.9934 -14.7336 11.2090 16.2599 -59.8491 1.7756 2.3886 10.0152 12.0500 10.3825 59.3126 9.3823 2.4416 -0.3633 0.1980 55.7068 -1.1481 -12.9443 -2.0881 15.4567 7.6059 -16.5790 50.2856 -3.5051 -5.2555 11.4243 5.3268 6.6275 -0.0194 1.7272 0.0012 -14.8815 -2.0237 9.9516 1.6013 -1.2804 -2.0490 -7.4906 4.7008 -10.8241 0.0003 6.2341 0.1224 9.5880 -6.5730 -6.2739 -1.4262 -0.8522 0.9307
-18.1190 98.6439 -36.6191 0.0978 -4.2038 -8.4630 -1.1116 -2.9220 -0.3339 -0.5752 -6.1717 -1.6534 3.3137 14.5841 -3.6192 7.6284 12.1715 0.3756 -1.2245 -3.7443 -1.6375 4.3453 -2.3497 -4.4267 -0.0428 -0.0504 0.0579 0.7264 -10.7140 -3.7862 -0.8069 -10.7447 3.9205 -15.9635 15.0948 -7.2285 -48.6184 9.3500 -23.4221 0.7195 0.2630 -54.0723 2.0246 -13.2485 1.8457 -14.7686 11.2060 16.2022 -59.9185 1.7782 2.3073 9.8125 12.0812 10.4733 59.4405 9.0651 3.1772 -0.3651 0.1828 55.7266 -1.0561 -12.6090 -1.8497 15.4063 7.6229 -16.5447 50.2396 -3.4815 -5.2282 10.6264 5.4136 6.3591 -0.0112 1.6700 0.0073 -14.5981 -2.2136 10.2485 1.6010 -1.1696 -2.0731 -8.2364 4.5490 -10.9151 0.0068 6.0406 0.1159 9.9181 -6.3494 -6.2485 -1.4251 -0.7892 0.9221
-17.5111 98.6587 -36.2358 0.4028 -4.0005 -8.2481 -1.4107 -2.9100 -0.2826 -0.6143 -6.1661 -1.4177 2.6626 14.6349 -3.5250 7.1655 11.9627 0.6059 -1.2402 -3.7197 -1.7215 4.5059 -2.5884 -4.4997 -0.0373 -0.0469 0.0584 0.7270 -10.6947 -3.7865 -0.7973 -10.7248 3.9196 -16.2698 15.1155 -7.1412 -48.4377 9.5589 -23.1205 0.6709 0.2734 -52.7817 1.9412 -13.5316 1.7053 -14.7829 11.1814 16.1889 -59.8912 1.7735 2.2846 9.5916 12.2519 10.5359 59.6522 8.7751 3.9247 -0.3403 0.1871 55.7007 -0.9916 -12.2211 -1.7124 15.3787 7.6344 -16.4751 50.2334 -3.4518 -5.1878 9.8957 5.4050 6.0180 -0.0123 1.6640 0.0071 -14.3329 -2.3686 10.4032 1.6016 -1.0406 -2.0805 -8.9123 4.4958 -11.1168 0.0065 5.7044 0.1099 10.1921 -6.0635 -6.3163 -1.4218 -0.7165 0.9210
-16.9843 98.6806 -35.9243 0.6796 -3.8022 -7.9042 -1.6561 -2.8913 -0.2219 -0.6550 -6.1680 -1.2065 2.0404 14.6576 -3.3815 6.6533 12.0689 0.8284 -1.2514 -3.7058 -1.7186 4.6254 -2.7195 -4.4953 -0.0293 -0.0404 0.0550 0.7271 -10.6841 -3.7948 -0.7816 -10.7122 3.9182 -16.4712 15.1823 -6.9166 -48.3655 9.7686 -22.7052 0.6022 0.2741 -51.8491 2.0081 -13.5339 1.5397 -14.7793 11.1296 16.1533 -59.8557 1.7545 2.2715 9.3324 12.5135 10.5760 59.9332 8.5755 4.7464 -0.3251 0.1719 55.7071 -0.9048 -11.7724 -1.6428 15.3620 7.6419 -16.4060 50.2265 -3.4488 -5.1543 9.2375 5.3359 5.6908 -0.0246 1.6739 -0.0002 -14.0751 -2.5384 10.4394 1.6016 -0.9290 -2.0728 -9.5212 4.4640 -11.3886 0.0022 5.3738 0.0958 10.4310 -5.8230 -6.4615 -1.4191 -0.6607 0.9264
-16.5352 98.6981 -35.6419 0.9167 -3.6000 -7.4822 -1.8397 -2.8744 -0.1628 -0.6931 -6.1636 -0.9826 1.4598 14.6489 -3.2097 6.0612 12.3806 1.0534 -1.2451 -3.6983 -1.6444 4.7137 -2.7746 -4.4089 -0.0205 -0.0323 0.0441 0.7266 -10.6748 -3.8131 -0.7637 -10.7027 3.9109 -16.6816 15.2449 -6.6203 -48.3278 9.9957 -22.1343 0.5218 0.2716 -51.1375 2.2454 -13.2612 1.3375 -14.7869 11.0835 16.1067 -59.8306 1.7426 2.2570 9.0829 12.8060 10.5730 60.2428 8.4622 5.6276 -0.3544 0.1808 55.7726 -0.8273 -11.2905 -1.5819 15.3404 7.6426 -16.3335 50.2021 -3.4361 -5.1346 8.6590 5.2176 5.3597 -0.0326 1.6936 -0.0073 -13.8395 -2.7214 10.4074 1.6023 -0.8705 -2.0571 -10.0357 4.4502 -11.7179 -0.0089 5.0404 0.0757 10.6077 -5.5930 -6.6571 -1.4172 -0.6109 0.9336
-16.1619 98.7259 -35.3791 1.1296 -3.3923 -7.0082 -1.9753 -2.8529 -0.0951 -0.7294 -6.1662 -0.7511 0.9032 14.6216 -3.0296 5.4163 12.8100 1.3025 -1.2129 -3.6806 -1.5524 4.7467 -2.7835 -4.2401 -0.0130 -0.0213 0.0386 0.7284 -10.6687 -3.8246 -0.7509 -10.6952 3.9080 -16.8866 15.3054 -6.2569 -48.3299 10.1596 -21.3440 0.4272 0.2516 -50.5347 2.5972 -12.7428 1.1481 -14.7582 11.0564 16.0752 -59.8077 1.7435 2.2498 8.8111 13.0742 10.5697 60.6026 8.4126 6.5038 -0.3939 0.2031 55.8896 -0.8888 -10.9511 -1.4332 15.3443 7.6257 -16.2629 50.1445 -3.4455 -5.1179 8.1383 5.0764 5.0273 -0.0357 1.6875 -0.0174 -13.6419 -2.8719 10.3574 1.6054 -0.8303 -2.0434 -10.4909 4.4166 -12.1296 -0.0148 4.7466 0.0448 10.7678 -5.3718 -6.8496 -1.4170 -0.5693 0.9305
-15.8492 98.7468 -35.1348 1.3055 -3.1777 -6.5160 -2.0777 -2.8371 -0.0472 -0.7625 -6.1585 -0.5092 0.3946 14.5707 -2.8448 4.7499 13.2229 1.5567 -1.1655 -3.6533 -1.4309 4.7387 -2.7462 -4.0136 -0.0059 -0.0088 0.0326 0.7310 -10.6662 -3.8389 -0.7395 -10.6932 3.9062 -17.1201 15.3820 -5.8864 -48.3326 10.1906 -20.3211 0.3220 0.2428 -49.9212 3.0810 -12.1560 0.9522 -14.7506 11.0178 16.0482 -59.7777 1.7560 2.2659 8.5446 13.2857 10.5625 60.9790 8.3219 7.2697 -0.3763 0.2344 56.0084 -1.0800 -10.6380 -1.2543 15.3373 7.5958 -16.2118 50.0542 -3.4684 -5.1186 7.7155 4.9090 4.6732 -0.0378 1.6771 -0.0107 -13.4842 -2.9724 10.2496 1.6088 -0.8349 -2.0263 -10.8656 4.3605 -12.5933 -0.0135 4.4924 0.0326 10.8929 -5.1714 -7.0675 -1.4183 -0.5562 0.9284
-15.5896 98.7794 -34.9221 1.4463 -2.9780 -6.0292 -2.1555 -2.8303 0.0134 -0.7893 -6.1548 -0.2942 -0.0802 14.5237 -2.6404 4.1041 13.5324 1.8067 -1.1065 -3.6283 -1.3058 4.7076 -2.6913 -3.7923 -0.0024 0.0013 0.0297 0.7325 -10.6671 -3.8467 -0.7345 -10.6935 3.9065 -17.3773 15.4573 -5.5417 -48.3319 10.0803 -19.0282 0.1791 0.2053 -49.2459 3.7070 -11.5256 0.7090 -14.7653 10.9952 16.0403 -59.7346 1.7695 2.2842 8.2809 13.4841 10.5555 61.3624 8.1820 7.9668 -0.3490 0.2326 56.1132 -1.3112 -10.3912 -1.0873 15.3206 7.5634 -16.1745 49.9409 -3.4856 -5.1419 7.3712 4.7485 4.3391 -0.0402 1.6758 -0.0064 -13.3379 -3.0576 10.1000 1.6113 -0.7874 -2.0077 -11.1716 4.3370 -13.0613 -0.0121 4.2258 0.0116 11.0017 -5.0029 -7.2689 -1.4191 -0.4992 0.9362
-15.4115 98.8076 -34.7472 1.5419 -2.7904 -5.5661 -2.2039 -2.8435 0.0648 -0.8046 -6.1555 -0.0784 -0.5153 14.4890 -2.4416 3.4924 13.6853 2.0356 -1.0617 -3.6201 -1.2011 4.6820 -2.6265 -3.5830 -0.0015 0.0054 0.0330 0.7335 -10.6633 -3.8444 -0.7349 -10.6888 3.9107 -17.7103 15.5135 -5.2459 -48.2380 9.9480 -17.6232 0.0479 0.1636 -48.4922 4.3762 -10.9418 0.4483 -14.8244 10.9640 16.0108 -59.6965 1.7677 2.2849 8.0552 13.6865 10.5442 61.6813 8.0141 8.7173 -0.3693 0.2512 56.1149 -1.5200 -10.2460 -0.9324 15.2924 7.5458 -16.1409 49.8574 -3.4808 -5.1390 7.1119 4.6124 3.9871 -0.0393 1.6815 0.0058 -13.1887 -3.1236 9.9485 1.6120 -0.7132 -1.9937 -11.3877 4.3620 -13.5310 -0.0113 3.9206 -0.0061 11.1142 -4.8273 -7.4689 -1.4202 -0.3997 0.9485
-15.3047 98.8211 -34.5510 1.6070 -2.6300 -5.1616 -2.2325 -2.8680 0.1138 -0.8120 -6.1525 0.1287 -0.9117 14.4625 -2.2481 2.9713 13.6292 2.2029 -1.0224 -3.6205 -1.1190 4.6630 -2.5693 -3.4136 -0.0010 0.0047 0.0356 0.7371 -10.6584 -3.8405 -0.7380 -10.6831 3.9126 -18.1114 15.5102 -5.0356 -48.0563 9.8339 -16.2223 -0.0608 0.1299 -47.6165 4.9889 -10.5032 0.2022 -14.8832 10.9244 15.9702 -59.6823 1.7603 2.2712 7.8861 13.8441 10.5430 61.9177 7.8969 9.5405 -0.4426 0.2886 55.9429 -1.6860 -10.2022 -0.7755 15.2662 7.5302 -16.1128 49.7952 -3.4675 -5.1067 6.9159 4.5043 3.6556 -0.0308 1.6917 0.0061 -13.0555 -3.1548 9.8531 1.6119 -0.6471 -1.9884 -11.5514 4.4312 -14.0146 -0.0025 3.5778 -0.0227 11.1956 -4.6482 -7.5981 -1.4223 -0.2999 0.9638
-15.2606 98.8326 -34.4105 1.6361 -2.4506 -4.8130 -2.2340 -2.9026 0.1596 -0.8165 -6.1421 0.3474 -1.2700 14.4128 -2.0932 2.5348 13.3397 2.3504 -0.9954 -3.6247 -1.0998 4.6457 -2.5480 -3.2978 -0.0002 -0.0017 0.0326 0.7410 -10.6496 -3.8403 -0.7412 -10.6738 3.9067 -18.5475 15.4408 -4.8863 -47.8507 9.6771 -14.8099 -0.1836 0.0931 -46.6135 5.4899 -10.0780 0.0417 -14.9399 10.8754 15.9279 -59.6732 1.7446 2.2500 7.7427 13.9366 10.5765 62.0783 7.8188 10.4193 -0.5512 0.3222 55.5780 -1.7195 -10.2421 -0.6914 15.2506 7.5105 -16.0915 49.7269 -3.4598 -5.0804 6.7954 4.3662 3.3675 -0.0233 1.7074 0.0152 -12.9487 -3.1555 9.7922 1.6103 -0.5985 -1.9877 -11.6428 4.4708 -14.5070 0.0107 3.2224 -0.0232 11.2843 -4.4603 -7.6498 -1.4209 -0.2282 0.9706
-15.2556 98.8488 -34.2505 1.6326 -2.2583 -4.5501 -2.2096 -2.9318 0.2136 -0.8206 -6.1446 0.5349 -1.5890 14.3626 -1.9463 2.1841 12.8626 2.4461 -0.9777 -3.6303 -1.0794 4.6043 -2.6003 -3.2459 0.0016 -0.0108 0.0230 0.7472 -10.6404 -3.8450 -0.7443 -10.6649 3.8920 -18.9705 15.3383 -4.8195 -47.6598 9.4076 -13.3904 -0.3447 0.0341 -45.4939 5.8674 -9.7248 -0.0591 -15.0126 10.8222 15.8838 -59.6756 1.7145 2.2503 7.5896 13.9699 10.6676 62.1658 7.7194 11.2631 -0.6102 0.3003 55.0294 -1.6207 -10.1975 -0.6692 15.2480 7.5006 -16.0814 49.7009 -3.4542 -5.0646 6.7553 4.1897 3.1758 -0.0221 1.7508 0.0216 -12.8548 -3.1583 9.7263 1.6066 -0.5428 -1.9782 -11.6698 4.4640 -14.9403 0.0252 2.9240 -0.0251 11.3571 -4.2856 -7.6398 -1.4177 -0.1777 0.9710
-15.2831 98.8535 -34.1239 1.6107 -2.0828 -4.3259 -2.1730 -2.9412 0.2474 -0.8211 -6.1323 0.6892 -1.8664 14.2976 -1.8370 1.8901 12.2479 2.5177 -0.9623 -3.6355 -1.0893 4.5841 -2.6842 -3.2363 0.0032 -0.0195 0.0152 0.7549 -10.6292 -3.8484 -0.7496 -10.6535 3.8802 -19.3287 15.2296 -4.8154 -47.5020 9.2040 -12.2719 -0.4387 0.0028 -44.3733 6.0574 -9.5717 -0.0788 -15.1163 10.7850 15.8478 -59.7359 1.6856 2.2540 7.4305 13.9850 10.8226 62.2279 7.5755 11.9325 -0.6235 0.3006 54.4679 -1.4498 -10.1147 -0.6973 15.2615 7.5014 -16.0855 49.7011 -3.4642 -5.0574 6.7837 4.0136 3.0067 -0.0250 1.7943 0.0387 -12.7685 -3.1401 9.6638 1.6038 -0.5048 -1.9700 -11.6418 4.4342 -15.3444 0.0346 2.6911 -0.0202 11.4002 -4.1414 -7.5814 -1.4154 -0.1522 0.9671
-15.3516 98.8623 -34.0163 1.5716 -1.9273 -4.1516 -2.1294 -2.9331 0.2842 -0.8266 -6.1126 0.8081 -2.0948 14.2334 -1.7699 1.6643 11.5850 2.5699 -0.9457 -3.6474 -1.0702 4.5716 -2.7903 -3.2828 0.0044 -0.0238 0.0091 0.7619 -10.6293 -3.8524 -0.7542 -10.6496 3.8722 -19.5903 15.1212 -4.8502 -47.3742 9.1231 -11.5301 -0.4644 -0.0240 -43.3723 6.0587 -9.5899 -0.0442 -15.2057 10.7823 15.8229 -59.8117 1.6689 2.2503 7.2738 13.9712 10.9961 62.2501 7.4873 12.5305 -0.6542 0.3023 54.0374 -1.2788 -10.0517 -0.7663 15.2891 7.5059 -16.0894 49.7150 -3.4773 -5.0598 6.8457 3.8360 2.8613 -0.0242 1.8516 0.0546 -12.6981 -3.1269 9.6179 1.6011 -0.4743 -1.9673 -11.5578 4.4128 -15.7007 0.0381 2.4883 -0.0188 11.4048 -4.0708 -7.5089 -1.4146 -0.1245 0.9699
-15.4420 98.8592 -33.9047 1.5251 -1.7872 -4.0362 -2.0740 -2.9200 0.2957 -0.8321 -6.0869 0.9039 -2.2862 14.1700 -1.7234 1.4861 10.9324 2.6069 -0.9259 -3.6527 -1.0652 4.5381 -2.9106 -3.3095 0.0048 -0.0204 0.0074 0.7651 -10.6221 -3.8530 -0.7570 -10.6415 3.8699 -19.7944 15.0083 -4.9266 -47.2390 9.1530 -11.1142 -0.4624 -0.0223 -42.5458 5.9748 -9.7491 0.0498 -15.2594 10.7796 15.7867 -59.8726 1.6593 2.2370 7.1331 13.9123 11.1498 62.2392 7.4710 13.0249 -0.7024 0.3214 53.8197 -1.1378 -9.9468 -0.8518 15.2972 7.5056 -16.1101 49.7076 -3.4811 -5.0882 6.9468 3.6747 2.7191 -0.0188 1.9051 0.0773 -12.6815 -3.1063 9.5996 1.5992 -0.4730 -1.9716 -11.4382 4.3912 -15.9912 0.0432 2.3143 -0.0186 11.3957 -4.0466 -7.4471 -1.4147 -0.0945 0.9656
-15.5856 98.8626 -33.8725 1.4571 -1.6649 -3.9663 -2.0120 -2.8992 0.2978 -0.8352 -6.0560 0.9651 -2.4256 14.1055 -1.7175 1.3400 10.3378 2.6433 -0.9087 -3.6506 -1.0469 4.4957 -2.9994 -3.3005 0.0058 -0.0151 0.0036 0.7689 -10.6143 -3.8544 -0.7588 -10.6352 3.8640 -19.9351 14.9234 -5.0365 -47.1192 9.1447 -10.9491 -0.4686 -0.0183 -41.8607 5.8792 -9.9782 0.1783 -15.2804 10.7764 15.7594 -59.8904 1.6550 2.2204 6.9888 13.8222 11.2958 62.2223 7.4963 13.4094 -0.7582 0.3359 53.7943 -1.0560 -9.8798 -0.9182 15.3189 7.4876 -16.1197 49.7261 -3.4836 -5.0926 7.0849 3.5284 2.6051 -0.0120 1.9541 0.0953 -12.6731 -3.0864 9.6088 1.5998 -0.4854 -1.9670 -11.2633 4.3711 -16.2197 0.0498 2.1651 -0.0167 11.3634 -4.0331 -7.3631 -1.4146 -0.0747 0.9648
-15.7495 98.8709 -33.8676 1.3637 -1.5784 -3.9230 -1.9343 -2.8718 0.2651 -0.8343 -6.0275 1.0065 -2.5266 14.0445 -1.7432 1.2010 9.8304 2.6538 -0.8916 -3.6494 -0.9887 4.4549 -3.0311 -3.2652 0.0061 -0.0124 0.0011 0.7708 -10.6124 -3.8552 -0.7602 -10.6349 3.8579 -19.9868 14.8682 -5.1974 -47.0078 9.1056 -11.0373 -0.4693 -0.0200 -41.3240 5.7166 -10.1677 0.4065 -15.2901 10.7734 15.7572 -59.8926 1.6509 2.2136 6.8435 13.7159 11.4186 62.2518 7.5065 13.6382 -0.8284 0.3309 53.8873 -0.9865 -9.8942 -0.9980 15.3412 7.4708 -16.1301 49.7624 -3.4977 -5.1009 7.2757 3.4127 2.5113 -0.0092 1.9831 0.1040 -12.6678 -3.0605 9.6582 1.6017 -0.4948 -1.9576 -11.0475 4.3905 -16.4272 0.0501 2.0175 -0.0103 11.3195 -4.0250 -7.2986 -1.4113 -0.0740 0.9595
-15.9531 98.8777 -33.8792 1.2541 -1.5128 -3.9219 -1.8500 -2.8420 0.2602 -0.8312 -6.0102 1.0028 -2.5838 13.9951 -1.7811 1.0476 9.4198 2.6633 -0.8688 -3.6524 -0.9162 4.3741 -3.0377 -3.2148 0.0067 -0.0117 0.0097 0.7730 -10.6117 -3.8443 -0.7611 -10.6366 3.8640 -19.9603 14.7693 -5.3877 -46.9014 9.1548 -11.3937 -0.4310 -0.0375 -41.0052 5.4804 -10.2982 0.7269 -15.2615 10.7684 15.7400 -59.8903 1.6717 2.2133 6.7419 13.5878 11.5373 62.2962 7.4462 13.6311 -0.8029 0.3107 53.9952 -0.9975 -10.1095 -1.0238 15.3623 7.4492 -16.1436 49.7648 -3.5163 -5.1243 7.4918 3.3252 2.4326 -0.0119 2.0047 0.0958 -12.6694 -3.0353 9.7689 1.6046 -0.5290 -1.9558 -10.7964 4.4153 -16.5538 0.0486 1.9193 -0.0158 11.3032 -4.0123 -7.2624 -1.4108 -0.0872 0.9530
-16.1942 98.8811 -33.9221 1.1418 -1.4649 -3.9265 -1.7695 -2.8175 0.2294 -0.8235 -5.9880 0.9707 -2.6035 13.9248 -1.7919 0.8772 9.1168 2.6729 -0.8329 -3.6607 -0.8535 4.2747 -3.0023 -3.1503 0.0066 -0.0128 0.0163 0.7722 -10.6201 -3.8376 -0.7604 -10.6457 3.8705 -19.8791 14.6275 -5.6052 -46.7614 9.2342 -11.9489 -0.3940 -0.0646 -40.9625 5.1843 -10.2502 1.1230 -15.2314 10.8014 15.7508 -59.9106 1.7013 2.2350 6.6959 13.5069 11.6444 62.3970 7.3147 13.4821 -0.7787 0.2705 54.0379 -1.0593 -10.5100 -1.0760 15.3873 7.4460 -16.1443 49.7318 -3.5359 -5.1446 7.7314 3.2847 2.3427 -0.0181 1.9694 0.0816 -12.6701 -2.9956 9.9055 1.6107 -0.5811 -1.9570 -10.5381 4.4437 -16.6587 0.0444 1.8468 -0.0125 11.2914 -4.0154 -7.2404 -1.4102 -0.1182 0.9467
-16.4207 98.8661 -33.9602 1.0243 -1.4274 -3.9756 -1.6833 -2.8117 0.2180 -0.8179 -5.9650 0.9339 -2.5751 13.8560 -1.7978 0.7149 8.9003 2.7104 -0.8165 -3.6669 -0.8226 4.1808 -2.9281 -3.0749 0.0069 -0.0097 0.0085 0.7686 -10.6183 -3.8441 -0.7563 -10.6445 3.8609 -19.7877 14.4496 -5.8082 -46.5616 9.3160 -12.6110 -0.3432 -0.0841 -41.3783 4.9280 -10.1456 1.5300 -15.2262 10.8536 15.7906 -59.9777 1.7466 2.2770 6.7207 13.4417 11.7438 62.5214 7.1559 13.2457 -0.7511 0.2326 53.9233 -1.1325 -11.0173 -1.1368 15.4055 7.4551 -16.1522 49.6887 -3.5507 -5.1671 7.9910 3.2735 2.3031 -0.0173 1.9198 0.0785 -12.6898 -2.9708 9.9688 1.6161 -0.6482 -1.9659 -10.2664 4.4690 -16.7090 0.0374 1.8026 -0.0070 11.2528 -4.0401 -7.2417 -1.4117 -0.1534 0.9435
-16.6347 98.8475 -33.9692 0.9149 -1.4073 -4.0266 -1.5973 -2.8099 0.2088 -0.8082 -5.9473 0.8899 -2.5213 13.7961 -1.7943 0.5752 8.7383 2.7627 -0.8154 -3.6689 -0.8440 4.1046 -2.8419 -3.0266 0.0075 -0.0054 -0.0089 0.7647 -10.6158 -3.8602 -0.7512 -10.6406 3.8424 -19.7030 14.2551 -6.0060 -46.3225 9.2774 -13.2386 -0.3215 -0.1095 -42.1657 4.8142 -10.0520 1.8708 -15.2152 10.9245 15.8425 -60.0540 1.7929 2.3044 6.7979 13.3605 11.8051 62.6213 7.0217 12.9950 -0.6701 0.1585 53.6172 -1.1880 -11.3450 -1.1763 15.4076 7.4522 -16.1518 49.6264 -3.5743 -5.1737 8.2465 3.2700 2.2825 -0.0126 1.8707 0.0847 -12.7313 -2.9462 9.9211 1.6213 -0.7486 -1.9839 -10.0112 4.4802 -16.7730 0.0268 1.8095 -0.0020 11.2141 -4.1105 -7.2332 -1.4140 -0.1910 0.9406
-16.7991 98.8106 -33.9706 0.8149 -1.4091 -4.0850 -1.5107 -2.8053 0.2012 -0.7872 -5.9270 0.8340 -2.4489 13.7378 -1.7963 0.4218 8.5916 2.8677 -0.8330 -3.6680 -0.9494 4.0569 -2.7875 -2.9856 0.0083 -0.0052 -0.0377 0.7587 -10.6068 -3.8858 -0.7438 -10.6309 3.8120 -19.6395 13.9874 -6.1692 -46.0986 9.0953 -13.7546 -0.3612 -0.1221 -43.2514 4.9111 -10.0459 2.0895 -15.2072 10.9909 15.8952 -60.1108 1.8306 2.2951 6.8816 13.2273 11.8364 62.7378 6.9617 12.8431 -0.5659 0.1258 53.0742 -1.2183 -11.2583 -1.2275 15.3934 7.4689 -16.1908 49.5728 -3.5934 -5.1856 8.4854 3.2860 2.2609 0.0001 1.8187 0.1023 -12.8148 -2.9238 9.8309 1.6237 -0.8866 -2.0128 -9.7869 4.5036 -16.8534 0.0174 1.8108 0.0035 11.1894 -4.1874 -7.1859 -1.4160 -0.2235 0.9445
-17.0058 98.7866 -33.9179 0.7311 -1.4485 -4.1554 -1.4303 -2.8141 0.2023 -0.7614 -5.9144 0.7780 -2.3625 13.7197 -1.8181 0.2396 8.4846 2.9254 -0.8440 -3.6510 -0.9846 4.0595 -2.7772 -2.9952 0.0074 -0.0109 -0.0604 0.7515 -10.5931 -3.9035 -0.7385 -10.6198 3.7857 -19.5652 13.7221 -6.2865 -45.9886 8.8517 -14.2052 -0.3742 -0.1148 -44.5389 5.0535 -10.1438 2.2319 -15.1561 11.0236 15.9592 -60.1320 1.8222 2.3208 6.8991 13.0470 11.8323 62.8977 7.0448 12.8500 -0.4786 0.1261 52.4342 -1.2839 -10.9902 -1.2524 15.3442 7.4917 -16.2043 49.5546 -3.5907 -5.1676 8.6760 3.3422 2.2310 0.0093 1.8024 0.1326 -12.9482 -2.9173 9.8153 1.6263 -1.0054 -2.0506 -9.6167 4.5430 -16.9421 0.0126 1.8401 0.0160 11.1666 -4.3123 -7.1056 -1.4176 -0.3009 0.9486
-17.2579 98.7569 -33.9221 0.6376 -1.5278 -4.2125 -1.3437 -2.8083 0.2194 -0.7351 -5.9259 0.7155 -2.2449 13.7232 -1.8400 0.0783 8.4568 2.8939 -0.8387 -3.6176 -0.8706 4.0926 -2.7476 -3.0939 0.0057 -0.0128 -0.0769 0.7429 -10.5783 -3.9155 -0.7335 -10.6062 3.7663 -19.4842 13.5476 -6.4168 -45.9468 8.6048 -14.6435 -0.3498 -0.0742 -45.9241 5.1995 -10.3183 2.3458 -15.0873 11.0386 16.0354 -60.1723 1.7872 2.3828 6.8825 12.8126 11.7480 63.0962 7.2473 12.8942 -0.4154 0.1645 51.8042 -1.2393 -10.7479 -1.2966 15.2921 7.5405 -16.2539 49.5527 -3.5730 -5.1790 8.8679 3.4475 2.2539 0.0135 1.8107 0.1682 -13.0940 -2.9269 9.8608 1.6257 -1.0515 -2.0799 -9.4570 4.6169 -17.0240 0.0189 1.8970 0.0401 11.1630 -4.5142 -6.9807 -1.4161 -0.4230 0.9443
