HIERARCHY
ROOT Hips
{
	OFFSET 0.0000 0.0000 0.0000
	CHANNELS 6 Xposition Yposition Zposition Zrotation Xrotation Yrotation
	JOINT Spine1
	{
		OFFSET -0.0137 5.0038 -0.0537
		CHANNELS 3 Zrotation Xrotation Yrotation
		JOINT Spine2
		{
			OFFSET -0.0000 7.1253 -0.0298
			CHANNELS 3 Zrotation Xrotation Yrotation
			JOINT Chest
			{
				OFFSET -0.0000 7.5501 -0.8160
				CHANNELS 3 Zrotation Xrotation Yrotation
				JOINT Neck1
				{
					OFFSET -0.1817 26.3113 -0.5533
					CHANNELS 3 Zrotation Xrotation Yrotation
					JOINT Neck2
					{
						OFFSET -0.0000 7.7094 2.3026
						CHANNELS 3 Zrotation Xrotation Yrotation
						JOINT Head
						{
							OFFSET -0.0000 6.1289 1.9537
							CHANNELS 3 Zrotation Xrotation Yrotation
							JOINT Jaw
							{
								OFFSET 0.0026 0.4756 3.0949
								CHANNELS 3 Zrotation Xrotation Yrotation
								End Site
								{
									OFFSET 0.0 1.0 0.0
								}
							}
							JOINT LeftEye
							{
								OFFSET 3.2064 5.3802 7.5869
								CHANNELS 3 Zrotation Xrotation Yrotation
								End Site
								{
									OFFSET 0.0 1.0 0.0
								}
							}
							JOINT RightEye
							{
								OFFSET -3.2224 5.3619 7.5582
								CHANNELS 3 Zrotation Xrotation Yrotation
								End Site
								{
									OFFSET 0.0 1.0 0.0
								}
							}
						}
					}
				}
				JOINT LeftShoulder
				{
					OFFSET 1.6217 23.2372 5.1134
					CHANNELS 3 Zrotation Xrotation Yrotation
					JOINT LeftArm
					{
						OFFSET 14.9198 0.0000 -5.5023
						CHANNELS 3 Zrotation Xrotation Yrotation
						JOINT LeftForeArm
						{
							OFFSET 28.7393 0.0000 -0.0026
							CHANNELS 3 Zrotation Xrotation Yrotation
							JOINT LeftHand
							{
								OFFSET 27.0940 -0.0000 0.0026
								CHANNELS 3 Zrotation Xrotation Yrotation
								JOINT LeftHandThumbEnd
								{
									OFFSET 12.2686 -3.2202 4.8331
									CHANNELS 3 Zrotation Xrotation Yrotation
									End Site
									{
										OFFSET 0.0 1.0 0.0
									}
								}
								JOINT LeftHandMiddleEnd
								{
									OFFSET 19.0120 -0.3129 -0.0340
									CHANNELS 3 Zrotation Xrotation Yrotation
									End Site
									{
										OFFSET 0.0 1.0 0.0
									}
								}
							}
						}
					}
				}
				JOINT RightShoulder
				{
					OFFSET -1.3801 23.1803 5.2142
					CHANNELS 3 Zrotation Xrotation Yrotation
					JOINT RightArm
					{
						OFFSET -15.0372 0.0000 -5.5456
						CHANNELS 3 Zrotation Xrotation Yrotation
						JOINT RightForeArm
						{
							OFFSET -28.7366 0.0000 -0.0026
							CHANNELS 3 Zrotation Xrotation Yrotation
							JOINT RightHand
							{
								OFFSET -27.1336 -0.0000 0.0026
								CHANNELS 3 Zrotation Xrotation Yrotation
								JOINT RightHandThumbEnd
								{
									OFFSET -12.2642 -3.2115 4.8040
									CHANNELS 3 Zrotation Xrotation Yrotation
									End Site
									{
										OFFSET 0.0 1.0 0.0
									}
								}
								JOINT RightHandMiddleEnd
								{
									OFFSET -19.0006 -0.3066 -0.0316
									CHANNELS 3 Zrotation Xrotation Yrotation
									End Site
									{
										OFFSET 0.0 1.0 0.0
									}
								}
							}
						}
					}
				}
			}
		}
	}
	JOINT LeftLeg
	{
		OFFSET 10.0432 -8.4345 2.5957
		CHANNELS 3 Zrotation Xrotation Yrotation
		JOINT LeftShin
		{
			OFFSET -0.0000 -43.2218 -0.8029
			CHANNELS 3 Zrotation Xrotation Yrotation
			JOINT LeftFoot
			{
				OFFSET 0.0000 -42.1551 -3.4815
				CHANNELS 3 Zrotation Xrotation Yrotation
				JOINT LeftToeBase
				{
					OFFSET 0.0000 -5.0595 13.2315
					CHANNELS 3 Zrotation Xrotation Yrotation
					End Site
					{
						OFFSET 0.0 1.0 0.0
					}
				}
			}
		}
	}
	JOINT RightLeg
	{
		OFFSET -10.0473 -8.2953 2.6203
		CHANNELS 3 Zrotation Xrotation Yrotation
		JOINT RightShin
		{
			OFFSET 0.0000 -43.3622 -0.8056
			CHANNELS 3 Zrotation Xrotation Yrotation
			JOINT RightFoot
			{
				OFFSET 0.0000 -42.1174 -3.4784
				CHANNELS 3 Zrotation Xrotation Yrotation
				JOINT RightToeBase
				{
					OFFSET -0.0000 -5.0796 13.2842
					CHANNELS 3 Zrotation Xrotation Yrotation
					End Site
					{
						OFFSET 0.0 1.0 0.0
					}
				}
			}
		}
	}
}
MOTION
Frames: 90
Frame Time: 0.033333
-3.9637 83.8855 4.8251 1.4335 4.4407 0.7577 1.3200 8.8108 -0.8105 0.2014 -0.8544 -1.7891 4.1141 22.2234 -2.8921 11.0608 3.5842 -0.0013 -4.0344 -3.9641 -9.9090 1.1386 -17.1806 -13.4248 -0.0183 0.0167 0.1356 0.6625 -10.2661 -3.6595 -0.6895 -10.2551 3.9116 19.8308 16.5259 -13.0789 -65.8303 -37.2383 -24.6853 -2.1217 0.8730 -139.5969 -7.9522 37.6496 14.1316 -16.2993 10.4923 15.3807 -61.5189 1.7768 2.0897 -13.5176 12.0849 18.7859 110.3291 -39.6521 -44.7172 0.0474 -0.2526 112.0962 -37.9087 0.4487 -37.0037 15.1583 7.5038 -15.9277 49.2252 -3.2618 -4.9716 18.7946 -31.4190 11.2373 -0.5741 60.1832 -0.9848 -21.3673 -28.3935 2.1975 1.6445 -0.9593 -1.8902 -10.5242 -53.7865 -26.7957 1.1676 60.7447 1.4211 8.0225 -12.5040 7.8677 -1.4087 1.1765 0.8696
-3.8587 83.9511 4.9074 1.3022 4.3613 1.0294 1.2778 8.8113 -0.9045 0.1713 -0.8922 -1.8513 3.6742 22.2874 -3.1890 11.1227 3.6215 -0.0699 -4.0213 -3.9649 -10.0440 1.3031 -17.0891 -13.4942 -0.0183 -0.0077 0.1089 0.6710 -10.2576 -3.6866 -0.6976 -10.2447 3.8834 19.5934 16.9018 -13.0781 -65.9318 -36.6311 -25.3153 -2.2035 0.8299 -139.1324 -7.7301 38.5170 13.2501 -16.1422 10.5497 15.4694 -61.3679 1.7198 2.1827 -13.9667 12.1159 18.1405 109.6965 -39.0115 -44.7204 0.1771 -0.3305 112.1260 -37.3421 -0.5571 -36.8408 15.2492 7.4212 -15.9002 49.3881 -3.3131 -4.9452 18.8942 -31.5674 11.1713 -0.6617 60.2773 -1.0891 -21.0333 -28.4094 1.9379 1.6521 -0.9981 -1.9058 -10.6520 -53.4126 -26.6762 1.0292 60.4622 1.2720 8.3728 -12.2931 7.4231 -1.4198 1.3438 0.8372
-3.6972 84.0930 4.8585 1.1378 4.3253 1.2962 1.2176 8.7478 -0.9665 0.1346 -0.9427 -1.9699 3.1754 22.3593 -3.5420 11.2115 3.7782 -0.1444 -3.9835 -3.9818 -10.2150 1.4967 -17.1555 -13.5693 -0.0236 -0.0165 0.1145 0.6728 -10.2730 -3.6819 -0.7097 -10.2548 3.8889 19.1254 17.3215 -13.1238 -66.3049 -35.6663 -25.6459 -2.2801 0.8016 -138.6534 -7.7553 39.5998 11.9105 -16.0040 10.5690 15.5097 -61.2504 1.6849 2.1688 -14.3322 12.2193 17.4853 108.4050 -38.4840 -44.1312 0.2751 -0.4271 112.0972 -36.6985 -1.7070 -36.8354 15.3820 7.3469 -15.8762 49.6222 -3.3635 -4.9501 18.8894 -31.7622 11.3129 -0.6904 60.2575 -1.1335 -20.5575 -28.3209 1.6403 1.6620 -0.9681 -1.9178 -10.6759 -53.0331 -26.6870 0.9317 59.9827 1.1573 8.6680 -11.9130 6.9913 -1.4287 1.5523 0.8322
-3.4425 84.3530 4.7433 0.9154 4.3267 1.3960 1.1575 8.6495 -0.9621 0.0953 -1.0142 -2.1025 2.7208 22.4593 -3.8866 11.2673 4.1086 -0.2318 -3.8994 -3.9855 -10.3064 1.7442 -17.3840 -13.6100 -0.0213 -0.0201 0.1120 0.6779 -10.2798 -3.6803 -0.7104 -10.2521 3.8804 18.5236 17.8255 -13.0840 -66.8370 -34.4027 -25.6270 -2.3188 0.7348 -138.0931 -7.8753 40.6995 10.1692 -15.8654 10.5700 15.5014 -61.1924 1.6385 2.1507 -14.5856 12.3722 16.7733 106.4705 -38.1801 -42.7528 0.2786 -0.5953 112.0029 -35.9444 -2.8250 -37.0356 15.4063 7.3404 -15.8703 49.8358 -3.3691 -4.9544 18.7582 -31.8398 11.5941 -0.6512 59.9837 -1.0929 -20.0894 -28.1832 1.5125 1.6639 -0.8251 -1.9192 -10.6228 -52.5202 -26.6392 0.8294 59.1034 1.0287 8.9580 -11.3773 6.6745 -1.4372 1.6745 0.8390
-3.0326 84.7706 4.6007 0.6610 4.3692 1.3290 1.1071 8.4965 -0.9773 0.0349 -1.0752 -2.1677 2.3235 22.5519 -4.2289 11.3046 4.5733 -0.3445 -3.8061 -3.9978 -10.3115 2.0175 -17.6626 -13.5650 -0.0189 -0.0213 0.1061 0.6756 -10.2689 -3.6819 -0.7030 -10.2363 3.8677 17.9131 18.3539 -12.9331 -67.6519 -32.6837 -25.1133 -2.3641 0.6747 -137.3467 -8.2855 41.9464 7.8444 -15.7831 10.5029 15.4624 -61.0236 1.5878 2.1445 -14.6474 12.5519 15.9992 103.9087 -37.9793 -40.6271 0.2488 -0.7235 111.9623 -34.8495 -3.9609 -37.4127 15.3979 7.3486 -15.8369 50.0154 -3.3151 -4.9303 18.4767 -31.7308 11.9971 -0.5735 59.3474 -0.9991 -19.6207 -27.9365 1.5262 1.6610 -0.6329 -1.9144 -10.4921 -51.7740 -26.5870 0.7801 57.6107 0.9605 9.3534 -10.5612 6.3264 -1.4438 1.7169 0.8541
-2.5016 85.3527 4.4191 0.3976 4.4862 1.0764 1.0587 8.3297 -0.9717 -0.0076 -1.1548 -2.2309 1.9911 22.6074 -4.5302 11.2642 5.1567 -0.4503 -3.6649 -3.9990 -10.2325 2.2947 -17.9650 -13.4307 -0.0184 -0.0238 0.0956 0.6732 -10.2753 -3.6920 -0.7000 -10.2454 3.8572 17.4346 18.9144 -12.5993 -68.6842 -30.3878 -24.2022 -2.3290 0.5588 -136.3338 -9.1501 43.5178 4.8234 -15.6705 10.4293 15.3921 -60.8529 1.5541 2.1248 -14.4665 12.7486 15.2013 100.9717 -37.7626 -38.0999 0.2718 -0.9190 112.1272 -33.4261 -4.7673 -37.8974 15.3625 7.3523 -15.7780 50.1876 -3.2262 -4.8846 17.9877 -31.4366 12.5007 -0.5074 58.3546 -0.9247 -19.2014 -27.6393 1.8308 1.6541 -0.3850 -1.9053 -10.3089 -50.8753 -26.4229 0.7609 55.5954 0.9286 9.8364 -9.4832 5.9983 -1.4471 1.6928 0.8598
-1.8165 86.1459 4.2266 0.1283 4.6829 0.6976 1.0181 8.1292 -0.9737 -0.0287 -1.2560 -2.2616 1.7380 22.5532 -4.7906 11.1504 5.8156 -0.5121 -3.5072 -4.0032 -10.0902 2.4815 -18.2408 -13.1868 -0.0208 -0.0297 0.0845 0.6654 -10.2875 -3.7024 -0.6971 -10.2597 3.8479 17.1533 19.4178 -12.0881 -70.1160 -27.3528 -22.7157 -2.2648 0.4318 -135.0565 -10.9394 45.4641 0.7950 -15.5817 10.3569 15.3391 -60.6097 1.5435 2.0966 -14.0401 13.0058 14.4380 97.9109 -37.3470 -35.5271 0.3526 -1.0561 112.5409 -31.7020 -5.1940 -38.2393 15.3623 7.3428 -15.6986 50.3003 -3.1670 -4.8062 17.3128 -30.8683 12.9330 -0.4214 56.8539 -0.8206 -18.8701 -27.1002 2.6231 1.6511 -0.2446 -1.9047 -10.0883 -49.7032 -26.1040 0.7302 52.9269 0.8875 10.3943 -8.0619 5.6391 -1.4471 1.5808 0.8433
-1.0955 87.0961 4.0719 -0.0921 4.9741 0.2661 0.9871 7.9381 -0.9614 -0.0317 -1.3875 -2.2647 1.5556 22.3326 -4.9671 10.9246 6.5225 -0.4680 -3.3602 -3.9815 -9.9731 2.6217 -18.4579 -12.9034 -0.0239 -0.0257 0.0702 0.6578 -10.3094 -3.7180 -0.6954 -10.2781 3.8362 17.1780 19.7962 -11.3790 -71.7840 -23.7166 -20.5672 -2.2824 0.2962 -133.8601 -14.0009 47.0224 -4.4322 -15.4526 10.3394 15.2943 -60.2890 1.5416 2.0211 -13.4782 13.2521 13.6735 94.9172 -36.5076 -33.2237 0.3790 -1.1842 113.1554 -29.6744 -5.2712 -37.9864 15.3927 7.3488 -15.6850 50.3531 -3.1509 -4.7311 16.4608 -30.1085 13.2366 -0.3654 54.9798 -0.7689 -18.5835 -26.3507 3.7612 1.6512 -0.2339 -1.9145 -9.9286 -48.3614 -25.5502 0.6952 49.7936 0.8673 11.0045 -6.4701 5.1946 -1.4446 1.3661 0.8160
-0.3848 88.1055 3.9968 -0.2246 5.3522 -0.0950 0.9306 7.7537 -0.9634 -0.0425 -1.5014 -2.2109 1.4542 21.9037 -5.0567 10.6098 7.2674 -0.3473 -3.2558 -3.9427 -9.8697 2.6992 -18.4725 -12.6064 -0.0293 -0.0179 0.0593 0.6472 -10.3257 -3.7301 -0.6952 -10.2840 3.8287 17.4638 19.9825 -10.4997 -73.2540 -19.9473 -17.7785 -2.3621 0.1825 -133.3857 -17.6239 47.5732 -9.9968 -15.3476 10.3181 15.2201 -59.8970 1.5201 1.9305 -12.8896 13.4736 12.9431 92.4629 -35.1363 -31.5527 0.2624 -1.2877 113.8392 -27.4928 -4.9757 -37.0135 15.3782 7.4108 -15.7230 50.3897 -3.1115 -4.6964 15.4980 -29.2573 13.4381 -0.3259 52.8012 -0.7319 -18.3590 -25.4115 5.0046 1.6574 -0.2928 -1.9297 -9.9412 -46.9055 -24.6911 0.6471 46.3270 0.8504 11.6347 -4.8009 4.5142 -1.4415 1.1399 0.7851
0.2718 89.0755 3.9195 -0.3019 5.8105 -0.2968 0.8502 7.5330 -0.9887 -0.0613 -1.5838 -2.1021 1.4429 21.3371 -4.9849 10.2350 7.9722 -0.2103 -3.1732 -3.9041 -9.7991 2.7117 -18.2014 -12.3701 -0.0339 -0.0087 0.0520 0.6380 -10.3367 -3.7368 -0.6950 -10.2829 3.8228 17.7721 19.9246 -9.5682 -74.1524 -16.7104 -14.2740 -2.4020 0.0923 -133.8478 -20.2459 47.2812 -14.3412 -15.3829 10.3006 15.2198 -59.6579 1.4717 1.8765 -12.2299 13.6623 12.3388 90.7418 -33.3006 -30.8713 0.1538 -1.3444 114.5625 -25.4684 -4.4799 -35.6692 15.3062 7.4589 -15.7921 50.3446 -3.1145 -4.6868 14.5706 -28.5179 13.5442 -0.2977 50.5550 -0.7027 -18.0879 -24.3491 5.9820 1.6651 -0.3876 -1.9437 -10.0567 -45.4885 -23.6605 0.6014 42.8469 0.8601 12.1972 -3.1691 3.6098 -1.4385 0.9701 0.7657
0.8196 89.9058 3.8113 -0.3610 6.3440 -0.3001 0.7587 7.3009 -0.9588 -0.0811 -1.6639 -1.9998 1.5009 20.7543 -4.7113 9.9146 8.4860 -0.1240 -3.1548 -3.8853 -9.7600 2.7656 -17.6825 -12.3374 -0.0412 0.0009 0.0628 0.6312 -10.3768 -3.7296 -0.7025 -10.3083 3.8390 18.1824 19.6005 -8.6431 -74.5795 -14.5682 -9.9418 -2.2792 -0.0461 -135.2656 -20.8297 46.6663 -16.7347 -15.6678 10.2144 15.2081 -59.7611 1.4325 1.8477 -11.4784 13.8074 11.9200 89.7234 -31.1287 -31.2791 -0.0037 -1.4614 115.3677 -23.9214 -3.7581 -34.2360 15.1366 7.5078 -15.8343 50.2351 -3.1372 -4.6787 13.7369 -28.1400 13.5955 -0.2793 48.6559 -0.6842 -17.6533 -23.4027 6.5955 1.6709 -0.5118 -1.9604 -10.2087 -44.3169 -22.5969 0.5459 39.7443 0.8615 12.6824 -1.6389 2.5668 -1.4373 0.8162 0.7807
1.3032 90.5167 3.5940 -0.4658 6.8657 -0.0154 0.6815 7.1182 -0.9034 -0.0911 -1.7030 -1.8532 1.6259 20.1653 -4.3394 9.7174 8.6964 -0.0760 -3.1611 -3.8876 -9.8625 2.8765 -17.0706 -12.5330 -0.0474 0.0025 0.0724 0.6244 -10.4175 -3.7254 -0.7092 -10.3398 3.8570 18.8126 18.9350 -7.7737 -74.7980 -14.0234 -4.9864 -2.0889 -0.2149 -137.3330 -18.8932 46.1550 -16.9058 -16.2211 10.0441 15.1753 -60.2289 1.4050 1.8582 -10.6729 13.8870 11.7607 89.5085 -28.6914 -32.9367 -0.0971 -1.4785 116.1748 -22.7749 -2.9703 -32.6876 14.9158 7.4923 -15.8398 50.0497 -3.2046 -4.6982 13.1550 -28.2018 13.4979 -0.2578 47.3825 -0.6457 -17.0790 -22.7517 6.8893 1.6716 -0.7167 -1.9818 -10.3072 -43.4947 -21.8589 0.4991 37.3707 0.8646 13.0884 -0.4173 1.6075 -1.4354 0.6461 0.8133
1.7248 90.8242 3.2614 -0.5793 7.3406 0.6374 0.5773 7.0332 -0.8288 -0.0704 -1.7010 -1.7052 1.8024 19.6294 -3.9230 9.6865 8.5044 -0.0528 -3.2591 -3.8873 -10.1327 3.1914 -16.4630 -13.0673 -0.0496 -0.0040 0.0838 0.6208 -10.4504 -3.7206 -0.7118 -10.3695 3.8774 19.7236 17.8133 -7.0088 -75.1248 -15.4948 0.0050 -1.9544 -0.2914 -140.0545 -14.3524 45.1152 -14.5530 -16.9101 9.8285 15.1082 -60.9267 1.4098 1.8911 -9.7769 13.9227 11.9218 89.9468 -26.0790 -35.7899 -0.2129 -1.4425 116.9921 -22.1394 -2.2185 -30.7695 14.7320 7.4428 -15.8071 49.8243 -3.3130 -4.7408 12.7833 -28.7924 13.1468 -0.2440 46.9755 -0.6042 -16.4839 -22.5011 6.9658 1.6740 -0.9398 -2.0182 -10.3898 -43.1855 -21.6316 0.4780 36.0068 0.8755 13.5258 0.4300 0.8321 -1.4360 0.4741 0.8330
1.9979 90.7787 2.8232 -0.6730 7.7239 1.7928 0.4611 7.0934 -0.7409 -0.0234 -1.6688 -1.5230 1.9930 19.2532 -3.5255 9.8124 7.8260 -0.0203 -3.5000 -3.8886 -10.6661 3.8207 -15.9742 -14.0743 -0.0352 -0.0065 0.0786 0.6275 -10.4580 -3.7268 -0.6909 -10.3753 3.8677 20.8196 16.0905 -6.4597 -75.6332 -19.5528 3.6630 -1.7391 -0.3971 -143.4533 -9.1267 42.1020 -11.5938 -17.2778 9.7918 15.1145 -61.6814 1.4595 1.9609 -8.5545 13.9800 12.4795 90.9268 -23.4941 -39.6744 -0.5130 -1.4257 117.9894 -22.3592 -1.8009 -28.1486 14.6604 7.4209 -15.8235 49.6123 -3.4160 -4.8599 12.6119 -30.0424 12.3994 -0.2754 47.7294 -0.6492 -15.9729 -22.7627 6.8712 1.6786 -0.9853 -2.0356 -10.5083 -43.5601 -21.9802 0.4770 36.0450 0.8803 14.0071 0.7170 0.2511 -1.4449 0.3712 0.8375
2.1427 90.3428 2.3065 -0.6771 7.9691 3.5713 0.3459 7.3204 -0.7046 0.0011 -1.5820 -1.2523 2.1158 19.0807 -3.2200 10.1407 6.6506 -0.0442 -3.7917 -3.9119 -11.6303 4.6771 -15.6933 -15.4422 -0.0153 -0.0130 0.0743 0.6415 -10.4533 -3.7278 -0.6659 -10.3731 3.8528 21.6616 13.9331 -5.9989 -75.9150 -26.7232 4.7972 -1.3605 -0.5308 -146.9598 -4.9890 37.1045 -10.3990 -17.0763 9.9161 15.1866 -62.0370 1.5189 2.1022 -6.7510 14.0554 13.4697 92.6581 -21.0011 -44.5264 -0.8660 -1.4747 119.3029 -23.7787 -1.9239 -24.3281 14.6671 7.4426 -15.9123 49.4714 -3.5266 -5.0354 12.6447 -31.8732 11.0941 -0.3566 49.5814 -0.7640 -15.6290 -23.3839 6.4715 1.6845 -0.8687 -2.0008 -10.8056 -44.6209 -22.8874 0.5265 37.5573 0.9332 14.5291 0.4527 -0.1551 -1.4595 0.3505 0.8535
2.1529 89.5398 1.7742 -0.5567 7.9755 5.7036 0.2102 7.7333 -0.6476 -0.0241 -1.4495 -0.9956 2.0127 19.1522 -3.0722 10.6753 5.1397 -0.1112 -4.0749 -3.9762 -12.7468 5.4967 -15.6066 -16.8814 -0.0073 -0.0198 0.0904 0.6588 -10.4632 -3.7144 -0.6678 -10.3899 3.8674 21.7989 12.1215 -5.7203 -75.5478 -36.2361 3.2231 -0.7868 -0.5294 -149.3077 -2.5056 31.6927 -12.0528 -16.8776 10.2067 15.2266 -62.1525 1.5685 2.2610 -4.6712 14.1307 14.7847 95.4300 -18.6991 -49.3425 -1.1776 -1.6244 120.5536 -26.5554 -1.9132 -19.4816 14.5951 7.4501 -16.0018 49.3268 -3.6866 -5.1250 12.8587 -33.8804 9.2046 -0.4444 52.2160 -0.8719 -15.5778 -24.3187 6.0112 1.6856 -0.5850 -1.9620 -11.5145 -46.0568 -23.7603 0.5944 40.2450 1.0013 15.0639 -0.4497 -0.6082 -1.4711 0.4188 0.8788
2.0620 88.4654 1.2743 -0.5060 7.7836 7.8082 0.1005 8.1855 -0.6390 -0.1145 -1.2105 -0.7527 1.7573 19.4215 -3.0247 11.2634 3.5392 -0.2276 -4.3232 -4.0492 -13.5785 6.0329 -15.6615 -18.0685 -0.0065 -0.0331 0.1077 0.6772 -10.4596 -3.7012 -0.6842 -10.3992 3.8860 20.8845 11.2090 -5.9675 -74.1412 -46.1546 -0.8227 -0.4489 -0.3416 -149.5721 -0.4244 27.4666 -14.6949 -16.7542 10.5018 15.1598 -61.8897 1.5211 2.5031 -3.0901 13.9818 15.8741 98.9672 -17.0924 -51.8682 -1.4419 -1.5680 120.9148 -29.7532 -0.1270 -15.8769 14.4312 7.4702 -16.0377 49.2469 -3.7800 -5.1300 13.4456 -35.8530 6.8664 -0.5078 55.2437 -0.9308 -15.7916 -25.4149 5.6242 1.6763 -0.1109 -1.9481 -12.3168 -47.5038 -24.4943 0.7325 43.3890 1.1695 15.5038 -1.7209 -1.2550 -1.4723 0.5833 0.8956
1.8726 87.3014 0.8123 -0.6162 7.4043 9.5454 -0.0070 8.6359 -0.5640 -0.1949 -0.8790 -0.6522 1.3855 19.8466 -2.8860 11.8349 1.9963 -0.4046 -4.5023 -4.0957 -14.0081 6.2655 -15.6607 -18.9134 -0.0106 -0.0482 0.1205 0.6858 -10.4655 -3.6885 -0.7010 -10.4165 3.9004 19.2412 11.2180 -6.9486 -71.5189 -53.8363 -7.0046 -0.7434 -0.1279 -147.3813 2.1959 24.8424 -16.0190 -16.4449 10.5150 15.2083 -61.0331 1.4267 2.6563 -2.4852 13.6300 16.5057 102.9033 -17.0352 -51.6626 -1.4109 -1.3732 119.0616 -33.2065 3.9286 -14.7695 14.2880 7.5785 -16.1310 49.4110 -3.7021 -5.1341 14.3668 -37.5964 4.5604 -0.5801 58.3509 -0.9766 -16.0970 -26.4114 5.2707 1.6598 0.4247 -1.9491 -13.0568 -48.7158 -24.8775 0.9120 46.5451 1.3784 15.7687 -3.0289 -2.0216 -1.4698 0.7994 0.9057
1.5742 86.1195 0.4066 -0.8093 6.7579 11.0484 -0.1060 9.1481 -0.4227 -0.2076 -0.5196 -0.6969 0.9286 20.3748 -2.5633 12.3742 0.7099 -0.5568 -4.6618 -4.1461 -14.2611 6.2795 -15.6373 -19.5614 -0.0137 -0.0641 0.1217 0.6869 -10.5027 -3.6871 -0.7084 -10.4612 3.9043 17.6862 11.7129 -8.4397 -68.6083 -57.4039 -13.2416 -1.7441 -0.0569 -142.8491 5.0887 23.0918 -14.3800 -15.9582 10.2850 15.4651 -60.0588 1.3745 2.7386 -3.0397 13.1247 16.7108 106.9928 -18.9862 -50.2018 -1.1734 -1.1443 114.6231 -37.2764 9.2015 -16.4555 14.3250 7.6807 -16.2510 49.6883 -3.5230 -5.1516 15.4417 -38.9437 2.6388 -0.7007 61.3001 -1.1240 -16.4041 -27.2741 4.7217 1.6461 0.8637 -1.9315 -13.9908 -49.5256 -24.6487 1.0318 49.7715 1.5029 15.9717 -4.5104 -2.8946 -1.4700 1.0967 0.9250
1.1646 85.0572 0.1550 -0.9312 5.9030 12.5067 -0.1761 9.5564 -0.2511 -0.1907 -0.1917 -0.6835 0.4791 20.9083 -2.1984 12.9092 -0.1905 -0.6473 -4.9135 -4.2497 -14.5890 6.2462 -15.4067 -20.2389 -0.0077 -0.0691 0.1074 0.6938 -10.5404 -3.7005 -0.7034 -10.5060 3.8879 16.2879 12.1928 -9.7788 -64.6710 -56.5296 -19.8042 -2.5655 -0.1005 -136.7417 6.5496 21.4930 -8.7912 -15.4022 10.1668 15.6401 -59.7021 1.3429 2.7279 -4.1419 12.6238 16.8378 110.2474 -22.9361 -49.8668 -0.8517 -0.9494 108.6676 -41.6882 12.8222 -19.2447 14.4648 7.4845 -16.1914 49.7579 -3.4699 -5.1066 16.4280 -39.7515 1.3208 -0.8742 63.6862 -1.3610 -16.6214 -27.9135 3.9638 1.6501 1.2205 -1.9175 -15.2703 -49.7891 -23.8848 1.0785 52.7180 1.5554 16.1840 -5.9126 -3.9169 -1.4731 1.5202 0.9403
0.6402 84.2404 0.1432 -0.8035 4.8088 14.2903 -0.2037 9.7163 -0.1442 -0.1977 0.0439 -0.5307 0.1043 21.3091 -1.9492 13.3300 -0.6162 -0.6820 -5.1506 -4.3308 -15.0189 6.2608 -14.7625 -20.9596 0.0037 -0.0526 0.0942 0.7122 -10.5611 -3.7166 -0.6989 -10.5237 3.8739 15.2504 12.2786 -10.4970 -60.3367 -52.4314 -25.8970 -2.5281 -0.2509 -130.5841 4.5563 22.1202 -1.7042 -15.1383 10.4913 15.7972 -60.1520 1.2728 2.5421 -5.6662 12.1230 16.7061 111.5019 -27.8467 -49.9323 -0.7762 -0.7379 102.4052 -45.1962 14.3435 -22.7204 14.5411 7.1875 -16.0670 49.6238 -3.5809 -4.9912 17.0536 -39.7803 0.4450 -1.0558 65.1213 -1.6180 -16.6368 -28.2344 2.7508 1.6650 1.4647 -1.9222 -17.0601 -49.3092 -22.8011 1.1198 55.2988 1.6269 16.4720 -7.3622 -5.2304 -1.4773 1.9866 0.9058
-0.0666 83.6392 0.4912 -0.3187 3.3285 16.6211 -0.2251 9.7450 -0.0693 -0.2305 0.1269 -0.4753 -0.2383 21.3768 -1.8868 13.6030 -0.4564 -0.6366 -5.2163 -4.3095 -15.4682 6.2254 -13.5545 -21.5534 0.0116 -0.0293 0.0625 0.7206 -10.5490 -3.7449 -0.6909 -10.5195 3.8382 14.8982 12.0404 -10.5578 -56.3038 -47.3583 -30.6104 -2.0253 -0.2708 -125.3276 -1.2058 27.5255 2.9090 -15.8180 10.7815 15.9076 -61.3535 1.3002 2.4088 -7.9250 11.5628 16.0395 109.7124 -33.0190 -48.2931 -0.4872 -0.5246 95.9919 -45.9732 14.7038 -27.6936 14.6933 7.0714 -16.1505 49.4795 -3.5994 -4.9412 17.3158 -38.8422 -0.2313 -1.2581 65.6568 -1.8828 -16.3847 -28.5348 0.8239 1.6802 1.4962 -1.8876 -19.4835 -47.9168 -21.6054 1.2171 57.6443 1.7840 17.1321 -9.2486 -6.8978 -1.4787 2.2015 0.9015
-0.8813 83.3104 1.3344 0.5279 1.2229 19.0929 -0.2758 9.7067 -0.0576 -0.2999 -0.0498 -0.3339 -0.6429 20.7799 -1.9942 13.5981 0.8040 -0.5861 -5.0387 -4.2180 -15.8793 6.1451 -11.5293 -21.7007 0.0050 -0.0208 0.0260 0.7298 -10.5518 -3.7682 -0.7116 -10.5315 3.7946 14.9449 11.8274 -10.3212 -51.1803 -42.4043 -35.5308 -1.1113 -0.0042 -120.1703 -9.9513 34.7188 2.3207 -16.8155 10.4069 15.5567 -61.5252 1.1645 2.2462 -11.4482 10.8855 15.0573 102.5058 -38.7562 -41.6331 -0.2110 0.4776 88.7463 -41.6782 15.7504 -32.9789 15.1060 6.9363 -16.3116 49.2202 -3.5907 -4.9274 17.0717 -36.5198 -0.4790 -1.4753 65.2824 -2.1810 -16.0669 -28.8556 -1.2958 1.6927 1.3298 -1.7922 -22.4812 -45.3110 -20.2461 1.3388 59.5880 1.9295 18.3109 -11.2847 -8.8166 -1.4875 2.1198 0.9239
-1.5570 83.3034 2.6391 1.6380 -1.3054 20.8626 -0.4177 9.3298 -0.1494 -0.3818 -0.6151 0.0689 -1.2321 19.5338 -2.0658 13.1352 3.5466 -0.4285 -4.6533 -4.0820 -15.9865 5.9652 -8.4230 -21.1387 0.0024 -0.0317 -0.0116 0.7695 -10.5674 -3.7989 -0.7549 -10.5501 3.7547 14.1876 11.4881 -10.3213 -45.3330 -37.7458 -39.6816 -0.2658 0.5407 -114.3052 -16.9587 38.3058 -2.2193 -16.9457 10.0422 14.9533 -60.7248 1.1109 2.1098 -15.8789 10.1467 14.7080 86.0827 -44.4243 -25.5717 -1.2379 2.0767 78.3433 -32.6722 18.2524 -34.9400 15.6054 6.9523 -16.2762 49.1304 -3.6354 -4.8739 16.3123 -32.7862 -0.2486 -1.5681 64.0778 -2.3239 -15.9869 -29.0693 -2.3989 1.7080 1.0857 -1.7511 -25.5400 -41.6872 -18.6266 1.3199 60.7838 1.8678 19.7410 -13.1928 -10.6458 -1.5048 2.1089 0.9096
-2.0247 83.6008 4.4942 2.6508 -4.1219 21.3493 -0.5179 8.4052 -0.1836 -0.4059 -1.5103 0.6501 -1.9078 17.7684 -1.7853 12.2667 8.1610 -0.4128 -4.2703 -3.9410 -15.1688 5.7641 -3.9285 -20.1020 0.0152 -0.0486 -0.0423 0.8313 -10.5953 -3.8523 -0.7890 -10.5595 3.7431 12.4023 10.3845 -9.9514 -39.5275 -32.9006 -42.4591 0.2357 1.2295 -107.7136 -19.8280 38.4787 -7.8753 -16.5458 9.9796 14.3425 -59.8363 1.1269 2.0272 -20.0562 9.6940 15.3498 58.0835 -44.6876 1.4697 -0.4607 1.7680 64.9280 -23.1702 18.0945 -34.3113 15.8537 7.3670 -16.0885 49.7164 -3.6222 -4.5949 15.5395 -27.6470 0.4591 -1.4879 62.0571 -2.2514 -16.0580 -29.2449 -2.1394 1.7192 0.7373 -1.7772 -27.8415 -37.1545 -17.2508 1.1749 60.9637 1.6690 20.8544 -14.9379 -11.9965 -1.5224 2.2079 0.8779
-2.3103 84.2745 6.8909 3.2128 -7.2466 20.5374 -0.3978 6.9832 -0.0241 -0.3756 -2.4212 1.2795 -2.3127 15.8320 -0.9952 11.2539 14.3428 -0.4805 -4.0072 -3.8712 -13.5912 5.4882 1.4144 -18.6231 0.0419 -0.0700 -0.0574 0.8668 -10.5249 -3.8868 -0.7696 -10.4588 3.7352 11.1829 8.7661 -8.4566 -34.5437 -28.3330 -43.5195 0.1292 1.4315 -101.7396 -19.5188 37.4153 -13.4271 -15.7152 10.1458 14.0875 -58.9372 1.1262 2.0403 -22.9325 10.2893 16.2397 31.6682 -33.6292 26.2337 3.1080 0.5522 56.4140 -13.0096 10.5660 -32.7142 15.9665 7.6144 -16.2129 50.6908 -3.6839 -4.5843 15.4779 -20.9221 1.3931 -1.3263 58.9926 -2.0489 -16.2167 -29.2209 -0.9752 1.7142 0.0284 -1.7708 -28.8589 -31.4134 -16.1198 1.0850 59.9244 1.5580 21.2921 -16.4746 -13.3652 -1.5252 1.8666 0.8889
-2.5177 85.3630 10.0046 3.1932 -10.7690 18.7666 -0.4093 5.0375 0.2907 -0.3445 -3.1929 1.6237 -2.3440 14.1304 -0.2287 10.8283 21.2437 -0.6137 -3.8455 -3.6866 -11.3043 5.2136 7.4553 -16.3365 0.0470 -0.1011 -0.0468 0.8292 -10.4991 -3.8993 -0.7227 -10.4000 3.7670 12.0837 8.0388 -6.5802 -32.2396 -24.3334 -41.2150 0.1276 0.9329 -98.1708 -16.9420 36.3872 -17.2329 -15.3356 10.4139 14.5634 -58.5465 1.1692 2.1215 -25.1572 10.8410 16.5452 22.7967 -23.8186 34.9524 4.7522 -1.4093 57.7017 -7.3003 4.7495 -32.3127 15.8767 7.2553 -16.1462 50.1167 -3.8572 -4.7689 16.2335 -12.3106 2.3776 -0.9658 54.2631 -1.6773 -16.8270 -28.0951 1.0707 1.7452 -1.0571 -1.8087 -28.4383 -23.7219 -14.9087 0.8494 57.1539 1.3341 21.5045 -17.4889 -15.0626 -1.5276 1.5159 0.8925
-2.6868 87.0209 13.6331 2.7608 -13.9855 16.0831 -0.7670 2.7379 0.3489 -0.4841 -4.0230 1.2894 -2.1142 12.4284 0.1966 10.5674 28.0929 -0.8976 -2.9367 -3.3984 -8.4437 4.6987 13.6412 -12.9328 0.0131 -0.1092 -0.0166 0.7912 -10.5099 -3.8891 -0.7511 -10.4096 3.8354 13.8954 8.3481 -5.1272 -32.5551 -20.2047 -35.6528 0.5048 0.0012 -97.3472 -14.1193 36.2091 -18.9552 -15.9180 10.2368 14.8615 -58.8375 1.3615 2.1049 -26.3574 9.9554 15.0174 25.7289 -23.6176 36.0279 4.3368 -0.9418 62.7022 -9.7973 5.8521 -33.6899 15.1270 7.1130 -15.9464 48.7657 -3.9212 -4.9649 17.1689 -3.3594 3.4872 -0.6209 48.7632 -1.4215 -17.7037 -23.8709 4.2727 1.8370 -3.3000 -2.0075 -26.5793 -15.0886 -13.5582 0.5112 52.2356 1.0721 20.7275 -17.5062 -16.7796 -1.5309 1.2224 0.8327
-2.9077 89.2210 17.4131 2.4741 -16.5190 11.5618 -1.2315 0.0407 0.2063 -0.7272 -5.0447 0.4897 -2.0847 10.8215 -0.1660 10.2897 33.8381 -1.3945 -1.9345 -3.3066 -5.3297 3.9923 19.9144 -9.1081 -0.0316 -0.0729 0.0324 0.7828 -10.6122 -3.8861 -0.8331 -10.5500 3.9556 15.3434 8.0681 -4.0001 -35.1480 -14.2524 -29.1058 1.4152 -0.8268 -99.5870 -12.2591 37.1140 -17.9376 -16.5239 9.8373 14.9019 -59.2273 1.6546 1.9642 -26.0332 8.2671 12.4693 36.3832 -25.6022 31.2814 1.2424 2.0176 69.5686 -13.4263 12.6865 -34.1526 14.3357 7.1942 -15.9087 47.2332 -3.8839 -4.9983 17.5556 5.0473 5.2289 -0.3661 43.2575 -1.1705 -17.3141 -16.4350 7.9156 1.9130 -6.8326 -2.2236 -24.1023 -6.8297 -11.4111 0.1092 45.5136 0.6687 18.3494 -16.2873 -17.4262 -1.5342 0.6633 0.7695
-3.3174 91.6893 20.9092 3.1773 -18.0670 4.6313 -1.6243 -2.5582 0.2183 -1.0830 -6.3824 -0.3801 -2.0558 9.7029 -1.0569 9.7144 37.0096 -2.0490 -0.9534 -3.2774 -2.4899 3.4933 25.3121 -5.4643 -0.0808 -0.0541 0.0682 0.7982 -10.6772 -3.8928 -0.9445 -10.6924 4.0549 16.2259 7.2217 -3.7050 -40.5763 -7.8609 -24.3221 1.7386 -1.5395 -105.1424 -12.0631 38.9616 -15.1744 -16.8580 9.4566 14.8739 -59.1421 1.7851 1.8971 -23.0966 7.7484 8.7887 46.3764 -23.8916 23.0916 -1.3843 5.7224 78.9443 -11.0537 20.8420 -34.3936 14.3279 7.2984 -15.8739 46.6644 -3.7368 -4.9277 16.7964 11.9912 7.7632 -0.2433 38.5725 -0.8896 -16.6236 -5.9533 11.5240 2.0368 -11.6057 -2.4866 -22.4444 -0.5564 -8.3228 -0.0887 38.0841 0.2233 14.4782 -14.0590 -16.2591 -1.5130 -0.2017 0.6335
-3.9928 93.6577 23.6152 4.6802 -18.2330 -3.5153 -1.9038 -4.6957 0.3359 -1.2637 -7.4053 -1.1433 -2.1315 8.3773 -2.8973 9.5135 36.9002 -2.1835 -0.0108 -3.4115 -0.2829 3.7083 28.4927 -2.3205 -0.0806 -0.1116 0.0330 0.8051 -10.6374 -3.9224 -0.9432 -10.6997 4.0125 17.1754 6.1709 -3.7370 -47.9658 -2.2741 -23.2364 1.6747 -1.2382 -111.7327 -12.1318 41.7323 -12.5153 -17.0554 9.4067 14.7612 -59.4416 1.5527 1.8846 -19.2934 7.5905 4.6498 51.4237 -20.1994 14.3622 -1.7580 8.5492 88.8454 -4.3144 25.7304 -33.2817 14.6689 7.3510 -15.8745 47.6901 -3.4892 -4.8781 15.4772 17.1051 10.7625 -0.1541 34.7665 -0.7174 -17.7025 3.4603 14.4184 2.1302 -15.9650 -2.6021 -22.2055 2.0671 -5.5551 -0.2067 32.6109 0.0682 12.8932 -12.0556 -12.2652 -1.4499 -0.5873 0.5627
-5.0075 94.8871 25.3653 6.2221 -16.8042 -11.8553 -2.1478 -6.1500 0.1568 -1.6140 -8.1156 -2.0290 -1.8130 6.7619 -4.9914 10.9585 35.1909 -2.6983 0.6529 -3.3910 1.5708 4.7950 28.3534 1.0838 -0.2231 -0.1436 0.1598 0.6844 -10.4047 -3.7034 -1.1020 -10.4597 4.0836 19.1500 6.3351 -4.1660 -55.6512 0.0495 -24.3733 0.8944 -0.3703 -116.0532 -10.2522 43.9796 -9.9240 -17.1718 9.8744 14.7968 -60.3961 1.5291 1.8369 -15.8820 7.2607 0.7588 54.3271 -18.6569 2.2259 -0.2863 7.7354 97.2453 1.3579 28.3668 -32.2432 14.5864 7.3037 -15.9487 48.4725 -3.6659 -5.0852 14.5810 19.7252 14.2061 -0.1173 32.1021 -0.5739 -20.1891 11.2444 15.6337 2.2211 -19.0970 -2.6858 -22.2488 0.8435 -2.7968 -0.0759 30.5812 0.2343 12.2420 -11.8126 -7.3542 -1.3918 -0.6611 0.4679
-6.3914 95.3244 26.2420 6.7359 -14.2234 -19.2560 -2.4140 -6.8867 -0.3869 -1.8081 -8.5026 -3.3808 -0.7917 5.2593 -7.1789 13.3693 33.7459 -3.8256 1.3683 -3.3793 2.9156 7.0173 25.6845 4.0012 -0.2943 -0.2124 0.2095 0.7258 -10.0070 -3.5693 -1.2747 -10.0581 4.0619 21.9335 8.3844 -5.1806 -61.0296 -1.3174 -25.4899 -0.2298 0.7754 -117.4582 -7.9750 44.3033 -8.3731 -17.2139 10.4497 14.8809 -61.6916 1.5402 1.7478 -13.3278 6.5740 -3.1534 57.1777 -18.2553 -9.5032 -0.2458 5.0145 101.2547 2.9870 30.1017 -31.0301 14.1245 7.3750 -15.8314 49.1266 -3.7992 -5.2512 15.3960 19.9167 18.9701 -0.0924 30.3818 -0.5957 -22.3452 15.5648 15.8882 2.2851 -20.4150 -2.6950 -21.2741 -2.8745 -0.0710 0.0182 30.8906 0.4310 11.8350 -12.7640 -2.5016 -1.3547 -0.5607 0.5340
-7.9124 95.3019 26.3109 6.3338 -11.0670 -25.6738 -2.7112 -7.1642 -1.2829 -1.8542 -8.6548 -5.0825 0.7638 4.3959 -9.0516 15.5819 34.5082 -5.7854 2.1382 -3.4541 3.9745 9.4730 23.3607 5.7563 -0.3058 -0.2773 0.1593 0.7996 -9.7932 -3.6133 -1.3667 -9.7973 4.0008 24.9066 11.4394 -5.9423 -62.6681 -4.3221 -25.7019 -1.1421 1.7625 -116.9624 -5.4115 42.9793 -7.4708 -17.1243 10.7228 14.6798 -62.7599 1.4658 1.5705 -11.5623 5.8484 -6.4071 61.7492 -17.0258 -20.4926 -0.8071 2.5987 102.7352 1.1429 30.7772 -28.5131 13.9119 7.1764 -15.4832 48.9329 -3.7782 -5.5121 17.1987 18.5763 24.4287 -0.1231 28.8308 -0.7864 -24.2378 17.7794 15.2520 2.3164 -20.7517 -2.6904 -19.4943 -7.8620 2.4107 0.1208 32.1754 0.5540 11.4675 -13.6189 2.0002 -1.3513 -0.1274 0.6619
-9.2472 95.1829 25.8950 5.5496 -7.8308 -31.4772 -2.8223 -7.1586 -2.0707 -1.8062 -8.6915 -6.8135 2.3679 4.3020 -10.3864 16.7962 37.9107 -8.3957 2.9291 -3.6206 5.1220 11.0958 22.1316 6.6834 -0.2524 -0.2964 0.0884 0.7918 -9.8471 -3.7002 -1.2519 -9.7796 3.9260 27.5796 13.8203 -6.1508 -61.6022 -6.0412 -25.5143 -1.3705 2.3623 -115.9766 -3.1138 40.7665 -7.6543 -16.8392 10.7778 14.2637 -63.3409 1.3933 1.3769 -10.7188 5.3581 -8.7361 67.4167 -13.1758 -30.1978 -1.2522 0.7977 105.3762 -1.6883 28.5755 -24.1125 14.4547 6.9404 -15.2926 48.6837 -3.6342 -5.6282 18.7291 16.6302 29.9701 -0.1839 27.1736 -1.0509 -25.4434 18.4551 14.8606 2.3134 -20.5096 -2.6632 -17.5626 -13.0929 4.8143 0.2335 33.4673 0.5642 11.3079 -13.8446 6.0245 -1.3632 0.2146 0.8019
-10.2167 95.1119 25.2747 4.6548 -4.6529 -36.7140 -2.6204 -6.9126 -2.6240 -1.5752 -8.6304 -8.2898 3.6715 4.8170 -11.1961 16.8097 42.8058 -11.5252 3.4750 -3.7720 6.8318 11.8247 21.7013 7.7264 -0.1099 -0.2986 0.0493 0.7999 -10.0200 -3.7461 -0.9727 -9.9463 3.8484 29.9280 15.5708 -5.6604 -59.5493 -5.7082 -25.2380 -1.4011 2.5525 -115.5877 -1.9566 37.8529 -8.6052 -16.4897 10.6593 13.8402 -63.2426 1.3400 1.3392 -10.2550 5.2941 -10.4931 71.6848 -7.8137 -36.6017 -1.5134 -0.3600 109.9295 -3.5522 23.9719 -18.0126 15.2421 6.9806 -15.8069 49.1730 -3.4519 -5.8518 19.2060 14.4662 34.8065 -0.2217 25.7726 -1.2373 -25.9935 17.8910 15.3585 2.2646 -19.4899 -2.5985 -15.8343 -18.1239 7.1475 0.3055 34.1406 0.5785 11.4388 -13.3023 9.4416 -1.3642 0.1681 0.9690
-10.6673 95.1669 24.6802 3.7279 -1.7727 -41.2641 -2.1838 -6.3450 -3.0199 -1.1497 -8.3497 -9.1199 4.6826 5.7107 -11.7123 16.5238 47.2306 -13.6320 3.5652 -3.7841 8.6288 11.8726 21.7087 8.8410 0.0481 -0.3132 0.0245 0.8543 -10.2087 -3.7741 -0.7142 -10.2089 3.7776 31.6170 17.1819 -4.7101 -58.2946 -4.1953 -24.1285 -1.5442 2.5754 -116.4866 -2.3652 34.7933 -9.8111 -16.3526 10.5794 13.6184 -62.8259 1.3479 1.3207 -9.1108 5.7202 -11.6474 74.1680 -3.7493 -39.9777 -1.5713 -1.0799 115.2842 -5.1027 18.2536 -10.5954 15.8421 6.9376 -16.1659 49.7537 -3.4169 -5.8432 18.5701 12.3783 38.1186 -0.2001 24.9556 -1.2275 -25.8931 17.1250 16.5695 2.2235 -18.2968 -2.5550 -14.4412 -22.4738 9.1005 0.3466 33.8370 0.5805 11.9431 -12.0290 12.0518 -1.3487 -0.0528 1.0886
-10.7029 95.1850 24.2116 2.7629 0.7590 -45.0793 -1.5816 -5.5325 -3.1961 -0.7126 -7.9379 -9.4712 5.6055 6.8676 -11.7471 16.8124 49.8669 -13.7370 3.2375 -3.6754 9.8636 11.6005 21.5035 9.7312 0.1694 -0.3097 0.0260 0.9391 -10.3851 -3.7998 -0.5529 -10.4537 3.7640 32.7386 18.2329 -3.4143 -58.6172 -2.4260 -22.8446 -1.5236 2.5849 -117.9325 -3.2645 32.7434 -10.5736 -16.2395 10.5862 13.6354 -62.1923 1.2922 1.3138 -7.6595 6.1668 -11.9986 76.0820 -2.3686 -41.5145 -1.5109 -1.6741 119.2497 -7.0316 14.3764 -5.3591 16.1857 6.8744 -16.1369 49.9593 -3.3962 -5.6555 17.2880 10.4808 40.2195 -0.1690 24.6739 -1.1792 -25.5201 15.6191 18.2053 2.2047 -17.0451 -2.5687 -13.3306 -26.1840 10.5076 0.3614 32.9213 0.5436 12.7184 -10.4901 14.0803 -1.3365 -0.2747 1.1214
-10.4063 95.1362 23.8786 1.8438 2.9559 -48.0669 -0.9186 -4.5848 -3.2216 -0.3524 -7.4031 -9.3753 6.4508 7.9093 -11.3603 17.5378 50.4661 -12.3083 2.8064 -3.5530 10.4741 11.3481 20.6343 10.4047 0.2313 -0.2981 0.0531 1.0018 -10.4769 -3.7941 -0.4910 -10.5777 3.7918 33.7226 18.5508 -2.0627 -60.2885 -0.7482 -22.0476 -1.2918 2.7051 -119.2317 -3.5849 32.1964 -10.6317 -16.1411 10.6280 13.8030 -61.4973 1.2817 1.4036 -6.3947 6.4319 -11.6213 78.3147 -2.7894 -42.7338 -1.3309 -1.9289 121.7346 -9.6579 12.1875 -2.6741 16.3559 6.8170 -15.9055 49.9692 -3.3817 -5.4014 15.8034 8.8355 41.6727 -0.1399 24.4684 -1.1367 -25.1923 13.4416 19.8578 2.2077 -15.8084 -2.6255 -12.4317 -29.3586 11.2684 0.3542 31.8784 0.4932 13.4583 -9.0136 15.8001 -1.3316 -0.4711 1.0844
-9.9739 95.0112 23.6616 1.1202 4.8394 -50.0678 -0.3556 -3.6135 -3.1048 -0.0643 -6.8652 -9.1287 7.1131 8.7716 -10.7172 18.2387 49.2424 -10.2372 2.4766 -3.4559 10.5949 11.0145 19.2205 10.7620 0.2544 -0.2860 0.0761 1.0381 -10.5139 -3.7907 -0.4788 -10.6229 3.8276 34.7831 18.3803 -0.7505 -62.8285 0.4460 -21.5071 -1.3235 2.8690 -120.0730 -3.1402 32.3489 -10.1371 -15.9520 10.6267 14.0196 -60.7345 1.3172 1.4552 -5.3194 6.6357 -10.7903 81.1253 -3.9609 -44.0949 -0.9013 -1.8820 123.1994 -12.9504 11.0634 -1.5183 16.2867 6.7898 -15.7353 49.6439 -3.3505 -5.1867 14.4006 7.4145 42.8110 -0.1137 24.1615 -1.1438 -25.1761 11.0347 21.0486 2.2094 -14.8028 -2.6712 -11.7637 -32.0850 11.4138 0.3278 31.0461 0.4692 13.9620 -7.7039 17.2553 -1.3281 -0.6793 1.0205
-9.4840 94.9132 23.5046 0.7480 6.3772 -51.0661 0.0106 -2.5958 -2.9299 0.1653 -6.3619 -8.7942 7.5107 9.5295 -10.1093 18.7259 46.4510 -7.8857 2.2491 -3.4043 10.3985 10.3664 17.3942 10.6288 0.2772 -0.2748 0.0765 1.0779 -10.5200 -3.8030 -0.4677 -10.6339 3.8326 35.8512 18.1602 0.4773 -65.9135 1.2104 -20.9575 -1.5578 2.9666 -120.3930 -2.1193 32.5640 -9.3965 -15.7586 10.6815 14.2153 -60.1345 1.3790 1.3988 -4.0713 7.1017 -9.5702 84.4033 -5.1920 -45.0308 -0.3352 -1.7347 124.4570 -16.8335 10.2371 -0.8638 16.1135 6.7431 -15.6409 49.0637 -3.3629 -4.9745 13.1885 6.1898 43.7343 -0.1023 23.8505 -1.1444 -25.2219 8.9045 21.3720 2.2103 -14.0870 -2.6848 -11.4421 -34.2992 11.1099 0.2926 30.4734 0.4523 14.1908 -6.5477 18.2921 -1.3244 -0.8228 0.9505
-9.0311 94.8934 23.3029 0.7085 7.5920 -51.0948 0.2056 -1.4933 -2.7390 0.3228 -5.8714 -8.3903 7.6904 10.3255 -9.6715 18.8095 42.5496 -5.6674 2.0169 -3.3926 10.0313 9.1963 15.0712 10.1508 0.2929 -0.2597 0.0632 1.1130 -10.5000 -3.8248 -0.4680 -10.6217 3.8212 36.5444 18.1252 1.5044 -68.9438 1.8312 -20.3908 -1.6967 2.7166 -120.3604 -1.0658 32.0436 -8.8294 -15.6332 10.6762 14.4047 -59.6299 1.3974 1.4203 -2.1691 8.0011 -8.1563 87.8241 -6.3140 -44.6851 0.0164 -1.6080 125.9254 -20.9555 9.2692 0.1341 15.9401 6.7522 -15.6125 48.4696 -3.4026 -4.7691 12.2017 4.9715 44.3531 -0.1140 23.7918 -1.1461 -25.2467 7.0696 20.7535 2.2024 -13.6315 -2.6711 -11.4111 -35.9778 10.5093 0.2776 30.0167 0.4718 14.1462 -5.5634 18.6778 -1.3259 -0.8388 0.9123
-8.5957 94.9664 22.9434 0.8950 8.6309 -50.2141 0.2867 -0.3143 -2.5829 0.4097 -5.3627 -7.9036 7.7569 11.2966 -9.3255 18.6028 38.1675 -4.0711 1.6470 -3.3682 9.5379 7.5255 12.3853 9.5268 0.2538 -0.2396 0.0606 1.0769 -10.5256 -3.8357 -0.5086 -10.6460 3.8376 36.3750 18.2191 2.2603 -71.3652 2.1491 -19.9821 -1.5621 2.2672 -119.8439 -0.2809 31.0796 -8.5952 -15.6174 10.6687 14.5924 -59.5102 1.3738 1.5487 0.7597 9.1726 -6.6622 91.1288 -7.6454 -43.0644 -0.0230 -1.4976 127.2679 -24.9239 7.6287 1.8276 15.8635 6.8385 -15.6654 48.3254 -3.5431 -4.6233 11.3650 3.3641 44.5655 -0.1572 24.4121 -1.1345 -25.0431 5.5079 19.5251 2.1937 -13.3470 -2.6501 -11.5272 -37.2883 9.6247 0.2757 29.4816 0.4978 13.7449 -4.4725 18.4719 -1.3431 -0.7554 0.9010
-8.1308 95.0663 22.3546 1.1171 9.6883 -48.7673 0.3330 0.8993 -2.3561 0.4284 -4.8422 -7.3933 7.8893 12.4690 -8.8629 18.2921 34.1437 -2.9901 1.2196 -3.3283 8.9231 5.9244 9.7365 8.9475 0.2238 -0.2140 0.0508 1.0299 -10.5699 -3.8505 -0.5191 -10.6839 3.8403 35.4551 18.3683 2.8310 -72.8333 1.3142 -19.7394 -1.5215 2.1317 -118.7121 0.3654 31.0819 -8.1353 -15.5917 10.6311 14.6984 -59.4647 1.4094 1.6214 4.2455 10.2189 -4.8379 94.7290 -9.2478 -41.7712 -0.2122 -1.3652 127.6690 -30.0672 5.9078 3.5091 15.7425 7.0387 -15.7691 48.5384 -3.6743 -4.6908 10.4762 1.0723 44.3588 -0.1914 25.9365 -1.0853 -24.6676 3.8733 18.2808 2.1659 -12.9123 -2.6125 -11.5843 -38.5724 8.5499 0.2542 28.9450 0.4742 13.1033 -3.3085 17.9199 -1.3713 -0.6889 0.8735
-7.6454 95.1045 21.5437 1.2786 10.7584 -47.0485 0.3852 2.1240 -2.1422 0.3830 -4.2696 -6.8568 8.1283 13.7837 -8.2611 18.0240 30.7517 -2.1049 0.9513 -3.3201 8.2760 4.6017 7.3216 8.4185 0.2324 -0.2004 0.0370 1.0013 -10.5850 -3.8615 -0.4747 -10.7012 3.8227 34.5702 18.4836 3.2901 -73.8883 -0.6188 -19.8412 -1.4471 2.1439 -117.2954 0.9469 31.8118 -7.4626 -15.4523 10.5929 14.6846 -59.3317 1.5054 1.6388 7.5293 11.0723 -2.3692 98.9144 -11.3397 -41.3314 -0.1634 -1.4157 126.9987 -37.0242 4.1965 4.8730 15.4249 7.2226 -15.7433 48.5005 -3.6960 -4.7777 9.5995 -1.7203 43.8513 -0.2226 28.0134 -1.0407 -24.2652 2.3453 17.1541 2.1415 -12.5825 -2.5979 -11.3791 -39.9762 7.1477 0.2342 28.5564 0.4640 12.2446 -2.2132 17.3464 -1.3937 -0.5986 0.8251
-7.1712 95.0803 20.6016 1.3410 11.8645 -45.2892 0.4525 3.4471 -1.9350 0.3444 -3.6299 -6.3314 8.4788 15.2118 -7.3837 17.7819 27.8965 -1.3408 0.8107 -3.3584 7.6868 3.4871 5.2060 7.8740 0.2594 -0.1884 0.0469 0.9990 -10.6287 -3.8574 -0.4171 -10.7596 3.8312 33.9838 18.4233 3.6398 -74.7342 -3.5179 -20.4273 -1.1656 2.0208 -116.0850 1.3805 33.1690 -6.8346 -15.2397 10.5898 14.6357 -59.0654 1.6346 1.6260 9.8776 11.6369 0.5104 103.1934 -14.3197 -41.0908 -0.2042 -1.7933 125.4614 -42.3095 2.9772 6.4619 15.0014 7.3517 -15.6612 48.2469 -3.6656 -4.8019 8.7355 -4.8783 43.2568 -0.2655 30.4530 -0.9960 -23.9932 0.9686 16.1707 2.1257 -12.5699 -2.5943 -10.8330 -41.6443 5.4054 0.2266 28.3695 0.4588 11.4632 -1.1649 16.9334 -1.4025 -0.5315 0.8012
-6.6912 94.9378 19.5126 1.3393 13.0464 -43.5751 0.5374 4.8443 -1.7399 0.3334 -2.9030 -5.7433 8.8910 16.7229 -6.3311 17.3747 25.4198 -0.6457 0.5865 -3.4119 7.0712 2.5815 3.2612 7.3075 0.2860 -0.1655 0.0736 1.0038 -10.7202 -3.8526 -0.3680 -10.8516 3.8708 33.6618 18.2084 3.9023 -75.1928 -7.5776 -21.2601 -0.7118 1.8544 -115.4053 1.7732 35.0098 -6.2886 -15.1953 10.6786 14.6909 -58.9352 1.7060 1.6582 11.0338 11.9641 3.7279 106.6013 -18.2923 -40.4679 -0.1823 -2.2730 123.6887 -44.3546 3.0348 7.2697 14.8036 7.4742 -15.7061 48.3491 -3.6632 -4.8855 7.9017 -8.3439 42.7526 -0.3106 33.1201 -0.9296 -23.9842 -0.3975 15.3057 2.1117 -12.6550 -2.5843 -10.0367 -43.6795 3.4007 0.2417 28.5198 0.4506 10.7747 -0.3052 16.6979 -1.4079 -0.4456 0.7978
-6.1498 94.6218 18.2447 1.3823 14.2715 -41.7687 0.6407 6.2629 -1.5909 0.2979 -2.1246 -5.0377 9.3045 18.3135 -5.3229 16.5960 23.1325 -0.0196 0.2594 -3.4584 6.3331 1.8118 1.4015 6.6226 0.2849 -0.1351 0.1146 0.9939 -10.8317 -3.8427 -0.3616 -10.9506 3.9419 33.5292 17.8208 3.9838 -74.9742 -12.6018 -22.2520 -0.1147 1.5782 -115.4782 2.2053 37.0846 -5.7442 -15.3430 10.8154 14.8423 -59.1351 1.7801 1.7210 11.1414 12.2087 7.2923 108.2701 -22.9293 -39.1326 -0.0366 -2.7332 122.2626 -44.0433 4.2525 6.1210 14.7238 7.6825 -15.8415 48.8295 -3.5744 -4.9925 7.0774 -12.0198 42.3383 -0.3599 35.9976 -0.8501 -24.2337 -1.8689 14.4277 2.0957 -12.8402 -2.5719 -9.0248 -46.1046 1.0083 0.2659 29.1700 0.4208 10.0748 0.3011 16.6000 -1.4105 -0.3743 0.7808
-5.5671 94.1295 16.7719 1.6148 15.5918 -39.7478 0.7271 7.6626 -1.4728 0.2212 -1.3471 -4.3589 9.6799 19.9651 -4.4593 15.4069 20.9440 0.4648 -0.0941 -3.4950 5.5095 0.9722 -0.3376 5.8632 0.2187 -0.1102 0.1689 0.9340 -10.9326 -3.8076 -0.4340 -11.0148 4.0400 33.3754 17.3386 3.8818 -73.9313 -18.6361 -23.0515 0.4584 1.2637 -116.2913 2.7296 39.2470 -4.9910 -15.5469 10.9113 15.0107 -59.4828 1.8817 1.8106 10.5141 12.4780 10.8798 107.7584 -27.7327 -36.6890 0.1900 -3.0850 121.3222 -43.1743 6.0369 3.6037 14.7566 7.8269 -15.9189 49.4641 -3.4133 -5.0207 6.1232 -15.8471 42.2170 -0.4262 38.9942 -0.8174 -24.5839 -3.4791 13.2394 2.0738 -12.8647 -2.5439 -7.9858 -48.9807 -1.6118 0.2969 30.4085 0.4014 9.2710 0.5840 16.5016 -1.4109 -0.2680 0.7448
-4.9579 93.5698 15.1295 2.1464 17.0681 -37.3483 0.7509 9.0450 -1.3692 0.1360 -0.5877 -3.8211 9.9517 21.6658 -3.8393 14.1098 18.8146 0.7041 -0.4038 -3.5135 4.6811 0.1421 -1.8572 4.9656 0.1152 -0.0998 0.2088 0.8423 -10.9799 -3.7605 -0.5558 -11.0183 4.1166 33.2406 16.7560 3.5935 -72.5830 -25.7674 -23.1945 0.7162 0.8288 -117.6611 3.2704 40.9713 -4.1426 -15.7053 10.9334 15.1151 -59.7211 2.0203 1.8512 9.3878 12.6911 13.9131 105.6327 -32.0623 -32.8792 0.5872 -3.2702 120.7902 -43.5795 7.5818 0.8267 14.9717 7.8634 -15.9664 50.0535 -3.2069 -5.0936 4.8139 -19.7752 42.3036 -0.5001 41.9438 -0.7903 -24.7694 -5.0443 11.6309 2.0305 -12.6444 -2.4795 -7.0852 -52.2764 -4.3315 0.3073 31.9901 0.3923 8.4526 0.8162 16.2236 -1.4078 -0.1010 0.7039
-4.2405 93.0284 13.3676 2.9036 18.7425 -34.6323 0.7753 10.3927 -1.3196 0.0387 0.1426 -3.4394 10.1648 23.3189 -3.3872 12.9546 16.8465 0.6696 -0.5938 -3.5222 3.8263 -0.6742 -3.2130 4.0908 0.0038 -0.1062 0.2233 0.7426 -10.9730 -3.7264 -0.6889 -10.9687 4.1588 33.2617 16.1337 3.2019 -71.2967 -33.7236 -23.3511 0.9239 0.3633 -119.0706 3.4356 42.0976 -3.3952 -15.8001 10.8750 15.1621 -59.8112 2.1159 1.8415 7.6702 12.7420 16.1713 102.6646 -35.6965 -27.8876 1.1330 -3.3476 120.0137 -45.2083 8.3219 -2.2460 15.3437 7.9534 -16.1208 50.6419 -3.0362 -5.1289 2.9778 -23.6944 42.5084 -0.5626 44.5027 -0.7499 -24.5520 -6.5886 10.1604 1.9626 -12.0425 -2.3661 -6.2038 -55.7993 -7.1865 0.3123 33.4540 0.3902 7.8099 1.2284 15.8654 -1.4044 0.0370 0.6699
-3.4454 92.6183 11.4927 3.8486 20.7090 -31.5109 0.8349 11.7048 -1.3158 -0.0389 0.8684 -3.2437 10.3425 24.8420 -2.9691 12.2140 14.9796 0.4384 -0.7003 -3.5137 2.9092 -1.4097 -4.4272 3.1683 -0.0750 -0.1183 0.2139 0.6687 -10.9411 -3.7171 -0.7797 -10.9219 4.1652 33.4140 15.4924 2.7943 -69.6503 -42.1523 -24.4741 1.2131 -0.1097 -120.2608 3.0026 43.2598 -2.5479 -15.8455 10.7925 15.1289 -59.8514 2.1987 1.8016 5.2825 12.5540 17.5812 99.3600 -39.0600 -21.8980 1.3607 -3.5036 118.3376 -47.1618 8.0938 -6.1818 15.6672 8.0663 -16.3183 51.1276 -2.8759 -5.1191 0.4553 -27.7085 42.7783 -0.5924 46.5947 -0.6566 -23.8823 -7.9965 9.0881 1.8882 -11.0300 -2.2374 -5.2406 -59.4026 -10.2191 0.3256 34.2660 0.4198 7.5142 2.0104 15.2367 -1.4035 0.0683 0.6653
-2.6142 92.2839 9.5536 4.9676 23.0552 -28.0484 0.9466 12.9483 -1.3378 -0.0293 1.6051 -3.2465 10.3886 26.0523 -2.4614 12.0939 13.3021 0.1525 -0.7286 -3.5639 1.8894 -1.8833 -5.3381 2.0793 -0.1764 -0.1313 0.2195 0.5823 -10.8999 -3.6850 -0.9056 -10.8822 4.1876 33.6254 14.7778 2.3596 -67.0327 -50.4653 -27.1905 1.3745 -0.4177 -121.3880 2.0429 44.4028 -1.2982 -15.7890 10.6418 14.9260 -59.8440 2.2563 1.7819 2.1464 12.0467 18.0314 96.6136 -42.1855 -15.9331 1.3045 -3.5692 116.0871 -48.5184 6.3997 -10.6888 15.9054 8.0824 -16.4232 51.3994 -2.8401 -4.9064 -2.9936 -31.6400 43.4346 -0.6428 47.6964 -0.5527 -22.8466 -9.2834 8.5515 1.8007 -9.9923 -2.1745 -4.1674 -63.0105 -13.2955 0.3356 34.1559 0.4131 7.4119 3.2443 14.2627 -1.4053 0.0575 0.6142
-1.7672 92.2294 7.6179 6.2768 25.6161 -24.1717 1.1916 14.1300 -1.4129 -0.0698 2.2724 -3.1922 10.3927 26.8967 -2.1506 12.5519 11.8326 -0.2331 -0.7856 -3.5511 0.8512 -2.0557 -6.5328 0.8589 -0.1777 -0.1338 0.1730 0.5791 -10.8068 -3.7062 -0.9087 -10.8091 4.1191 33.8237 13.9061 1.7665 -62.4650 -58.0402 -32.4860 1.3356 -0.5329 -122.6775 0.5888 45.9098 0.2752 -15.8310 10.6903 14.9601 -59.8908 2.3414 1.8262 -1.5506 11.1904 17.7622 94.2008 -45.0120 -10.2696 0.9200 -3.3579 113.9254 -49.2169 3.4433 -15.8131 15.8433 8.0722 -16.4734 51.2524 -2.9438 -5.0479 -7.0478 -35.4222 44.2046 -0.5821 48.1662 -0.4218 -21.7353 -10.0704 7.7145 1.8106 -9.0017 -2.1106 -3.2904 -66.2749 -16.0223 0.2638 33.0046 0.3563 7.5449 4.9596 12.7975 -1.4051 -0.0449 0.6986
-0.9410 92.2100 5.7591 7.5261 28.1868 -20.3909 1.4779 15.0630 -1.4245 0.0500 2.9090 -3.2711 10.1335 27.3908 -1.7550 13.3915 10.5946 -0.6916 -0.8298 -3.5969 -0.0344 -2.0050 -7.5842 -0.2995 -0.1995 -0.1238 0.1369 0.5521 -10.7162 -3.7086 -0.9294 -10.7297 4.0575 33.9308 13.0596 1.2065 -55.0015 -64.1329 -40.7784 0.8257 -0.4959 -124.1801 -1.1182 46.7258 1.5095 -15.6863 10.5561 14.8685 -59.7921 2.3471 1.9006 -5.1682 10.3456 16.7993 91.8318 -47.8008 -4.9351 0.8573 -2.9280 112.1805 -49.0807 -0.1000 -20.7342 15.6294 7.9908 -16.4242 51.1865 -3.1056 -5.1072 -11.4777 -38.7149 45.5005 -0.5241 47.6181 -0.2636 -20.3744 -10.6912 7.1956 1.7954 -7.8203 -2.0605 -2.2066 -69.1173 -18.6722 0.1992 31.0647 0.2878 7.8138 7.0424 11.1564 -1.4017 -0.1258 0.7680
-0.1398 92.1418 3.9638 8.6555 30.4073 -16.7263 1.7505 15.7596 -1.3692 0.2944 3.4644 -3.2901 9.7273 27.6586 -1.4382 14.2736 9.6201 -1.1157 -0.8858 -3.6671 -0.7959 -1.8077 -8.7009 -1.3044 -0.1951 -0.1073 0.1027 0.5301 -10.6321 -3.7086 -0.8997 -10.6569 3.9847 33.9498 12.2179 0.8069 -44.7035 -68.2124 -52.0696 0.0335 -0.4374 -125.6794 -2.9630 46.5895 2.0878 -15.4457 10.4455 14.7957 -59.6427 2.2906 2.0581 -8.2479 9.6083 15.6011 88.0895 -50.2042 1.0985 0.9886 -2.1380 111.3279 -48.4241 -3.8972 -25.8472 15.4224 7.9847 -16.4250 51.3067 -3.2816 -5.2485 -15.6890 -41.6917 46.6626 -0.4469 46.9340 -0.1290 -18.9156 -11.2654 6.7582 1.7697 -6.5383 -1.9781 -1.4591 -71.4065 -20.7471 0.1063 28.9695 0.1713 8.1919 9.1194 9.3424 -1.4022 -0.1276 0.8756
0.7168 91.9630 2.3109 9.6292 31.8131 -13.3037 1.9180 16.2105 -1.2524 0.5858 3.9086 -3.1948 9.2594 27.8503 -1.2409 15.0279 8.8790 -1.4249 -0.9453 -3.7719 -1.5517 -1.5317 -9.8084 -2.1980 -0.1559 -0.0952 0.0775 0.5397 -10.5909 -3.7157 -0.8306 -10.6229 3.9227 33.9010 11.5346 0.4745 -33.5229 -69.9277 -64.4856 -0.4619 -0.5428 -126.6846 -4.8900 45.7467 2.1972 -15.3145 10.3107 14.7267 -59.5198 2.1850 2.1567 -10.6476 9.1125 14.5636 83.1550 -51.7533 7.2754 1.2626 -1.2919 111.1942 -46.5809 -7.2177 -31.8801 15.4205 8.0708 -16.5840 51.6219 -3.3831 -5.4512 -19.0711 -44.2345 47.2670 -0.3744 46.5762 -0.0191 -17.6137 -11.8225 6.3932 1.7517 -5.2778 -1.8925 -1.9345 -73.0181 -21.5185 0.0097 27.3213 0.0408 8.5400 10.9348 7.4411 -1.4086 -0.0337 0.9913
1.6090 91.6281 0.7786 10.3865 32.1702 -10.2170 1.9909 16.5005 -1.1440 0.8171 4.2193 -3.0120 8.8033 28.0372 -1.1941 15.2940 8.2670 -1.5748 -0.9341 -3.8992 -2.3546 -1.1981 -10.8762 -3.0280 -0.1203 -0.0824 0.0647 0.5602 -10.6040 -3.7311 -0.7819 -10.6461 3.8948 33.7234 11.0279 0.0926 -26.1942 -69.8276 -73.0936 -0.5401 -0.7811 -127.2146 -6.5396 44.2768 2.0985 -15.3235 10.2670 14.7122 -59.5932 2.0426 2.1859 -12.3694 8.8985 13.9213 79.0657 -52.4177 11.7511 1.5097 -0.6643 111.3671 -43.9802 -9.0197 -37.2838 15.7428 8.0357 -16.7840 51.9128 -3.4932 -5.5529 -21.3096 -46.2395 47.0452 -0.3053 46.8029 0.0806 -16.3689 -12.5793 6.2321 1.7408 -4.1772 -1.8563 -3.9445 -73.9494 -20.8353 -0.0396 26.4682 -0.0421 8.8656 12.3937 5.5939 -1.4147 -0.0161 1.0853
2.5222 91.1352 -0.6419 10.8368 31.5338 -7.7041 1.9193 16.6598 -1.0539 1.0116 4.3927 -2.9147 8.1985 28.1526 -1.2570 14.9911 7.6583 -1.6466 -0.9956 -4.0712 -3.1792 -0.5482 -11.7626 -3.8625 -0.1826 -0.0799 0.0750 0.4917 -10.6506 -3.7221 -0.8430 -10.6693 3.9252 33.4189 10.7573 -0.5331 -24.4821 -68.8363 -75.7788 -0.1693 -0.8772 -127.3427 -7.9420 42.3456 1.5729 -15.4722 10.2422 14.6704 -59.9796 1.9475 2.1905 -13.5571 8.8648 13.7159 78.4030 -52.5641 12.0451 1.9864 -0.5296 111.7153 -41.9592 -9.6701 -39.8611 16.1868 7.9057 -16.9315 52.1459 -3.5718 -5.4549 -22.3905 -47.5858 46.1534 -0.2856 47.5535 0.1770 -15.0589 -13.6960 6.1001 1.7014 -3.3231 -1.8904 -7.0822 -74.1812 -19.0867 -0.0276 26.4121 -0.0930 9.1139 13.4448 4.0189 -1.4143 0.0861 1.0717
3.4528 90.6487 -1.8703 10.9019 30.1393 -5.7643 1.8129 16.7620 -0.9549 1.0150 4.4434 -2.7167 7.7065 28.1970 -1.4753 14.3199 6.9368 -1.7123 -1.1294 -4.1819 -3.9878 0.1574 -12.8401 -4.6793 -0.2287 -0.0848 0.0924 0.4499 -10.7160 -3.7239 -0.8961 -10.7226 3.9772 33.0511 10.6730 -1.3625 -26.5532 -67.6091 -74.4834 0.3832 -0.9027 -127.3571 -9.1830 40.0675 0.9163 -15.6086 10.2843 14.7202 -60.2233 1.8119 2.1557 -14.4674 9.0034 13.7672 80.4976 -52.3523 9.2291 2.2453 -0.7208 112.3335 -41.1932 -9.9253 -40.1533 16.4894 7.7155 -17.0120 52.1042 -3.6411 -5.4268 -22.4246 -48.5367 44.6924 -0.2014 48.9117 0.2647 -14.0175 -14.7078 5.9482 1.6972 -2.6801 -1.9241 -10.2203 -73.6000 -17.3258 -0.0703 26.7738 -0.1416 9.4386 14.0478 2.8671 -1.4135 0.0557 1.0879
4.4171 90.2339 -2.8854 10.6052 28.3220 -4.2978 1.6830 16.7683 -0.8666 0.9475 4.4249 -2.5255 7.1694 28.1835 -1.7263 13.3690 6.2024 -1.8016 -1.3164 -4.2427 -4.6702 0.9920 -13.9841 -5.5358 -0.2713 -0.0860 0.1210 0.4016 -10.7332 -3.7051 -0.9381 -10.7217 4.0302 32.6600 10.6684 -2.3123 -30.5722 -66.2157 -71.1177 0.8732 -0.9257 -127.4818 -10.0588 36.8353 0.4552 -15.7572 10.2415 14.6920 -60.3958 1.6826 2.1173 -15.3097 9.1515 13.8975 84.0630 -51.6294 4.7951 2.2140 -1.1017 113.0374 -41.3894 -10.0031 -39.1339 16.6755 7.6005 -17.0402 52.0634 -3.6266 -5.3731 -21.6278 -49.0473 42.8168 -0.1343 50.3029 0.3136 -13.0845 -15.6391 5.7291 1.6992 -2.2111 -1.9475 -12.0144 -72.3617 -16.8908 -0.0997 27.0688 -0.1628 9.7865 14.5196 2.0732 -1.4133 0.0300 1.0725
5.3926 89.9566 -3.6889 10.1000 26.3948 -3.1859 1.4963 16.6796 -0.8385 0.8345 4.3244 -2.3215 6.5808 28.0470 -1.9926 12.3259 5.5158 -1.8963 -1.5925 -4.2611 -5.2080 1.8403 -14.9846 -6.3837 -0.3006 -0.0808 0.1550 0.3547 -10.6813 -3.6668 -0.9525 -10.6580 4.0676 32.2817 10.6853 -3.2557 -35.5070 -64.8066 -66.7560 1.1175 -0.8783 -127.9698 -10.6317 32.4132 0.2472 -15.8578 10.1582 14.6579 -60.4045 1.5837 2.1518 -16.0588 9.2724 14.1388 87.9617 -50.4012 -0.0707 2.0924 -1.3296 113.7472 -41.8446 -10.2897 -37.6380 16.7616 7.5485 -17.0083 52.0020 -3.5347 -5.2962 -20.3351 -49.1141 40.7447 -0.1108 51.4068 0.3023 -12.2888 -16.4178 5.4571 1.7042 -1.8427 -1.9678 -12.6575 -70.6746 -17.5913 -0.1149 27.0114 -0.1749 10.2278 15.0115 1.6254 -1.4137 -0.0412 1.0397
6.2678 89.8219 -4.2501 9.5451 24.4375 -2.3288 1.2558 16.5804 -0.8026 0.7521 4.1530 -2.1460 5.9184 27.7398 -2.2532 11.3089 4.9469 -1.9335 -1.9415 -4.2635 -5.6342 2.7437 -15.7966 -7.3018 -0.3158 -0.0714 0.1900 0.3234 -10.6039 -3.6222 -0.9546 -10.5714 4.0980 31.9285 10.6632 -4.1024 -41.0617 -63.4774 -61.6620 1.1239 -0.7920 -128.7390 -10.9794 27.6811 0.3933 -15.9262 10.1145 14.6275 -60.3560 1.5153 2.1748 -16.6560 9.3550 14.5050 91.3387 -48.6893 -4.5938 1.9465 -1.4856 114.5123 -41.9836 -10.6625 -36.1043 16.8145 7.5337 -16.9502 51.9986 -3.4299 -5.2179 -18.7238 -48.7097 38.5726 -0.1164 52.1455 0.2497 -11.6761 -17.0495 5.0692 1.7030 -1.5564 -1.9750 -12.9270 -68.7024 -18.5952 -0.1222 26.6854 -0.1791 10.6978 15.4046 1.3869 -1.4144 -0.1348 1.0079
7.0463 89.8333 -4.6276 9.0283 22.5206 -1.6015 0.9983 16.4365 -0.7900 0.6480 3.9283 -1.9200 5.2841 27.3397 -2.4757 10.3260 4.4286 -1.9116 -2.2873 -4.2460 -6.0360 3.6391 -16.3904 -8.2762 -0.3406 -0.0620 0.2355 0.2963 -10.5436 -3.5730 -0.9783 -10.5091 4.1486 31.6128 10.5714 -4.8141 -46.7274 -62.1366 -56.3270 1.1580 -0.6464 -129.6542 -11.2583 23.3076 0.8448 -16.0036 10.1533 14.6978 -60.4385 1.4726 2.2202 -17.0075 9.4415 14.9668 93.8832 -46.7847 -8.5885 1.8757 -1.5882 115.1507 -41.4937 -11.2650 -34.5981 16.7919 7.5374 -16.9137 51.9112 -3.3430 -5.1565 -16.9630 -47.8734 36.3150 -0.1251 52.4478 0.2074 -11.2059 -17.5263 4.6913 1.7010 -1.3444 -1.9843 -13.0594 -66.5283 -19.7235 -0.1016 26.1323 -0.1552 11.1273 15.7291 1.2218 -1.4126 -0.2699 0.9809
7.7065 89.9750 -4.8176 8.5336 20.6550 -0.9846 0.7574 16.2465 -0.8062 0.5285 3.6661 -1.6410 4.6736 26.8622 -2.6359 9.2947 3.9414 -1.8089 -2.5683 -4.1958 -6.4599 4.5670 -16.9280 -9.3562 -0.3555 -0.0524 0.2820 0.2836 -10.4864 -3.5257 -0.9988 -10.4529 4.2022 31.3358 10.3952 -5.3714 -52.6712 -60.9596 -50.6193 1.2399 -0.4577 -130.7210 -11.4447 19.3721 1.6224 -16.0396 10.2564 14.8399 -60.6068 1.4392 2.2825 -17.2241 9.5488 15.5214 95.5385 -44.7753 -12.0066 1.8671 -1.5994 115.6610 -40.3867 -12.2658 -33.1549 16.7486 7.4972 -16.8287 51.7092 -3.3185 -5.0644 -15.1243 -46.6676 34.0231 -0.1156 52.3326 0.1916 -10.8470 -17.8587 4.3559 1.7004 -1.1630 -1.9909 -13.1253 -64.1973 -20.8604 -0.0517 25.4077 -0.0876 11.4126 16.0585 1.0543 -1.4111 -0.3860 0.9490
8.2133 90.2315 -4.8083 8.0804 18.9612 -0.4891 0.5203 16.0037 -0.7957 0.4522 3.3808 -1.3928 4.0383 26.3460 -2.7204 8.3838 3.5159 -1.6014 -2.8484 -4.1274 -6.8446 5.3978 -17.4399 -10.4609 -0.3530 -0.0406 0.3184 0.2910 -10.4424 -3.4894 -1.0028 -10.4116 4.2393 31.1445 10.1581 -5.8058 -59.3968 -60.0985 -43.9929 1.2645 -0.2441 -131.8441 -11.3730 16.0076 2.5781 -16.0410 10.4004 14.9555 -60.8908 1.4162 2.3014 -17.2346 9.6926 16.1846 95.9992 -42.9219 -14.5526 1.7904 -1.5515 115.9895 -38.7012 -13.6404 -32.1113 16.6334 7.4873 -16.7593 51.4757 -3.2905 -4.9982 -13.3949 -45.2374 31.9156 -0.1105 51.8749 0.1651 -10.6096 -18.0771 4.0817 1.7002 -1.0198 -2.0058 -13.2526 -61.8338 -21.7182 -0.0136 24.5222 -0.0228 11.5233 16.3642 0.8457 -1.4127 -0.4279 0.9261
8.5822 90.5695 -4.6840 7.6833 17.4916 -0.0525 0.3046 15.6922 -0.8025 0.3804 3.1027 -1.1354 3.4404 25.8302 -2.7313 7.6058 3.1991 -1.3643 -3.0583 -4.0512 -7.1931 6.0206 -17.9457 -11.4802 -0.3392 -0.0335 0.3432 0.3100 -10.4106 -3.4685 -0.9964 -10.3828 4.2640 31.0903 9.8947 -6.1628 -66.7874 -59.4129 -36.6037 1.2743 -0.0624 -132.9321 -10.9153 13.4736 3.6690 -15.9168 10.5242 15.0166 -61.1013 1.3703 2.3232 -17.0848 9.9012 16.8169 95.6103 -41.4052 -16.3947 1.7237 -1.4719 116.2925 -36.4648 -15.3342 -31.8440 16.5673 7.4839 -16.7050 51.2853 -3.3113 -4.9799 -11.8196 -43.7022 30.0358 -0.0976 51.1042 0.1435 -10.4995 -18.1599 3.9152 1.6977 -0.9611 -2.0179 -13.4245 -59.4954 -22.3799 0.0041 23.4401 0.0214 11.5326 16.7671 0.5857 -1.4138 -0.4052 0.8892
8.8154 90.9563 -4.4605 7.3129 16.2161 0.2669 0.1165 15.3462 -0.7641 0.3397 2.8225 -0.9365 2.8574 25.3267 -2.6929 7.0485 3.0645 -1.1187 -3.2639 -3.9874 -7.4641 6.4026 -18.4432 -12.3055 -0.3184 -0.0306 0.3580 0.3322 -10.3724 -3.4574 -0.9778 -10.3519 4.2746 31.1196 9.6675 -6.5447 -74.5645 -58.5888 -28.5896 1.0958 0.1342 -133.8655 -10.2307 11.9543 4.8221 -15.6763 10.6211 15.0192 -61.0632 1.3484 2.3237 -16.8352 10.1418 17.3626 94.5047 -40.3361 -17.4865 1.5973 -1.4008 116.6261 -33.7985 -17.2665 -32.4458 16.5115 7.5089 -16.6604 51.1898 -3.3477 -4.9536 -10.3500 -42.0947 28.4117 -0.0831 50.1169 0.1381 -10.5536 -18.1773 3.8397 1.6927 -0.8820 -2.0268 -13.5853 -57.2235 -22.8350 -0.0129 22.2663 0.0377 11.5491 17.1798 0.3132 -1.4164 -0.3066 0.8702
8.9493 91.3342 -4.1987 6.9518 15.1440 0.4920 -0.0438 14.9921 -0.7139 0.2754 2.5493 -0.7693 2.3587 24.8616 -2.6228 6.6043 3.0940 -0.8591 -3.3396 -3.9244 -7.6913 6.6472 -18.8600 -12.9192 -0.2882 -0.0259 0.3571 0.3641 -10.3423 -3.4602 -0.9492 -10.3214 4.2634 31.1442 9.5130 -6.8737 -81.2181 -57.4593 -21.4540 0.8627 0.3418 -134.6322 -9.6436 11.1578 5.7203 -15.3829 10.7118 15.0357 -61.0141 1.3391 2.3115 -16.6072 10.3314 17.7485 93.3222 -39.6656 -18.2578 1.5779 -1.3339 117.2393 -31.3063 -19.2071 -33.6136 16.5140 7.5431 -16.5932 51.2046 -3.3521 -4.9415 -9.0260 -40.5698 27.0584 -0.1022 49.0720 0.0810 -10.6983 -18.1673 3.8424 1.6872 -0.8218 -2.0366 -13.7468 -55.1011 -23.0273 -0.0234 21.1375 0.0555 11.4775 17.5492 -0.1480 -1.4158 -0.2427 0.8435
8.9696 91.7174 -3.8938 6.5800 14.2162 0.6325 -0.1801 14.6349 -0.6440 0.2202 2.2941 -0.6643 1.9037 24.3864 -2.5570 6.3590 3.2699 -0.6515 -3.4221 -3.8734 -7.7916 6.7804 -19.2116 -13.3397 -0.2624 -0.0156 0.3563 0.3890 -10.3059 -3.4596 -0.9225 -10.2879 4.2511 31.1009 9.4411 -7.2656 -86.4471 -56.0658 -15.5242 0.5093 0.5374 -135.2321 -9.2629 10.9031 6.4307 -15.1831 10.7289 15.0595 -60.8537 1.3191 2.3220 -16.4593 10.4534 18.0753 92.3067 -39.2761 -18.9628 1.6869 -1.2986 117.9161 -29.2212 -21.0847 -35.1834 16.4636 7.5385 -16.4788 51.2300 -3.3325 -4.9114 -7.7305 -39.1221 25.8842 -0.1389 48.0241 0.0030 -10.9424 -18.0995 3.8576 1.6874 -0.8163 -2.0573 -13.9622 -53.0704 -22.9171 -0.0206 20.1267 0.0836 11.2961 17.7729 -0.7486 -1.4186 -0.1531 0.8309
8.8689 92.0630 -3.5156 6.1429 13.4059 0.6640 -0.2733 14.2428 -0.5719 0.1636 2.0756 -0.5727 1.5009 23.9247 -2.5177 6.3136 3.5726 -0.4616 -3.4852 -3.8310 -7.8134 6.8438 -19.5618 -13.6123 -0.2400 -0.0019 0.3545 0.4121 -10.2759 -3.4618 -0.9011 -10.2573 4.2417 30.9716 9.4981 -7.6447 -89.9561 -54.6811 -11.1264 0.1509 0.6820 -135.6626 -8.9373 11.1874 7.0376 -15.0262 10.7204 15.0927 -60.6682 1.2727 2.3314 -16.4141 10.4943 18.2913 91.2352 -39.1969 -19.2946 1.8247 -1.2583 118.5842 -27.1506 -22.8140 -37.3502 16.4651 7.5095 -16.3960 51.4139 -3.2974 -4.9350 -6.3802 -37.8034 24.8129 -0.1794 47.0359 -0.0842 -11.2883 -18.0334 3.8908 1.6895 -0.7567 -2.0866 -14.1333 -51.1664 -22.5914 0.0023 19.3497 0.1168 10.9948 17.7538 -1.4264 -1.4249 -0.0148 0.8385
8.6762 92.3747 -3.1036 5.6072 12.7173 0.6756 -0.3293 13.8115 -0.5020 0.1038 1.8354 -0.4917 1.1983 23.5078 -2.5000 6.4617 3.9919 -0.3025 -3.5187 -3.8032 -7.7751 6.7741 -19.8764 -13.6713 -0.2279 0.0114 0.3603 0.4249 -10.2536 -3.4531 -0.8897 -10.2327 4.2403 30.7558 9.6468 -7.9744 -91.6885 -53.3433 -8.3265 -0.1909 0.7351 -135.9071 -8.8026 11.8891 7.5123 -14.9845 10.6693 15.0954 -60.5446 1.2262 2.3216 -16.3866 10.4781 18.4068 89.7194 -39.3601 -18.8881 1.8147 -1.1378 118.9913 -24.3017 -24.1425 -40.6322 16.4826 7.4380 -16.3431 51.6130 -3.2750 -4.9339 -4.9206 -36.6565 23.7253 -0.2019 46.1170 -0.1421 -11.6714 -17.9186 3.9666 1.6869 -0.6517 -2.1143 -14.1212 -49.3574 -22.2420 0.0293 18.7744 0.1400 10.6969 17.5485 -2.0588 -1.4326 0.1404 0.8511
8.3808 92.6691 -2.6402 4.9764 12.1631 0.6849 -0.3551 13.3783 -0.4132 0.0436 1.5742 -0.4352 1.0505 23.1084 -2.4703 6.7814 4.5143 -0.1893 -3.4791 -3.7766 -7.7078 6.6334 -20.1587 -13.5547 -0.2198 0.0254 0.3684 0.4360 -10.2347 -3.4462 -0.8847 -10.2061 4.2464 30.5688 9.8890 -8.2139 -91.8039 -52.1766 -7.0667 -0.4347 0.7709 -136.0172 -8.9353 12.9830 8.0278 -15.0030 10.6363 15.1172 -60.5654 1.2472 2.3295 -16.3314 10.4222 18.3425 87.5430 -39.6870 -17.6250 1.5881 -0.9167 119.1614 -19.7283 -24.6423 -45.9400 16.4759 7.3961 -16.3155 51.8546 -3.2213 -4.8937 -3.3335 -35.6987 22.5998 -0.2024 45.2777 -0.1732 -12.1077 -17.7996 4.0574 1.6799 -0.5225 -2.1440 -13.8836 -47.6932 -22.0426 0.0584 18.4276 0.1569 10.5181 17.1253 -2.5675 -1.4398 0.2257 0.8694
7.9534 92.9546 -2.1068 4.2495 11.7216 0.8484 -0.3242 12.9746 -0.3422 -0.0367 1.3096 -0.3525 1.1340 22.6653 -2.4025 7.2366 5.1185 -0.1280 -3.3579 -3.7442 -7.6773 6.4828 -20.3484 -13.3014 -0.2100 0.0348 0.3675 0.4542 -10.1936 -3.4449 -0.8832 -10.1624 4.2411 30.5130 10.1077 -8.3114 -90.4070 -51.1145 -7.2451 -0.6008 0.8108 -136.1087 -9.4829 14.6069 8.6482 -15.0943 10.6148 15.1971 -60.7593 1.3352 2.3289 -16.1860 10.3657 18.1288 84.9883 -39.9939 -15.9793 1.0768 -0.5785 119.1478 -13.5785 -23.7818 -52.8263 16.3776 7.3696 -16.3025 51.9890 -3.1819 -4.8638 -1.6062 -34.9325 21.4054 -0.1979 44.4833 -0.2081 -12.5966 -17.6269 4.0533 1.6703 -0.4552 -2.1726 -13.3589 -46.1783 -22.1235 0.1127 18.3692 0.2366 10.4772 16.4664 -3.0341 -1.4418 0.2014 0.8815
7.3629 93.2176 -1.5677 3.5274 11.4601 1.3133 -0.2452 12.6468 -0.2698 -0.1028 1.0538 -0.2640 1.4081 22.1230 -2.2784 7.7892 5.7307 -0.0977 -3.2230 -3.7208 -7.6914 6.4146 -20.4545 -13.0559 -0.1991 0.0395 0.3618 0.4733 -10.1775 -3.4539 -0.8788 -10.1471 4.2349 30.8144 10.1891 -8.2773 -88.2598 -50.1913 -8.0180 -0.7693 0.8197 -136.2066 -10.3003 16.5831 9.1544 -15.2200 10.5507 15.2809 -60.9968 1.4324 2.2687 -15.8893 10.3549 17.8959 83.5430 -39.9977 -15.6347 0.6633 -0.2783 119.4179 -8.7212 -22.2500 -58.3927 16.2396 7.3120 -16.2717 51.9354 -3.1722 -4.8543 0.0827 -34.4405 20.4193 -0.2224 43.7397 -0.2935 -13.1193 -17.3962 3.7288 1.6591 -0.4726 -2.1866 -12.7431 -44.9439 -22.3251 0.1538 18.6982 0.3012 10.4911 15.5915 -3.5879 -1.4404 0.1587 0.9054
6.5696 93.4179 -1.0372 2.8674 11.3788 2.1590 -0.1233 12.4462 -0.1797 -0.1189 0.8546 -0.2303 1.8258 21.4374 -2.0399 8.4702 6.1292 -0.1661 -3.1528 -3.6836 -7.6889 6.4456 -20.6338 -13.0275 -0.1912 0.0413 0.3604 0.4846 -10.1670 -3.4560 -0.8729 -10.1382 4.2318 31.4884 10.0385 -8.1618 -85.9772 -49.3728 -8.7520 -0.9795 0.8275 -136.3920 -10.9706 18.7785 9.2624 -15.2327 10.4993 15.3926 -61.1038 1.5150 2.2370 -15.4562 10.2542 17.7926 84.2856 -39.6388 -17.7460 0.4290 -0.0993 120.3807 -6.8373 -20.9892 -61.4606 16.1867 7.2263 -16.2780 51.9740 -3.1874 -4.9313 1.6788 -34.2979 19.7171 -0.2830 43.1190 -0.4159 -13.6440 -17.0921 2.9718 1.6540 -0.5926 -2.1812 -12.1494 -44.1753 -22.5171 0.1945 19.7733 0.3952 10.4827 14.4136 -4.4079 -1.4425 0.1227 0.9425
5.4990 93.4767 -0.5113 2.2916 11.4892 3.4467 0.0383 12.3647 -0.1180 -0.0842 0.7439 -0.2485 2.4068 20.6843 -1.6610 9.2284 5.9925 -0.2919 -3.1362 -3.6373 -7.8029 6.5580 -20.8750 -13.2801 -0.1781 0.0453 0.3505 0.4934 -10.1918 -3.4745 -0.8532 -10.1618 4.2246 32.3166 9.5563 -8.0167 -83.6041 -48.6390 -9.3442 -1.1690 0.7819 -136.6495 -11.2742 20.7658 8.8527 -15.1943 10.5552 15.5704 -61.1355 1.5901 2.2360 -14.5931 10.0597 17.9628 87.2038 -39.1314 -22.5892 0.2599 -0.0892 122.2073 -9.0338 -20.4363 -61.6651 16.2631 7.2185 -16.3923 52.3002 -3.1798 -5.0721 3.2160 -34.7124 19.1804 -0.3554 42.8886 -0.5522 -14.0731 -16.8093 1.7209 1.6532 -0.8484 -2.1683 -11.5538 -44.1497 -22.8072 0.2531 22.0594 0.5067 10.3935 12.7919 -5.3155 -1.4493 0.1273 0.9614
4.1650 93.3235 0.0089 1.8245 11.7466 5.1470 0.2215 12.3243 -0.0812 -0.0253 0.7342 -0.2828 3.1632 19.9883 -1.1971 9.9913 5.0437 -0.3905 -3.1860 -3.6114 -8.2079 6.7620 -21.0861 -13.8999 -0.1504 0.0515 0.3248 0.5140 -10.2426 -3.5075 -0.8172 -10.2041 4.1965 32.9296 8.7506 -7.8431 -81.1336 -47.8658 -9.8821 -1.3885 0.6164 -136.9309 -11.2793 22.3497 8.0482 -15.2622 10.7175 15.7194 -61.1725 1.6621 2.1880 -12.8986 9.8701 18.6521 91.8367 -38.7200 -29.9937 0.1897 -0.2621 124.6008 -16.3090 -20.8837 -57.4227 16.2192 7.4039 -16.4804 52.7498 -3.1311 -5.2427 4.7824 -35.7356 18.5204 -0.4123 43.1792 -0.6443 -14.4621 -16.6774 0.1865 1.6618 -1.1325 -2.1432 -10.8908 -44.9377 -23.4331 0.3326 25.6789 0.6358 10.3048 10.7127 -6.1065 -1.4615 0.1310 0.9592
2.5964 92.8565 0.5571 1.4535 12.0642 7.2053 0.4325 12.3633 -0.0515 0.0597 0.7922 -0.3160 4.0661 19.4068 -0.7325 10.7024 3.3574 -0.4788 -3.2948 -3.6346 -8.8856 6.9637 -21.3124 -14.7806 -0.1188 0.0553 0.2966 0.5376 -10.3078 -3.5407 -0.7756 -10.2520 4.1603 33.2949 7.8079 -7.5474 -78.6643 -47.0919 -10.2882 -1.6847 0.3954 -137.3285 -11.3065 23.5231 6.9282 -15.4456 10.8657 15.7493 -61.1953 1.7037 2.0799 -10.5796 9.6382 19.8176 97.5234 -38.3771 -39.0188 -0.0457 -0.5841 126.8660 -27.1741 -20.7351 -47.9993 15.8997 7.6200 -16.3760 52.4863 -3.1361 -5.3478 6.5355 -37.3100 17.3946 -0.4644 44.1594 -0.7197 -14.9274 -16.8904 -1.3823 1.6745 -1.3548 -2.1106 -10.1225 -46.4205 -24.4774 0.4267 30.5145 0.7634 10.4513 8.0543 -6.6579 -1.4671 0.1810 0.9636
0.8414 92.0404 1.1599 1.1626 12.3488 9.2671 0.6368 12.4537 -0.0531 0.1134 0.9278 -0.2870 4.9834 18.9355 -0.3191 11.4053 1.2778 -0.6259 -3.4481 -3.6964 -9.6887 7.1028 -21.5368 -15.7140 -0.0889 0.0613 0.2620 0.5624 -10.3456 -3.5762 -0.7391 -10.2740 4.1157 33.5653 6.9302 -7.1495 -76.5338 -46.4772 -10.2835 -1.9855 0.2525 -137.7554 -11.5631 23.8803 5.5714 -15.6594 10.9201 15.7326 -61.0142 1.6616 2.0775 -8.5338 9.1487 21.0861 103.2126 -37.7447 -48.0360 -0.6082 -0.7741 128.5002 -35.7431 -18.7558 -38.1520 15.4692 7.5809 -16.1714 51.3200 -3.3515 -5.3768 8.6013 -39.2121 15.6153 -0.5353 45.7649 -0.8219 -15.6293 -17.4312 -2.6352 1.6855 -1.4290 -2.0606 -9.2450 -48.2903 -25.7770 0.5583 36.0877 0.9138 10.7158 4.8350 -7.0524 -1.4681 0.3947 0.9798
-1.0493 90.9278 1.7262 0.9593 12.5318 11.1083 0.8177 12.5620 -0.0211 0.1522 1.0944 -0.2915 5.7368 18.6635 0.0382 12.0867 -0.8291 -0.7731 -3.6766 -3.7842 -10.4014 7.1886 -21.6989 -16.6355 -0.0675 0.0644 0.2313 0.5855 -10.3622 -3.6034 -0.7185 -10.2824 4.0734 33.7339 6.2785 -6.6617 -74.8408 -46.2019 -9.8692 -2.0954 0.1698 -138.0946 -11.9351 23.4577 4.2219 -15.8634 10.8520 15.6889 -60.7920 1.5830 2.1612 -7.3412 8.4852 22.0868 108.0445 -36.6794 -55.6477 -1.2426 -0.8470 129.6322 -40.2294 -16.8548 -31.4016 15.1117 7.3765 -15.8997 50.0670 -3.5835 -5.2628 10.9862 -41.2064 13.2751 -0.6538 47.9068 -1.0055 -16.5318 -18.1756 -3.4530 1.6955 -1.3975 -2.0120 -8.3451 -50.2515 -26.9249 0.7092 41.8759 1.0514 10.8740 1.1815 -7.5588 -1.4694 0.7714 0.9944
-2.8694 89.6378 2.2550 0.8405 12.5318 12.3303 0.9541 12.6711 0.0478 0.1902 1.2605 -0.3388 6.1681 18.6151 0.2793 12.5873 -2.4374 -0.8573 -3.8675 -3.8499 -10.8519 7.1623 -21.7820 -17.2967 -0.0585 0.0620 0.2150 0.5913 -10.3645 -3.6095 -0.7057 -10.2843 4.0435 33.6953 5.9461 -6.2315 -73.9942 -46.2828 -8.7978 -2.0253 0.0066 -138.0729 -12.2108 22.8330 3.1433 -16.0130 10.7233 15.6592 -60.5589 1.5188 2.2189 -6.9704 8.0229 22.6454 111.1826 -35.6969 -60.2725 -1.7416 -0.8775 130.2792 -42.4702 -16.4654 -27.3825 14.8746 7.2253 -15.6405 49.2729 -3.6804 -5.1043 13.4625 -42.9239 10.9060 -0.8130 50.3201 -1.2542 -17.5727 -19.0137 -3.8568 1.7004 -1.3211 -1.9703 -7.5772 -52.1246 -27.6161 0.8602 47.3833 1.1806 10.8821 -2.4710 -8.0220 -1.4716 1.2564 1.0104
-4.4872 88.2628 2.6868 0.8173 12.2719 12.9562 1.0471 12.7831 0.0796 0.1939 1.4292 -0.3540 6.3632 18.7557 0.4099 12.8805 -3.3992 -0.9523 -3.9997 -3.8855 -11.0069 7.0108 -21.7014 -17.6408 -0.0639 0.0546 0.2287 0.5859 -10.3826 -3.5925 -0.7112 -10.3051 4.0558 33.5503 5.8672 -5.9629 -74.1462 -46.6706 -7.0618 -1.9949 -0.1890 -137.5332 -12.3735 22.4171 2.4341 -16.1601 10.5546 15.6063 -60.4632 1.4422 2.2155 -7.0170 7.8976 22.8446 112.9426 -35.0649 -62.2616 -2.0135 -0.8453 130.4253 -44.1582 -17.6117 -24.1908 14.8000 7.1176 -15.4402 48.8325 -3.7102 -4.9985 15.8878 -44.1633 8.7118 -0.9709 52.8610 -1.4964 -18.6536 -19.8682 -4.0724 1.7043 -1.3005 -1.9468 -7.0279 -53.7733 -27.9747 1.0294 52.4283 1.3401 10.8005 -5.8722 -8.2045 -1.4719 1.7037 1.0217
-5.8417 86.8531 3.0028 0.8426 11.7721 13.0749 1.1418 12.8201 0.1194 0.2210 1.5904 -0.3352 6.4044 19.0801 0.3934 12.9631 -3.8786 -1.1435 -4.0582 -3.8779 -11.0383 6.6507 -21.4616 -17.5713 -0.0574 0.0402 0.2158 0.5869 -10.3958 -3.6040 -0.7009 -10.3192 4.0425 33.2599 5.8826 -5.7742 -74.8867 -47.2455 -5.2716 -1.9974 -0.2505 -136.6114 -12.4922 22.2351 2.0247 -16.1513 10.4499 15.4796 -60.4292 1.3937 2.0602 -7.2785 7.9966 22.8068 113.7203 -34.6839 -62.4930 -1.8931 -0.7880 130.2234 -45.8658 -20.2992 -21.3470 14.8734 7.0001 -15.3533 48.4049 -3.7218 -5.0309 18.2532 -44.9463 6.6662 -1.1011 55.5796 -1.6786 -19.6937 -20.8998 -4.1123 1.7281 -1.1912 -1.9462 -6.6562 -55.2094 -28.2728 1.0895 56.9871 1.3925 10.7540 -8.8441 -7.9186 -1.4739 1.8874 1.0864
-6.9181 85.5298 3.2824 1.0083 11.0491 12.6592 1.0919 12.8967 0.1308 0.1830 1.6611 -0.4461 6.3162 19.3614 0.4273 13.0187 -3.8639 -0.9873 -4.2290 -3.9007 -10.9542 6.2135 -20.8798 -17.5407 -0.0855 0.0487 0.2793 0.5689 -10.4215 -3.5432 -0.7392 -10.3461 4.1183 33.1891 5.9854 -5.7141 -76.1357 -47.4360 -3.5646 -1.8898 -0.3750 -135.5847 -12.7248 22.8140 1.9891 -16.4016 10.3681 15.4974 -60.6536 1.4102 2.0128 -7.4438 8.1732 22.7143 113.5415 -34.6020 -61.0416 -1.9367 -0.8103 129.7217 -47.6757 -23.1542 -18.0470 15.0447 7.0822 -15.2983 48.6476 -3.6037 -4.9317 20.0688 -44.9038 5.1579 -1.1986 57.7770 -1.8022 -20.5844 -22.0163 -4.0495 1.7037 -1.2762 -1.9511 -6.7764 -56.3262 -28.1917 1.3066 60.9382 1.5857 10.5375 -11.5844 -7.1714 -1.4685 2.3281 1.0243
-7.7263 84.2587 3.5793 1.1798 10.2452 11.9008 1.0311 12.8819 0.1100 0.1363 1.6626 -0.4868 6.1772 19.6801 0.2858 13.0411 -3.7001 -0.9500 -4.3572 -3.9152 -10.8872 5.5709 -20.2386 -17.0938 -0.0888 0.0450 0.2706 0.5748 -10.4370 -3.5503 -0.7524 -10.3611 4.1099 33.0569 5.9345 -5.6586 -77.4084 -47.4138 -2.3529 -1.7886 -0.4516 -134.8601 -12.7839 22.9805 1.8887 -16.5583 10.3621 15.4906 -60.8116 1.4569 1.9588 -7.4476 8.4583 22.5535 112.9803 -34.5748 -59.0085 -1.6808 -0.8453 129.2587 -49.8883 -26.4299 -14.4272 15.2013 7.1298 -15.3332 48.7548 -3.5549 -4.9007 21.6360 -44.5738 4.0927 -1.2666 60.0034 -1.8867 -21.5454 -23.4205 -3.9105 1.6893 -1.1641 -1.9774 -6.9146 -57.3660 -28.4181 1.3487 64.5088 1.5878 10.1924 -13.8403 -5.7504 -1.4629 2.4518 0.9868
-8.2496 83.1904 3.8349 1.4026 9.3961 10.8793 0.9249 12.8147 0.0199 0.0552 1.6026 -0.4923 5.9751 19.8988 0.0928 13.0289 -3.4659 -0.8900 -4.5081 -3.9256 -10.8454 4.9371 -19.4877 -16.5991 -0.0828 0.0432 0.2433 0.5860 -10.4399 -3.5784 -0.7513 -10.3567 4.0804 32.7756 6.0175 -5.6977 -78.5741 -47.1470 -1.4889 -1.7535 -0.4969 -134.5940 -12.8292 22.8911 1.5424 -16.6462 10.3555 15.4783 -60.9707 1.4567 1.9487 -7.2729 8.7620 22.4039 112.2713 -34.3902 -56.8940 -1.4133 -0.7993 128.9185 -51.9173 -28.8086 -11.2231 15.2868 7.1805 -15.3801 48.8326 -3.4945 -4.8704 22.6576 -43.8660 3.7799 -1.3462 61.7527 -1.9768 -22.3002 -24.8044 -4.0195 1.6826 -1.0043 -1.9954 -7.1660 -58.1852 -28.7956 1.4287 67.4383 1.6498 9.6691 -15.6203 -3.9439 -1.4554 2.5603 0.9444
-8.5497 82.4155 4.0566 1.6596 8.6162 9.6920 0.7939 12.6970 -0.1060 -0.0155 1.5081 -0.4919 5.6362 20.0397 -0.1270 12.9886 -3.2525 -0.8322 -4.6449 -3.9165 -10.7891 4.3578 -18.7698 -16.0799 -0.0723 0.0368 0.2049 0.5955 -10.4305 -3.6114 -0.7387 -10.3423 4.0316 32.3156 6.2063 -5.8171 -79.4562 -46.6186 -0.9502 -1.8025 -0.4902 -134.7013 -13.0208 22.8740 1.0129 -16.7212 10.3698 15.4806 -61.0202 1.4174 1.9683 -6.9379 9.0428 22.2227 111.6359 -34.0717 -55.0911 -1.1205 -0.7630 128.6107 -53.3220 -30.1791 -8.9172 15.2767 7.1600 -15.4113 48.7132 -3.4414 -4.8809 23.1646 -42.9012 4.0330 -1.4045 62.9622 -2.0436 -22.8445 -25.9023 -4.0792 1.6810 -0.9872 -2.0086 -7.5466 -58.7324 -29.0436 1.4670 69.5541 1.6877 9.0748 -16.8045 -2.0999 -1.4506 2.6566 0.8893
-8.7440 82.0129 4.2149 1.8635 7.9384 8.5129 0.6777 12.5264 -0.2692 -0.0516 1.4097 -0.5011 5.2106 20.1410 -0.3753 12.8037 -2.9387 -0.7839 -4.6637 -3.8698 -10.6450 3.9228 -18.0543 -15.5520 -0.0620 0.0139 0.1671 0.6001 -10.4347 -3.6364 -0.7217 -10.3582 3.9760 31.6348 6.4617 -5.9244 -79.6668 -45.8297 -1.0682 -1.7905 -0.4397 -134.8840 -13.5051 23.1294 0.5993 -16.7056 10.4648 15.5335 -61.0094 1.3858 1.9899 -6.5215 9.3247 21.9151 111.1276 -33.7296 -53.5800 -0.8049 -0.8349 128.3011 -53.6629 -30.4063 -8.0427 15.2616 7.1442 -15.4967 48.4910 -3.4562 -4.9808 23.2954 -41.7468 4.5880 -1.4847 63.4836 -2.1206 -23.0772 -26.5676 -4.1540 1.6876 -1.0319 -1.9967 -7.9059 -58.8702 -29.2014 1.4548 70.7163 1.6611 8.5758 -17.4367 -0.4528 -1.4454 2.6292 0.8347
-8.8017 81.9082 4.3180 1.9347 7.2761 7.4284 0.5839 12.2888 -0.4447 -0.0593 1.3522 -0.5934 4.8261 20.2071 -0.5870 12.4487 -2.3649 -0.8835 -4.4785 -3.8102 -10.2377 3.5179 -17.2152 -14.8255 -0.0424 -0.0240 0.1106 0.6144 -10.4541 -3.6842 -0.6945 -10.3976 3.9012 30.8790 6.7445 -6.0617 -79.7347 -44.7700 -1.1893 -1.8848 -0.4343 -134.9507 -14.4506 23.5975 0.4303 -16.7084 10.5407 15.5230 -61.0639 1.4382 2.0376 -6.1699 9.4871 21.4859 110.3122 -33.4810 -51.9067 -0.6911 -0.9627 128.1680 -52.9608 -29.7151 -8.6748 15.2431 7.1012 -15.5083 48.1734 -3.6170 -5.0986 23.3395 -40.3375 5.2077 -1.6588 63.3415 -2.3064 -23.0836 -26.9351 -4.3043 1.7023 -1.0255 -1.9553 -8.2496 -58.5198 -29.2747 1.3927 71.0214 1.5446 8.2170 -17.7371 0.9189 -1.4344 2.3450 0.8020
